{
  "updated": "2026-07-09T01:52:19Z",
  "tafs": {
    "SIN": {
      "icao": "WSSS",
      "issued": "2026-07-09T01:45:00.000Z",
      "raw": "TAF AMD WSSS 090145Z 0901/1006 16008KT 9999 FEW015 SCT020 TEMPO 0905/0908 3000 TSRA FEW012CB BKN015",
      "groups": [
        {
          "text": "TAF AMD WSSS 090145Z 0901/1006 16008KT 9999 FEW015 SCT020",
          "offset_h": 0,
          "wdir": 160,
          "wspd": 8
        },
        {
          "text": "TEMPO 0905/0908 3000 TSRA FEW012CB BKN015",
          "offset_h": 4,
          "wdir": null,
          "wspd": null
        }
      ],
      "metar_raw": "METAR WSSS 090130Z 12008KT 090V150 9999 FEW018 FEW020TCU BKN300 30/25 Q1012 NOSIG",
      "metar_wdir": 120,
      "metar_wspd": 8,
      "metar_oat": 30,
      "metar_qnh": 1012,
      "hourly_oat": [
        29,
        29,
        27,
        28,
        29,
        29,
        29,
        30,
        30,
        28,
        26,
        27,
        27,
        27,
        27,
        27,
        27,
        27,
        27,
        27,
        27,
        27,
        27,
        28,
        28
      ]
    },
    "HNL": {
      "icao": "PHNL",
      "issued": "2026-07-09T01:35:00.000Z",
      "raw": "TAF PHNL 090135Z 0900/1006 06018G26KT P6SM FEW025 FEW040 FM090900 06014G21KT P6SM VCSH FEW025 BKN040 FM092000 06018G26KT P6SM FEW025 SCT040 FM100500 06013KT P6SM VCSH SCT025 BKN040",
      "groups": [
        {
          "text": "TAF PHNL 090135Z 0900/1006 06018G26KT P6SM FEW025 FEW040",
          "offset_h": -1,
          "wdir": 60,
          "wspd": 18
        },
        {
          "text": "FM090900 06014G21KT P6SM VCSH FEW025 BKN040",
          "offset_h": 8,
          "wdir": 60,
          "wspd": 14
        },
        {
          "text": "FM092000 06018G26KT P6SM FEW025 SCT040",
          "offset_h": 19,
          "wdir": 60,
          "wspd": 18
        },
        {
          "text": "FM100500 06013KT P6SM VCSH SCT025 BKN040",
          "offset_h": 28,
          "wdir": 60,
          "wspd": 13
        }
      ],
      "metar_raw": "METAR PHNL 090053Z 07014G29KT 10SM FEW025 FEW035 SCT060 30/19 A3003 RMK AO2 PK WND 08029/0044 SLP167 T03000189 $",
      "metar_wdir": 70,
      "metar_wspd": 14,
      "metar_oat": 30,
      "metar_qnh": 1017,
      "hourly_oat": [
        28,
        27,
        27,
        26,
        25,
        24,
        24,
        24,
        24,
        24,
        23,
        23,
        23,
        23,
        23,
        23,
        24,
        26,
        27,
        28,
        29,
        29,
        29,
        29,
        28
      ]
    },
    "GMP": {
      "icao": "RKSS",
      "issued": "2026-07-09T01:25:00.000Z",
      "raw": "TAF AMD RKSS 090125Z 0901/1006 17007KT 6000 -RA FEW010 BKN025 OVC080 TX28/0906Z TN24/0920Z TX30/1006Z TEMPO 0902/0906 20008KT 4000 -TSRA SCT008CB BKN020 OVC070 BECMG 0909/0911 NSW BECMG 0913/0915 20008KT -RA TEMPO 0917/0920 4000 RA SCT008CB BKN020 OVC070 BECMG 1003/1005 24008KT NSW",
      "groups": [
        {
          "text": "TAF AMD RKSS 090125Z 0901/1006 17007KT 6000 -RA FEW010 BKN025 OVC080 TX28/0906Z TN24/0920Z TX30/1006Z",
          "offset_h": 0,
          "wdir": 170,
          "wspd": 7
        },
        {
          "text": "TEMPO 0902/0906 20008KT 4000 -TSRA SCT008CB BKN020 OVC070",
          "offset_h": 1,
          "wdir": 200,
          "wspd": 8
        },
        {
          "text": "BECMG 0909/0911 NSW",
          "offset_h": 8,
          "wdir": null,
          "wspd": null
        },
        {
          "text": "BECMG 0913/0915 20008KT -RA",
          "offset_h": 12,
          "wdir": 200,
          "wspd": 8
        },
        {
          "text": "TEMPO 0917/0920 4000 RA SCT008CB BKN020 OVC070",
          "offset_h": 16,
          "wdir": null,
          "wspd": null
        },
        {
          "text": "BECMG 1003/1005 24008KT NSW",
          "offset_h": 26,
          "wdir": 240,
          "wspd": 8
        }
      ],
      "metar_raw": "SPECI RKSS 090151Z 16012KT 120V200 4000 1400NW +TSRA SCT015CB SCT030 OVC080 24/24 Q1009 NOSIG RMK TS W MOV SE OCNL LTGIC",
      "metar_wdir": 160,
      "metar_wspd": 12,
      "metar_oat": 24,
      "metar_qnh": 1009,
      "hourly_oat": [
        25,
        25,
        25,
        25,
        25,
        26,
        26,
        26,
        26,
        25,
        24,
        24,
        24,
        24,
        24,
        24,
        24,
        24,
        24,
        24,
        24,
        24,
        24,
        25,
        25
      ]
    },
    "DLC": {
      "icao": "ZYTL",
      "issued": "2026-07-09T00:37:00.000Z",
      "raw": "TAF AMD ZYTL 090037Z 0900/0924 15004MPS 5000 BR SCT007 BKN030 TX28/0906Z TN22/0921Z TEMPO 0901/0906 2000 SHRA BR SCT005 BKN010 FEW030CB BECMG 0918/0919 2000 TSRA BR SCT005 BKN010 SCT030CB BECMG 0920/0921 5000 BR SCT020",
      "groups": [
        {
          "text": "TAF AMD ZYTL 090037Z 0900/0924 15004MPS 5000 BR SCT007 BKN030 TX28/0906Z TN22/0921Z",
          "offset_h": -1,
          "wdir": null,
          "wspd": null
        },
        {
          "text": "TEMPO 0901/0906 2000 SHRA BR SCT005 BKN010 FEW030CB",
          "offset_h": 0,
          "wdir": null,
          "wspd": null
        },
        {
          "text": "BECMG 0918/0919 2000 TSRA BR SCT005 BKN010 SCT030CB",
          "offset_h": 17,
          "wdir": null,
          "wspd": null
        },
        {
          "text": "BECMG 0920/0921 5000 BR SCT020",
          "offset_h": 19,
          "wdir": null,
          "wspd": null
        }
      ],
      "metar_raw": "METAR ZYTL 090130Z 13005MPS 5000 BR SCT006 OVC033 25/24 Q1003 NOSIG",
      "metar_wdir": null,
      "metar_wspd": null,
      "metar_oat": 25,
      "metar_qnh": 1003,
      "hourly_oat": [
        25,
        27,
        27,
        29,
        29,
        29,
        30,
        30,
        29,
        28,
        28,
        27,
        26,
        26,
        25,
        25,
        25,
        25,
        25,
        25,
        25,
        26,
        27,
        23,
        22
      ]
    },
    "LAX": {
      "icao": "KLAX",
      "issued": "2026-07-08T23:48:00.000Z",
      "raw": "TAF KLAX 082348Z 0900/1006 25012KT P6SM FEW010 FM090300 25006KT P6SM SKC FM090900 VRB03KT P6SM SKC FM091700 20004KT P6SM SKC FM091800 25010KT P6SM SKC",
      "groups": [
        {
          "text": "TAF KLAX 082348Z 0900/1006 25012KT P6SM FEW010",
          "offset_h": -1,
          "wdir": 250,
          "wspd": 12
        },
        {
          "text": "FM090300 25006KT P6SM SKC",
          "offset_h": 2,
          "wdir": 250,
          "wspd": 6
        },
        {
          "text": "FM090900 VRB03KT P6SM SKC",
          "offset_h": 8,
          "wdir": "VRB",
          "wspd": 3
        },
        {
          "text": "FM091700 20004KT P6SM SKC",
          "offset_h": 16,
          "wdir": 200,
          "wspd": 4
        },
        {
          "text": "FM091800 25010KT P6SM SKC",
          "offset_h": 17,
          "wdir": 250,
          "wspd": 10
        }
      ],
      "metar_raw": "METAR KLAX 090053Z 27013KT 10SM CLR 22/14 A2987 RMK AO2 SLP115 T02220144",
      "metar_wdir": 270,
      "metar_wspd": 13,
      "metar_oat": 22,
      "metar_qnh": 1012,
      "hourly_oat": [
        22,
        20,
        19,
        18,
        17,
        17,
        16,
        16,
        15,
        15,
        15,
        16,
        17,
        17,
        18,
        21,
        25,
        26,
        26,
        25,
        25,
        24,
        24,
        23,
        22
      ]
    },
    "SAN": {
      "icao": "KSAN",
      "issued": "2026-07-08T23:21:00.000Z",
      "raw": "TAF KSAN 082321Z 0900/1006 27011KT P6SM FEW017 FM090200 VRB04KT P6SM FEW011 FM090800 VRB03KT P6SM BKN011 FM091700 21009KT P6SM SCT015 FM100200 VRB04KT P6SM SCT015",
      "groups": [
        {
          "text": "TAF KSAN 082321Z 0900/1006 27011KT P6SM FEW017",
          "offset_h": -1,
          "wdir": 270,
          "wspd": 11
        },
        {
          "text": "FM090200 VRB04KT P6SM FEW011",
          "offset_h": 1,
          "wdir": "VRB",
          "wspd": 4
        },
        {
          "text": "FM090800 VRB03KT P6SM BKN011",
          "offset_h": 7,
          "wdir": "VRB",
          "wspd": 3
        },
        {
          "text": "FM091700 21009KT P6SM SCT015",
          "offset_h": 16,
          "wdir": 210,
          "wspd": 9
        },
        {
          "text": "FM100200 VRB04KT P6SM SCT015",
          "offset_h": 25,
          "wdir": "VRB",
          "wspd": 4
        }
      ],
      "metar_raw": "METAR KSAN 090051Z 30007KT 10SM FEW017 22/16 A2990 RMK AO2 SLP123 T02220161 $",
      "metar_wdir": 300,
      "metar_wspd": 7,
      "metar_oat": 22,
      "metar_qnh": 1013,
      "hourly_oat": [
        20,
        20,
        19,
        18,
        18,
        18,
        18,
        17,
        17,
        17,
        16,
        16,
        16,
        16,
        18,
        19,
        19,
        21,
        21,
        23,
        23,
        23,
        22,
        21,
        20
      ]
    },
    "ITM": {
      "icao": "RJOO",
      "issued": "2026-07-08T23:06:00.000Z",
      "raw": "TAF RJOO 082306Z 0900/1006 22006KT 9999 FEW030 BECMG 0908/0910 26006KT BECMG 0921/1000 21006KT BECMG 1003/1006 23008KT",
      "groups": [
        {
          "text": "TAF RJOO 082306Z 0900/1006 22006KT 9999 FEW030",
          "offset_h": -1,
          "wdir": 220,
          "wspd": 6
        },
        {
          "text": "BECMG 0908/0910 26006KT",
          "offset_h": 7,
          "wdir": 260,
          "wspd": 6
        },
        {
          "text": "BECMG 0921/1000 21006KT",
          "offset_h": 20,
          "wdir": 210,
          "wspd": 6
        },
        {
          "text": "BECMG 1003/1006 23008KT",
          "offset_h": 26,
          "wdir": 230,
          "wspd": 8
        }
      ],
      "metar_raw": "METAR RJOO 090100Z 32003KT 210V010 9999 FEW030 30/20 Q1014",
      "metar_wdir": 320,
      "metar_wspd": 3,
      "metar_oat": 30,
      "metar_qnh": 1014,
      "hourly_oat": [
        28,
        30,
        30,
        30,
        30,
        30,
        30,
        29,
        28,
        26,
        26,
        26,
        25,
        25,
        24,
        24,
        24,
        23,
        23,
        23,
        23,
        24,
        25,
        27,
        29
      ]
    },
    "KIX": {
      "icao": "RJBB",
      "issued": "2026-07-08T23:06:00.000Z",
      "raw": "TAF RJBB 082306Z 0900/1006 35004KT 9999 FEW030 BECMG 0900/0902 24012KT BECMG 0915/0918 03006KT BECMG 1000/1003 26010KT",
      "groups": [
        {
          "text": "TAF RJBB 082306Z 0900/1006 35004KT 9999 FEW030",
          "offset_h": -1,
          "wdir": 350,
          "wspd": 4
        },
        {
          "text": "BECMG 0900/0902 24012KT",
          "offset_h": -1,
          "wdir": 240,
          "wspd": 12
        },
        {
          "text": "BECMG 0915/0918 03006KT",
          "offset_h": 14,
          "wdir": 30,
          "wspd": 6
        },
        {
          "text": "BECMG 1000/1003 26010KT",
          "offset_h": 23,
          "wdir": 260,
          "wspd": 10
        }
      ],
      "metar_raw": "METAR RJBB 090130Z 34005KT 9999 FEW025 27/23 Q1014 BECMG TL0200 29006KT",
      "metar_wdir": 340,
      "metar_wspd": 5,
      "metar_oat": 27,
      "metar_qnh": 1014,
      "hourly_oat": [
        24,
        25,
        25,
        26,
        26,
        26,
        26,
        26,
        26,
        26,
        26,
        26,
        25,
        25,
        25,
        25,
        25,
        25,
        24,
        24,
        24,
        24,
        24,
        24,
        24
      ]
    },
    "HND": {
      "icao": "RJTT",
      "issued": "2026-07-08T23:05:00.000Z",
      "raw": "TAF RJTT 082305Z 0900/1006 19012KT 9999 FEW030",
      "groups": [
        {
          "text": "TAF RJTT 082305Z 0900/1006 19012KT 9999 FEW030",
          "offset_h": -1,
          "wdir": 190,
          "wspd": 12
        }
      ],
      "metar_raw": "METAR RJTT 090130Z 17008KT 9999 FEW020 SCT/// 29/22 Q1015 NOSIG",
      "metar_wdir": 170,
      "metar_wspd": 8,
      "metar_oat": 29,
      "metar_qnh": 1015,
      "hourly_oat": [
        26,
        27,
        28,
        28,
        28,
        28,
        28,
        27,
        26,
        25,
        25,
        24,
        24,
        24,
        24,
        23,
        23,
        23,
        23,
        23,
        24,
        24,
        25,
        26,
        27
      ]
    },
    "NRT": {
      "icao": "RJAA",
      "issued": "2026-07-08T23:05:00.000Z",
      "raw": "TAF RJAA 082305Z 0900/1006 14010KT 9999 FEW020 SCT040 TEMPO 0915/1000 4000 BR FEW001 BKN003",
      "groups": [
        {
          "text": "TAF RJAA 082305Z 0900/1006 14010KT 9999 FEW020 SCT040",
          "offset_h": -1,
          "wdir": 140,
          "wspd": 10
        },
        {
          "text": "TEMPO 0915/1000 4000 BR FEW001 BKN003",
          "offset_h": 14,
          "wdir": null,
          "wspd": null
        }
      ],
      "metar_raw": "METAR RJAA 090130Z 13004KT 060V190 9999 FEW025 BKN030 26/21 Q1015 NOSIG",
      "metar_wdir": 130,
      "metar_wspd": 4,
      "metar_oat": 26,
      "metar_qnh": 1015,
      "hourly_oat": [
        26,
        27,
        28,
        28,
        28,
        28,
        27,
        26,
        25,
        24,
        23,
        23,
        22,
        22,
        22,
        21,
        21,
        21,
        20,
        20,
        22,
        24,
        26,
        27,
        28
      ]
    },
    "OKA": {
      "icao": "ROAH",
      "issued": "2026-07-08T23:05:00.000Z",
      "raw": "TAF ROAH 082305Z 0900/1006 07016KT 9999 FEW015 SCT025 TEMPO 0909/0915 08020G30KT BECMG 0915/0918 10020KT TEMPO 0915/1003 10030G40KT BECMG 1003/1006 10030KT TEMPO 1003/1006 10032G42KT",
      "groups": [
        {
          "text": "TAF ROAH 082305Z 0900/1006 07016KT 9999 FEW015 SCT025",
          "offset_h": -1,
          "wdir": 70,
          "wspd": 16
        },
        {
          "text": "TEMPO 0909/0915 08020G30KT",
          "offset_h": 8,
          "wdir": 80,
          "wspd": 20
        },
        {
          "text": "BECMG 0915/0918 10020KT",
          "offset_h": 14,
          "wdir": 100,
          "wspd": 20
        },
        {
          "text": "TEMPO 0915/1003 10030G40KT",
          "offset_h": 14,
          "wdir": 100,
          "wspd": 30
        },
        {
          "text": "BECMG 1003/1006 10030KT",
          "offset_h": 26,
          "wdir": 100,
          "wspd": 30
        },
        {
          "text": "TEMPO 1003/1006 10032G42KT",
          "offset_h": 26,
          "wdir": 100,
          "wspd": 32
        }
      ],
      "metar_raw": "METAR ROAH 090130Z 07023KT 9999 SCT018 32/26 Q1005",
      "metar_wdir": 70,
      "metar_wspd": 23,
      "metar_oat": 32,
      "metar_qnh": 1005,
      "hourly_oat": [
        32,
        32,
        32,
        32,
        32,
        32,
        32,
        31,
        30,
        29,
        29,
        29,
        29,
        29,
        29,
        29,
        29,
        29,
        29,
        29,
        29,
        29,
        30,
        29,
        29
      ]
    },
    "NGO": {
      "icao": "RJGG",
      "issued": "2026-07-08T23:05:00.000Z",
      "raw": "TAF RJGG 082305Z 0900/1006 16008KT 9999 FEW030 SCT040 BECMG 0918/0921 05004KT BECMG 1000/1003 16010KT",
      "groups": [
        {
          "text": "TAF RJGG 082305Z 0900/1006 16008KT 9999 FEW030 SCT040",
          "offset_h": -1,
          "wdir": 160,
          "wspd": 8
        },
        {
          "text": "BECMG 0918/0921 05004KT",
          "offset_h": 17,
          "wdir": 50,
          "wspd": 4
        },
        {
          "text": "BECMG 1000/1003 16010KT",
          "offset_h": 23,
          "wdir": 160,
          "wspd": 10
        }
      ],
      "metar_raw": "METAR RJGG 090130Z 26004KT 9999 FEW020 25/21 Q1015 BECMG TL0230 22006KT",
      "metar_wdir": 260,
      "metar_wspd": 4,
      "metar_oat": 25,
      "metar_qnh": 1015,
      "hourly_oat": [
        23,
        23,
        24,
        25,
        26,
        26,
        26,
        26,
        25,
        24,
        24,
        24,
        24,
        24,
        23,
        23,
        23,
        23,
        23,
        23,
        23,
        23,
        23,
        23,
        23
      ]
    },
    "FUK": {
      "icao": "RJFF",
      "issued": "2026-07-08T23:05:00.000Z",
      "raw": "TAF RJFF 082305Z 0900/1006 16010KT 9999 FEW025 SCT045 BECMG 0900/0902 31011KT BECMG 0912/0915 14004KT BECMG 1000/1003 32012KT",
      "groups": [
        {
          "text": "TAF RJFF 082305Z 0900/1006 16010KT 9999 FEW025 SCT045",
          "offset_h": -1,
          "wdir": 160,
          "wspd": 10
        },
        {
          "text": "BECMG 0900/0902 31011KT",
          "offset_h": -1,
          "wdir": 310,
          "wspd": 11
        },
        {
          "text": "BECMG 0912/0915 14004KT",
          "offset_h": 11,
          "wdir": 140,
          "wspd": 4
        },
        {
          "text": "BECMG 1000/1003 32012KT",
          "offset_h": 23,
          "wdir": 320,
          "wspd": 12
        }
      ],
      "metar_raw": "METAR RJFF 090130Z 14007KT 100V170 9999 FEW020 SCT040 32/22 Q1011 BECMG 31010KT",
      "metar_wdir": 140,
      "metar_wspd": 7,
      "metar_oat": 32,
      "metar_qnh": 1011,
      "hourly_oat": [
        30,
        30,
        29,
        29,
        29,
        30,
        29,
        29,
        28,
        27,
        27,
        26,
        26,
        26,
        25,
        25,
        25,
        25,
        25,
        25,
        25,
        26,
        27,
        29,
        31
      ]
    },
    "CTS": {
      "icao": "RJCC",
      "issued": "2026-07-08T23:05:00.000Z",
      "raw": "TAF RJCC 082305Z 0900/1006 17010KT 8000 FEW004 BKN012 TEMPO 0900/0903 3000 -SHRA BR FEW001 BKN003 TEMPO 0903/0906 4000 -SHRA BR FEW003 BKN005 TEMPO 0906/0909 2000 -SHRA BR FEW002 BKN004 TEMPO 0909/0921 1500 SHRA BR FEW001 BKN003 TEMPO 0921/1000 2000 -SHRA BR FEW002 BKN004 TEMPO 1000/1006 FEW003 BKN005",
      "groups": [
        {
          "text": "TAF RJCC 082305Z 0900/1006 17010KT 8000 FEW004 BKN012",
          "offset_h": -1,
          "wdir": 170,
          "wspd": 10
        },
        {
          "text": "TEMPO 0900/0903 3000 -SHRA BR FEW001 BKN003",
          "offset_h": -1,
          "wdir": null,
          "wspd": null
        },
        {
          "text": "TEMPO 0903/0906 4000 -SHRA BR FEW003 BKN005",
          "offset_h": 2,
          "wdir": null,
          "wspd": null
        },
        {
          "text": "TEMPO 0906/0909 2000 -SHRA BR FEW002 BKN004",
          "offset_h": 5,
          "wdir": null,
          "wspd": null
        },
        {
          "text": "TEMPO 0909/0921 1500 SHRA BR FEW001 BKN003",
          "offset_h": 8,
          "wdir": null,
          "wspd": null
        },
        {
          "text": "TEMPO 0921/1000 2000 -SHRA BR FEW002 BKN004",
          "offset_h": 20,
          "wdir": null,
          "wspd": null
        },
        {
          "text": "TEMPO 1000/1006 FEW003 BKN005",
          "offset_h": 23,
          "wdir": null,
          "wspd": null
        }
      ],
      "metar_raw": "METAR RJCC 090130Z 16010KT 9999 -SHRA FEW004 BKN007 BKN009 20/19 Q1014",
      "metar_wdir": 160,
      "metar_wspd": 10,
      "metar_oat": 20,
      "metar_qnh": 1014,
      "hourly_oat": [
        20,
        20,
        22,
        21,
        21,
        20,
        19,
        19,
        19,
        18,
        18,
        18,
        18,
        18,
        18,
        18,
        18,
        18,
        18,
        18,
        19,
        20,
        21,
        21,
        22
      ]
    },
    "CGK": {
      "icao": "WIII",
      "issued": "2026-07-08T23:00:00.000Z",
      "raw": "TAF WIII 082300Z 0900/1006 18005KT 5000 HZ FEW020 BECMG 0901/0903 01013KT 8000 NSW",
      "groups": [
        {
          "text": "TAF WIII 082300Z 0900/1006 18005KT 5000 HZ FEW020",
          "offset_h": -1,
          "wdir": 180,
          "wspd": 5
        },
        {
          "text": "BECMG 0901/0903 01013KT 8000 NSW",
          "offset_h": 0,
          "wdir": 10,
          "wspd": 13
        }
      ],
      "metar_raw": "METAR WIII 090130Z 15003KT 100V200 4000 HZ FEW020 28/22 Q1014 NOSIG",
      "metar_wdir": 150,
      "metar_wspd": 3,
      "metar_oat": 28,
      "metar_qnh": 1014,
      "hourly_oat": [
        27,
        29,
        31,
        32,
        33,
        34,
        33,
        32,
        31,
        29,
        29,
        28,
        28,
        27,
        27,
        27,
        26,
        26,
        25,
        24,
        23,
        22,
        22,
        23,
        26
      ]
    },
    "SGN": {
      "icao": "VVTS",
      "issued": "2026-07-08T23:00:00.000Z",
      "raw": "TAF VVTS 082300Z 0900/1006 23012KT 9999 SCT017 TEMPO 0906/0910 23015G30KT 5000 TSRA SCT015 FEW017CB",
      "groups": [
        {
          "text": "TAF VVTS 082300Z 0900/1006 23012KT 9999 SCT017",
          "offset_h": -1,
          "wdir": 230,
          "wspd": 12
        },
        {
          "text": "TEMPO 0906/0910 23015G30KT 5000 TSRA SCT015 FEW017CB",
          "offset_h": 5,
          "wdir": 230,
          "wspd": 15
        }
      ],
      "metar_raw": "METAR VVTS 090130Z 23009KT 190V250 9999 BKN016 29/27 Q1010 NOSIG",
      "metar_wdir": 230,
      "metar_wspd": 9,
      "metar_oat": 29,
      "metar_qnh": 1010,
      "hourly_oat": [
        28,
        29,
        30,
        31,
        32,
        28,
        30,
        31,
        29,
        28,
        27,
        27,
        27,
        27,
        27,
        27,
        26,
        26,
        26,
        26,
        26,
        26,
        26,
        27,
        29
      ]
    },
    "HAN": {
      "icao": "VVNB",
      "issued": "2026-07-08T23:00:00.000Z",
      "raw": "TAF VVNB 082300Z 0900/0924 09005KT 3500 BR SCT010 BKN020 TEMPO 0900/0903 2500 RA BR SCT006 FEW025TCU BECMG 0904/0905 6000 NSW SCT015 TEMPO 0910/0915 3000 TSRA BKN010 FEW027CB",
      "groups": [
        {
          "text": "TAF VVNB 082300Z 0900/0924 09005KT 3500 BR SCT010 BKN020",
          "offset_h": -1,
          "wdir": 90,
          "wspd": 5
        },
        {
          "text": "TEMPO 0900/0903 2500 RA BR SCT006 FEW025TCU",
          "offset_h": -1,
          "wdir": null,
          "wspd": null
        },
        {
          "text": "BECMG 0904/0905 6000 NSW SCT015",
          "offset_h": 3,
          "wdir": null,
          "wspd": null
        },
        {
          "text": "TEMPO 0910/0915 3000 TSRA BKN010 FEW027CB",
          "offset_h": 9,
          "wdir": null,
          "wspd": null
        }
      ],
      "metar_raw": "METAR VVNB 090130Z 13006KT 9999 FEW006 SCT047 BKN056 27/26 Q1003 NOSIG",
      "metar_wdir": 130,
      "metar_wspd": 6,
      "metar_oat": 27,
      "metar_qnh": 1003,
      "hourly_oat": [
        26,
        26,
        26,
        26,
        27,
        28,
        29,
        29,
        29,
        29,
        28,
        27,
        26,
        26,
        26,
        26,
        26,
        25,
        25,
        25,
        25,
        25,
        25,
        26,
        27
      ]
    },
    "KUL": {
      "icao": "WMKK",
      "issued": "2026-07-08T23:00:00.000Z",
      "raw": "TAF WMKK 082300Z 0900/1006 VRB03KT 9999 FEW018",
      "groups": [
        {
          "text": "TAF WMKK 082300Z 0900/1006 VRB03KT 9999 FEW018",
          "offset_h": -1,
          "wdir": "VRB",
          "wspd": 3
        }
      ],
      "metar_raw": "METAR WMKK 090130Z VRB03KT 9000 FEW018 30/25 Q1011 NOSIG",
      "metar_wdir": "VRB",
      "metar_wspd": 3,
      "metar_oat": 30,
      "metar_qnh": 1011,
      "hourly_oat": [
        27,
        29,
        30,
        30,
        30,
        30,
        30,
        30,
        30,
        30,
        28,
        28,
        27,
        27,
        26,
        26,
        25,
        25,
        25,
        25,
        25,
        25,
        25,
        26,
        27
      ]
    },
    "BKK": {
      "icao": "VTBS",
      "issued": "2026-07-08T23:00:00.000Z",
      "raw": "TAF VTBS 082300Z 0900/1006 26005KT 9999 FEW020 BECMG 0904/0906 20008KT TEMPO 0909/0913 VRB15G25KT 4000 TSRA FEW018CB SCT030 BKN100 BECMG 0918/0920 26005KT",
      "groups": [
        {
          "text": "TAF VTBS 082300Z 0900/1006 26005KT 9999 FEW020",
          "offset_h": -1,
          "wdir": 260,
          "wspd": 5
        },
        {
          "text": "BECMG 0904/0906 20008KT",
          "offset_h": 3,
          "wdir": 200,
          "wspd": 8
        },
        {
          "text": "TEMPO 0909/0913 VRB15G25KT 4000 TSRA FEW018CB SCT030 BKN100",
          "offset_h": 8,
          "wdir": "VRB",
          "wspd": 15
        },
        {
          "text": "BECMG 0918/0920 26005KT",
          "offset_h": 17,
          "wdir": 260,
          "wspd": 5
        }
      ],
      "metar_raw": "METAR VTBS 090130Z 22005KT 200V260 9999 FEW020 SCT030 30/24 Q1010 NOSIG",
      "metar_wdir": 220,
      "metar_wspd": 5,
      "metar_oat": 30,
      "metar_qnh": 1010,
      "hourly_oat": [
        30,
        31,
        31,
        32,
        32,
        32,
        31,
        32,
        32,
        31,
        31,
        30,
        30,
        29,
        29,
        28,
        28,
        28,
        28,
        27,
        27,
        27,
        26,
        28,
        30
      ]
    },
    "TSA": {
      "icao": "RCSS",
      "issued": "2026-07-08T23:00:00.000Z",
      "raw": "TAF RCSS 082300Z 0900/0924 30005KT 9999 FEW012 BECMG 0906/0908 09008KT",
      "groups": [
        {
          "text": "TAF RCSS 082300Z 0900/0924 30005KT 9999 FEW012",
          "offset_h": -1,
          "wdir": 300,
          "wspd": 5
        },
        {
          "text": "BECMG 0906/0908 09008KT",
          "offset_h": 5,
          "wdir": 90,
          "wspd": 8
        }
      ],
      "metar_raw": "METAR RCSS 090130Z VRB03KT 9999 FEW020 SCT040 33/26 Q1007 NOSIG RMK A2975",
      "metar_wdir": "VRB",
      "metar_wspd": 3,
      "metar_oat": 33,
      "metar_qnh": 1007,
      "hourly_oat": [
        30,
        32,
        33,
        33,
        34,
        33,
        33,
        32,
        30,
        28,
        27,
        27,
        27,
        27,
        27,
        26,
        26,
        26,
        26,
        26,
        25,
        25,
        25,
        27,
        28
      ]
    },
    "TPE": {
      "icao": "RCTP",
      "issued": "2026-07-08T23:00:00.000Z",
      "raw": "TAF RCTP 082300Z 0900/1006 33008KT 9999 FEW012 TEMPO 0900/0903 22005KT BECMG 0906/0908 04012KT FEW012 BKN032 TEMPO 0918/0924 12008KT TEMPO 1000/1006 03018KT 4000 SHRA SCT006 BKN018 BKN040",
      "groups": [
        {
          "text": "TAF RCTP 082300Z 0900/1006 33008KT 9999 FEW012",
          "offset_h": -1,
          "wdir": 330,
          "wspd": 8
        },
        {
          "text": "TEMPO 0900/0903 22005KT",
          "offset_h": -1,
          "wdir": 220,
          "wspd": 5
        },
        {
          "text": "BECMG 0906/0908 04012KT FEW012 BKN032",
          "offset_h": 5,
          "wdir": 40,
          "wspd": 12
        },
        {
          "text": "TEMPO 0918/0924 12008KT",
          "offset_h": 17,
          "wdir": 120,
          "wspd": 8
        },
        {
          "text": "TEMPO 1000/1006 03018KT 4000 SHRA SCT006 BKN018 BKN040",
          "offset_h": 23,
          "wdir": 30,
          "wspd": 18
        }
      ],
      "metar_raw": "METAR RCTP 090130Z 31007KT 280V340 9999 FEW015 SCT028 33/25 Q1007 NOSIG RMK A2975",
      "metar_wdir": 310,
      "metar_wspd": 7,
      "metar_oat": 33,
      "metar_qnh": 1007,
      "hourly_oat": [
        30,
        30,
        30,
        30,
        30,
        30,
        30,
        30,
        30,
        29,
        28,
        27,
        27,
        27,
        27,
        27,
        26,
        26,
        26,
        26,
        26,
        26,
        26,
        27,
        28
      ]
    },
    "HKG": {
      "icao": "VHHH",
      "issued": "2026-07-08T23:00:00.000Z",
      "raw": "TAF VHHH 082300Z 0900/1006 18010KT 9999 FEW010 SCT025 TX32/0906Z TX34/1006Z TN28/0922Z TEMPO 0900/0902 20015G25KT 2000 TSRA SHRA FEW008CB SCT015 TEMPO 0902/0905 4000 SHRA FEW010CB SCT020 BECMG 0910/0912 12010KT TEMPO 0918/1001 VRB05KT BECMG 1001/1003 26010KT",
      "groups": [
        {
          "text": "TAF VHHH 082300Z 0900/1006 18010KT 9999 FEW010 SCT025 TX32/0906Z TX34/1006Z TN28/0922Z",
          "offset_h": -1,
          "wdir": 180,
          "wspd": 10
        },
        {
          "text": "TEMPO 0900/0902 20015G25KT 2000 TSRA SHRA FEW008CB SCT015",
          "offset_h": -1,
          "wdir": 200,
          "wspd": 15
        },
        {
          "text": "TEMPO 0902/0905 4000 SHRA FEW010CB SCT020",
          "offset_h": 1,
          "wdir": null,
          "wspd": null
        },
        {
          "text": "BECMG 0910/0912 12010KT",
          "offset_h": 9,
          "wdir": 120,
          "wspd": 10
        },
        {
          "text": "TEMPO 0918/1001 VRB05KT",
          "offset_h": 17,
          "wdir": "VRB",
          "wspd": 5
        },
        {
          "text": "BECMG 1001/1003 26010KT",
          "offset_h": 24,
          "wdir": 260,
          "wspd": 10
        }
      ],
      "metar_raw": "METAR VHHH 090130Z 22008KT 9999 VCSH FEW010 SCT025 30/26 Q1006 NOSIG",
      "metar_wdir": 220,
      "metar_wspd": 8,
      "metar_oat": 30,
      "metar_qnh": 1006,
      "hourly_oat": [
        28,
        29,
        29,
        29,
        30,
        30,
        30,
        30,
        30,
        29,
        28,
        28,
        28,
        28,
        28,
        28,
        28,
        28,
        28,
        28,
        28,
        28,
        28,
        28,
        28
      ]
    },
    "PEK": {
      "icao": "ZBAA",
      "issued": "2026-07-08T21:21:00.000Z",
      "raw": "TAF ZBAA 082121Z 0900/1006 15004MPS 4000 BR NSC TX33/0907Z TX29/1006Z TN23/0921Z TEMPO 0911/0914 FEW040CB",
      "groups": [
        {
          "text": "TAF ZBAA 082121Z 0900/1006 15004MPS 4000 BR NSC TX33/0907Z TX29/1006Z TN23/0921Z",
          "offset_h": -1,
          "wdir": null,
          "wspd": null
        },
        {
          "text": "TEMPO 0911/0914 FEW040CB",
          "offset_h": 10,
          "wdir": null,
          "wspd": null
        }
      ],
      "metar_raw": "METAR ZBAA 090130Z 19003MPS 130V250 5000 BR SCT033 29/25 Q1001 NOSIG",
      "metar_wdir": null,
      "metar_wspd": null,
      "metar_oat": 29,
      "metar_qnh": 1001,
      "hourly_oat": [
        27,
        29,
        31,
        32,
        32,
        32,
        33,
        33,
        32,
        30,
        28,
        27,
        26,
        25,
        25,
        25,
        25,
        25,
        25,
        24,
        24,
        25,
        26,
        27,
        28
      ]
    },
    "PVG": {
      "icao": "ZSPD",
      "issued": "2026-07-08T21:10:00.000Z",
      "raw": "TAF ZSPD 082110Z 0900/1006 17004MPS 8000 SCT030 TX33/0906Z TX33/1006Z TN26/0921Z TEMPO 0900/0901 TSRA BKN013 SCT030CB",
      "groups": [
        {
          "text": "TAF ZSPD 082110Z 0900/1006 17004MPS 8000 SCT030 TX33/0906Z TX33/1006Z TN26/0921Z",
          "offset_h": -1,
          "wdir": null,
          "wspd": null
        },
        {
          "text": "TEMPO 0900/0901 TSRA BKN013 SCT030CB",
          "offset_h": -1,
          "wdir": null,
          "wspd": null
        }
      ],
      "metar_raw": "SPECI ZSPD 090142Z 01003MPS 320V050 9999 -SHRA FEW030CB 26/26 Q1007 RETSRA NOSIG",
      "metar_wdir": null,
      "metar_wspd": null,
      "metar_oat": 26,
      "metar_qnh": 1007,
      "hourly_oat": [
        27,
        29,
        29,
        29,
        30,
        28,
        28,
        28,
        28,
        28,
        27,
        27,
        26,
        26,
        26,
        26,
        26,
        26,
        26,
        26,
        26,
        27,
        28,
        29,
        29
      ]
    },
    "SHA": {
      "icao": "ZSSS",
      "issued": "2026-07-08T21:09:00.000Z",
      "raw": "TAF ZSSS 082109Z 0900/1006 16004MPS 8000 SCT030 TX34/0906Z TX34/1006Z TN26/0921Z TEMPO 0906/0909 TSRA BKN013 SCT030CB",
      "groups": [
        {
          "text": "TAF ZSSS 082109Z 0900/1006 16004MPS 8000 SCT030 TX34/0906Z TX34/1006Z TN26/0921Z",
          "offset_h": -1,
          "wdir": null,
          "wspd": null
        },
        {
          "text": "TEMPO 0906/0909 TSRA BKN013 SCT030CB",
          "offset_h": 5,
          "wdir": null,
          "wspd": null
        }
      ],
      "metar_raw": "METAR ZSSS 090130Z 14003MPS 110V170 9999 SCT013 27/25 Q1007 NOSIG",
      "metar_wdir": null,
      "metar_wspd": null,
      "metar_oat": 27,
      "metar_qnh": 1007,
      "hourly_oat": [
        27,
        26,
        26,
        28,
        30,
        29,
        29,
        29,
        29,
        28,
        28,
        27,
        27,
        27,
        26,
        26,
        26,
        26,
        26,
        26,
        26,
        26,
        27,
        29,
        30
      ]
    },
    "CAN": {
      "icao": "ZGGG",
      "issued": "2026-07-08T21:03:00.000Z",
      "raw": "TAF ZGGG 082103Z 0900/1006 10003MPS 8000 BKN040 TX32/0907Z TX35/1006Z TN25/0922Z TEMPO 0905/0909 TSRA FEW026CB BKN033",
      "groups": [
        {
          "text": "TAF ZGGG 082103Z 0900/1006 10003MPS 8000 BKN040 TX32/0907Z TX35/1006Z TN25/0922Z",
          "offset_h": -1,
          "wdir": null,
          "wspd": null
        },
        {
          "text": "TEMPO 0905/0909 TSRA FEW026CB BKN033",
          "offset_h": 4,
          "wdir": null,
          "wspd": null
        }
      ],
      "metar_raw": "METAR ZGGG 090130Z 08003MPS 040V120 9999 FEW016 BKN036 30/26 Q1006 NOSIG",
      "metar_wdir": null,
      "metar_wspd": null,
      "metar_oat": 30,
      "metar_qnh": 1006,
      "hourly_oat": [
        29,
        30,
        31,
        31,
        28,
        30,
        31,
        28,
        28,
        29,
        28,
        28,
        28,
        27,
        27,
        27,
        27,
        26,
        26,
        26,
        26,
        26,
        27,
        28,
        29
      ]
    }
  }
}