{
  "updated": "2026-06-20T23:08:54Z",
  "tafs": {
    "CGK": {
      "icao": "WIII",
      "issued": "2026-06-20T23:00:00.000Z",
      "raw": "TAF WIII 202300Z 2100/2206 VRB05KT 4000 HZ SCT020 BECMG 2101/2103 05012KT 7000 NSW TEMPO 2108/2111 3000 TSRA FEW015CB BKN019 BECMG 2111/2112 16005KT 5000 HZ",
      "groups": [
        {
          "text": "TAF WIII 202300Z 2100/2206 VRB05KT 4000 HZ SCT020",
          "offset_h": 1,
          "wdir": "VRB",
          "wspd": 5
        },
        {
          "text": "BECMG 2101/2103 05012KT 7000 NSW",
          "offset_h": 2,
          "wdir": 50,
          "wspd": 12
        },
        {
          "text": "TEMPO 2108/2111 3000 TSRA FEW015CB BKN019",
          "offset_h": 9,
          "wdir": null,
          "wspd": null
        },
        {
          "text": "BECMG 2111/2112 16005KT 5000 HZ",
          "offset_h": 12,
          "wdir": 160,
          "wspd": 5
        }
      ],
      "metar_raw": "METAR WIII 202300Z 16006KT 3500 HZ FEW020 26/24 Q1011 NOSIG",
      "metar_wdir": 160,
      "metar_wspd": 6,
      "metar_oat": 26,
      "metar_qnh": 1011,
      "hourly_oat": [
        24,
        26,
        28,
        29,
        31,
        32,
        32,
        32,
        30,
        30,
        28,
        27,
        24,
        25,
        25,
        24,
        25,
        24,
        24,
        24,
        24,
        24,
        24,
        24,
        24
      ]
    },
    "GMP": {
      "icao": "RKSS",
      "issued": "2026-06-20T23:00:00.000Z",
      "raw": "TAF RKSS 202300Z 2100/2206 36007KT CAVOK TX31/2105Z TN20/2120Z TX30/2205Z BECMG 2111/2113 06005KT BECMG 2200/2202 25006KT 9999 BKN030",
      "groups": [
        {
          "text": "TAF RKSS 202300Z 2100/2206 36007KT CAVOK TX31/2105Z TN20/2120Z TX30/2205Z",
          "offset_h": 1,
          "wdir": 360,
          "wspd": 7
        },
        {
          "text": "BECMG 2111/2113 06005KT",
          "offset_h": 12,
          "wdir": 60,
          "wspd": 5
        },
        {
          "text": "BECMG 2200/2202 25006KT 9999 BKN030",
          "offset_h": 25,
          "wdir": 250,
          "wspd": 6
        }
      ],
      "metar_raw": "METAR RKSS 202300Z 01005KT CAVOK 22/17 Q1010 NOSIG",
      "metar_wdir": 10,
      "metar_wspd": 5,
      "metar_oat": 22,
      "metar_qnh": 1010,
      "hourly_oat": [
        20,
        22,
        24,
        26,
        27,
        28,
        28,
        28,
        26,
        26,
        25,
        24,
        22,
        21,
        21,
        21,
        20,
        20,
        20,
        20,
        20,
        20,
        20,
        20,
        21
      ]
    },
    "HKG": {
      "icao": "VHHH",
      "issued": "2026-06-20T23:00:00.000Z",
      "raw": "TAF VHHH 202300Z 2100/2206 20010KT 9999 FEW015 TX34/2106Z TX34/2206Z TN29/2122Z",
      "groups": [
        {
          "text": "TAF VHHH 202300Z 2100/2206 20010KT 9999 FEW015 TX34/2106Z TX34/2206Z TN29/2122Z",
          "offset_h": 1,
          "wdir": 200,
          "wspd": 10
        }
      ],
      "metar_raw": "METAR VHHH 202300Z 21006KT 9999 FEW010 29/24 Q1010 NOSIG",
      "metar_wdir": 210,
      "metar_wspd": 6,
      "metar_oat": 29,
      "metar_qnh": 1010,
      "hourly_oat": [
        28,
        29,
        29,
        30,
        30,
        30,
        30,
        30,
        30,
        30,
        29,
        29,
        29,
        29,
        28,
        28,
        28,
        28,
        28,
        28,
        28,
        28,
        28,
        28,
        28
      ]
    },
    "TPE": {
      "icao": "RCTP",
      "issued": "2026-06-20T23:00:00.000Z",
      "raw": "TAF RCTP 202300Z 2100/2206 22005KT 9999 FEW015 BKN032 TEMPO 2103/2109 26015KT BECMG 2110/2112 22005KT TEMPO 2118/2124 16005KT",
      "groups": [
        {
          "text": "TAF RCTP 202300Z 2100/2206 22005KT 9999 FEW015 BKN032",
          "offset_h": 1,
          "wdir": 220,
          "wspd": 5
        },
        {
          "text": "TEMPO 2103/2109 26015KT",
          "offset_h": 4,
          "wdir": 260,
          "wspd": 15
        },
        {
          "text": "BECMG 2110/2112 22005KT",
          "offset_h": 11,
          "wdir": 220,
          "wspd": 5
        },
        {
          "text": "TEMPO 2118/2124 16005KT",
          "offset_h": 19,
          "wdir": 160,
          "wspd": 5
        }
      ],
      "metar_raw": "METAR RCTP 202300Z 18007KT 150V210 9999 FEW015 BKN180 29/23 Q1011 NOSIG RMK A2986",
      "metar_wdir": 180,
      "metar_wspd": 7,
      "metar_oat": 29,
      "metar_qnh": 1011,
      "hourly_oat": [
        27,
        28,
        29,
        30,
        31,
        31,
        31,
        30,
        30,
        30,
        29,
        29,
        28,
        27,
        27,
        26,
        26,
        26,
        26,
        26,
        25,
        25,
        25,
        26,
        26
      ]
    },
    "TSA": {
      "icao": "RCSS",
      "issued": "2026-06-20T23:00:00.000Z",
      "raw": "TAF RCSS 202300Z 2100/2124 30005KT 9999 FEW015 TEMPO 2103/2109 27010KT TEMPO 2118/2124 09005KT",
      "groups": [
        {
          "text": "TAF RCSS 202300Z 2100/2124 30005KT 9999 FEW015",
          "offset_h": 1,
          "wdir": 300,
          "wspd": 5
        },
        {
          "text": "TEMPO 2103/2109 27010KT",
          "offset_h": 4,
          "wdir": 270,
          "wspd": 10
        },
        {
          "text": "TEMPO 2118/2124 09005KT",
          "offset_h": 19,
          "wdir": 90,
          "wspd": 5
        }
      ],
      "metar_raw": "METAR RCSS 202230Z VRB02KT 9999 FEW020 SCT200 29/25 Q1010 NOSIG RMK A2985",
      "metar_wdir": "VRB",
      "metar_wspd": 2,
      "metar_oat": 29,
      "metar_qnh": 1010,
      "hourly_oat": [
        26,
        28,
        30,
        31,
        32,
        33,
        34,
        34,
        33,
        32,
        31,
        30,
        29,
        28,
        28,
        27,
        26,
        26,
        25,
        25,
        25,
        25,
        25,
        25,
        26
      ]
    },
    "HND": {
      "icao": "RJTT",
      "issued": "2026-06-20T21:39:00.000Z",
      "raw": "TAF AMD RJTT 202139Z 2021/2200 32008KT 8000 -RA FEW008 BKN012 TEMPO 2021/2102 FEW005 BKN008",
      "groups": [
        {
          "text": "TAF AMD RJTT 202139Z 2021/2200 32008KT 8000 -RA FEW008 BKN012",
          "offset_h": -2,
          "wdir": 320,
          "wspd": 8
        },
        {
          "text": "TEMPO 2021/2102 FEW005 BKN008",
          "offset_h": -2,
          "wdir": null,
          "wspd": null
        }
      ],
      "metar_raw": "METAR RJTT 202300Z 31012KT 9999 FEW005 BKN006 22/21 Q1002 NOSIG",
      "metar_wdir": 310,
      "metar_wspd": 12,
      "metar_oat": 22,
      "metar_qnh": 1002,
      "hourly_oat": [
        25,
        24,
        24,
        25,
        25,
        26,
        26,
        27,
        27,
        26,
        25,
        24,
        24,
        24,
        24,
        23,
        22,
        22,
        21,
        21,
        20,
        20,
        20,
        21,
        22
      ]
    },
    "PEK": {
      "icao": "ZBAA",
      "issued": "2026-06-20T21:09:00.000Z",
      "raw": "TAF ZBAA 202109Z 2100/2206 18004MPS CAVOK TX30/2106Z TX31/2206Z TN16/2121Z",
      "groups": [
        {
          "text": "TAF ZBAA 202109Z 2100/2206 18004MPS CAVOK TX30/2106Z TX31/2206Z TN16/2121Z",
          "offset_h": 1,
          "wdir": null,
          "wspd": null
        }
      ],
      "metar_raw": "METAR ZBAA 202300Z VRB01MPS CAVOK 21/12 Q1012 NOSIG",
      "metar_wdir": null,
      "metar_wspd": null,
      "metar_oat": 21,
      "metar_qnh": 1012,
      "hourly_oat": [
        18,
        20,
        22,
        24,
        26,
        27,
        28,
        28,
        28,
        29,
        29,
        27,
        24,
        23,
        23,
        22,
        21,
        20,
        19,
        18,
        18,
        17,
        16,
        17,
        19
      ]
    },
    "PVG": {
      "icao": "ZSPD",
      "issued": "2026-06-20T21:07:00.000Z",
      "raw": "TAF ZSPD 202107Z 2100/2206 10004MPS 6000 BKN010 TX26/2106Z TX26/2206Z TN21/2121Z BECMG 2102/2103 -SHRA TEMPO 2109/2112 SHRA BKN008 FEW030CB",
      "groups": [
        {
          "text": "TAF ZSPD 202107Z 2100/2206 10004MPS 6000 BKN010 TX26/2106Z TX26/2206Z TN21/2121Z",
          "offset_h": 1,
          "wdir": null,
          "wspd": null
        },
        {
          "text": "BECMG 2102/2103 -SHRA",
          "offset_h": 3,
          "wdir": null,
          "wspd": null
        },
        {
          "text": "TEMPO 2109/2112 SHRA BKN008 FEW030CB",
          "offset_h": 10,
          "wdir": null,
          "wspd": null
        }
      ],
      "metar_raw": "METAR ZSPD 202300Z 08005MPS 4000 BR BKN006 25/25 Q1009 NOSIG",
      "metar_wdir": null,
      "metar_wspd": null,
      "metar_oat": 25,
      "metar_qnh": 1009,
      "hourly_oat": [
        25,
        26,
        26,
        26,
        25,
        25,
        25,
        26,
        25,
        24,
        24,
        23,
        23,
        23,
        23,
        23,
        23,
        23,
        23,
        23,
        23,
        23,
        23,
        23,
        23
      ]
    },
    "SHA": {
      "icao": "ZSSS",
      "issued": "2026-06-20T21:06:00.000Z",
      "raw": "TAF ZSSS 202106Z 2100/2206 10004MPS 6000 BKN011 TX28/2106Z TX28/2206Z TN22/2121Z BECMG 2101/2102 -SHRA TEMPO 2108/2111 SHRA BKN008 FEW030CB",
      "groups": [
        {
          "text": "TAF ZSSS 202106Z 2100/2206 10004MPS 6000 BKN011 TX28/2106Z TX28/2206Z TN22/2121Z",
          "offset_h": 1,
          "wdir": null,
          "wspd": null
        },
        {
          "text": "BECMG 2101/2102 -SHRA",
          "offset_h": 2,
          "wdir": null,
          "wspd": null
        },
        {
          "text": "TEMPO 2108/2111 SHRA BKN008 FEW030CB",
          "offset_h": 9,
          "wdir": null,
          "wspd": null
        }
      ],
      "metar_raw": "METAR ZSSS 202300Z VRB01MPS 5000 BR FEW010 BKN016 26/24 Q1009 NOSIG",
      "metar_wdir": null,
      "metar_wspd": null,
      "metar_oat": 26,
      "metar_qnh": 1009,
      "hourly_oat": [
        25,
        26,
        27,
        27,
        28,
        27,
        28,
        27,
        26,
        26,
        25,
        24,
        23,
        23,
        23,
        23,
        23,
        22,
        22,
        22,
        22,
        22,
        22,
        22,
        23
      ]
    },
    "LAX": {
      "icao": "KLAX",
      "issued": "2026-06-20T21:06:00.000Z",
      "raw": "TAF KLAX 202106Z 2021/2124 24010KT P6SM SCT020 FM210500 26006KT P6SM BKN020 FM212000 23008KT P6SM SCT020",
      "groups": [
        {
          "text": "TAF KLAX 202106Z 2021/2124 24010KT P6SM SCT020",
          "offset_h": -2,
          "wdir": 240,
          "wspd": 10
        },
        {
          "text": "FM210500 26006KT P6SM BKN020",
          "offset_h": 6,
          "wdir": 260,
          "wspd": 6
        },
        {
          "text": "FM212000 23008KT P6SM SCT020",
          "offset_h": 21,
          "wdir": 230,
          "wspd": 8
        }
      ],
      "metar_raw": "METAR KLAX 202253Z 26016G21KT 10SM FEW017 SCT023 20/13 A2996 RMK AO2 SLP144 T02000128",
      "metar_wdir": 260,
      "metar_wspd": 16,
      "metar_oat": 20,
      "metar_qnh": 1015,
      "hourly_oat": [
        20,
        19,
        19,
        18,
        17,
        16,
        16,
        15,
        15,
        14,
        14,
        13,
        12,
        12,
        12,
        15,
        17,
        17,
        18,
        18,
        19,
        20,
        21,
        20,
        20
      ]
    },
    "DLC": {
      "icao": "ZYTL",
      "issued": "2026-06-20T21:04:00.000Z",
      "raw": "TAF ZYTL 202104Z 2100/2124 31004MPS 5000 BR FEW033 TX28/2106Z TN20/2120Z",
      "groups": [
        {
          "text": "TAF ZYTL 202104Z 2100/2124 31004MPS 5000 BR FEW033 TX28/2106Z TN20/2120Z",
          "offset_h": 1,
          "wdir": null,
          "wspd": null
        }
      ],
      "metar_raw": "METAR ZYTL 202300Z 35003MPS 310V030 CAVOK 23/18 Q1010 NOSIG",
      "metar_wdir": null,
      "metar_wspd": null,
      "metar_oat": 23,
      "metar_qnh": 1010,
      "hourly_oat": [
        22,
        23,
        25,
        25,
        26,
        27,
        28,
        28,
        27,
        26,
        25,
        24,
        23,
        22,
        22,
        22,
        21,
        21,
        20,
        20,
        19,
        19,
        19,
        21,
        24
      ]
    },
    "CAN": {
      "icao": "ZGGG",
      "issued": "2026-06-20T21:01:00.000Z",
      "raw": "TAF ZGGG 202101Z 2100/2206 18003MPS 8000 SCT040 TX37/2107Z TX36/2206Z TN27/2122Z TEMPO 2107/2111 TSRA SCT026CB BKN033",
      "groups": [
        {
          "text": "TAF ZGGG 202101Z 2100/2206 18003MPS 8000 SCT040 TX37/2107Z TX36/2206Z TN27/2122Z",
          "offset_h": 1,
          "wdir": null,
          "wspd": null
        },
        {
          "text": "TEMPO 2107/2111 TSRA SCT026CB BKN033",
          "offset_h": 8,
          "wdir": null,
          "wspd": null
        }
      ],
      "metar_raw": "METAR ZGGG 202300Z 12002MPS 9999 FEW050 29/26 Q1010 NOSIG",
      "metar_wdir": null,
      "metar_wspd": null,
      "metar_oat": 29,
      "metar_qnh": 1010,
      "hourly_oat": [
        27,
        28,
        30,
        31,
        32,
        33,
        33,
        32,
        31,
        33,
        33,
        32,
        31,
        30,
        29,
        28,
        28,
        27,
        27,
        26,
        26,
        26,
        26,
        26,
        27
      ]
    },
    "HNL": {
      "icao": "PHNL",
      "issued": "2026-06-20T20:55:00.000Z",
      "raw": "TAF PHNL 202055Z 2021/2124 07010KT P6SM FEW025 SCT045 FM210900 VRB06KT P6SM FEW025 SCT045 FM212000 07010KT P6SM FEW025 SCT045",
      "groups": [
        {
          "text": "TAF PHNL 202055Z 2021/2124 07010KT P6SM FEW025 SCT045",
          "offset_h": -2,
          "wdir": 70,
          "wspd": 10
        },
        {
          "text": "FM210900 VRB06KT P6SM FEW025 SCT045",
          "offset_h": 10,
          "wdir": "VRB",
          "wspd": 6
        },
        {
          "text": "FM212000 07010KT P6SM FEW025 SCT045",
          "offset_h": 21,
          "wdir": 70,
          "wspd": 10
        }
      ],
      "metar_raw": "METAR PHNL 202253Z 07010G17KT 10SM FEW025 FEW045 32/20 A3004 RMK AO2 SLP171 T03170200 $",
      "metar_wdir": 70,
      "metar_wspd": 10,
      "metar_oat": 32,
      "metar_qnh": 1017,
      "hourly_oat": [
        31,
        30,
        29,
        28,
        28,
        27,
        25,
        24,
        24,
        24,
        24,
        24,
        23,
        23,
        23,
        23,
        23,
        23,
        24,
        26,
        28,
        29,
        30,
        30,
        30
      ]
    },
    "SAN": {
      "icao": "KSAN",
      "issued": "2026-06-20T20:29:00.000Z",
      "raw": "TAF KSAN 202029Z 2020/2124 30013KT P6SM FEW028 FM210100 31008KT P6SM SCT022 FM210200 VRB05KT P6SM BKN018 FM211200 VRB03KT P6SM OVC022 FM211800 30011KT P6SM SCT026",
      "groups": [
        {
          "text": "TAF KSAN 202029Z 2020/2124 30013KT P6SM FEW028",
          "offset_h": -3,
          "wdir": 300,
          "wspd": 13
        },
        {
          "text": "FM210100 31008KT P6SM SCT022",
          "offset_h": 2,
          "wdir": 310,
          "wspd": 8
        },
        {
          "text": "FM210200 VRB05KT P6SM BKN018",
          "offset_h": 3,
          "wdir": "VRB",
          "wspd": 5
        },
        {
          "text": "FM211200 VRB03KT P6SM OVC022",
          "offset_h": 13,
          "wdir": "VRB",
          "wspd": 3
        },
        {
          "text": "FM211800 30011KT P6SM SCT026",
          "offset_h": 19,
          "wdir": 300,
          "wspd": 11
        }
      ],
      "metar_raw": "METAR KSAN 202251Z 31010G18KT 10SM FEW028 21/13 A2998 RMK AO2 SLP150 T02110128 $",
      "metar_wdir": 310,
      "metar_wspd": 10,
      "metar_oat": 21,
      "metar_qnh": 1015,
      "hourly_oat": [
        21,
        20,
        20,
        19,
        18,
        18,
        18,
        17,
        17,
        17,
        18,
        18,
        17,
        17,
        17,
        17,
        18,
        18,
        18,
        19,
        21,
        22,
        22,
        22,
        21
      ]
    },
    "NGO": {
      "icao": "RJGG",
      "issued": "2026-06-20T19:45:00.000Z",
      "raw": "TAF AMD RJGG 201945Z 2019/2200 36004KT 9999 FEW020 SCT030 BECMG 2022/2100 16005KT BECMG 2101/2103 24012KT BECMG 2106/2109 29014KT",
      "groups": [
        {
          "text": "TAF AMD RJGG 201945Z 2019/2200 36004KT 9999 FEW020 SCT030",
          "offset_h": -4,
          "wdir": 360,
          "wspd": 4
        },
        {
          "text": "BECMG 2022/2100 16005KT",
          "offset_h": -1,
          "wdir": 160,
          "wspd": 5
        },
        {
          "text": "BECMG 2101/2103 24012KT",
          "offset_h": 2,
          "wdir": 240,
          "wspd": 12
        },
        {
          "text": "BECMG 2106/2109 29014KT",
          "offset_h": 7,
          "wdir": 290,
          "wspd": 14
        }
      ],
      "metar_raw": "METAR RJGG 202300Z 06003KT 010V100 9999 -SHRA FEW003 BKN030 BKN050 25/24 Q1002 BECMG FM0000 18005KT",
      "metar_wdir": 60,
      "metar_wspd": 3,
      "metar_oat": 25,
      "metar_qnh": 1002,
      "hourly_oat": [
        23,
        24,
        24,
        25,
        26,
        26,
        26,
        26,
        26,
        25,
        25,
        24,
        24,
        24,
        24,
        24,
        24,
        24,
        23,
        23,
        23,
        23,
        23,
        23,
        23
      ]
    },
    "NRT": {
      "icao": "RJAA",
      "issued": "2026-06-20T18:56:00.000Z",
      "raw": "TAF AMD RJAA 201856Z 2018/2200 14012KT 6000 -SHRA FEW003 BKN012 TEMPO 2018/2021 3000 TSRA BR FEW001 BKN003 FEW020CB TEMPO 2021/2100 3000 SHRA BR FEW001 BKN003 BECMG 2022/2100 22012KT BECMG 2106/2109 02006KT TEMPO 2109/2115 FEW003 BKN008 TEMPO 2118/2200 FEW001 BKN003",
      "groups": [
        {
          "text": "TAF AMD RJAA 201856Z 2018/2200 14012KT 6000 -SHRA FEW003 BKN012",
          "offset_h": -5,
          "wdir": 140,
          "wspd": 12
        },
        {
          "text": "TEMPO 2018/2021 3000 TSRA BR FEW001 BKN003 FEW020CB",
          "offset_h": -5,
          "wdir": null,
          "wspd": null
        },
        {
          "text": "TEMPO 2021/2100 3000 SHRA BR FEW001 BKN003",
          "offset_h": -2,
          "wdir": null,
          "wspd": null
        },
        {
          "text": "BECMG 2022/2100 22012KT",
          "offset_h": -1,
          "wdir": 220,
          "wspd": 12
        },
        {
          "text": "BECMG 2106/2109 02006KT",
          "offset_h": 7,
          "wdir": 20,
          "wspd": 6
        },
        {
          "text": "TEMPO 2109/2115 FEW003 BKN008",
          "offset_h": 10,
          "wdir": null,
          "wspd": null
        },
        {
          "text": "TEMPO 2118/2200 FEW001 BKN003",
          "offset_h": 19,
          "wdir": null,
          "wspd": null
        }
      ],
      "metar_raw": "METAR RJAA 202300Z 19006KT 9999 BKN007 24/23 Q1001 BECMG FEW008 BKN012",
      "metar_wdir": 190,
      "metar_wspd": 6,
      "metar_oat": 24,
      "metar_qnh": 1001,
      "hourly_oat": [
        24,
        26,
        27,
        27,
        27,
        28,
        28,
        28,
        28,
        25,
        23,
        22,
        22,
        22,
        22,
        21,
        21,
        21,
        20,
        20,
        19,
        19,
        20,
        20,
        21
      ]
    },
    "KIX": {
      "icao": "RJBB",
      "issued": "2026-06-20T18:12:00.000Z",
      "raw": "TAF AMD RJBB 201812Z 2018/2200 20016KT 9999 FEW030 BKN050 TEMPO 2018/2021 FEW005 BKN008 BKN015 BECMG 2022/2100 26012KT",
      "groups": [
        {
          "text": "TAF AMD RJBB 201812Z 2018/2200 20016KT 9999 FEW030 BKN050",
          "offset_h": -5,
          "wdir": 200,
          "wspd": 16
        },
        {
          "text": "TEMPO 2018/2021 FEW005 BKN008 BKN015",
          "offset_h": -5,
          "wdir": null,
          "wspd": null
        },
        {
          "text": "BECMG 2022/2100 26012KT",
          "offset_h": -1,
          "wdir": 260,
          "wspd": 12
        }
      ],
      "metar_raw": "METAR RJBB 202300Z 24012KT 9999 FEW008 SCT015 25/23 Q1004 NOSIG",
      "metar_wdir": 240,
      "metar_wspd": 12,
      "metar_oat": 25,
      "metar_qnh": 1004,
      "hourly_oat": [
        24,
        24,
        24,
        25,
        24,
        24,
        24,
        24,
        24,
        24,
        24,
        24,
        24,
        24,
        23,
        23,
        23,
        23,
        23,
        23,
        23,
        23,
        22,
        22,
        22
      ]
    },
    "OKA": {
      "icao": "ROAH",
      "issued": "2026-06-20T17:05:00.000Z",
      "raw": "TAF ROAH 201705Z 2018/2200 20010KT 9999 FEW005 BKN010 TEMPO 2018/2022 FEW003 BKN005 TEMPO 2022/2100 FEW005 BKN008 TEMPO 2112/2115 FEW005 BKN008 TEMPO 2115/2200 FEW003 BKN005",
      "groups": [
        {
          "text": "TAF ROAH 201705Z 2018/2200 20010KT 9999 FEW005 BKN010",
          "offset_h": -5,
          "wdir": 200,
          "wspd": 10
        },
        {
          "text": "TEMPO 2018/2022 FEW003 BKN005",
          "offset_h": -5,
          "wdir": null,
          "wspd": null
        },
        {
          "text": "TEMPO 2022/2100 FEW005 BKN008",
          "offset_h": -1,
          "wdir": null,
          "wspd": null
        },
        {
          "text": "TEMPO 2112/2115 FEW005 BKN008",
          "offset_h": 13,
          "wdir": null,
          "wspd": null
        },
        {
          "text": "TEMPO 2115/2200 FEW003 BKN005",
          "offset_h": 16,
          "wdir": null,
          "wspd": null
        }
      ],
      "metar_raw": "METAR ROAH 202300Z 18007KT 9999 FEW005 28/26 Q1012",
      "metar_wdir": 180,
      "metar_wspd": 7,
      "metar_oat": 28,
      "metar_qnh": 1012,
      "hourly_oat": [
        27,
        28,
        28,
        28,
        29,
        29,
        29,
        28,
        28,
        28,
        27,
        27,
        26,
        26,
        26,
        26,
        25,
        25,
        25,
        25,
        24,
        24,
        24,
        26,
        27
      ]
    },
    "ITM": {
      "icao": "RJOO",
      "issued": "2026-06-20T17:05:00.000Z",
      "raw": "TAF RJOO 201705Z 2018/2200 26010KT 9999 FEW015 SCT020 BKN030 BECMG 2121/2200 32012KT",
      "groups": [
        {
          "text": "TAF RJOO 201705Z 2018/2200 26010KT 9999 FEW015 SCT020 BKN030",
          "offset_h": -5,
          "wdir": 260,
          "wspd": 10
        },
        {
          "text": "BECMG 2121/2200 32012KT",
          "offset_h": 22,
          "wdir": 320,
          "wspd": 12
        }
      ],
      "metar_raw": "METAR RJOO 202300Z 24008KT 130V290 9999 FEW010 SCT020 BKN030 27/22 Q1003",
      "metar_wdir": 240,
      "metar_wspd": 8,
      "metar_oat": 27,
      "metar_qnh": 1003,
      "hourly_oat": [
        26,
        27,
        28,
        27,
        28,
        28,
        28,
        28,
        27,
        27,
        26,
        25,
        24,
        24,
        24,
        23,
        23,
        23,
        23,
        23,
        22,
        22,
        22,
        23,
        24
      ]
    },
    "CTS": {
      "icao": "RJCC",
      "issued": "2026-06-20T17:05:00.000Z",
      "raw": "TAF RJCC 201705Z 2018/2200 17006KT 9999 FEW015 SCT050 BECMG 2101/2103 17016KT BECMG 2112/2115 33004KT BECMG 2121/2200 21006KT",
      "groups": [
        {
          "text": "TAF RJCC 201705Z 2018/2200 17006KT 9999 FEW015 SCT050",
          "offset_h": -5,
          "wdir": 170,
          "wspd": 6
        },
        {
          "text": "BECMG 2101/2103 17016KT",
          "offset_h": 2,
          "wdir": 170,
          "wspd": 16
        },
        {
          "text": "BECMG 2112/2115 33004KT",
          "offset_h": 13,
          "wdir": 330,
          "wspd": 4
        },
        {
          "text": "BECMG 2121/2200 21006KT",
          "offset_h": 22,
          "wdir": 210,
          "wspd": 6
        }
      ],
      "metar_raw": "METAR RJCC 202300Z 16006KT 130V190 9999 FEW025 BKN090 BKN/// 20/13 Q1012",
      "metar_wdir": 160,
      "metar_wspd": 6,
      "metar_oat": 20,
      "metar_qnh": 1012,
      "hourly_oat": [
        18,
        19,
        19,
        20,
        20,
        20,
        20,
        20,
        19,
        18,
        17,
        16,
        15,
        15,
        14,
        14,
        14,
        13,
        13,
        13,
        13,
        13,
        15,
        16,
        18
      ]
    },
    "FUK": {
      "icao": "RJFF",
      "issued": "2026-06-20T17:05:00.000Z",
      "raw": "TAF RJFF 201705Z 2018/2200 29010KT 9999 FEW015 SCT025 BKN030 BECMG 2109/2112 35008KT BECMG 2115/2118 13004KT BECMG 2121/2200 01006KT",
      "groups": [
        {
          "text": "TAF RJFF 201705Z 2018/2200 29010KT 9999 FEW015 SCT025 BKN030",
          "offset_h": -5,
          "wdir": 290,
          "wspd": 10
        },
        {
          "text": "BECMG 2109/2112 35008KT",
          "offset_h": 10,
          "wdir": 350,
          "wspd": 8
        },
        {
          "text": "BECMG 2115/2118 13004KT",
          "offset_h": 16,
          "wdir": 130,
          "wspd": 4
        },
        {
          "text": "BECMG 2121/2200 01006KT",
          "offset_h": 22,
          "wdir": 10,
          "wspd": 6
        }
      ],
      "metar_raw": "METAR RJFF 202300Z 29009KT 240V320 9999 FEW015 BKN025 BKN030 25/19 Q1008 NOSIG",
      "metar_wdir": 290,
      "metar_wspd": 9,
      "metar_oat": 25,
      "metar_qnh": 1008,
      "hourly_oat": [
        24,
        24,
        24,
        25,
        25,
        25,
        25,
        25,
        25,
        24,
        24,
        24,
        23,
        22,
        22,
        22,
        21,
        21,
        21,
        21,
        21,
        20,
        21,
        22,
        23
      ]
    },
    "KUL": {
      "icao": "WMKK",
      "issued": "2026-06-20T17:00:00.000Z",
      "raw": "TAF WMKK 201700Z 2018/2200 VRB03KT 9999 FEW030 PROB30 TEMPO 2022/2102 5000 TSRA FEW017CB PROB40 TEMPO 2109/2113 5000 TSRA FEW017CB",
      "groups": [
        {
          "text": "TAF WMKK 201700Z 2018/2200 VRB03KT 9999 FEW030",
          "offset_h": -5,
          "wdir": "VRB",
          "wspd": 3
        },
        {
          "text": "PROB30",
          "offset_h": 0,
          "wdir": null,
          "wspd": null
        },
        {
          "text": "TEMPO 2022/2102 5000 TSRA FEW017CB",
          "offset_h": -1,
          "wdir": null,
          "wspd": null
        },
        {
          "text": "PROB40",
          "offset_h": 0,
          "wdir": null,
          "wspd": null
        },
        {
          "text": "TEMPO 2109/2113 5000 TSRA FEW017CB",
          "offset_h": 10,
          "wdir": null,
          "wspd": null
        }
      ],
      "metar_raw": "METAR WMKK 202300Z VRB01KT 9000 FEW030 26/24 Q1010 NOSIG",
      "metar_wdir": "VRB",
      "metar_wspd": 1,
      "metar_oat": 26,
      "metar_qnh": 1010,
      "hourly_oat": [
        23,
        24,
        25,
        26,
        27,
        28,
        28,
        27,
        28,
        28,
        28,
        28,
        26,
        25,
        25,
        25,
        24,
        24,
        24,
        24,
        24,
        24,
        24,
        24,
        24
      ]
    },
    "SIN": {
      "icao": "WSSS",
      "issued": "2026-06-20T17:00:00.000Z",
      "raw": "TAF WSSS 201700Z 2018/2200 20003KT 9999 FEW015 SCT020 PROB30 TEMPO 2104/2107 3000 TSRA FEW012CB BKN015",
      "groups": [
        {
          "text": "TAF WSSS 201700Z 2018/2200 20003KT 9999 FEW015 SCT020",
          "offset_h": -5,
          "wdir": 200,
          "wspd": 3
        },
        {
          "text": "PROB30",
          "offset_h": 0,
          "wdir": null,
          "wspd": null
        },
        {
          "text": "TEMPO 2104/2107 3000 TSRA FEW012CB BKN015",
          "offset_h": 5,
          "wdir": null,
          "wspd": null
        }
      ],
      "metar_raw": "METAR WSSS 202300Z VRB01KT 9999 FEW015 FEW018TCU BKN300 26/25 Q1011 NOSIG",
      "metar_wdir": "VRB",
      "metar_wspd": 1,
      "metar_oat": 26,
      "metar_qnh": 1011,
      "hourly_oat": [
        25,
        26,
        27,
        28,
        28,
        29,
        29,
        30,
        29,
        28,
        28,
        28,
        27,
        27,
        26,
        26,
        26,
        26,
        25,
        25,
        25,
        25,
        25,
        25,
        25
      ]
    },
    "SGN": {
      "icao": "VVTS",
      "issued": "2026-06-20T17:00:00.000Z",
      "raw": "TAF VVTS 201700Z 2018/2124 22008KT 9999 SCT017 TEMPO 2108/2112 22015G25KT 5000 TSRA BKN015 FEW017CB",
      "groups": [
        {
          "text": "TAF VVTS 201700Z 2018/2124 22008KT 9999 SCT017",
          "offset_h": -5,
          "wdir": 220,
          "wspd": 8
        },
        {
          "text": "TEMPO 2108/2112 22015G25KT 5000 TSRA BKN015 FEW017CB",
          "offset_h": 9,
          "wdir": 220,
          "wspd": 15
        }
      ],
      "metar_raw": "METAR VVTS 202300Z 23004KT 200V260 9999 FEW016 SCT039 BKN049 28/26 Q1011 NOSIG",
      "metar_wdir": 230,
      "metar_wspd": 4,
      "metar_oat": 28,
      "metar_qnh": 1011,
      "hourly_oat": [
        26,
        28,
        29,
        31,
        32,
        32,
        33,
        34,
        34,
        27,
        29,
        30,
        26,
        26,
        26,
        26,
        25,
        25,
        26,
        25,
        25,
        25,
        25,
        25,
        25
      ]
    },
    "HAN": {
      "icao": "VVNB",
      "issued": "2026-06-20T17:00:00.000Z",
      "raw": "TAF VVNB 201700Z 2018/2118 08006KT 6000 FEW030 PROB40 TEMPO 2111/2114 4000 TSRA SCT012 FEW027CB",
      "groups": [
        {
          "text": "TAF VVNB 201700Z 2018/2118 08006KT 6000 FEW030",
          "offset_h": -5,
          "wdir": 80,
          "wspd": 6
        },
        {
          "text": "PROB40",
          "offset_h": 0,
          "wdir": null,
          "wspd": null
        },
        {
          "text": "TEMPO 2111/2114 4000 TSRA SCT012 FEW027CB",
          "offset_h": 12,
          "wdir": null,
          "wspd": null
        }
      ],
      "metar_raw": "METAR VVNB 202300Z 08004KT 8000 NSC 26/26 Q1006 NOSIG",
      "metar_wdir": 80,
      "metar_wspd": 4,
      "metar_oat": 26,
      "metar_qnh": 1006,
      "hourly_oat": [
        28,
        30,
        31,
        32,
        33,
        34,
        35,
        35,
        35,
        35,
        34,
        34,
        33,
        32,
        31,
        30,
        30,
        29,
        29,
        29,
        29,
        29,
        28,
        28,
        28
      ]
    },
    "BKK": {
      "icao": "VTBS",
      "issued": "2026-06-20T17:00:00.000Z",
      "raw": "TAF VTBS 201700Z 2018/2124 20008KT 9999 FEW020 TEMPO 2110/2114 VRB15KT 4000 TSRA FEW018CB SCT030 BKN100",
      "groups": [
        {
          "text": "TAF VTBS 201700Z 2018/2124 20008KT 9999 FEW020",
          "offset_h": -5,
          "wdir": 200,
          "wspd": 8
        },
        {
          "text": "TEMPO 2110/2114 VRB15KT 4000 TSRA FEW018CB SCT030 BKN100",
          "offset_h": 11,
          "wdir": "VRB",
          "wspd": 15
        }
      ],
      "metar_raw": "METAR VTBS 202300Z 34002KT 9999 VCSH FEW020CB 28/26 Q1010 NOSIG",
      "metar_wdir": 340,
      "metar_wspd": 2,
      "metar_oat": 28,
      "metar_qnh": 1010,
      "hourly_oat": [
        27,
        27,
        29,
        31,
        32,
        33,
        33,
        32,
        32,
        33,
        32,
        31,
        28,
        28,
        28,
        28,
        27,
        27,
        27,
        26,
        26,
        26,
        26,
        26,
        26
      ]
    }
  }
}