{
  "updated": "2026-07-24T04:59:20Z",
  "tafs": {
    "LAX": {
      "icao": "KLAX",
      "issued": "2026-07-24T03:57:00.000Z",
      "raw": "TAF KLAX 240357Z 2404/2506 24008KT P6SM FEW250 FM240800 VRB03KT P6SM FEW250 FM241700 26008KT P6SM SCT250 FM242000 26014KT P6SM SCT250 FM250300 24008KT P6SM SCT250",
      "groups": [
        {
          "text": "TAF KLAX 240357Z 2404/2506 24008KT P6SM FEW250",
          "offset_h": 0,
          "wdir": 240,
          "wspd": 8
        },
        {
          "text": "FM240800 VRB03KT P6SM FEW250",
          "offset_h": 4,
          "wdir": "VRB",
          "wspd": 3
        },
        {
          "text": "FM241700 26008KT P6SM SCT250",
          "offset_h": 13,
          "wdir": 260,
          "wspd": 8
        },
        {
          "text": "FM242000 26014KT P6SM SCT250",
          "offset_h": 16,
          "wdir": 260,
          "wspd": 14
        },
        {
          "text": "FM250300 24008KT P6SM SCT250",
          "offset_h": 23,
          "wdir": 240,
          "wspd": 8
        }
      ],
      "metar_raw": "METAR KLAX 240453Z 23006KT 10SM CLR 23/17 A2986 RMK AO2 SLP109 T02280167 $",
      "metar_wdir": 230,
      "metar_wspd": 6,
      "metar_oat": 23,
      "metar_qnh": 1011,
      "hourly_oat": [
        21,
        20,
        20,
        19,
        19,
        18,
        18,
        17,
        17,
        17,
        19,
        22,
        26,
        28,
        28,
        28,
        28,
        28,
        27,
        27,
        26,
        24,
        23,
        22,
        21
      ]
    },
    "HNL": {
      "icao": "PHNL",
      "issued": "2026-07-24T03:19:00.000Z",
      "raw": "TAF PHNL 240319Z 2403/2506 06018G28KT P6SM FEW025 SCT040 FM240600 05012G20KT P6SM FEW025 SCT040 FM242000 06015G25KT P6SM FEW025 SCT040",
      "groups": [
        {
          "text": "TAF PHNL 240319Z 2403/2506 06018G28KT P6SM FEW025 SCT040",
          "offset_h": -1,
          "wdir": 60,
          "wspd": 18
        },
        {
          "text": "FM240600 05012G20KT P6SM FEW025 SCT040",
          "offset_h": 2,
          "wdir": 50,
          "wspd": 12
        },
        {
          "text": "FM242000 06015G25KT P6SM FEW025 SCT040",
          "offset_h": 16,
          "wdir": 60,
          "wspd": 15
        }
      ],
      "metar_raw": "METAR PHNL 240453Z 06011KT 10SM FEW023 SCT035 BKN060 27/20 A3002 RMK AO2 RAB11E20 SLP167 VCSH N-E P0000 T02720200 $",
      "metar_wdir": 60,
      "metar_wspd": 11,
      "metar_oat": 27,
      "metar_qnh": 1017,
      "hourly_oat": [
        25,
        24,
        24,
        24,
        23,
        23,
        23,
        23,
        23,
        23,
        22,
        22,
        22,
        23,
        24,
        26,
        27,
        28,
        28,
        28,
        28,
        28,
        28,
        27,
        26
      ]
    },
    "KUL": {
      "icao": "WMKK",
      "issued": "2026-07-24T03:18:00.000Z",
      "raw": "TAF AMD WMKK 240318Z 2403/2506 VRB03KT 9999 FEW018 TEMPO 2403/2406 15010KT 5000 TSRA FEW008 FEW017CB",
      "groups": [
        {
          "text": "TAF AMD WMKK 240318Z 2403/2506 VRB03KT 9999 FEW018",
          "offset_h": -1,
          "wdir": "VRB",
          "wspd": 3
        },
        {
          "text": "TEMPO 2403/2406 15010KT 5000 TSRA FEW008 FEW017CB",
          "offset_h": -1,
          "wdir": 150,
          "wspd": 10
        }
      ],
      "metar_raw": "METAR WMKK 240430Z VRB04KT 8000 VCSH FEW017CB SCT018 31/25 Q1008 NOSIG",
      "metar_wdir": "VRB",
      "metar_wspd": 4,
      "metar_oat": 31,
      "metar_qnh": 1008,
      "hourly_oat": [
        28,
        29,
        30,
        30,
        30,
        30,
        30,
        28,
        27,
        27,
        27,
        26,
        25,
        25,
        25,
        25,
        25,
        24,
        24,
        24,
        24,
        24,
        26,
        27,
        28
      ]
    },
    "DLC": {
      "icao": "ZYTL",
      "issued": "2026-07-24T03:04:00.000Z",
      "raw": "TAF ZYTL 240304Z 2406/2506 13004MPS 5000 BR SCT015 BKN026 TX30/2406Z TN24/2420Z TEMPO 2421/2424 2000 -TSRA BR SCT015 BKN026 FEW033CB",
      "groups": [
        {
          "text": "TAF ZYTL 240304Z 2406/2506 13004MPS 5000 BR SCT015 BKN026 TX30/2406Z TN24/2420Z",
          "offset_h": 2,
          "wdir": null,
          "wspd": null
        },
        {
          "text": "TEMPO 2421/2424 2000 -TSRA BR SCT015 BKN026 FEW033CB",
          "offset_h": 17,
          "wdir": null,
          "wspd": null
        }
      ],
      "metar_raw": "METAR ZYTL 240430Z 10005MPS 070V150 9999 FEW026 30/23 Q1006 NOSIG",
      "metar_wdir": null,
      "metar_wspd": null,
      "metar_oat": 30,
      "metar_qnh": 1006,
      "hourly_oat": [
        31,
        30,
        30,
        30,
        29,
        28,
        27,
        27,
        26,
        26,
        26,
        25,
        24,
        24,
        24,
        24,
        24,
        23,
        24,
        24,
        25,
        26,
        27,
        29,
        29
      ]
    },
    "SAN": {
      "icao": "KSAN",
      "issued": "2026-07-24T03:04:00.000Z",
      "raw": "TAF KSAN 240304Z 2403/2506 31005KT P6SM SKC FM240500 VRB04KT P6SM FEW012 TEMPO 2405/2408 BKN010 FM240800 VRB03KT P6SM BKN010 FM241700 VRB04KT P6SM FEW012 FM241900 25008KT P6SM SKC FM250400 VRB04KT P6SM FEW010",
      "groups": [
        {
          "text": "TAF KSAN 240304Z 2403/2506 31005KT P6SM SKC",
          "offset_h": -1,
          "wdir": 310,
          "wspd": 5
        },
        {
          "text": "FM240500 VRB04KT P6SM FEW012",
          "offset_h": 1,
          "wdir": "VRB",
          "wspd": 4
        },
        {
          "text": "TEMPO 2405/2408 BKN010",
          "offset_h": 1,
          "wdir": null,
          "wspd": null
        },
        {
          "text": "FM240800 VRB03KT P6SM BKN010",
          "offset_h": 4,
          "wdir": "VRB",
          "wspd": 3
        },
        {
          "text": "FM241700 VRB04KT P6SM FEW012",
          "offset_h": 13,
          "wdir": "VRB",
          "wspd": 4
        },
        {
          "text": "FM241900 25008KT P6SM SKC",
          "offset_h": 15,
          "wdir": 250,
          "wspd": 8
        },
        {
          "text": "FM250400 VRB04KT P6SM FEW010",
          "offset_h": 24,
          "wdir": "VRB",
          "wspd": 4
        }
      ],
      "metar_raw": "METAR KSAN 240451Z 30004KT 9SM SCT009 22/19 A2990 RMK AO2 SLP124 SCT V BKN T02220194",
      "metar_wdir": 300,
      "metar_wspd": 4,
      "metar_oat": 22,
      "metar_qnh": 1013,
      "hourly_oat": [
        22,
        22,
        22,
        21,
        22,
        21,
        20,
        20,
        20,
        20,
        21,
        23,
        24,
        26,
        28,
        27,
        28,
        28,
        28,
        28,
        27,
        26,
        24,
        23,
        22
      ]
    },
    "PVG": {
      "icao": "ZSPD",
      "issued": "2026-07-24T03:04:00.000Z",
      "raw": "TAF ZSPD 240304Z 2406/2512 17006MPS 6000 SCT030 TX37/2406Z TX35/2506Z TN28/2421Z",
      "groups": [
        {
          "text": "TAF ZSPD 240304Z 2406/2512 17006MPS 6000 SCT030 TX37/2406Z TX35/2506Z TN28/2421Z",
          "offset_h": 2,
          "wdir": null,
          "wspd": null
        }
      ],
      "metar_raw": "METAR ZSPD 240430Z 19005MPS CAVOK 35/24 Q1008 NOSIG",
      "metar_wdir": null,
      "metar_wspd": null,
      "metar_oat": 35,
      "metar_qnh": 1008,
      "hourly_oat": [
        36,
        36,
        36,
        36,
        34,
        33,
        32,
        30,
        30,
        29,
        29,
        29,
        29,
        29,
        29,
        29,
        29,
        29,
        29,
        30,
        32,
        33,
        34,
        34,
        35
      ]
    },
    "SHA": {
      "icao": "ZSSS",
      "issued": "2026-07-24T03:04:00.000Z",
      "raw": "TAF ZSSS 240304Z 2406/2512 17004MPS 8000 SCT030 TX37/2406Z TX36/2506Z TN29/2421Z TEMPO 2407/2411 TSRA BKN015 FEW030CB",
      "groups": [
        {
          "text": "TAF ZSSS 240304Z 2406/2512 17004MPS 8000 SCT030 TX37/2406Z TX36/2506Z TN29/2421Z",
          "offset_h": 2,
          "wdir": null,
          "wspd": null
        },
        {
          "text": "TEMPO 2407/2411 TSRA BKN015 FEW030CB",
          "offset_h": 3,
          "wdir": null,
          "wspd": null
        }
      ],
      "metar_raw": "METAR ZSSS 240430Z 21004MPS 170V240 CAVOK 36/25 Q1007 NOSIG",
      "metar_wdir": null,
      "metar_wspd": null,
      "metar_oat": 36,
      "metar_qnh": 1007,
      "hourly_oat": [
        36,
        36,
        36,
        36,
        36,
        34,
        33,
        32,
        30,
        30,
        29,
        29,
        29,
        28,
        28,
        28,
        28,
        28,
        28,
        30,
        31,
        32,
        33,
        34,
        35
      ]
    },
    "PEK": {
      "icao": "ZBAA",
      "issued": "2026-07-24T03:01:00.000Z",
      "raw": "TAF ZBAA 240301Z 2406/2512 13003MPS 6000 NSC TX31/2406Z TX31/2506Z TN23/2421Z",
      "groups": [
        {
          "text": "TAF ZBAA 240301Z 2406/2512 13003MPS 6000 NSC TX31/2406Z TX31/2506Z TN23/2421Z",
          "offset_h": 2,
          "wdir": null,
          "wspd": null
        }
      ],
      "metar_raw": "METAR ZBAA 240430Z VRB01MPS 9999 FEW026 30/23 Q1006 NOSIG",
      "metar_wdir": null,
      "metar_wspd": null,
      "metar_oat": 30,
      "metar_qnh": 1006,
      "hourly_oat": [
        29,
        30,
        30,
        30,
        29,
        29,
        29,
        28,
        27,
        26,
        26,
        25,
        24,
        24,
        23,
        23,
        23,
        23,
        23,
        24,
        25,
        27,
        28,
        29,
        30
      ]
    },
    "CAN": {
      "icao": "ZGGG",
      "issued": "2026-07-24T03:01:00.000Z",
      "raw": "TAF ZGGG 240301Z 2406/2512 24003MPS 8000 SCT033 TX37/2407Z TX38/2507Z TN28/2422Z",
      "groups": [
        {
          "text": "TAF ZGGG 240301Z 2406/2512 24003MPS 8000 SCT033 TX37/2407Z TX38/2507Z TN28/2422Z",
          "offset_h": 2,
          "wdir": null,
          "wspd": null
        }
      ],
      "metar_raw": "METAR ZGGG 240430Z 03002MPS 320V110 9999 SCT036 33/25 Q1007 NOSIG",
      "metar_wdir": null,
      "metar_wspd": null,
      "metar_oat": 33,
      "metar_qnh": 1007,
      "hourly_oat": [
        32,
        33,
        34,
        34,
        34,
        34,
        33,
        31,
        30,
        29,
        29,
        28,
        28,
        28,
        27,
        26,
        26,
        26,
        26,
        27,
        29,
        31,
        32,
        34,
        35
      ]
    },
    "HKG": {
      "icao": "VHHH",
      "issued": "2026-07-24T02:00:00.000Z",
      "raw": "TAF VHHH 240200Z 2403/2509 26010KT 9999 FEW020 TX35/2406Z TX33/2506Z TN27/2422Z BECMG 2409/2411 18010KT BECMG 2416/2418 26010KT BECMG 2501/2503 34015KT",
      "groups": [
        {
          "text": "TAF VHHH 240200Z 2403/2509 26010KT 9999 FEW020 TX35/2406Z TX33/2506Z TN27/2422Z",
          "offset_h": -1,
          "wdir": 260,
          "wspd": 10
        },
        {
          "text": "BECMG 2409/2411 18010KT",
          "offset_h": 5,
          "wdir": 180,
          "wspd": 10
        },
        {
          "text": "BECMG 2416/2418 26010KT",
          "offset_h": 12,
          "wdir": 260,
          "wspd": 10
        },
        {
          "text": "BECMG 2501/2503 34015KT",
          "offset_h": 21,
          "wdir": 340,
          "wspd": 15
        }
      ],
      "metar_raw": "METAR VHHH 240430Z 30006KT 9999 FEW020 32/23 Q1007 NOSIG",
      "metar_wdir": 300,
      "metar_wspd": 6,
      "metar_oat": 32,
      "metar_qnh": 1007,
      "hourly_oat": [
        30,
        31,
        31,
        31,
        31,
        30,
        29,
        28,
        28,
        28,
        28,
        28,
        28,
        28,
        28,
        28,
        28,
        28,
        28,
        28,
        28,
        29,
        29,
        30,
        30
      ]
    },
    "CTS": {
      "icao": "RJCC",
      "issued": "2026-07-24T01:43:00.000Z",
      "raw": "TAF AMD RJCC 240143Z 2401/2506 17012KT 9999 FEW005 BKN012 TEMPO 2401/2405 FEW005 BKN007 TEMPO 2405/2412 FEW003 BKN005 TEMPO 2412/2500 FEW005 BKN008",
      "groups": [
        {
          "text": "TAF AMD RJCC 240143Z 2401/2506 17012KT 9999 FEW005 BKN012",
          "offset_h": -3,
          "wdir": 170,
          "wspd": 12
        },
        {
          "text": "TEMPO 2401/2405 FEW005 BKN007",
          "offset_h": -3,
          "wdir": null,
          "wspd": null
        },
        {
          "text": "TEMPO 2405/2412 FEW003 BKN005",
          "offset_h": 1,
          "wdir": null,
          "wspd": null
        },
        {
          "text": "TEMPO 2412/2500 FEW005 BKN008",
          "offset_h": 8,
          "wdir": null,
          "wspd": null
        }
      ],
      "metar_raw": "METAR RJCC 240430Z 19011KT 9999 FEW005 SCT007 BKN009 22/20 Q1012",
      "metar_wdir": 190,
      "metar_wspd": 11,
      "metar_oat": 22,
      "metar_qnh": 1012,
      "hourly_oat": [
        23,
        23,
        22,
        21,
        20,
        20,
        19,
        19,
        19,
        19,
        19,
        19,
        19,
        18,
        18,
        18,
        18,
        19,
        19,
        19,
        20,
        20,
        20,
        20,
        21
      ]
    },
    "HAN": {
      "icao": "VVNB",
      "issued": "2026-07-24T00:47:00.000Z",
      "raw": "TAF AMD VVNB 240047Z 2401/2424 05005KT 9999 FEW020 TEMPO 2401/2403 3000 TSRA SCT010 FEW027CB TEMPO 2406/2410 3500 TSRA SCT010 FEW027CB TEMPO 2418/2422 3000 TSRA SCT010 FEW027CB",
      "groups": [
        {
          "text": "TAF AMD VVNB 240047Z 2401/2424 05005KT 9999 FEW020",
          "offset_h": -3,
          "wdir": 50,
          "wspd": 5
        },
        {
          "text": "TEMPO 2401/2403 3000 TSRA SCT010 FEW027CB",
          "offset_h": -3,
          "wdir": null,
          "wspd": null
        },
        {
          "text": "TEMPO 2406/2410 3500 TSRA SCT010 FEW027CB",
          "offset_h": 2,
          "wdir": null,
          "wspd": null
        },
        {
          "text": "TEMPO 2418/2422 3000 TSRA SCT010 FEW027CB",
          "offset_h": 14,
          "wdir": null,
          "wspd": null
        }
      ],
      "metar_raw": "METAR VVNB 240430Z 08004KT 030V130 9999 SCT018 31/27 Q1005 NOSIG",
      "metar_wdir": 80,
      "metar_wspd": 4,
      "metar_oat": 31,
      "metar_qnh": 1005,
      "hourly_oat": [
        30,
        30,
        30,
        31,
        30,
        30,
        30,
        29,
        28,
        27,
        26,
        26,
        25,
        25,
        25,
        25,
        25,
        24,
        24,
        24,
        25,
        26,
        27,
        29,
        30
      ]
    },
    "HND": {
      "icao": "RJTT",
      "issued": "2026-07-23T23:05:00.000Z",
      "raw": "TAF RJTT 232305Z 2400/2506 10006KT 9999 FEW015 BKN030 BECMG 2403/2405 18012KT TEMPO 2406/2409 TS FEW015 BKN030 FEW030CB TEMPO 2409/2412 3000 +TSRA BR FEW012 BKN020 SCT020CB TEMPO 2412/2415 -TSRA FEW012 BKN020 FEW020CB BECMG 2418/2421 03010KT BECMG 2503/2506 07016KT",
      "groups": [
        {
          "text": "TAF RJTT 232305Z 2400/2506 10006KT 9999 FEW015 BKN030",
          "offset_h": -4,
          "wdir": 100,
          "wspd": 6
        },
        {
          "text": "BECMG 2403/2405 18012KT",
          "offset_h": -1,
          "wdir": 180,
          "wspd": 12
        },
        {
          "text": "TEMPO 2406/2409 TS FEW015 BKN030 FEW030CB",
          "offset_h": 2,
          "wdir": null,
          "wspd": null
        },
        {
          "text": "TEMPO 2409/2412 3000 +TSRA BR FEW012 BKN020 SCT020CB",
          "offset_h": 5,
          "wdir": null,
          "wspd": null
        },
        {
          "text": "TEMPO 2412/2415 -TSRA FEW012 BKN020 FEW020CB",
          "offset_h": 8,
          "wdir": null,
          "wspd": null
        },
        {
          "text": "BECMG 2418/2421 03010KT",
          "offset_h": 14,
          "wdir": 30,
          "wspd": 10
        },
        {
          "text": "BECMG 2503/2506 07016KT",
          "offset_h": 23,
          "wdir": 70,
          "wspd": 16
        }
      ],
      "metar_raw": "METAR RJTT 240430Z 16009KT 130V210 9999 FEW020 34/27 Q1009 TEMPO FM0600 -TSRA",
      "metar_wdir": 160,
      "metar_wspd": 9,
      "metar_oat": 34,
      "metar_qnh": 1009,
      "hourly_oat": [
        31,
        32,
        31,
        31,
        30,
        29,
        29,
        28,
        28,
        27,
        27,
        27,
        27,
        27,
        27,
        27,
        26,
        26,
        26,
        28,
        30,
        31,
        32,
        33,
        33
      ]
    },
    "FUK": {
      "icao": "RJFF",
      "issued": "2026-07-23T23:05:00.000Z",
      "raw": "TAF RJFF 232305Z 2400/2506 32012KT 9999 FEW025 BECMG 2412/2415 15004KT BECMG 2500/2503 31011KT",
      "groups": [
        {
          "text": "TAF RJFF 232305Z 2400/2506 32012KT 9999 FEW025",
          "offset_h": -4,
          "wdir": 320,
          "wspd": 12
        },
        {
          "text": "BECMG 2412/2415 15004KT",
          "offset_h": 8,
          "wdir": 150,
          "wspd": 4
        },
        {
          "text": "BECMG 2500/2503 31011KT",
          "offset_h": 20,
          "wdir": 310,
          "wspd": 11
        }
      ],
      "metar_raw": "METAR RJFF 240430Z 31012KT 280V350 9999 FEW030 33/24 Q1012 NOSIG",
      "metar_wdir": 310,
      "metar_wspd": 12,
      "metar_oat": 33,
      "metar_qnh": 1012,
      "hourly_oat": [
        30,
        31,
        31,
        30,
        30,
        29,
        28,
        28,
        28,
        27,
        27,
        26,
        26,
        26,
        26,
        26,
        26,
        25,
        26,
        27,
        29,
        30,
        30,
        31,
        31
      ]
    },
    "OKA": {
      "icao": "ROAH",
      "issued": "2026-07-23T23:05:00.000Z",
      "raw": "TAF ROAH 232305Z 2400/2506 14010KT 9999 FEW020 SCT030",
      "groups": [
        {
          "text": "TAF ROAH 232305Z 2400/2506 14010KT 9999 FEW020 SCT030",
          "offset_h": -4,
          "wdir": 140,
          "wspd": 10
        }
      ],
      "metar_raw": "METAR ROAH 240430Z 13012KT 9999 FEW025 BKN040 33/26 Q1010",
      "metar_wdir": 130,
      "metar_wspd": 12,
      "metar_oat": 33,
      "metar_qnh": 1010,
      "hourly_oat": [
        33,
        33,
        32,
        32,
        32,
        30,
        29,
        29,
        29,
        29,
        28,
        28,
        28,
        28,
        28,
        28,
        28,
        28,
        29,
        30,
        31,
        32,
        32,
        33,
        33
      ]
    },
    "NGO": {
      "icao": "RJGG",
      "issued": "2026-07-23T23:05:00.000Z",
      "raw": "TAF RJGG 232305Z 2400/2506 29004KT 9999 FEW030 BECMG 2401/2403 24006KT BECMG 2407/2409 32012KT BECMG 2500/2503 25008KT",
      "groups": [
        {
          "text": "TAF RJGG 232305Z 2400/2506 29004KT 9999 FEW030",
          "offset_h": -4,
          "wdir": 290,
          "wspd": 4
        },
        {
          "text": "BECMG 2401/2403 24006KT",
          "offset_h": -3,
          "wdir": 240,
          "wspd": 6
        },
        {
          "text": "BECMG 2407/2409 32012KT",
          "offset_h": 3,
          "wdir": 320,
          "wspd": 12
        },
        {
          "text": "BECMG 2500/2503 25008KT",
          "offset_h": 20,
          "wdir": 250,
          "wspd": 8
        }
      ],
      "metar_raw": "METAR RJGG 240430Z 20006KT 9999 FEW020 BKN/// 33/26 Q1008 NOSIG",
      "metar_wdir": 200,
      "metar_wspd": 6,
      "metar_oat": 33,
      "metar_qnh": 1008,
      "hourly_oat": [
        30,
        31,
        32,
        32,
        31,
        31,
        32,
        32,
        31,
        30,
        30,
        30,
        29,
        29,
        29,
        29,
        29,
        29,
        29,
        29,
        30,
        31,
        31,
        31,
        31
      ]
    },
    "NRT": {
      "icao": "RJAA",
      "issued": "2026-07-23T23:05:00.000Z",
      "raw": "TAF RJAA 232305Z 2400/2506 14010KT 9999 FEW012 BKN020 TEMPO 2406/2409 TS FEW012 SCT015 BKN020 FEW020CB TEMPO 2409/2412 4000 -TSRA BR FEW003 BKN008 FEW020CB TEMPO 2412/2415 FEW003 BKN008 BECMG 2415/2418 35006KT TEMPO 2415/2500 2000 BR FEW001 BKN005 BECMG 2500/2503 03016KT",
      "groups": [
        {
          "text": "TAF RJAA 232305Z 2400/2506 14010KT 9999 FEW012 BKN020",
          "offset_h": -4,
          "wdir": 140,
          "wspd": 10
        },
        {
          "text": "TEMPO 2406/2409 TS FEW012 SCT015 BKN020 FEW020CB",
          "offset_h": 2,
          "wdir": null,
          "wspd": null
        },
        {
          "text": "TEMPO 2409/2412 4000 -TSRA BR FEW003 BKN008 FEW020CB",
          "offset_h": 5,
          "wdir": null,
          "wspd": null
        },
        {
          "text": "TEMPO 2412/2415 FEW003 BKN008",
          "offset_h": 8,
          "wdir": null,
          "wspd": null
        },
        {
          "text": "BECMG 2415/2418 35006KT",
          "offset_h": 11,
          "wdir": 350,
          "wspd": 6
        },
        {
          "text": "TEMPO 2415/2500 2000 BR FEW001 BKN005",
          "offset_h": 11,
          "wdir": null,
          "wspd": null
        },
        {
          "text": "BECMG 2500/2503 03016KT",
          "offset_h": 20,
          "wdir": 30,
          "wspd": 16
        }
      ],
      "metar_raw": "METAR RJAA 240430Z 09010KT 9999 -SHRA FEW010 BKN025 28/26 Q1010 NOSIG",
      "metar_wdir": 90,
      "metar_wspd": 10,
      "metar_oat": 28,
      "metar_qnh": 1010,
      "hourly_oat": [
        30,
        30,
        30,
        29,
        29,
        28,
        27,
        27,
        27,
        26,
        26,
        26,
        26,
        26,
        26,
        25,
        25,
        26,
        27,
        28,
        30,
        31,
        32,
        33,
        33
      ]
    },
    "KIX": {
      "icao": "RJBB",
      "issued": "2026-07-23T23:05:00.000Z",
      "raw": "TAF RJBB 232305Z 2400/2506 35005KT 9999 FEW030 BECMG 2401/2403 26006KT BECMG 2408/2410 02010KT BECMG 2500/2503 30006KT",
      "groups": [
        {
          "text": "TAF RJBB 232305Z 2400/2506 35005KT 9999 FEW030",
          "offset_h": -4,
          "wdir": 350,
          "wspd": 5
        },
        {
          "text": "BECMG 2401/2403 26006KT",
          "offset_h": -3,
          "wdir": 260,
          "wspd": 6
        },
        {
          "text": "BECMG 2408/2410 02010KT",
          "offset_h": 4,
          "wdir": 20,
          "wspd": 10
        },
        {
          "text": "BECMG 2500/2503 30006KT",
          "offset_h": 20,
          "wdir": 300,
          "wspd": 6
        }
      ],
      "metar_raw": "METAR RJBB 240430Z 26007KT 9999 FEW030 33/26 Q1010 NOSIG",
      "metar_wdir": 260,
      "metar_wspd": 7,
      "metar_oat": 33,
      "metar_qnh": 1010,
      "hourly_oat": [
        30,
        30,
        30,
        31,
        31,
        31,
        31,
        31,
        31,
        30,
        30,
        30,
        29,
        29,
        29,
        28,
        28,
        28,
        28,
        28,
        28,
        28,
        28,
        29,
        29
      ]
    },
    "ITM": {
      "icao": "RJOO",
      "issued": "2026-07-23T23:05:00.000Z",
      "raw": "TAF RJOO 232305Z 2400/2506 21008KT 9999 FEW030 BECMG 2405/2407 32006KT TEMPO 2405/2409 TS FEW015 FEW025CB BKN030 BECMG 2503/2506 22006KT TEMPO 2503/2506 TS FEW015 FEW025CB BKN030",
      "groups": [
        {
          "text": "TAF RJOO 232305Z 2400/2506 21008KT 9999 FEW030",
          "offset_h": -4,
          "wdir": 210,
          "wspd": 8
        },
        {
          "text": "BECMG 2405/2407 32006KT",
          "offset_h": 1,
          "wdir": 320,
          "wspd": 6
        },
        {
          "text": "TEMPO 2405/2409 TS FEW015 FEW025CB BKN030",
          "offset_h": 1,
          "wdir": null,
          "wspd": null
        },
        {
          "text": "BECMG 2503/2506 22006KT",
          "offset_h": 23,
          "wdir": 220,
          "wspd": 6
        },
        {
          "text": "TEMPO 2503/2506 TS FEW015 FEW025CB BKN030",
          "offset_h": 23,
          "wdir": null,
          "wspd": null
        }
      ],
      "metar_raw": "METAR RJOO 240400Z 22006KT 120V290 9999 FEW030 SCT040 37/23 Q1009",
      "metar_wdir": 220,
      "metar_wspd": 6,
      "metar_oat": 37,
      "metar_qnh": 1009,
      "hourly_oat": [
        34,
        34,
        34,
        34,
        34,
        33,
        31,
        30,
        29,
        29,
        28,
        28,
        27,
        27,
        27,
        26,
        26,
        26,
        28,
        29,
        31,
        32,
        34,
        34,
        34
      ]
    },
    "SGN": {
      "icao": "VVTS",
      "issued": "2026-07-23T23:00:00.000Z",
      "raw": "TAF VVTS 232300Z 2400/2506 VRB03KT 9999 SCT017 BECMG 2400/2402 26010KT TEMPO 2406/2408 5000 TSRA BKN015 FEW017CB TEMPO 2408/2412 26015G28KT 2000 +TSRA BKN013 SCT015CB",
      "groups": [
        {
          "text": "TAF VVTS 232300Z 2400/2506 VRB03KT 9999 SCT017",
          "offset_h": -4,
          "wdir": "VRB",
          "wspd": 3
        },
        {
          "text": "BECMG 2400/2402 26010KT",
          "offset_h": -4,
          "wdir": 260,
          "wspd": 10
        },
        {
          "text": "TEMPO 2406/2408 5000 TSRA BKN015 FEW017CB",
          "offset_h": 2,
          "wdir": null,
          "wspd": null
        },
        {
          "text": "TEMPO 2408/2412 26015G28KT 2000 +TSRA BKN013 SCT015CB",
          "offset_h": 4,
          "wdir": 260,
          "wspd": 15
        }
      ],
      "metar_raw": "METAR VVTS 240430Z 30006KT 240V340 9999 BKN033 32/25 Q1006 NOSIG",
      "metar_wdir": 300,
      "metar_wspd": 6,
      "metar_oat": 32,
      "metar_qnh": 1006,
      "hourly_oat": [
        31,
        31,
        30,
        28,
        28,
        28,
        27,
        26,
        25,
        25,
        25,
        25,
        25,
        25,
        25,
        25,
        25,
        25,
        24,
        24,
        26,
        27,
        28,
        29,
        30
      ]
    },
    "TSA": {
      "icao": "RCSS",
      "issued": "2026-07-23T23:00:00.000Z",
      "raw": "TAF RCSS 232300Z 2400/2424 12010KT 9999 FEW015 BKN032 TEMPO 2406/2412 11012G22KT BECMG 2412/2414 10015G25KT TEMPO 2418/2424 11020G30KT 5000 SHRA FEW012 BKN020 BKN050",
      "groups": [
        {
          "text": "TAF RCSS 232300Z 2400/2424 12010KT 9999 FEW015 BKN032",
          "offset_h": -4,
          "wdir": 120,
          "wspd": 10
        },
        {
          "text": "TEMPO 2406/2412 11012G22KT",
          "offset_h": 2,
          "wdir": 110,
          "wspd": 12
        },
        {
          "text": "BECMG 2412/2414 10015G25KT",
          "offset_h": 8,
          "wdir": 100,
          "wspd": 15
        },
        {
          "text": "TEMPO 2418/2424 11020G30KT 5000 SHRA FEW012 BKN020 BKN050",
          "offset_h": 14,
          "wdir": 110,
          "wspd": 20
        }
      ],
      "metar_raw": "METAR RCSS 240430Z 11017KT 090V150 9999 FEW025 BKN120 BKN220 36/28 Q1006 WS R10 NOSIG RMK A2972",
      "metar_wdir": 110,
      "metar_wspd": 17,
      "metar_oat": 36,
      "metar_qnh": 1006,
      "hourly_oat": [
        32,
        32,
        32,
        32,
        32,
        30,
        29,
        28,
        27,
        27,
        27,
        27,
        26,
        26,
        27,
        27,
        27,
        27,
        27,
        28,
        29,
        29,
        30,
        31,
        32
      ]
    },
    "TPE": {
      "icao": "RCTP",
      "issued": "2026-07-23T23:00:00.000Z",
      "raw": "TAF RCTP 232300Z 2400/2506 33005KT 9999 FEW015 BKN032 TEMPO 2404/2410 02010KT BECMG 2410/2412 09015KT TEMPO 2418/2424 10018G28KT BECMG 2500/2502 15005KT TEMPO 2502/2506 33005KT",
      "groups": [
        {
          "text": "TAF RCTP 232300Z 2400/2506 33005KT 9999 FEW015 BKN032",
          "offset_h": -4,
          "wdir": 330,
          "wspd": 5
        },
        {
          "text": "TEMPO 2404/2410 02010KT",
          "offset_h": 0,
          "wdir": 20,
          "wspd": 10
        },
        {
          "text": "BECMG 2410/2412 09015KT",
          "offset_h": 6,
          "wdir": 90,
          "wspd": 15
        },
        {
          "text": "TEMPO 2418/2424 10018G28KT",
          "offset_h": 14,
          "wdir": 100,
          "wspd": 18
        },
        {
          "text": "BECMG 2500/2502 15005KT",
          "offset_h": 20,
          "wdir": 150,
          "wspd": 5
        },
        {
          "text": "TEMPO 2502/2506 33005KT",
          "offset_h": 22,
          "wdir": 330,
          "wspd": 5
        }
      ],
      "metar_raw": "METAR RCTP 240430Z 08012KT 9999 FEW020 SCT040 BKN100 36/25 Q1006 WS ALL RWY NOSIG RMK A2971",
      "metar_wdir": 80,
      "metar_wspd": 12,
      "metar_oat": 36,
      "metar_qnh": 1006,
      "hourly_oat": [
        35,
        35,
        33,
        33,
        33,
        31,
        30,
        29,
        28,
        28,
        27,
        27,
        27,
        27,
        27,
        27,
        27,
        27,
        27,
        28,
        30,
        31,
        31,
        32,
        33
      ]
    },
    "CGK": {
      "icao": "WIII",
      "issued": "2026-07-23T23:00:00.000Z",
      "raw": "TAF WIII 232300Z 2400/2506 18005KT 8000 FEW020 BECMG 2403/2405 02010KT BECMG 2413/2415 15005KT",
      "groups": [
        {
          "text": "TAF WIII 232300Z 2400/2506 18005KT 8000 FEW020",
          "offset_h": -4,
          "wdir": 180,
          "wspd": 5
        },
        {
          "text": "BECMG 2403/2405 02010KT",
          "offset_h": -1,
          "wdir": 20,
          "wspd": 10
        },
        {
          "text": "BECMG 2413/2415 15005KT",
          "offset_h": 9,
          "wdir": 150,
          "wspd": 5
        }
      ],
      "metar_raw": "METAR WIII 240430Z 35004KT 7000 SCT020 32/18 Q1010 NOSIG",
      "metar_wdir": 350,
      "metar_wspd": 4,
      "metar_oat": 32,
      "metar_qnh": 1010,
      "hourly_oat": [
        32,
        33,
        33,
        32,
        32,
        31,
        30,
        29,
        29,
        28,
        28,
        27,
        27,
        26,
        26,
        25,
        25,
        25,
        24,
        24,
        25,
        27,
        29,
        31,
        32
      ]
    },
    "GMP": {
      "icao": "RKSS",
      "issued": "2026-07-23T23:00:00.000Z",
      "raw": "TAF RKSS 232300Z 2400/2506 18006KT 9999 BKN020 TX32/2406Z TN25/2420Z TX30/2506Z TEMPO 2400/2404 -RA BECMG 2404/2406 24007KT SCT030 BECMG 2411/2413 18005KT BKN020 BECMG 2423/2501 24007KT TEMPO 2501/2506 -RA",
      "groups": [
        {
          "text": "TAF RKSS 232300Z 2400/2506 18006KT 9999 BKN020 TX32/2406Z TN25/2420Z TX30/2506Z",
          "offset_h": -4,
          "wdir": 180,
          "wspd": 6
        },
        {
          "text": "TEMPO 2400/2404 -RA",
          "offset_h": -4,
          "wdir": null,
          "wspd": null
        },
        {
          "text": "BECMG 2404/2406 24007KT SCT030",
          "offset_h": 0,
          "wdir": 240,
          "wspd": 7
        },
        {
          "text": "BECMG 2411/2413 18005KT BKN020",
          "offset_h": 7,
          "wdir": 180,
          "wspd": 5
        },
        {
          "text": "BECMG 2423/2501 24007KT",
          "offset_h": 19,
          "wdir": 240,
          "wspd": 7
        },
        {
          "text": "TEMPO 2501/2506 -RA",
          "offset_h": 21,
          "wdir": null,
          "wspd": null
        }
      ],
      "metar_raw": "METAR RKSS 240400Z 23011KT 9999 BKN035 32/25 Q1011 NOSIG",
      "metar_wdir": 230,
      "metar_wspd": 11,
      "metar_oat": 32,
      "metar_qnh": 1011,
      "hourly_oat": [
        30,
        30,
        30,
        30,
        30,
        29,
        28,
        27,
        26,
        26,
        26,
        26,
        25,
        25,
        25,
        25,
        25,
        25,
        25,
        26,
        27,
        28,
        28,
        28,
        28
      ]
    },
    "BKK": {
      "icao": "VTBS",
      "issued": "2026-07-23T23:00:00.000Z",
      "raw": "TAF VTBS 232300Z 2400/2506 23008KT 9999 FEW020 TEMPO 2409/2414 VRB15KT 3000 TSRA FEW018CB SCT020 BKN080",
      "groups": [
        {
          "text": "TAF VTBS 232300Z 2400/2506 23008KT 9999 FEW020",
          "offset_h": -4,
          "wdir": 230,
          "wspd": 8
        },
        {
          "text": "TEMPO 2409/2414 VRB15KT 3000 TSRA FEW018CB SCT020 BKN080",
          "offset_h": 5,
          "wdir": "VRB",
          "wspd": 15
        }
      ],
      "metar_raw": "METAR VTBS 240430Z 26010KT 9999 FEW020 33/22 Q1006 NOSIG",
      "metar_wdir": 260,
      "metar_wspd": 10,
      "metar_oat": 33,
      "metar_qnh": 1006,
      "hourly_oat": [
        34,
        35,
        31,
        30,
        30,
        30,
        30,
        30,
        29,
        27,
        26,
        26,
        26,
        27,
        27,
        26,
        26,
        26,
        26,
        26,
        27,
        28,
        30,
        31,
        33
      ]
    },
    "SIN": {
      "icao": "WSSS",
      "issued": "2026-07-23T23:00:00.000Z",
      "raw": "TAF WSSS 232300Z 2400/2506 16008KT 9999 FEW015 SCT020",
      "groups": [
        {
          "text": "TAF WSSS 232300Z 2400/2506 16008KT 9999 FEW015 SCT020",
          "offset_h": -4,
          "wdir": 160,
          "wspd": 8
        }
      ],
      "metar_raw": "METAR WSSS 240430Z 14010KT 110V180 9999 SCT016 FEW018TCU FEW020CB BKN300 32/25 Q1009 NOSIG",
      "metar_wdir": 140,
      "metar_wspd": 10,
      "metar_oat": 32,
      "metar_qnh": 1009,
      "hourly_oat": [
        31,
        31,
        31,
        30,
        30,
        30,
        29,
        28,
        28,
        26,
        26,
        26,
        26,
        26,
        26,
        26,
        26,
        26,
        25,
        25,
        26,
        25,
        26,
        27,
        27
      ]
    }
  }
}