{
  "updated": "2026-07-02T12:01:13Z",
  "tafs": {
    "LAX": {
      "icao": "KLAX",
      "issued": "2026-07-02T11:38:00.000Z",
      "raw": "TAF KLAX 021138Z 0212/0318 25006KT P6SM OVC015 FM022000 26012KT P6SM SCT022 FM030700 26010KT P6SM BKN018 BKN025 FM031000 26005KT P6SM BKN018 BKN025 FM031700 26005KT P6SM SCT018 BKN025",
      "groups": [
        {
          "text": "TAF KLAX 021138Z 0212/0318 25006KT P6SM OVC015",
          "offset_h": 0,
          "wdir": 250,
          "wspd": 6
        },
        {
          "text": "FM022000 26012KT P6SM SCT022",
          "offset_h": 8,
          "wdir": 260,
          "wspd": 12
        },
        {
          "text": "FM030700 26010KT P6SM BKN018 BKN025",
          "offset_h": 19,
          "wdir": 260,
          "wspd": 10
        },
        {
          "text": "FM031000 26005KT P6SM BKN018 BKN025",
          "offset_h": 22,
          "wdir": 260,
          "wspd": 5
        },
        {
          "text": "FM031700 26005KT P6SM SCT018 BKN025",
          "offset_h": 29,
          "wdir": 260,
          "wspd": 5
        }
      ],
      "metar_raw": "METAR KLAX 021153Z 21004KT 10SM FEW012 OVC018 18/14 A2993 RMK AO2 SLP132 T01830139 10183 20172 53001 $",
      "metar_wdir": 210,
      "metar_wspd": 4,
      "metar_oat": 18,
      "metar_qnh": 1014,
      "hourly_oat": [
        18,
        18,
        18,
        18,
        18,
        19,
        19,
        20,
        21,
        21,
        21,
        20,
        20,
        19,
        18,
        18,
        16,
        16,
        15,
        15,
        15,
        14,
        15,
        16,
        16
      ]
    },
    "HNL": {
      "icao": "PHNL",
      "issued": "2026-07-02T11:32:00.000Z",
      "raw": "TAF PHNL 021132Z 0212/0318 05007KT P6SM FEW025 FEW040 FM022000 06018G28KT P6SM FEW025 SCT040 FM030600 06010KT P6SM FEW025 FEW045",
      "groups": [
        {
          "text": "TAF PHNL 021132Z 0212/0318 05007KT P6SM FEW025 FEW040",
          "offset_h": 0,
          "wdir": 50,
          "wspd": 7
        },
        {
          "text": "FM022000 06018G28KT P6SM FEW025 SCT040",
          "offset_h": 8,
          "wdir": 60,
          "wspd": 18
        },
        {
          "text": "FM030600 06010KT P6SM FEW025 FEW045",
          "offset_h": 18,
          "wdir": 60,
          "wspd": 10
        }
      ],
      "metar_raw": "METAR PHNL 021153Z 06008KT 10SM FEW025 FEW035 26/19 A3000 RMK AO2 SLP158 T02560194 10267 20256 58010 $",
      "metar_wdir": 60,
      "metar_wspd": 8,
      "metar_oat": 26,
      "metar_qnh": 1016,
      "hourly_oat": [
        24,
        24,
        23,
        23,
        23,
        24,
        26,
        27,
        28,
        29,
        29,
        29,
        29,
        28,
        28,
        27,
        26,
        24,
        23,
        23,
        23,
        23,
        23,
        22,
        22
      ]
    },
    "SAN": {
      "icao": "KSAN",
      "issued": "2026-07-02T11:20:00.000Z",
      "raw": "TAF KSAN 021120Z 0212/0318 VRB04KT P6SM OVC018 FM021900 29011KT P6SM SCT020 FM030400 VRB04KT P6SM OVC015 FM031700 VRB05KT P6SM SCT018",
      "groups": [
        {
          "text": "TAF KSAN 021120Z 0212/0318 VRB04KT P6SM OVC018",
          "offset_h": 0,
          "wdir": "VRB",
          "wspd": 4
        },
        {
          "text": "FM021900 29011KT P6SM SCT020",
          "offset_h": 7,
          "wdir": 290,
          "wspd": 11
        },
        {
          "text": "FM030400 VRB04KT P6SM OVC015",
          "offset_h": 16,
          "wdir": "VRB",
          "wspd": 4
        },
        {
          "text": "FM031700 VRB05KT P6SM SCT018",
          "offset_h": 29,
          "wdir": "VRB",
          "wspd": 5
        }
      ],
      "metar_raw": "METAR KSAN 021151Z 32003KT 10SM BKN018 18/14 A2994 RMK AO2 SLP138 T01830139 10189 20178 55000 $",
      "metar_wdir": 320,
      "metar_wspd": 3,
      "metar_oat": 18,
      "metar_qnh": 1014,
      "hourly_oat": [
        18,
        18,
        18,
        19,
        20,
        20,
        21,
        22,
        22,
        23,
        22,
        22,
        21,
        20,
        19,
        19,
        18,
        18,
        18,
        18,
        17,
        17,
        17,
        17,
        16
      ]
    },
    "CTS": {
      "icao": "RJCC",
      "issued": "2026-07-02T11:05:00.000Z",
      "raw": "TAF RJCC 021105Z 0212/0318 18008KT 9999 FEW008 BKN015 TEMPO 0212/0215 FEW005 BKN008 TEMPO 0215/0220 FEW003 BKN005 TEMPO 0220/0223 FEW005 BKN008 TEMPO 0315/0318 FEW002 BKN004",
      "groups": [
        {
          "text": "TAF RJCC 021105Z 0212/0318 18008KT 9999 FEW008 BKN015",
          "offset_h": 0,
          "wdir": 180,
          "wspd": 8
        },
        {
          "text": "TEMPO 0212/0215 FEW005 BKN008",
          "offset_h": 0,
          "wdir": null,
          "wspd": null
        },
        {
          "text": "TEMPO 0215/0220 FEW003 BKN005",
          "offset_h": 3,
          "wdir": null,
          "wspd": null
        },
        {
          "text": "TEMPO 0220/0223 FEW005 BKN008",
          "offset_h": 8,
          "wdir": null,
          "wspd": null
        },
        {
          "text": "TEMPO 0315/0318 FEW002 BKN004",
          "offset_h": 27,
          "wdir": null,
          "wspd": null
        }
      ],
      "metar_raw": "METAR RJCC 021130Z 20006KT 9999 FEW010 BKN028 BKN/// 15/13 Q1013",
      "metar_wdir": 200,
      "metar_wspd": 6,
      "metar_oat": 15,
      "metar_qnh": 1013,
      "hourly_oat": [
        15,
        15,
        15,
        15,
        15,
        15,
        15,
        15,
        15,
        16,
        17,
        18,
        19,
        19,
        19,
        19,
        20,
        20,
        19,
        19,
        18,
        16,
        15,
        14,
        14
      ]
    },
    "NRT": {
      "icao": "RJAA",
      "issued": "2026-07-02T11:05:00.000Z",
      "raw": "TAF RJAA 021105Z 0212/0318 36010KT 8000 FEW003 BKN012 TEMPO 0212/0221 FEW002 BKN005 TEMPO 0221/0300 FEW003 BKN008 TEMPO 0315/0318 4000 BR FEW001 BKN003",
      "groups": [
        {
          "text": "TAF RJAA 021105Z 0212/0318 36010KT 8000 FEW003 BKN012",
          "offset_h": 0,
          "wdir": 360,
          "wspd": 10
        },
        {
          "text": "TEMPO 0212/0221 FEW002 BKN005",
          "offset_h": 0,
          "wdir": null,
          "wspd": null
        },
        {
          "text": "TEMPO 0221/0300 FEW003 BKN008",
          "offset_h": 9,
          "wdir": null,
          "wspd": null
        },
        {
          "text": "TEMPO 0315/0318 4000 BR FEW001 BKN003",
          "offset_h": 27,
          "wdir": null,
          "wspd": null
        }
      ],
      "metar_raw": "METAR RJAA 021130Z 01011KT 2000 -DZRA BR FEW002 BKN003 BKN004 20/20 Q1006 BECMG 8000 NSW",
      "metar_wdir": 10,
      "metar_wspd": 11,
      "metar_oat": 20,
      "metar_qnh": 1006,
      "hourly_oat": [
        21,
        21,
        21,
        21,
        20,
        20,
        20,
        20,
        20,
        21,
        21,
        22,
        23,
        23,
        23,
        24,
        24,
        24,
        23,
        22,
        22,
        21,
        20,
        20,
        20
      ]
    },
    "KIX": {
      "icao": "RJBB",
      "issued": "2026-07-02T11:05:00.000Z",
      "raw": "TAF RJBB 021105Z 0212/0318 35010KT 9999 FEW015 SCT020 BKN040 BECMG 0300/0303 27006KT",
      "groups": [
        {
          "text": "TAF RJBB 021105Z 0212/0318 35010KT 9999 FEW015 SCT020 BKN040",
          "offset_h": 0,
          "wdir": 350,
          "wspd": 10
        },
        {
          "text": "BECMG 0300/0303 27006KT",
          "offset_h": 12,
          "wdir": 270,
          "wspd": 6
        }
      ],
      "metar_raw": "METAR RJBB 021130Z 34012KT 9999 FEW020 BKN035 BKN/// 25/21 Q1009 NOSIG",
      "metar_wdir": 340,
      "metar_wspd": 12,
      "metar_oat": 25,
      "metar_qnh": 1009,
      "hourly_oat": [
        25,
        24,
        24,
        24,
        23,
        23,
        23,
        23,
        23,
        22,
        22,
        22,
        22,
        22,
        23,
        23,
        23,
        24,
        24,
        24,
        24,
        24,
        24,
        25,
        25
      ]
    },
    "HND": {
      "icao": "RJTT",
      "issued": "2026-07-02T11:05:00.000Z",
      "raw": "TAF RJTT 021105Z 0212/0318 02008KT 9999 FEW008 BKN015 BECMG 0303/0306 08010KT",
      "groups": [
        {
          "text": "TAF RJTT 021105Z 0212/0318 02008KT 9999 FEW008 BKN015",
          "offset_h": 0,
          "wdir": 20,
          "wspd": 8
        },
        {
          "text": "BECMG 0303/0306 08010KT",
          "offset_h": 15,
          "wdir": 80,
          "wspd": 10
        }
      ],
      "metar_raw": "METAR RJTT 021130Z 04009KT 9999 FEW007 SCT010 BKN017 22/20 Q1007 NOSIG",
      "metar_wdir": 40,
      "metar_wspd": 9,
      "metar_oat": 22,
      "metar_qnh": 1007,
      "hourly_oat": [
        22,
        22,
        22,
        22,
        22,
        21,
        21,
        21,
        21,
        21,
        22,
        22,
        23,
        23,
        24,
        24,
        25,
        25,
        25,
        25,
        24,
        24,
        23,
        23,
        22
      ]
    },
    "ITM": {
      "icao": "RJOO",
      "issued": "2026-07-02T11:05:00.000Z",
      "raw": "TAF RJOO 021105Z 0212/0318 31006KT 9999 FEW020 SCT030",
      "groups": [
        {
          "text": "TAF RJOO 021105Z 0212/0318 31006KT 9999 FEW020 SCT030",
          "offset_h": 0,
          "wdir": 310,
          "wspd": 6
        }
      ],
      "metar_raw": "METAR RJOO 021100Z 31010KT 270V350 9999 FEW020 SCT080 BKN/// 25/19 Q1009",
      "metar_wdir": 310,
      "metar_wspd": 10,
      "metar_oat": 25,
      "metar_qnh": 1009,
      "hourly_oat": [
        23,
        23,
        22,
        22,
        22,
        21,
        21,
        21,
        21,
        21,
        22,
        23,
        24,
        26,
        27,
        28,
        29,
        29,
        29,
        30,
        29,
        29,
        28,
        26,
        25
      ]
    },
    "OKA": {
      "icao": "ROAH",
      "issued": "2026-07-02T11:05:00.000Z",
      "raw": "TAF ROAH 021105Z 0212/0318 19006KT 9999 FEW008 BKN012 TEMPO 0215/0221 FEW005 BKN008 TEMPO 0315/0318 FEW005 BKN008",
      "groups": [
        {
          "text": "TAF ROAH 021105Z 0212/0318 19006KT 9999 FEW008 BKN012",
          "offset_h": 0,
          "wdir": 190,
          "wspd": 6
        },
        {
          "text": "TEMPO 0215/0221 FEW005 BKN008",
          "offset_h": 3,
          "wdir": null,
          "wspd": null
        },
        {
          "text": "TEMPO 0315/0318 FEW005 BKN008",
          "offset_h": 27,
          "wdir": null,
          "wspd": null
        }
      ],
      "metar_raw": "METAR ROAH 021130Z 20004KT 9999 FEW010 28/26 Q1014",
      "metar_wdir": 200,
      "metar_wspd": 4,
      "metar_oat": 28,
      "metar_qnh": 1014,
      "hourly_oat": [
        27,
        27,
        27,
        27,
        27,
        27,
        27,
        27,
        27,
        27,
        28,
        28,
        29,
        29,
        29,
        29,
        29,
        29,
        30,
        30,
        29,
        29,
        28,
        28,
        27
      ]
    },
    "NGO": {
      "icao": "RJGG",
      "issued": "2026-07-02T11:05:00.000Z",
      "raw": "TAF RJGG 021105Z 0212/0318 36014KT 9999 FEW020 SCT040 BECMG 0214/0216 30014KT BECMG 0300/0303 23006KT BECMG 0306/0309 13012KT",
      "groups": [
        {
          "text": "TAF RJGG 021105Z 0212/0318 36014KT 9999 FEW020 SCT040",
          "offset_h": 0,
          "wdir": 360,
          "wspd": 14
        },
        {
          "text": "BECMG 0214/0216 30014KT",
          "offset_h": 2,
          "wdir": 300,
          "wspd": 14
        },
        {
          "text": "BECMG 0300/0303 23006KT",
          "offset_h": 12,
          "wdir": 230,
          "wspd": 6
        },
        {
          "text": "BECMG 0306/0309 13012KT",
          "offset_h": 18,
          "wdir": 130,
          "wspd": 12
        }
      ],
      "metar_raw": "METAR RJGG 021130Z 35013KT 9999 FEW020 BKN/// 24/20 Q1007 NOSIG",
      "metar_wdir": 350,
      "metar_wspd": 13,
      "metar_oat": 24,
      "metar_qnh": 1007,
      "hourly_oat": [
        24,
        24,
        24,
        24,
        24,
        24,
        24,
        24,
        23,
        23,
        23,
        24,
        24,
        25,
        25,
        25,
        25,
        26,
        26,
        26,
        26,
        25,
        24,
        24,
        24
      ]
    },
    "FUK": {
      "icao": "RJFF",
      "issued": "2026-07-02T11:05:00.000Z",
      "raw": "TAF RJFF 021105Z 0212/0318 34005KT 9999 FEW009 BECMG 0212/0214 15004KT BECMG 0300/0303 32008KT BECMG 0309/0312 15008KT TEMPO 0309/0312 4000 RA BR",
      "groups": [
        {
          "text": "TAF RJFF 021105Z 0212/0318 34005KT 9999 FEW009",
          "offset_h": 0,
          "wdir": 340,
          "wspd": 5
        },
        {
          "text": "BECMG 0212/0214 15004KT",
          "offset_h": 0,
          "wdir": 150,
          "wspd": 4
        },
        {
          "text": "BECMG 0300/0303 32008KT",
          "offset_h": 12,
          "wdir": 320,
          "wspd": 8
        },
        {
          "text": "BECMG 0309/0312 15008KT",
          "offset_h": 21,
          "wdir": 150,
          "wspd": 8
        },
        {
          "text": "TEMPO 0309/0312 4000 RA BR",
          "offset_h": 21,
          "wdir": null,
          "wspd": null
        }
      ],
      "metar_raw": "METAR RJFF 021130Z 30004KT 220V330 9999 FEW020 SCT050 BKN/// 24/20 Q1012 NOSIG",
      "metar_wdir": 300,
      "metar_wspd": 4,
      "metar_oat": 24,
      "metar_qnh": 1012,
      "hourly_oat": [
        23,
        22,
        22,
        22,
        22,
        21,
        21,
        21,
        21,
        21,
        22,
        23,
        24,
        25,
        26,
        25,
        25,
        25,
        25,
        25,
        26,
        24,
        24,
        24,
        23
      ]
    },
    "HAN": {
      "icao": "VVNB",
      "issued": "2026-07-02T11:00:00.000Z",
      "raw": "TAF VVNB 021100Z 0212/0312 32005KT 9999 FEW025 TEMPO 0222/0302 4000 SHRA SCT010 FEW025TCU TEMPO 0305/0311 06015G25KT 2500 +TSRA BKN010 SCT027CB",
      "groups": [
        {
          "text": "TAF VVNB 021100Z 0212/0312 32005KT 9999 FEW025",
          "offset_h": 0,
          "wdir": 320,
          "wspd": 5
        },
        {
          "text": "TEMPO 0222/0302 4000 SHRA SCT010 FEW025TCU",
          "offset_h": 10,
          "wdir": null,
          "wspd": null
        },
        {
          "text": "TEMPO 0305/0311 06015G25KT 2500 +TSRA BKN010 SCT027CB",
          "offset_h": 17,
          "wdir": 60,
          "wspd": 15
        }
      ],
      "metar_raw": "METAR VVNB 021130Z 31003KT CAVOK 28/26 Q1005 NOSIG",
      "metar_wdir": 310,
      "metar_wspd": 3,
      "metar_oat": 28,
      "metar_qnh": 1005,
      "hourly_oat": [
        29,
        28,
        28,
        27,
        28,
        27,
        27,
        25,
        25,
        24,
        25,
        25,
        27,
        28,
        29,
        29,
        29,
        31,
        32,
        29,
        31,
        31,
        29,
        27,
        27
      ]
    },
    "CGK": {
      "icao": "WIII",
      "issued": "2026-07-02T11:00:00.000Z",
      "raw": "TAF WIII 021100Z 0212/0318 02010KT 5000 HZ SCT020 BECMG 0215/0217 17006KT BECMG 0303/0305 36011KT 7000 NSW",
      "groups": [
        {
          "text": "TAF WIII 021100Z 0212/0318 02010KT 5000 HZ SCT020",
          "offset_h": 0,
          "wdir": 20,
          "wspd": 10
        },
        {
          "text": "BECMG 0215/0217 17006KT",
          "offset_h": 3,
          "wdir": 170,
          "wspd": 6
        },
        {
          "text": "BECMG 0303/0305 36011KT 7000 NSW",
          "offset_h": 15,
          "wdir": 360,
          "wspd": 11
        }
      ],
      "metar_raw": "METAR WIII 021130Z 01004KT 340V040 5000 HZ FEW020 28/23 Q1010 NOSIG",
      "metar_wdir": 10,
      "metar_wspd": 4,
      "metar_oat": 28,
      "metar_qnh": 1010,
      "hourly_oat": [
        29,
        28,
        28,
        28,
        28,
        27,
        26,
        26,
        26,
        25,
        25,
        24,
        25,
        28,
        30,
        31,
        33,
        34,
        34,
        33,
        32,
        31,
        30,
        29,
        29
      ]
    },
    "BKK": {
      "icao": "VTBS",
      "issued": "2026-07-02T11:00:00.000Z",
      "raw": "TAF VTBS 021100Z 0212/0318 19008KT 9999 FEW020 TEMPO 0212/0218 VRB15G25KT 4000 TSRA FEW018CB SCT030 BKN100 TEMPO 0308/0314 VRB15G25KT 4000 TSRA FEW018CB SCT030 BKN100",
      "groups": [
        {
          "text": "TAF VTBS 021100Z 0212/0318 19008KT 9999 FEW020",
          "offset_h": 0,
          "wdir": 190,
          "wspd": 8
        },
        {
          "text": "TEMPO 0212/0218 VRB15G25KT 4000 TSRA FEW018CB SCT030 BKN100",
          "offset_h": 0,
          "wdir": "VRB",
          "wspd": 15
        },
        {
          "text": "TEMPO 0308/0314 VRB15G25KT 4000 TSRA FEW018CB SCT030 BKN100",
          "offset_h": 20,
          "wdir": "VRB",
          "wspd": 15
        }
      ],
      "metar_raw": "METAR VTBS 021130Z 25009KT 2000 +RA FEW010CB SCT035 BKN090 26/26 Q1005 BECMG TL1150 4000 TSRA",
      "metar_wdir": 250,
      "metar_wspd": 9,
      "metar_oat": 26,
      "metar_qnh": 1005,
      "hourly_oat": [
        28,
        27,
        26,
        26,
        26,
        26,
        27,
        27,
        27,
        27,
        27,
        27,
        28,
        29,
        30,
        32,
        30,
        32,
        32,
        31,
        30,
        29,
        29,
        28,
        28
      ]
    },
    "SIN": {
      "icao": "WSSS",
      "issued": "2026-07-02T11:00:00.000Z",
      "raw": "TAF WSSS 021100Z 0212/0318 18008KT 9999 FEW015 SCT020 TEMPO 0306/0309 3000 TSRA FEW012CB BKN015",
      "groups": [
        {
          "text": "TAF WSSS 021100Z 0212/0318 18008KT 9999 FEW015 SCT020",
          "offset_h": 0,
          "wdir": 180,
          "wspd": 8
        },
        {
          "text": "TEMPO 0306/0309 3000 TSRA FEW012CB BKN015",
          "offset_h": 18,
          "wdir": null,
          "wspd": null
        }
      ],
      "metar_raw": "METAR WSSS 021200Z 14006KT 9999 FEW018 BKN300 29/23 Q1009 NOSIG",
      "metar_wdir": 140,
      "metar_wspd": 6,
      "metar_oat": 29,
      "metar_qnh": 1009,
      "hourly_oat": [
        28,
        28,
        28,
        28,
        28,
        28,
        28,
        28,
        28,
        28,
        28,
        28,
        25,
        25,
        26,
        28,
        29,
        30,
        30,
        30,
        30,
        27,
        27,
        28,
        28
      ]
    },
    "KUL": {
      "icao": "WMKK",
      "issued": "2026-07-02T11:00:00.000Z",
      "raw": "TAF WMKK 021100Z 0212/0318 VRB03KT 9999 FEW030 PROB30 TEMPO 0306/0310 5000 TSRA FEW017CB SCT018",
      "groups": [
        {
          "text": "TAF WMKK 021100Z 0212/0318 VRB03KT 9999 FEW030",
          "offset_h": 0,
          "wdir": "VRB",
          "wspd": 3
        },
        {
          "text": "PROB30",
          "offset_h": 0,
          "wdir": null,
          "wspd": null
        },
        {
          "text": "TEMPO 0306/0310 5000 TSRA FEW017CB SCT018",
          "offset_h": 18,
          "wdir": null,
          "wspd": null
        }
      ],
      "metar_raw": "METAR WMKK 021130Z VRB02KT 9999 FEW030 29/25 Q1007 NOSIG",
      "metar_wdir": "VRB",
      "metar_wspd": 2,
      "metar_oat": 29,
      "metar_qnh": 1007,
      "hourly_oat": [
        28,
        28,
        27,
        27,
        26,
        25,
        25,
        25,
        25,
        25,
        25,
        24,
        25,
        26,
        26,
        28,
        29,
        30,
        30,
        30,
        30,
        30,
        29,
        28,
        28
      ]
    },
    "SGN": {
      "icao": "VVTS",
      "issued": "2026-07-02T11:00:00.000Z",
      "raw": "TAF VVTS 021100Z 0212/0318 27010KT 9999 SCT017 TEMPO 0300/0303 5000 SHRA SCT015 FEW017CB TEMPO 0306/0310 25018G28KT 2000 +TSRA BKN013 SCT015CB TEMPO 0310/0316 5000 RA",
      "groups": [
        {
          "text": "TAF VVTS 021100Z 0212/0318 27010KT 9999 SCT017",
          "offset_h": 0,
          "wdir": 270,
          "wspd": 10
        },
        {
          "text": "TEMPO 0300/0303 5000 SHRA SCT015 FEW017CB",
          "offset_h": 12,
          "wdir": null,
          "wspd": null
        },
        {
          "text": "TEMPO 0306/0310 25018G28KT 2000 +TSRA BKN013 SCT015CB",
          "offset_h": 18,
          "wdir": 250,
          "wspd": 18
        },
        {
          "text": "TEMPO 0310/0316 5000 RA",
          "offset_h": 22,
          "wdir": null,
          "wspd": null
        }
      ],
      "metar_raw": "METAR VVTS 021130Z 00000KT 8000 -RA FEW039 BKN051 26/26 Q1007 NOSIG",
      "metar_wdir": 0,
      "metar_wspd": 0,
      "metar_oat": 26,
      "metar_qnh": 1007,
      "hourly_oat": [
        26,
        26,
        26,
        26,
        26,
        25,
        25,
        25,
        25,
        25,
        25,
        26,
        26,
        26,
        26,
        27,
        28,
        29,
        27,
        27,
        27,
        26,
        26,
        26,
        26
      ]
    },
    "TSA": {
      "icao": "RCSS",
      "issued": "2026-07-02T11:00:00.000Z",
      "raw": "TAF RCSS 021100Z 0212/0312 09005KT 9999 FEW015 BKN032 BECMG 0301/0303 31005KT TEMPO 0306/0310 28010KT FEW012 FEW015TCU BKN020 BKN050",
      "groups": [
        {
          "text": "TAF RCSS 021100Z 0212/0312 09005KT 9999 FEW015 BKN032",
          "offset_h": 0,
          "wdir": 90,
          "wspd": 5
        },
        {
          "text": "BECMG 0301/0303 31005KT",
          "offset_h": 13,
          "wdir": 310,
          "wspd": 5
        },
        {
          "text": "TEMPO 0306/0310 28010KT FEW012 FEW015TCU BKN020 BKN050",
          "offset_h": 18,
          "wdir": 280,
          "wspd": 10
        }
      ],
      "metar_raw": "METAR RCSS 021130Z 10004KT 9999 FEW018 SCT050 29/26 Q1012 NOSIG RMK A2989",
      "metar_wdir": 100,
      "metar_wspd": 4,
      "metar_oat": 29,
      "metar_qnh": 1012,
      "hourly_oat": [
        29,
        28,
        27,
        27,
        27,
        26,
        26,
        26,
        26,
        26,
        27,
        28,
        30,
        31,
        32,
        32,
        32,
        32,
        32,
        32,
        31,
        30,
        30,
        29,
        28
      ]
    },
    "TPE": {
      "icao": "RCTP",
      "issued": "2026-07-02T11:00:00.000Z",
      "raw": "TAF RCTP 021100Z 0212/0318 21005KT 9999 FEW015 BKN032 BECMG 0301/0303 33005KT TEMPO 0306/0310 28010KT FEW012 FEW015TCU BKN020 BKN050 BECMG 0310/0312 21005KT",
      "groups": [
        {
          "text": "TAF RCTP 021100Z 0212/0318 21005KT 9999 FEW015 BKN032",
          "offset_h": 0,
          "wdir": 210,
          "wspd": 5
        },
        {
          "text": "BECMG 0301/0303 33005KT",
          "offset_h": 13,
          "wdir": 330,
          "wspd": 5
        },
        {
          "text": "TEMPO 0306/0310 28010KT FEW012 FEW015TCU BKN020 BKN050",
          "offset_h": 18,
          "wdir": 280,
          "wspd": 10
        },
        {
          "text": "BECMG 0310/0312 21005KT",
          "offset_h": 22,
          "wdir": 210,
          "wspd": 5
        }
      ],
      "metar_raw": "METAR RCTP 021130Z 10005KT 070V150 9999 FEW015 SCT200 30/25 Q1012 NOSIG RMK A2989",
      "metar_wdir": 100,
      "metar_wspd": 5,
      "metar_oat": 30,
      "metar_qnh": 1012,
      "hourly_oat": [
        28,
        28,
        28,
        27,
        27,
        27,
        27,
        26,
        26,
        26,
        26,
        28,
        29,
        30,
        30,
        30,
        30,
        29,
        29,
        28,
        29,
        29,
        29,
        28,
        28
      ]
    },
    "HKG": {
      "icao": "VHHH",
      "issued": "2026-07-02T11:00:00.000Z",
      "raw": "TAF VHHH 021100Z 0212/0318 12020KT 9999 FEW015 SCT030 TX31/0306Z TN27/0222Z TEMPO 0212/0218 12020G30KT 3500 SHRA FEW010CB SCT020 TEMPO 0218/0224 12020G30KT 2500 SHRA FEW008CB SCT020 TEMPO 0300/0306 13020G30KT 1500 +SHRA FEW008CB SCT020 TEMPO 0306/0315 13025G35KT 1500 TSRA +SHRA FEW008CB SCT015 TEMPO 0315/0318 13025G35KT 2000 SHRA FEW008CB SCT015",
      "groups": [
        {
          "text": "TAF VHHH 021100Z 0212/0318 12020KT 9999 FEW015 SCT030 TX31/0306Z TN27/0222Z",
          "offset_h": 0,
          "wdir": 120,
          "wspd": 20
        },
        {
          "text": "TEMPO 0212/0218 12020G30KT 3500 SHRA FEW010CB SCT020",
          "offset_h": 0,
          "wdir": 120,
          "wspd": 20
        },
        {
          "text": "TEMPO 0218/0224 12020G30KT 2500 SHRA FEW008CB SCT020",
          "offset_h": 6,
          "wdir": 120,
          "wspd": 20
        },
        {
          "text": "TEMPO 0300/0306 13020G30KT 1500 +SHRA FEW008CB SCT020",
          "offset_h": 12,
          "wdir": 130,
          "wspd": 20
        },
        {
          "text": "TEMPO 0306/0315 13025G35KT 1500 TSRA +SHRA FEW008CB SCT015",
          "offset_h": 18,
          "wdir": 130,
          "wspd": 25
        },
        {
          "text": "TEMPO 0315/0318 13025G35KT 2000 SHRA FEW008CB SCT015",
          "offset_h": 27,
          "wdir": 130,
          "wspd": 25
        }
      ],
      "metar_raw": "METAR VHHH 021130Z 12015KT 9999 FEW015 SCT028 31/26 Q1009 NOSIG",
      "metar_wdir": 120,
      "metar_wspd": 15,
      "metar_oat": 31,
      "metar_qnh": 1009,
      "hourly_oat": [
        28,
        28,
        28,
        28,
        28,
        28,
        28,
        27,
        26,
        27,
        27,
        27,
        27,
        27,
        27,
        27,
        28,
        28,
        28,
        28,
        28,
        27,
        27,
        28,
        26
      ]
    },
    "GMP": {
      "icao": "RKSS",
      "issued": "2026-07-02T11:00:00.000Z",
      "raw": "TAF RKSS 021100Z 0212/0318 25007KT CAVOK TN22/0220Z TX30/0306Z BECMG 0213/0215 19005KT 6000 SCT010 BECMG 0218/0220 4000 BR SCT010 BKN025 BECMG 0221/0223 6000 NSW BKN035 BECMG 0300/0302 25007KT 9999",
      "groups": [
        {
          "text": "TAF RKSS 021100Z 0212/0318 25007KT CAVOK TN22/0220Z TX30/0306Z",
          "offset_h": 0,
          "wdir": 250,
          "wspd": 7
        },
        {
          "text": "BECMG 0213/0215 19005KT 6000 SCT010",
          "offset_h": 1,
          "wdir": 190,
          "wspd": 5
        },
        {
          "text": "BECMG 0218/0220 4000 BR SCT010 BKN025",
          "offset_h": 6,
          "wdir": null,
          "wspd": null
        },
        {
          "text": "BECMG 0221/0223 6000 NSW BKN035",
          "offset_h": 9,
          "wdir": null,
          "wspd": null
        },
        {
          "text": "BECMG 0300/0302 25007KT 9999",
          "offset_h": 12,
          "wdir": 250,
          "wspd": 7
        }
      ],
      "metar_raw": "METAR RKSS 021100Z 25003KT CAVOK 25/21 Q1011 NOSIG",
      "metar_wdir": 250,
      "metar_wspd": 3,
      "metar_oat": 25,
      "metar_qnh": 1011,
      "hourly_oat": [
        23,
        22,
        22,
        21,
        21,
        21,
        21,
        21,
        21,
        21,
        21,
        22,
        22,
        23,
        25,
        26,
        27,
        26,
        26,
        26,
        26,
        25,
        24,
        23,
        22
      ]
    },
    "SHA": {
      "icao": "ZSSS",
      "issued": "2026-07-02T09:13:00.000Z",
      "raw": "TAF ZSSS 020913Z 0212/0318 18004MPS 6000 -SHRA BKN015 TX26/0212Z TX30/0305Z TN24/0221Z TEMPO 0212/0216 +SHRA BKN010 FEW030CB TEMPO 0221/0301 TSRA BKN010 FEW030CB TEMPO 0306/0310 33008G13MPS 2000 TSRA BKN010 SCT030CB BECMG 0310/0312 NSW",
      "groups": [
        {
          "text": "TAF ZSSS 020913Z 0212/0318 18004MPS 6000 -SHRA BKN015 TX26/0212Z TX30/0305Z TN24/0221Z",
          "offset_h": 0,
          "wdir": null,
          "wspd": null
        },
        {
          "text": "TEMPO 0212/0216 +SHRA BKN010 FEW030CB",
          "offset_h": 0,
          "wdir": null,
          "wspd": null
        },
        {
          "text": "TEMPO 0221/0301 TSRA BKN010 FEW030CB",
          "offset_h": 9,
          "wdir": null,
          "wspd": null
        },
        {
          "text": "TEMPO 0306/0310 33008G13MPS 2000 TSRA BKN010 SCT030CB",
          "offset_h": 18,
          "wdir": null,
          "wspd": null
        },
        {
          "text": "BECMG 0310/0312 NSW",
          "offset_h": 22,
          "wdir": null,
          "wspd": null
        }
      ],
      "metar_raw": "METAR ZSSS 021130Z 24002MPS 180V310 9999 -SHRA FEW009 26/24 Q1011 NOSIG",
      "metar_wdir": null,
      "metar_wspd": null,
      "metar_oat": 26,
      "metar_qnh": 1011,
      "hourly_oat": [
        25,
        25,
        25,
        25,
        25,
        25,
        25,
        25,
        25,
        25,
        25,
        25,
        26,
        26,
        28,
        29,
        30,
        31,
        31,
        31,
        27,
        26,
        26,
        26,
        26
      ]
    },
    "PVG": {
      "icao": "ZSPD",
      "issued": "2026-07-02T09:13:00.000Z",
      "raw": "TAF ZSPD 020913Z 0212/0318 18004MPS 6000 -SHRA BKN015 TX26/0212Z TX29/0305Z TN24/0221Z TEMPO 0212/0216 +SHRA BKN010 FEW030CB TEMPO 0221/0301 TSRA BKN010 FEW030CB TEMPO 0306/0310 33008G13MPS 2000 TSRA BKN010 SCT030CB BECMG 0310/0312 NSW",
      "groups": [
        {
          "text": "TAF ZSPD 020913Z 0212/0318 18004MPS 6000 -SHRA BKN015 TX26/0212Z TX29/0305Z TN24/0221Z",
          "offset_h": 0,
          "wdir": null,
          "wspd": null
        },
        {
          "text": "TEMPO 0212/0216 +SHRA BKN010 FEW030CB",
          "offset_h": 0,
          "wdir": null,
          "wspd": null
        },
        {
          "text": "TEMPO 0221/0301 TSRA BKN010 FEW030CB",
          "offset_h": 9,
          "wdir": null,
          "wspd": null
        },
        {
          "text": "TEMPO 0306/0310 33008G13MPS 2000 TSRA BKN010 SCT030CB",
          "offset_h": 18,
          "wdir": null,
          "wspd": null
        },
        {
          "text": "BECMG 0310/0312 NSW",
          "offset_h": 22,
          "wdir": null,
          "wspd": null
        }
      ],
      "metar_raw": "METAR ZSPD 021130Z 22002MPS 7000 -SHRA SCT013 26/26 Q1011 NOSIG",
      "metar_wdir": null,
      "metar_wspd": null,
      "metar_oat": 26,
      "metar_qnh": 1011,
      "hourly_oat": [
        24,
        24,
        24,
        24,
        24,
        24,
        24,
        24,
        24,
        25,
        24,
        25,
        26,
        26,
        27,
        27,
        28,
        28,
        28,
        28,
        26,
        26,
        26,
        26,
        26
      ]
    },
    "DLC": {
      "icao": "ZYTL",
      "issued": "2026-07-02T09:11:00.000Z",
      "raw": "TAF ZYTL 020911Z 0212/0312 17004MPS 5000 BR FEW033 TX31/0306Z TN21/0220Z",
      "groups": [
        {
          "text": "TAF ZYTL 020911Z 0212/0312 17004MPS 5000 BR FEW033 TX31/0306Z TN21/0220Z",
          "offset_h": 0,
          "wdir": null,
          "wspd": null
        }
      ],
      "metar_raw": "METAR ZYTL 021130Z 13004MPS CAVOK 24/19 Q1008 NOSIG",
      "metar_wdir": null,
      "metar_wspd": null,
      "metar_oat": 24,
      "metar_qnh": 1008,
      "hourly_oat": [
        24,
        23,
        23,
        23,
        23,
        23,
        23,
        23,
        23,
        23,
        24,
        26,
        28,
        30,
        31,
        32,
        32,
        33,
        28,
        28,
        28,
        29,
        29,
        28,
        27
      ]
    },
    "CAN": {
      "icao": "ZGGG",
      "issued": "2026-07-02T09:07:00.000Z",
      "raw": "TAF ZGGG 020907Z 0212/0318 15004MPS 8000 BKN033 TX32/0212Z TX34/0307Z TN27/0222Z TEMPO 0304/0308 2000 +TSRA SCT026CB BKN033 TEMPO 0310/0314 TSRA SCT026CB BKN033",
      "groups": [
        {
          "text": "TAF ZGGG 020907Z 0212/0318 15004MPS 8000 BKN033 TX32/0212Z TX34/0307Z TN27/0222Z",
          "offset_h": 0,
          "wdir": null,
          "wspd": null
        },
        {
          "text": "TEMPO 0304/0308 2000 +TSRA SCT026CB BKN033",
          "offset_h": 16,
          "wdir": null,
          "wspd": null
        },
        {
          "text": "TEMPO 0310/0314 TSRA SCT026CB BKN033",
          "offset_h": 22,
          "wdir": null,
          "wspd": null
        }
      ],
      "metar_raw": "METAR ZGGG 021130Z 11003MPS 080V150 9999 BKN053 31/25 Q1008 RESHRA NOSIG",
      "metar_wdir": null,
      "metar_wspd": null,
      "metar_oat": 31,
      "metar_qnh": 1008,
      "hourly_oat": [
        29,
        29,
        28,
        28,
        27,
        27,
        27,
        26,
        26,
        26,
        26,
        27,
        28,
        29,
        30,
        31,
        29,
        30,
        31,
        30,
        31,
        30,
        29,
        27,
        26
      ]
    },
    "PEK": {
      "icao": "ZBAA",
      "issued": "2026-07-02T09:00:00.000Z",
      "raw": "TAF ZBAA 020900Z 0212/0318 15004MPS 5000 BR NSC TX37/0307Z TN23/0221Z TN25/0318Z TEMPO 0214/0216 -TSRA FEW040CB BKN040 TEMPO 0309/0313 -TSRA FEW040CB BKN040",
      "groups": [
        {
          "text": "TAF ZBAA 020900Z 0212/0318 15004MPS 5000 BR NSC TX37/0307Z TN23/0221Z TN25/0318Z",
          "offset_h": 0,
          "wdir": null,
          "wspd": null
        },
        {
          "text": "TEMPO 0214/0216 -TSRA FEW040CB BKN040",
          "offset_h": 2,
          "wdir": null,
          "wspd": null
        },
        {
          "text": "TEMPO 0309/0313 -TSRA FEW040CB BKN040",
          "offset_h": 21,
          "wdir": null,
          "wspd": null
        }
      ],
      "metar_raw": "METAR ZBAA 021130Z 17003MPS 140V200 CAVOK 32/24 Q1003 NOSIG",
      "metar_wdir": null,
      "metar_wspd": null,
      "metar_oat": 32,
      "metar_qnh": 1003,
      "hourly_oat": [
        30,
        29,
        28,
        26,
        26,
        25,
        25,
        24,
        24,
        24,
        24,
        26,
        28,
        29,
        31,
        32,
        34,
        36,
        38,
        38,
        38,
        25,
        27,
        27,
        26
      ]
    }
  }
}