{
  "updated": "2026-06-22T20:32:25Z",
  "tafs": {
    "KUL": {
      "icao": "WMKK",
      "issued": "2026-06-22T20:19:00.000Z",
      "raw": "TAF AMD WMKK 222019Z 2220/2400 VRB03KT 9999 FEW018",
      "groups": [
        {
          "text": "TAF AMD WMKK 222019Z 2220/2400 VRB03KT 9999 FEW018",
          "offset_h": 0,
          "wdir": "VRB",
          "wspd": 3
        }
      ],
      "metar_raw": "METAR WMKK 222000Z 00000KT 9999 FEW030 26/25 Q1008 NOSIG",
      "metar_wdir": 0,
      "metar_wspd": 0,
      "metar_oat": 26,
      "metar_qnh": 1008,
      "hourly_oat": [
        24,
        24,
        24,
        23,
        24,
        25,
        27,
        28,
        30,
        30,
        29,
        30,
        30,
        29,
        29,
        28,
        27,
        26,
        25,
        25,
        25,
        25,
        24,
        24,
        24
      ]
    },
    "HKG": {
      "icao": "VHHH",
      "issued": "2026-06-22T20:00:00.000Z",
      "raw": "TAF VHHH 222000Z 2221/2403 21010KT 9999 FEW015 TX34/2306Z TN29/2222Z TN29/2322Z",
      "groups": [
        {
          "text": "TAF VHHH 222000Z 2221/2403 21010KT 9999 FEW015 TX34/2306Z TN29/2222Z TN29/2322Z",
          "offset_h": 1,
          "wdir": 210,
          "wspd": 10
        }
      ],
      "metar_raw": "METAR VHHH 222030Z 23012KT 190V280 9999 FEW012 SCT025 29/26 Q1004 NOSIG",
      "metar_wdir": 230,
      "metar_wspd": 12,
      "metar_oat": 29,
      "metar_qnh": 1004,
      "hourly_oat": [
        29,
        29,
        29,
        29,
        29,
        30,
        30,
        30,
        30,
        30,
        30,
        30,
        30,
        30,
        30,
        29,
        29,
        29,
        29,
        29,
        29,
        29,
        29,
        29,
        29
      ]
    },
    "HNL": {
      "icao": "PHNL",
      "issued": "2026-06-22T17:29:00.000Z",
      "raw": "TAF PHNL 221729Z 2218/2324 05006KT P6SM VCSH FEW025 SCT045 FM222000 06010G18KT P6SM VCSH FEW025 SCT045 FM230600 05008KT P6SM FEW025 SCT045 FM232000 06014KT P6SM VCSH FEW025 SCT045",
      "groups": [
        {
          "text": "TAF PHNL 221729Z 2218/2324 05006KT P6SM VCSH FEW025 SCT045",
          "offset_h": -2,
          "wdir": 50,
          "wspd": 6
        },
        {
          "text": "FM222000 06010G18KT P6SM VCSH FEW025 SCT045",
          "offset_h": 0,
          "wdir": 60,
          "wspd": 10
        },
        {
          "text": "FM230600 05008KT P6SM FEW025 SCT045",
          "offset_h": 10,
          "wdir": 50,
          "wspd": 8
        },
        {
          "text": "FM232000 06014KT P6SM VCSH FEW025 SCT045",
          "offset_h": 24,
          "wdir": 60,
          "wspd": 14
        }
      ],
      "metar_raw": "METAR PHNL 221953Z 06012KT 10SM FEW023 SCT050 BKN060 27/19 A3002 RMK AO2 SLP164 VCSH NE T02720194 $",
      "metar_wdir": 60,
      "metar_wspd": 12,
      "metar_oat": 27,
      "metar_qnh": 1017,
      "hourly_oat": [
        29,
        29,
        29,
        30,
        30,
        29,
        28,
        27,
        26,
        25,
        24,
        24,
        24,
        24,
        24,
        23,
        23,
        23,
        23,
        22,
        22,
        23,
        25,
        27,
        28
      ]
    },
    "LAX": {
      "icao": "KLAX",
      "issued": "2026-06-22T17:22:00.000Z",
      "raw": "TAF KLAX 221722Z 2218/2324 26007KT P6SM SCT020 FM221900 26014KT P6SM SKC FM230400 25007KT P6SM SCT010 FM230600 VRB03KT P6SM OVC008 FM231800 25006KT P6SM SCT010 FM232100 26012KT P6SM SKC",
      "groups": [
        {
          "text": "TAF KLAX 221722Z 2218/2324 26007KT P6SM SCT020",
          "offset_h": -2,
          "wdir": 260,
          "wspd": 7
        },
        {
          "text": "FM221900 26014KT P6SM SKC",
          "offset_h": -1,
          "wdir": 260,
          "wspd": 14
        },
        {
          "text": "FM230400 25007KT P6SM SCT010",
          "offset_h": 8,
          "wdir": 250,
          "wspd": 7
        },
        {
          "text": "FM230600 VRB03KT P6SM OVC008",
          "offset_h": 10,
          "wdir": "VRB",
          "wspd": 3
        },
        {
          "text": "FM231800 25006KT P6SM SCT010",
          "offset_h": 22,
          "wdir": 250,
          "wspd": 6
        },
        {
          "text": "FM232100 26012KT P6SM SKC",
          "offset_h": 25,
          "wdir": 260,
          "wspd": 12
        }
      ],
      "metar_raw": "METAR KLAX 221953Z 26011KT 10SM FEW009 FEW025 21/14 A2996 RMK AO2 SLP142 T02110144 $",
      "metar_wdir": 260,
      "metar_wspd": 11,
      "metar_oat": 21,
      "metar_qnh": 1015,
      "hourly_oat": [
        22,
        21,
        21,
        20,
        20,
        19,
        18,
        17,
        16,
        17,
        17,
        16,
        16,
        16,
        16,
        16,
        16,
        16,
        16,
        17,
        18,
        19,
        20,
        21,
        20
      ]
    },
    "SAN": {
      "icao": "KSAN",
      "issued": "2026-06-22T17:20:00.000Z",
      "raw": "TAF KSAN 221720Z 2218/2324 29010KT P6SM FEW022 FM230300 VRB04KT P6SM BKN010 FM231700 29009KT P6SM SCT020",
      "groups": [
        {
          "text": "TAF KSAN 221720Z 2218/2324 29010KT P6SM FEW022",
          "offset_h": -2,
          "wdir": 290,
          "wspd": 10
        },
        {
          "text": "FM230300 VRB04KT P6SM BKN010",
          "offset_h": 7,
          "wdir": "VRB",
          "wspd": 4
        },
        {
          "text": "FM231700 29009KT P6SM SCT020",
          "offset_h": 21,
          "wdir": 290,
          "wspd": 9
        }
      ],
      "metar_raw": "METAR KSAN 221951Z 31007KT 10SM FEW020 22/14 A2997 RMK AO2 SLP147 T02220139",
      "metar_wdir": 310,
      "metar_wspd": 7,
      "metar_oat": 22,
      "metar_qnh": 1015,
      "hourly_oat": [
        22,
        22,
        22,
        22,
        22,
        20,
        19,
        18,
        18,
        17,
        17,
        17,
        17,
        17,
        16,
        17,
        17,
        17,
        17,
        18,
        19,
        20,
        21,
        22,
        22
      ]
    },
    "FUK": {
      "icao": "RJFF",
      "issued": "2026-06-22T17:05:00.000Z",
      "raw": "TAF RJFF 221705Z 2218/2400 11010KT 7000 -SHRA FEW009 SCT012 BKN015 TEMPO 2218/2300 4000 RA BR TEMPO 2300/2305 3000 +SHRA BR TEMPO 2315/2400 4000 +SHRA BR",
      "groups": [
        {
          "text": "TAF RJFF 221705Z 2218/2400 11010KT 7000 -SHRA FEW009 SCT012 BKN015",
          "offset_h": -2,
          "wdir": 110,
          "wspd": 10
        },
        {
          "text": "TEMPO 2218/2300 4000 RA BR",
          "offset_h": -2,
          "wdir": null,
          "wspd": null
        },
        {
          "text": "TEMPO 2300/2305 3000 +SHRA BR",
          "offset_h": 4,
          "wdir": null,
          "wspd": null
        },
        {
          "text": "TEMPO 2315/2400 4000 +SHRA BR",
          "offset_h": 19,
          "wdir": null,
          "wspd": null
        }
      ],
      "metar_raw": "METAR RJFF 222000Z AUTO 01003KT 9999 -RA FEW027 SCT060 BKN070 19/19 Q1009 TEMPO 4000 RA BR",
      "metar_wdir": 10,
      "metar_wspd": 3,
      "metar_oat": 19,
      "metar_qnh": 1009,
      "hourly_oat": [
        20,
        20,
        20,
        20,
        20,
        20,
        20,
        20,
        21,
        21,
        21,
        21,
        21,
        21,
        21,
        21,
        21,
        21,
        22,
        22,
        22,
        22,
        22,
        22,
        22
      ]
    },
    "ITM": {
      "icao": "RJOO",
      "issued": "2026-06-22T17:05:00.000Z",
      "raw": "TAF RJOO 221705Z 2218/2400 31006KT 9999 FEW030 SCT040 BECMG 2300/2302 18006KT BECMG 2304/2306 23006KT BECMG 2321/2400 07008KT",
      "groups": [
        {
          "text": "TAF RJOO 221705Z 2218/2400 31006KT 9999 FEW030 SCT040",
          "offset_h": -2,
          "wdir": 310,
          "wspd": 6
        },
        {
          "text": "BECMG 2300/2302 18006KT",
          "offset_h": 4,
          "wdir": 180,
          "wspd": 6
        },
        {
          "text": "BECMG 2304/2306 23006KT",
          "offset_h": 8,
          "wdir": 230,
          "wspd": 6
        },
        {
          "text": "BECMG 2321/2400 07008KT",
          "offset_h": 25,
          "wdir": 70,
          "wspd": 8
        }
      ],
      "metar_raw": "METAR RJOO 222000Z AUTO VRB02KT //// // ////// 19/17 Q1009",
      "metar_wdir": "VRB",
      "metar_wspd": 2,
      "metar_oat": 19,
      "metar_qnh": 1009,
      "hourly_oat": [
        19,
        20,
        20,
        22,
        23,
        24,
        25,
        26,
        27,
        27,
        26,
        26,
        25,
        25,
        24,
        23,
        22,
        21,
        20,
        20,
        19,
        19,
        19,
        18,
        18
      ]
    },
    "OKA": {
      "icao": "ROAH",
      "issued": "2026-06-22T17:05:00.000Z",
      "raw": "TAF ROAH 221705Z 2218/2400 16010KT 9999 FEW015 TEMPO 2312/2400 FEW005 BKN008",
      "groups": [
        {
          "text": "TAF ROAH 221705Z 2218/2400 16010KT 9999 FEW015",
          "offset_h": -2,
          "wdir": 160,
          "wspd": 10
        },
        {
          "text": "TEMPO 2312/2400 FEW005 BKN008",
          "offset_h": 16,
          "wdir": null,
          "wspd": null
        }
      ],
      "metar_raw": "METAR ROAH 222000Z AUTO 15011KT 9999 NCD 28/27 Q1005",
      "metar_wdir": 150,
      "metar_wspd": 11,
      "metar_oat": 28,
      "metar_qnh": 1005,
      "hourly_oat": [
        27,
        27,
        28,
        29,
        29,
        30,
        30,
        30,
        30,
        30,
        30,
        30,
        30,
        29,
        28,
        27,
        27,
        28,
        28,
        27,
        27,
        27,
        27,
        27,
        27
      ]
    },
    "NGO": {
      "icao": "RJGG",
      "issued": "2026-06-22T17:05:00.000Z",
      "raw": "TAF RJGG 221705Z 2218/2400 32014KT 9999 FEW030 BECMG 2302/2304 15012KT",
      "groups": [
        {
          "text": "TAF RJGG 221705Z 2218/2400 32014KT 9999 FEW030",
          "offset_h": -2,
          "wdir": 320,
          "wspd": 14
        },
        {
          "text": "BECMG 2302/2304 15012KT",
          "offset_h": 6,
          "wdir": 150,
          "wspd": 12
        }
      ],
      "metar_raw": "METAR RJGG 222000Z AUTO 30011KT 9999 NSC 21/18 Q1007 NOSIG",
      "metar_wdir": 300,
      "metar_wspd": 11,
      "metar_oat": 21,
      "metar_qnh": 1007,
      "hourly_oat": [
        22,
        22,
        22,
        22,
        23,
        23,
        23,
        23,
        23,
        23,
        23,
        23,
        23,
        23,
        23,
        23,
        22,
        22,
        22,
        22,
        22,
        22,
        22,
        22,
        21
      ]
    },
    "KIX": {
      "icao": "RJBB",
      "issued": "2026-06-22T17:05:00.000Z",
      "raw": "TAF RJBB 221705Z 2218/2400 02008KT 9999 FEW030 BKN050 BECMG 2302/2304 25008KT BECMG 2312/2315 06010KT",
      "groups": [
        {
          "text": "TAF RJBB 221705Z 2218/2400 02008KT 9999 FEW030 BKN050",
          "offset_h": -2,
          "wdir": 20,
          "wspd": 8
        },
        {
          "text": "BECMG 2302/2304 25008KT",
          "offset_h": 6,
          "wdir": 250,
          "wspd": 8
        },
        {
          "text": "BECMG 2312/2315 06010KT",
          "offset_h": 16,
          "wdir": 60,
          "wspd": 10
        }
      ],
      "metar_raw": "METAR RJBB 222000Z AUTO 06010KT 9999 FEW024 OVC140 21/17 Q1009 NOSIG",
      "metar_wdir": 60,
      "metar_wspd": 10,
      "metar_oat": 21,
      "metar_qnh": 1009,
      "hourly_oat": [
        21,
        22,
        22,
        22,
        22,
        22,
        22,
        23,
        23,
        23,
        23,
        23,
        23,
        23,
        22,
        22,
        22,
        22,
        22,
        22,
        22,
        22,
        22,
        21,
        21
      ]
    },
    "NRT": {
      "icao": "RJAA",
      "issued": "2026-06-22T17:05:00.000Z",
      "raw": "TAF RJAA 221705Z 2218/2400 02012KT 9999 FEW010 BKN020 TEMPO 2218/2222 FEW005 BKN008 TEMPO 2315/2400 FEW002 BKN005",
      "groups": [
        {
          "text": "TAF RJAA 221705Z 2218/2400 02012KT 9999 FEW010 BKN020",
          "offset_h": -2,
          "wdir": 20,
          "wspd": 12
        },
        {
          "text": "TEMPO 2218/2222 FEW005 BKN008",
          "offset_h": -2,
          "wdir": null,
          "wspd": null
        },
        {
          "text": "TEMPO 2315/2400 FEW002 BKN005",
          "offset_h": 19,
          "wdir": null,
          "wspd": null
        }
      ],
      "metar_raw": "METAR RJAA 222000Z AUTO 02011KT 9999 OVC011 17/15 Q1008 TEMPO FEW005 BKN008",
      "metar_wdir": 20,
      "metar_wspd": 11,
      "metar_oat": 17,
      "metar_qnh": 1008,
      "hourly_oat": [
        18,
        18,
        19,
        20,
        21,
        22,
        22,
        22,
        22,
        22,
        22,
        21,
        20,
        20,
        19,
        18,
        18,
        18,
        18,
        18,
        18,
        18,
        18,
        17,
        17
      ]
    },
    "CTS": {
      "icao": "RJCC",
      "issued": "2026-06-22T17:05:00.000Z",
      "raw": "TAF RJCC 221705Z 2218/2400 17010KT 9999 FEW005 BKN015 TEMPO 2218/2223 4000 SHRA BR FEW003 BKN005 TEMPO 2312/2321 FEW005 BKN008",
      "groups": [
        {
          "text": "TAF RJCC 221705Z 2218/2400 17010KT 9999 FEW005 BKN015",
          "offset_h": -2,
          "wdir": 170,
          "wspd": 10
        },
        {
          "text": "TEMPO 2218/2223 4000 SHRA BR FEW003 BKN005",
          "offset_h": -2,
          "wdir": null,
          "wspd": null
        },
        {
          "text": "TEMPO 2312/2321 FEW005 BKN008",
          "offset_h": 16,
          "wdir": null,
          "wspd": null
        }
      ],
      "metar_raw": "METAR RJCC 222000Z 18009KT 7000 -SHRA FEW003 BKN005 BKN007 13/12 Q1011",
      "metar_wdir": 180,
      "metar_wspd": 9,
      "metar_oat": 13,
      "metar_qnh": 1011,
      "hourly_oat": [
        12,
        13,
        13,
        13,
        14,
        14,
        15,
        16,
        15,
        15,
        14,
        14,
        13,
        12,
        12,
        12,
        12,
        12,
        12,
        12,
        12,
        12,
        11,
        12,
        12
      ]
    },
    "HND": {
      "icao": "RJTT",
      "issued": "2026-06-22T17:05:00.000Z",
      "raw": "TAF RJTT 221705Z 2218/2400 04010KT 9999 FEW015 BKN030 BECMG 2303/2305 07016KT BECMG 2312/2315 02010KT",
      "groups": [
        {
          "text": "TAF RJTT 221705Z 2218/2400 04010KT 9999 FEW015 BKN030",
          "offset_h": -2,
          "wdir": 40,
          "wspd": 10
        },
        {
          "text": "BECMG 2303/2305 07016KT",
          "offset_h": 7,
          "wdir": 70,
          "wspd": 16
        },
        {
          "text": "BECMG 2312/2315 02010KT",
          "offset_h": 16,
          "wdir": 20,
          "wspd": 10
        }
      ],
      "metar_raw": "METAR RJTT 222000Z 05012KT 9999 FEW012 BKN015 20/17 Q1008 NOSIG",
      "metar_wdir": 50,
      "metar_wspd": 12,
      "metar_oat": 20,
      "metar_qnh": 1008,
      "hourly_oat": [
        19,
        19,
        19,
        20,
        21,
        22,
        22,
        23,
        24,
        24,
        24,
        24,
        23,
        22,
        21,
        21,
        20,
        20,
        19,
        19,
        19,
        18,
        18,
        18,
        18
      ]
    },
    "SIN": {
      "icao": "WSSS",
      "issued": "2026-06-22T17:00:00.000Z",
      "raw": "TAF WSSS 221700Z 2218/2400 22007KT 9999 FEW015 SCT020",
      "groups": [
        {
          "text": "TAF WSSS 221700Z 2218/2400 22007KT 9999 FEW015 SCT020",
          "offset_h": -2,
          "wdir": 220,
          "wspd": 7
        }
      ],
      "metar_raw": "METAR WSSS 222030Z 00000KT 9999 FEW016 BKN150 26/25 Q1010 NOSIG",
      "metar_wdir": 0,
      "metar_wspd": 0,
      "metar_oat": 26,
      "metar_qnh": 1010,
      "hourly_oat": [
        26,
        26,
        26,
        26,
        27,
        28,
        28,
        29,
        28,
        29,
        29,
        30,
        30,
        30,
        29,
        28,
        28,
        28,
        28,
        28,
        28,
        28,
        27,
        27,
        25
      ]
    },
    "CGK": {
      "icao": "WIII",
      "issued": "2026-06-22T17:00:00.000Z",
      "raw": "TAF WIII 221700Z 2218/2400 25005KT 3000 BR SCT020 TEMPO 2218/2220 TSRA FEW018CB BECMG 2301/2303 04013KT 9000 NSW",
      "groups": [
        {
          "text": "TAF WIII 221700Z 2218/2400 25005KT 3000 BR SCT020",
          "offset_h": -2,
          "wdir": 250,
          "wspd": 5
        },
        {
          "text": "TEMPO 2218/2220 TSRA FEW018CB",
          "offset_h": -2,
          "wdir": null,
          "wspd": null
        },
        {
          "text": "BECMG 2301/2303 04013KT 9000 NSW",
          "offset_h": 5,
          "wdir": 40,
          "wspd": 13
        }
      ],
      "metar_raw": "METAR WIII 222000Z VRB02KT 4000 BR BKN020 25/25 Q1010 NOSIG",
      "metar_wdir": "VRB",
      "metar_wspd": 2,
      "metar_oat": 25,
      "metar_qnh": 1010,
      "hourly_oat": [
        25,
        24,
        24,
        24,
        25,
        27,
        29,
        30,
        31,
        32,
        32,
        30,
        30,
        28,
        28,
        27,
        26,
        26,
        26,
        25,
        25,
        25,
        25,
        24,
        24
      ]
    },
    "TPE": {
      "icao": "RCTP",
      "issued": "2026-06-22T17:00:00.000Z",
      "raw": "TAF RCTP 221700Z 2218/2324 23005KT 9999 FEW016 TEMPO 2303/2309 28010KT BECMG 2309/2311 35005KT BECMG 2316/2318 23005KT",
      "groups": [
        {
          "text": "TAF RCTP 221700Z 2218/2324 23005KT 9999 FEW016",
          "offset_h": -2,
          "wdir": 230,
          "wspd": 5
        },
        {
          "text": "TEMPO 2303/2309 28010KT",
          "offset_h": 7,
          "wdir": 280,
          "wspd": 10
        },
        {
          "text": "BECMG 2309/2311 35005KT",
          "offset_h": 13,
          "wdir": 350,
          "wspd": 5
        },
        {
          "text": "BECMG 2316/2318 23005KT",
          "offset_h": 20,
          "wdir": 230,
          "wspd": 5
        }
      ],
      "metar_raw": "METAR RCTP 222000Z 24009KT 9999 FEW015 BKN020 28/24 Q1004 NOSIG RMK A2965",
      "metar_wdir": 240,
      "metar_wspd": 9,
      "metar_oat": 28,
      "metar_qnh": 1004,
      "hourly_oat": [
        25,
        25,
        25,
        27,
        29,
        30,
        31,
        31,
        31,
        31,
        31,
        31,
        31,
        30,
        30,
        28,
        28,
        27,
        27,
        27,
        27,
        26,
        26,
        26,
        26
      ]
    },
    "GMP": {
      "icao": "RKSS",
      "issued": "2026-06-22T17:00:00.000Z",
      "raw": "TAF RKSS 221700Z 2218/2324 30005KT 6000 SCT040 TN19/2220Z TX30/2305Z TN18/2320Z BECMG 2220/2222 10006KT CAVOK BECMG 2317/2319 04005KT 6000 NSC",
      "groups": [
        {
          "text": "TAF RKSS 221700Z 2218/2324 30005KT 6000 SCT040 TN19/2220Z TX30/2305Z TN18/2320Z",
          "offset_h": -2,
          "wdir": 300,
          "wspd": 5
        },
        {
          "text": "BECMG 2220/2222 10006KT CAVOK",
          "offset_h": 0,
          "wdir": 100,
          "wspd": 6
        },
        {
          "text": "BECMG 2317/2319 04005KT 6000 NSC",
          "offset_h": 21,
          "wdir": 40,
          "wspd": 5
        }
      ],
      "metar_raw": "METAR RKSS 222000Z 32003KT 8000 FEW018 SCT035 BKN120 20/20 Q1010 NOSIG",
      "metar_wdir": 320,
      "metar_wspd": 3,
      "metar_oat": 20,
      "metar_qnh": 1010,
      "hourly_oat": [
        20,
        19,
        20,
        21,
        22,
        24,
        26,
        27,
        29,
        29,
        30,
        30,
        30,
        29,
        28,
        25,
        24,
        23,
        22,
        21,
        20,
        20,
        19,
        19,
        18
      ]
    },
    "TSA": {
      "icao": "RCSS",
      "issued": "2026-06-22T17:00:00.000Z",
      "raw": "TAF RCSS 221700Z 2218/2318 30005KT 9999 FEW016 TEMPO 2303/2308 28010KT FEW012 BKN023 TEMPO 2308/2314 10009KT FEW010 BKN020",
      "groups": [
        {
          "text": "TAF RCSS 221700Z 2218/2318 30005KT 9999 FEW016",
          "offset_h": -2,
          "wdir": 300,
          "wspd": 5
        },
        {
          "text": "TEMPO 2303/2308 28010KT FEW012 BKN023",
          "offset_h": 7,
          "wdir": 280,
          "wspd": 10
        },
        {
          "text": "TEMPO 2308/2314 10009KT FEW010 BKN020",
          "offset_h": 12,
          "wdir": 100,
          "wspd": 9
        }
      ],
      "metar_raw": "METAR RCSS 222000Z 28004KT 9999 FEW020 28/26 Q1003 NOSIG RMK A2964",
      "metar_wdir": 280,
      "metar_wspd": 4,
      "metar_oat": 28,
      "metar_qnh": 1003,
      "hourly_oat": [
        24,
        24,
        25,
        26,
        29,
        30,
        32,
        33,
        34,
        34,
        34,
        34,
        33,
        33,
        31,
        30,
        28,
        28,
        27,
        27,
        27,
        26,
        26,
        25,
        25
      ]
    },
    "BKK": {
      "icao": "VTBS",
      "issued": "2026-06-22T17:00:00.000Z",
      "raw": "TAF VTBS 221700Z 2218/2324 24008KT 9999 FEW020 TEMPO 2310/2314 -TSRA FEW018CB SCT030 BKN080",
      "groups": [
        {
          "text": "TAF VTBS 221700Z 2218/2324 24008KT 9999 FEW020",
          "offset_h": -2,
          "wdir": 240,
          "wspd": 8
        },
        {
          "text": "TEMPO 2310/2314 -TSRA FEW018CB SCT030 BKN080",
          "offset_h": 14,
          "wdir": null,
          "wspd": null
        }
      ],
      "metar_raw": "METAR VTBS 222000Z 27006KT 9999 FEW020 30/21 Q1007 NOSIG",
      "metar_wdir": 270,
      "metar_wspd": 6,
      "metar_oat": 30,
      "metar_qnh": 1007,
      "hourly_oat": [
        28,
        28,
        28,
        27,
        28,
        30,
        32,
        34,
        35,
        36,
        36,
        34,
        34,
        33,
        33,
        32,
        30,
        30,
        30,
        30,
        29,
        29,
        29,
        28,
        28
      ]
    },
    "HAN": {
      "icao": "VVNB",
      "issued": "2026-06-22T17:00:00.000Z",
      "raw": "TAF VVNB 221700Z 2218/2318 16006KT 9999 FEW030",
      "groups": [
        {
          "text": "TAF VVNB 221700Z 2218/2318 16006KT 9999 FEW030",
          "offset_h": -2,
          "wdir": 160,
          "wspd": 6
        }
      ],
      "metar_raw": "METAR VVNB 222000Z 10003KT CAVOK 29/26 Q0999 NOSIG",
      "metar_wdir": 100,
      "metar_wspd": 3,
      "metar_oat": 29,
      "metar_qnh": 999,
      "hourly_oat": [
        28,
        28,
        28,
        28,
        30,
        32,
        33,
        34,
        35,
        36,
        37,
        37,
        38,
        37,
        36,
        34,
        33,
        32,
        32,
        31,
        30,
        30,
        30,
        30,
        31
      ]
    },
    "SGN": {
      "icao": "VVTS",
      "issued": "2026-06-22T17:00:00.000Z",
      "raw": "TAF VVTS 221700Z 2218/2324 26006KT 9999 SCT017 TEMPO 2301/2303 5000 TSRA SCT015 FEW017CB TEMPO 2308/2311 28016G26KT 3000 TSRA BKN015 SCT017CB",
      "groups": [
        {
          "text": "TAF VVTS 221700Z 2218/2324 26006KT 9999 SCT017",
          "offset_h": -2,
          "wdir": 260,
          "wspd": 6
        },
        {
          "text": "TEMPO 2301/2303 5000 TSRA SCT015 FEW017CB",
          "offset_h": 5,
          "wdir": null,
          "wspd": null
        },
        {
          "text": "TEMPO 2308/2311 28016G26KT 3000 TSRA BKN015 SCT017CB",
          "offset_h": 12,
          "wdir": 280,
          "wspd": 16
        }
      ],
      "metar_raw": "METAR VVTS 222000Z 23010KT CAVOK 29/27 Q1007 NOSIG",
      "metar_wdir": 230,
      "metar_wspd": 10,
      "metar_oat": 29,
      "metar_qnh": 1007,
      "hourly_oat": [
        27,
        27,
        27,
        27,
        28,
        30,
        32,
        33,
        34,
        29,
        30,
        32,
        32,
        32,
        27,
        26,
        26,
        26,
        26,
        26,
        26,
        26,
        25,
        25,
        26
      ]
    },
    "PVG": {
      "icao": "ZSPD",
      "issued": "2026-06-22T15:20:00.000Z",
      "raw": "TAF ZSPD 221520Z 2218/2324 03004MPS 6000 BKN013 TX25/2306Z TN21/2221Z TN21/2321Z BECMG 2221/2222 BKN009 TEMPO 2301/2305 SHRA BKN011 SCT030CB",
      "groups": [
        {
          "text": "TAF ZSPD 221520Z 2218/2324 03004MPS 6000 BKN013 TX25/2306Z TN21/2221Z TN21/2321Z",
          "offset_h": -2,
          "wdir": null,
          "wspd": null
        },
        {
          "text": "BECMG 2221/2222 BKN009",
          "offset_h": 1,
          "wdir": null,
          "wspd": null
        },
        {
          "text": "TEMPO 2301/2305 SHRA BKN011 SCT030CB",
          "offset_h": 5,
          "wdir": null,
          "wspd": null
        }
      ],
      "metar_raw": "METAR ZSPD 222000Z 32004MPS 7000 -SHRA FEW005 22/22 Q1002 RESHRA NOSIG",
      "metar_wdir": null,
      "metar_wspd": null,
      "metar_oat": 22,
      "metar_qnh": 1002,
      "hourly_oat": [
        23,
        22,
        23,
        23,
        23,
        23,
        23,
        23,
        23,
        23,
        23,
        23,
        23,
        22,
        22,
        22,
        22,
        22,
        22,
        22,
        22,
        22,
        22,
        22,
        22
      ]
    },
    "SHA": {
      "icao": "ZSSS",
      "issued": "2026-06-22T15:20:00.000Z",
      "raw": "TAF ZSSS 221520Z 2218/2324 03004MPS 6000 BKN015 TX25/2306Z TN21/2221Z TN21/2321Z BECMG 2221/2222 BKN013 TEMPO 2300/2304 SHRA BKN016 SCT030CB",
      "groups": [
        {
          "text": "TAF ZSSS 221520Z 2218/2324 03004MPS 6000 BKN015 TX25/2306Z TN21/2221Z TN21/2321Z",
          "offset_h": -2,
          "wdir": null,
          "wspd": null
        },
        {
          "text": "BECMG 2221/2222 BKN013",
          "offset_h": 1,
          "wdir": null,
          "wspd": null
        },
        {
          "text": "TEMPO 2300/2304 SHRA BKN016 SCT030CB",
          "offset_h": 4,
          "wdir": null,
          "wspd": null
        }
      ],
      "metar_raw": "METAR ZSSS 222000Z 34003MPS 8000 -SHRA BKN005 22/21 Q1002 NOSIG",
      "metar_wdir": null,
      "metar_wspd": null,
      "metar_oat": 22,
      "metar_qnh": 1002,
      "hourly_oat": [
        22,
        22,
        22,
        22,
        23,
        22,
        23,
        24,
        23,
        23,
        24,
        23,
        23,
        23,
        22,
        22,
        22,
        22,
        22,
        22,
        22,
        21,
        21,
        21,
        21
      ]
    },
    "DLC": {
      "icao": "ZYTL",
      "issued": "2026-06-22T15:03:00.000Z",
      "raw": "TAF ZYTL 221503Z 2218/2318 15004MPS 5000 BR FEW040 TX28/2306Z TN16/2221Z",
      "groups": [
        {
          "text": "TAF ZYTL 221503Z 2218/2318 15004MPS 5000 BR FEW040 TX28/2306Z TN16/2221Z",
          "offset_h": -2,
          "wdir": null,
          "wspd": null
        }
      ],
      "metar_raw": "METAR ZYTL 222000Z 10002MPS 7000 NSC 17/16 Q1008 NOSIG",
      "metar_wdir": null,
      "metar_wspd": null,
      "metar_oat": 17,
      "metar_qnh": 1008,
      "hourly_oat": [
        19,
        19,
        20,
        22,
        24,
        26,
        26,
        27,
        27,
        27,
        27,
        26,
        25,
        24,
        23,
        22,
        22,
        21,
        21,
        21,
        20,
        20,
        20,
        20,
        20
      ]
    },
    "PEK": {
      "icao": "ZBAA",
      "issued": "2026-06-22T15:02:00.000Z",
      "raw": "TAF ZBAA 221502Z 2218/2324 03004MPS 6000 NSC TX28/2307Z TN18/2221Z TN19/2321Z TEMPO 2221/2301 2800 BR BECMG 2306/2307 -TSRA FEW040CB BKN040 BECMG 2309/2310 NSW NSC",
      "groups": [
        {
          "text": "TAF ZBAA 221502Z 2218/2324 03004MPS 6000 NSC TX28/2307Z TN18/2221Z TN19/2321Z",
          "offset_h": -2,
          "wdir": null,
          "wspd": null
        },
        {
          "text": "TEMPO 2221/2301 2800 BR",
          "offset_h": 1,
          "wdir": null,
          "wspd": null
        },
        {
          "text": "BECMG 2306/2307 -TSRA FEW040CB BKN040",
          "offset_h": 10,
          "wdir": null,
          "wspd": null
        },
        {
          "text": "BECMG 2309/2310 NSW NSC",
          "offset_h": 13,
          "wdir": null,
          "wspd": null
        }
      ],
      "metar_raw": "SPECI ZBAA 222022Z 04003MPS 360V070 9999 FEW050CB 19/17 Q1007 NOSIG",
      "metar_wdir": null,
      "metar_wspd": null,
      "metar_oat": 19,
      "metar_qnh": 1007,
      "hourly_oat": [
        18,
        18,
        19,
        20,
        22,
        24,
        25,
        26,
        28,
        28,
        28,
        29,
        26,
        26,
        25,
        24,
        23,
        22,
        22,
        21,
        21,
        20,
        20,
        20,
        19
      ]
    },
    "CAN": {
      "icao": "ZGGG",
      "issued": "2026-06-22T15:02:00.000Z",
      "raw": "TAF ZGGG 221502Z 2218/2324 18004MPS 8000 SCT040 TX37/2307Z TN29/2222Z TN29/2322Z",
      "groups": [
        {
          "text": "TAF ZGGG 221502Z 2218/2324 18004MPS 8000 SCT040 TX37/2307Z TN29/2222Z TN29/2322Z",
          "offset_h": -2,
          "wdir": null,
          "wspd": null
        }
      ],
      "metar_raw": "METAR ZGGG 222000Z 20004MPS 9999 BKN033 30/26 Q1003 NOSIG",
      "metar_wdir": null,
      "metar_wspd": null,
      "metar_oat": 30,
      "metar_qnh": 1003,
      "hourly_oat": [
        27,
        27,
        27,
        28,
        29,
        30,
        31,
        33,
        33,
        34,
        34,
        34,
        32,
        32,
        32,
        31,
        30,
        30,
        29,
        29,
        28,
        28,
        28,
        28,
        27
      ]
    }
  }
}