{
  "updated": "2026-06-09T23:53:36Z",
  "tafs": {
    "LAX": {
      "icao": "KLAX",
      "issued": "2026-06-09T23:49:00.000Z",
      "raw": "TAF KLAX 092349Z 1000/1106 24012KT P6SM SKC FM100400 26006KT P6SM FEW015 FM100800 VRB03KT P6SM FEW015 FM101300 VRB03KT P6SM SCT015 FM101700 25010KT P6SM FEW015 FM110400 25006KT P6SM FEW250",
      "groups": [
        {
          "text": "TAF KLAX 092349Z 1000/1106 24012KT P6SM SKC",
          "offset_h": 1,
          "wdir": 240,
          "wspd": 12
        },
        {
          "text": "FM100400 26006KT P6SM FEW015",
          "offset_h": 5,
          "wdir": 260,
          "wspd": 6
        },
        {
          "text": "FM100800 VRB03KT P6SM FEW015",
          "offset_h": 9,
          "wdir": "VRB",
          "wspd": 3
        },
        {
          "text": "FM101300 VRB03KT P6SM SCT015",
          "offset_h": 14,
          "wdir": "VRB",
          "wspd": 3
        },
        {
          "text": "FM101700 25010KT P6SM FEW015",
          "offset_h": 18,
          "wdir": 250,
          "wspd": 10
        },
        {
          "text": "FM110400 25006KT P6SM FEW250",
          "offset_h": 29,
          "wdir": 250,
          "wspd": 6
        }
      ],
      "metar_raw": "METAR KLAX 092253Z 23010KT 10SM CLR 22/15 A2985 RMK AO2 SLP109 T02220150",
      "metar_wdir": 230,
      "metar_wspd": 10,
      "metar_oat": 22,
      "metar_qnh": 1011,
      "hourly_oat": [
        21,
        20,
        19,
        19,
        18,
        17,
        17,
        16,
        16,
        15,
        15,
        14,
        14,
        15,
        16,
        16,
        18,
        21,
        24,
        25,
        24,
        24,
        23,
        23,
        22
      ]
    },
    "HNL": {
      "icao": "PHNL",
      "issued": "2026-06-09T23:20:00.000Z",
      "raw": "TAF PHNL 092320Z 1000/1106 06012G24KT P6SM FEW025 FEW040 FM100600 06010KT P6SM FEW025 SCT040 FM102000 07012G20KT P6SM FEW025 SCT040",
      "groups": [
        {
          "text": "TAF PHNL 092320Z 1000/1106 06012G24KT P6SM FEW025 FEW040",
          "offset_h": 1,
          "wdir": 60,
          "wspd": 12
        },
        {
          "text": "FM100600 06010KT P6SM FEW025 SCT040",
          "offset_h": 7,
          "wdir": 60,
          "wspd": 10
        },
        {
          "text": "FM102000 07012G20KT P6SM FEW025 SCT040",
          "offset_h": 21,
          "wdir": 70,
          "wspd": 12
        }
      ],
      "metar_raw": "METAR PHNL 092253Z 05015G22KT 030V090 10SM FEW037 30/19 A3006 RMK AO2 SLP180 T03000194 $",
      "metar_wdir": 50,
      "metar_wspd": 15,
      "metar_oat": 30,
      "metar_qnh": 1018,
      "hourly_oat": [
        28,
        28,
        28,
        27,
        27,
        25,
        24,
        24,
        23,
        23,
        23,
        23,
        22,
        22,
        22,
        22,
        22,
        22,
        24,
        24,
        26,
        26,
        27,
        28,
        28
      ]
    },
    "SAN": {
      "icao": "KSAN",
      "issued": "2026-06-09T23:20:00.000Z",
      "raw": "TAF KSAN 092320Z 1000/1106 29008KT P6SM FEW020 FM100300 VRB04KT P6SM SCT018 FM100800 VRB03KT P6SM OVC015 FM101700 VRB04KT P6SM SCT015 FM101900 22009KT P6SM FEW015 FM110300 VRB04KT P6SM BKN012",
      "groups": [
        {
          "text": "TAF KSAN 092320Z 1000/1106 29008KT P6SM FEW020",
          "offset_h": 1,
          "wdir": 290,
          "wspd": 8
        },
        {
          "text": "FM100300 VRB04KT P6SM SCT018",
          "offset_h": 4,
          "wdir": "VRB",
          "wspd": 4
        },
        {
          "text": "FM100800 VRB03KT P6SM OVC015",
          "offset_h": 9,
          "wdir": "VRB",
          "wspd": 3
        },
        {
          "text": "FM101700 VRB04KT P6SM SCT015",
          "offset_h": 18,
          "wdir": "VRB",
          "wspd": 4
        },
        {
          "text": "FM101900 22009KT P6SM FEW015",
          "offset_h": 20,
          "wdir": 220,
          "wspd": 9
        },
        {
          "text": "FM110300 VRB04KT P6SM BKN012",
          "offset_h": 28,
          "wdir": "VRB",
          "wspd": 4
        }
      ],
      "metar_raw": "METAR KSAN 092251Z 29008KT 10SM FEW020 22/15 A2989 RMK AO2 SLP120 T02170150",
      "metar_wdir": 290,
      "metar_wspd": 8,
      "metar_oat": 22,
      "metar_qnh": 1012,
      "hourly_oat": [
        22,
        21,
        20,
        20,
        19,
        18,
        18,
        18,
        17,
        17,
        17,
        16,
        16,
        16,
        16,
        17,
        18,
        20,
        22,
        23,
        22,
        22,
        22,
        22,
        21
      ]
    },
    "KIX": {
      "icao": "RJBB",
      "issued": "2026-06-09T23:08:00.000Z",
      "raw": "TAF RJBB 092308Z 1000/1106 02010KT 9999 FEW030 BECMG 1002/1004 26006KT BECMG 1008/1010 02008KT BECMG 1100/1103 25012KT",
      "groups": [
        {
          "text": "TAF RJBB 092308Z 1000/1106 02010KT 9999 FEW030",
          "offset_h": 1,
          "wdir": 20,
          "wspd": 10
        },
        {
          "text": "BECMG 1002/1004 26006KT",
          "offset_h": 3,
          "wdir": 260,
          "wspd": 6
        },
        {
          "text": "BECMG 1008/1010 02008KT",
          "offset_h": 9,
          "wdir": 20,
          "wspd": 8
        },
        {
          "text": "BECMG 1100/1103 25012KT",
          "offset_h": 25,
          "wdir": 250,
          "wspd": 12
        }
      ],
      "metar_raw": "METAR RJBB 092330Z 03012KT 9999 FEW020 20/14 Q1008 NOSIG",
      "metar_wdir": 30,
      "metar_wspd": 12,
      "metar_oat": 20,
      "metar_qnh": 1008,
      "hourly_oat": [
        19,
        19,
        20,
        20,
        20,
        21,
        22,
        22,
        22,
        22,
        22,
        22,
        23,
        22,
        22,
        22,
        21,
        21,
        20,
        20,
        20,
        20,
        19,
        19,
        19
      ]
    },
    "ITM": {
      "icao": "RJOO",
      "issued": "2026-06-09T23:08:00.000Z",
      "raw": "TAF RJOO 092308Z 1000/1106 35012KT 9999 FEW030 BECMG 1021/1100 20005KT",
      "groups": [
        {
          "text": "TAF RJOO 092308Z 1000/1106 35012KT 9999 FEW030",
          "offset_h": 1,
          "wdir": 350,
          "wspd": 12
        },
        {
          "text": "BECMG 1021/1100 20005KT",
          "offset_h": 22,
          "wdir": 200,
          "wspd": 5
        }
      ],
      "metar_raw": "METAR RJOO 092300Z 34008KT 300V010 9999 FEW025 20/13 Q1007",
      "metar_wdir": 340,
      "metar_wspd": 8,
      "metar_oat": 20,
      "metar_qnh": 1007,
      "hourly_oat": [
        20,
        22,
        24,
        25,
        26,
        27,
        27,
        27,
        26,
        25,
        24,
        23,
        21,
        20,
        19,
        18,
        18,
        17,
        17,
        16,
        16,
        16,
        16,
        18,
        20
      ]
    },
    "CTS": {
      "icao": "RJCC",
      "issued": "2026-06-09T23:05:00.000Z",
      "raw": "TAF RJCC 092305Z 1000/1106 35018KT 9999 FEW015 BKN030 BECMG 1009/1011 34006KT TEMPO 1015/1100 2000 BR FEW003 BKN005 BECMG 1018/1021 17008KT",
      "groups": [
        {
          "text": "TAF RJCC 092305Z 1000/1106 35018KT 9999 FEW015 BKN030",
          "offset_h": 1,
          "wdir": 350,
          "wspd": 18
        },
        {
          "text": "BECMG 1009/1011 34006KT",
          "offset_h": 10,
          "wdir": 340,
          "wspd": 6
        },
        {
          "text": "TEMPO 1015/1100 2000 BR FEW003 BKN005",
          "offset_h": 16,
          "wdir": null,
          "wspd": null
        },
        {
          "text": "BECMG 1018/1021 17008KT",
          "offset_h": 19,
          "wdir": 170,
          "wspd": 8
        }
      ],
      "metar_raw": "METAR RJCC 092330Z 33010KT 290V010 9999 FEW015 SCT030 BKN040 14/10 Q1005",
      "metar_wdir": 330,
      "metar_wspd": 10,
      "metar_oat": 14,
      "metar_qnh": 1005,
      "hourly_oat": [
        14,
        15,
        15,
        16,
        16,
        17,
        17,
        17,
        16,
        15,
        14,
        13,
        12,
        11,
        11,
        10,
        10,
        9,
        8,
        8,
        8,
        9,
        11,
        13,
        15
      ]
    },
    "NRT": {
      "icao": "RJAA",
      "issued": "2026-06-09T23:05:00.000Z",
      "raw": "TAF RJAA 092305Z 1000/1106 05012KT 9999 FEW020 BKN040 BECMG 1100/1103 15012KT",
      "groups": [
        {
          "text": "TAF RJAA 092305Z 1000/1106 05012KT 9999 FEW020 BKN040",
          "offset_h": 1,
          "wdir": 50,
          "wspd": 12
        },
        {
          "text": "BECMG 1100/1103 15012KT",
          "offset_h": 25,
          "wdir": 150,
          "wspd": 12
        }
      ],
      "metar_raw": "METAR RJAA 092330Z 06011KT 9999 FEW015 BKN040 19/15 Q1006 BECMG 04016KT",
      "metar_wdir": 60,
      "metar_wspd": 11,
      "metar_oat": 19,
      "metar_qnh": 1006,
      "hourly_oat": [
        19,
        19,
        19,
        20,
        20,
        20,
        20,
        21,
        20,
        20,
        19,
        18,
        17,
        16,
        16,
        15,
        15,
        15,
        15,
        15,
        15,
        15,
        16,
        18,
        19
      ]
    },
    "HND": {
      "icao": "RJTT",
      "issued": "2026-06-09T23:05:00.000Z",
      "raw": "TAF RJTT 092305Z 1000/1106 05014KT 9999 FEW020 BKN040 BECMG 1012/1015 05004KT BECMG 1018/1021 08008KT BECMG 1103/1106 19016KT",
      "groups": [
        {
          "text": "TAF RJTT 092305Z 1000/1106 05014KT 9999 FEW020 BKN040",
          "offset_h": 1,
          "wdir": 50,
          "wspd": 14
        },
        {
          "text": "BECMG 1012/1015 05004KT",
          "offset_h": 13,
          "wdir": 50,
          "wspd": 4
        },
        {
          "text": "BECMG 1018/1021 08008KT",
          "offset_h": 19,
          "wdir": 80,
          "wspd": 8
        },
        {
          "text": "BECMG 1103/1106 19016KT",
          "offset_h": 28,
          "wdir": 190,
          "wspd": 16
        }
      ],
      "metar_raw": "METAR RJTT 092330Z 07018KT 9999 FEW010 BKN020 19/16 Q1006 NOSIG",
      "metar_wdir": 70,
      "metar_wspd": 18,
      "metar_oat": 19,
      "metar_qnh": 1006,
      "hourly_oat": [
        20,
        20,
        20,
        21,
        21,
        22,
        22,
        22,
        22,
        22,
        21,
        20,
        20,
        20,
        19,
        19,
        19,
        19,
        18,
        18,
        18,
        19,
        19,
        20,
        20
      ]
    },
    "OKA": {
      "icao": "ROAH",
      "issued": "2026-06-09T23:05:00.000Z",
      "raw": "TAF ROAH 092305Z 1000/1106 04010KT 9999 -SHRA FEW005 BKN012 TEMPO 1000/1006 4000 SHRA BR FEW005 BKN008 FEW015CB TEMPO 1006/1012 FEW005 BKN008 TEMPO 1012/1021 4000 SHRA BR FEW005 BKN008 FEW015CB",
      "groups": [
        {
          "text": "TAF ROAH 092305Z 1000/1106 04010KT 9999 -SHRA FEW005 BKN012",
          "offset_h": 1,
          "wdir": 40,
          "wspd": 10
        },
        {
          "text": "TEMPO 1000/1006 4000 SHRA BR FEW005 BKN008 FEW015CB",
          "offset_h": 1,
          "wdir": null,
          "wspd": null
        },
        {
          "text": "TEMPO 1006/1012 FEW005 BKN008",
          "offset_h": 7,
          "wdir": null,
          "wspd": null
        },
        {
          "text": "TEMPO 1012/1021 4000 SHRA BR FEW005 BKN008 FEW015CB",
          "offset_h": 13,
          "wdir": null,
          "wspd": null
        }
      ],
      "metar_raw": "METAR ROAH 092330Z 06008KT 9999 -RA FEW002 SCT010 BKN080 25/24 Q1006",
      "metar_wdir": 60,
      "metar_wspd": 8,
      "metar_oat": 25,
      "metar_qnh": 1006,
      "hourly_oat": [
        23,
        23,
        24,
        24,
        24,
        25,
        25,
        25,
        24,
        23,
        23,
        23,
        23,
        23,
        23,
        23,
        23,
        22,
        22,
        22,
        22,
        23,
        23,
        24,
        25
      ]
    },
    "NGO": {
      "icao": "RJGG",
      "issued": "2026-06-09T23:05:00.000Z",
      "raw": "TAF RJGG 092305Z 1000/1106 34010KT 9999 FEW030 BECMG 1002/1004 23006KT BECMG 1006/1008 30012KT BECMG 1100/1103 16016KT",
      "groups": [
        {
          "text": "TAF RJGG 092305Z 1000/1106 34010KT 9999 FEW030",
          "offset_h": 1,
          "wdir": 340,
          "wspd": 10
        },
        {
          "text": "BECMG 1002/1004 23006KT",
          "offset_h": 3,
          "wdir": 230,
          "wspd": 6
        },
        {
          "text": "BECMG 1006/1008 30012KT",
          "offset_h": 7,
          "wdir": 300,
          "wspd": 12
        },
        {
          "text": "BECMG 1100/1103 16016KT",
          "offset_h": 25,
          "wdir": 160,
          "wspd": 16
        }
      ],
      "metar_raw": "METAR RJGG 092330Z 32007KT 9999 FEW020 SCT/// 22/16 Q1005 NOSIG",
      "metar_wdir": 320,
      "metar_wspd": 7,
      "metar_oat": 22,
      "metar_qnh": 1005,
      "hourly_oat": [
        20,
        21,
        22,
        22,
        22,
        22,
        22,
        22,
        24,
        24,
        23,
        23,
        22,
        22,
        21,
        21,
        21,
        20,
        20,
        20,
        20,
        19,
        19,
        19,
        19
      ]
    },
    "FUK": {
      "icao": "RJFF",
      "issued": "2026-06-09T23:05:00.000Z",
      "raw": "TAF RJFF 092305Z 1000/1106 32012KT 9999 FEW030 BECMG 1012/1015 22006KT BECMG 1100/1103 31012KT",
      "groups": [
        {
          "text": "TAF RJFF 092305Z 1000/1106 32012KT 9999 FEW030",
          "offset_h": 1,
          "wdir": 320,
          "wspd": 12
        },
        {
          "text": "BECMG 1012/1015 22006KT",
          "offset_h": 13,
          "wdir": 220,
          "wspd": 6
        },
        {
          "text": "BECMG 1100/1103 31012KT",
          "offset_h": 25,
          "wdir": 310,
          "wspd": 12
        }
      ],
      "metar_raw": "METAR RJFF 092330Z 30005KT 270V350 9999 FEW015 SCT/// 23/17 Q1009 NOSIG",
      "metar_wdir": 300,
      "metar_wspd": 5,
      "metar_oat": 23,
      "metar_qnh": 1009,
      "hourly_oat": [
        20,
        22,
        23,
        23,
        24,
        24,
        24,
        24,
        24,
        24,
        23,
        22,
        22,
        21,
        21,
        20,
        20,
        19,
        19,
        19,
        19,
        18,
        18,
        19,
        21
      ]
    },
    "HAN": {
      "icao": "VVNB",
      "issued": "2026-06-09T23:00:00.000Z",
      "raw": "TAF VVNB 092300Z 1000/1024 32005KT 6000 FEW030",
      "groups": [
        {
          "text": "TAF VVNB 092300Z 1000/1024 32005KT 6000 FEW030",
          "offset_h": 1,
          "wdir": 320,
          "wspd": 5
        }
      ],
      "metar_raw": "METAR VVNB 092330Z 31004KT 9000 NSC 25/23 Q1010 NOSIG",
      "metar_wdir": 310,
      "metar_wspd": 4,
      "metar_oat": 25,
      "metar_qnh": 1010,
      "hourly_oat": [
        24,
        25,
        26,
        27,
        28,
        29,
        30,
        30,
        31,
        31,
        31,
        31,
        29,
        28,
        28,
        27,
        27,
        26,
        26,
        26,
        26,
        25,
        25,
        25,
        25
      ]
    },
    "SGN": {
      "icao": "VVTS",
      "issued": "2026-06-09T23:00:00.000Z",
      "raw": "TAF VVTS 092300Z 1000/1106 23010KT 9999 SCT017 TEMPO 1006/1009 5000 SHRA SCT015 FEW017CB TEMPO 1009/1012 25015G26KT 3000 TSRA SCT013 SCT015CB",
      "groups": [
        {
          "text": "TAF VVTS 092300Z 1000/1106 23010KT 9999 SCT017",
          "offset_h": 1,
          "wdir": 230,
          "wspd": 10
        },
        {
          "text": "TEMPO 1006/1009 5000 SHRA SCT015 FEW017CB",
          "offset_h": 7,
          "wdir": null,
          "wspd": null
        },
        {
          "text": "TEMPO 1009/1012 25015G26KT 3000 TSRA SCT013 SCT015CB",
          "offset_h": 10,
          "wdir": 250,
          "wspd": 15
        }
      ],
      "metar_raw": "METAR VVTS 092330Z 20006KT 9999 FEW013 28/27 Q1009 NOSIG",
      "metar_wdir": 200,
      "metar_wspd": 6,
      "metar_oat": 28,
      "metar_qnh": 1009,
      "hourly_oat": [
        26,
        27,
        29,
        30,
        31,
        32,
        33,
        33,
        28,
        26,
        25,
        26,
        26,
        26,
        26,
        26,
        26,
        26,
        26,
        25,
        25,
        24,
        24,
        24,
        24
      ]
    },
    "CGK": {
      "icao": "WIII",
      "issued": "2026-06-09T23:00:00.000Z",
      "raw": "TAF WIII 092300Z 1000/1106 17005KT 4000 HZ SCT020 BECMG 1003/1005 03010KT 8000 NSW BECMG 1014/1016 14005KT 5000 HZ",
      "groups": [
        {
          "text": "TAF WIII 092300Z 1000/1106 17005KT 4000 HZ SCT020",
          "offset_h": 1,
          "wdir": 170,
          "wspd": 5
        },
        {
          "text": "BECMG 1003/1005 03010KT 8000 NSW",
          "offset_h": 4,
          "wdir": 30,
          "wspd": 10
        },
        {
          "text": "BECMG 1014/1016 14005KT 5000 HZ",
          "offset_h": 15,
          "wdir": 140,
          "wspd": 5
        }
      ],
      "metar_raw": "METAR WIII 092330Z 17004KT 4000 HZ FEW020 26/23 Q1013 NOSIG",
      "metar_wdir": 170,
      "metar_wspd": 4,
      "metar_oat": 26,
      "metar_qnh": 1013,
      "hourly_oat": [
        25,
        26,
        28,
        30,
        32,
        34,
        34,
        35,
        34,
        33,
        32,
        30,
        30,
        29,
        28,
        28,
        27,
        27,
        27,
        26,
        26,
        26,
        25,
        25,
        24
      ]
    },
    "KUL": {
      "icao": "WMKK",
      "issued": "2026-06-09T23:00:00.000Z",
      "raw": "TAF WMKK 092300Z 1000/1106 VRB03KT 9999 FEW018 TEMPO 1000/1002 5000 TSRA FEW017CB SCT030 PROB30 TEMPO 1019/1023 4000 TSRA FEW010 FEW016CB SCT025",
      "groups": [
        {
          "text": "TAF WMKK 092300Z 1000/1106 VRB03KT 9999 FEW018",
          "offset_h": 1,
          "wdir": "VRB",
          "wspd": 3
        },
        {
          "text": "TEMPO 1000/1002 5000 TSRA FEW017CB SCT030",
          "offset_h": 1,
          "wdir": null,
          "wspd": null
        },
        {
          "text": "PROB30",
          "offset_h": 0,
          "wdir": null,
          "wspd": null
        },
        {
          "text": "TEMPO 1019/1023 4000 TSRA FEW010 FEW016CB SCT025",
          "offset_h": 20,
          "wdir": null,
          "wspd": null
        }
      ],
      "metar_raw": "METAR WMKK 092330Z VRB02KT 7000 -RA FEW010 FEW017CB SCT030 25/24 Q1011 RETSRA NOSIG",
      "metar_wdir": "VRB",
      "metar_wspd": 2,
      "metar_oat": 25,
      "metar_qnh": 1011,
      "hourly_oat": [
        23,
        24,
        25,
        27,
        28,
        30,
        30,
        30,
        30,
        30,
        29,
        29,
        28,
        27,
        26,
        26,
        26,
        25,
        25,
        25,
        25,
        25,
        25,
        25,
        25
      ]
    },
    "TPE": {
      "icao": "RCTP",
      "issued": "2026-06-09T23:00:00.000Z",
      "raw": "TAF RCTP 092300Z 1000/1106 04015KT 8000 SCT006 BKN011 BKN030 TEMPO 1000/1002 3000 SHRA SCT003 BKN006 FEW010CB BKN015 TEMPO 1002/1008 4000 RA BR SCT004 BKN007 BKN020 BECMG 1008/1010 06010KT FEW010 BKN020 BKN040 TEMPO 1012/1018 08005KT FEW012 BKN032 TEMPO 1020/1102 VRB05G15KT 4000 SHRA SCT006 FEW010CB BKN012 BKN030",
      "groups": [
        {
          "text": "TAF RCTP 092300Z 1000/1106 04015KT 8000 SCT006 BKN011 BKN030",
          "offset_h": 1,
          "wdir": 40,
          "wspd": 15
        },
        {
          "text": "TEMPO 1000/1002 3000 SHRA SCT003 BKN006 FEW010CB BKN015",
          "offset_h": 1,
          "wdir": null,
          "wspd": null
        },
        {
          "text": "TEMPO 1002/1008 4000 RA BR SCT004 BKN007 BKN020",
          "offset_h": 3,
          "wdir": null,
          "wspd": null
        },
        {
          "text": "BECMG 1008/1010 06010KT FEW010 BKN020 BKN040",
          "offset_h": 9,
          "wdir": 60,
          "wspd": 10
        },
        {
          "text": "TEMPO 1012/1018 08005KT FEW012 BKN032",
          "offset_h": 13,
          "wdir": 80,
          "wspd": 5
        },
        {
          "text": "TEMPO 1020/1102 VRB05G15KT 4000 SHRA SCT006 FEW010CB BKN012 BKN030",
          "offset_h": 21,
          "wdir": "VRB",
          "wspd": 5
        }
      ],
      "metar_raw": "SPECI RCTP 092341Z 04015KT 3000 SHRA SCT003 BKN006 BKN015 23/23 Q1007 NOSIG RMK A2976",
      "metar_wdir": 40,
      "metar_wspd": 15,
      "metar_oat": 23,
      "metar_qnh": 1007,
      "hourly_oat": [
        23,
        23,
        23,
        23,
        23,
        23,
        23,
        24,
        24,
        24,
        24,
        24,
        23,
        23,
        23,
        22,
        22,
        22,
        22,
        22,
        22,
        22,
        22,
        22,
        22
      ]
    },
    "HKG": {
      "icao": "VHHH",
      "issued": "2026-06-09T23:00:00.000Z",
      "raw": "TAF VHHH 092300Z 1000/1106 04010KT 9999 FEW020 SCT035 TX30/1006Z TX29/1106Z TN26/1022Z TEMPO 1004/1009 30010KT BECMG 1009/1011 10010KT",
      "groups": [
        {
          "text": "TAF VHHH 092300Z 1000/1106 04010KT 9999 FEW020 SCT035 TX30/1006Z TX29/1106Z TN26/1022Z",
          "offset_h": 1,
          "wdir": 40,
          "wspd": 10
        },
        {
          "text": "TEMPO 1004/1009 30010KT",
          "offset_h": 5,
          "wdir": 300,
          "wspd": 10
        },
        {
          "text": "BECMG 1009/1011 10010KT",
          "offset_h": 10,
          "wdir": 100,
          "wspd": 10
        }
      ],
      "metar_raw": "METAR VHHH 092330Z 01005KT 9999 FEW028 25/19 Q1008 NOSIG",
      "metar_wdir": 10,
      "metar_wspd": 5,
      "metar_oat": 25,
      "metar_qnh": 1008,
      "hourly_oat": [
        24,
        25,
        25,
        26,
        26,
        27,
        28,
        28,
        28,
        28,
        28,
        28,
        27,
        26,
        26,
        26,
        26,
        26,
        26,
        26,
        26,
        26,
        26,
        26,
        26
      ]
    },
    "GMP": {
      "icao": "RKSS",
      "issued": "2026-06-09T23:00:00.000Z",
      "raw": "TAF RKSS 092300Z 1000/1106 24008KT 9999 SCT035 TX26/1006Z TN16/1020Z TX27/1104Z TEMPO 1005/1007 6000 -RA BKN035 BKN070 BECMG 1013/1015 18005KT 6000 BECMG 1017/1019 3000 BR FEW010 BKN030 BECMG 1021/1023 26008KT 6000 NSW SCT035 TEMPO 1105/1106 -SHRA FEW010 BKN030 OVC070",
      "groups": [
        {
          "text": "TAF RKSS 092300Z 1000/1106 24008KT 9999 SCT035 TX26/1006Z TN16/1020Z TX27/1104Z",
          "offset_h": 1,
          "wdir": 240,
          "wspd": 8
        },
        {
          "text": "TEMPO 1005/1007 6000 -RA BKN035 BKN070",
          "offset_h": 6,
          "wdir": null,
          "wspd": null
        },
        {
          "text": "BECMG 1013/1015 18005KT 6000",
          "offset_h": 14,
          "wdir": 180,
          "wspd": 5
        },
        {
          "text": "BECMG 1017/1019 3000 BR FEW010 BKN030",
          "offset_h": 18,
          "wdir": null,
          "wspd": null
        },
        {
          "text": "BECMG 1021/1023 26008KT 6000 NSW SCT035",
          "offset_h": 22,
          "wdir": 260,
          "wspd": 8
        },
        {
          "text": "TEMPO 1105/1106 -SHRA FEW010 BKN030 OVC070",
          "offset_h": 30,
          "wdir": null,
          "wspd": null
        }
      ],
      "metar_raw": "METAR RKSS 092300Z 17004KT 110V230 9999 BKN020 20/18 Q1009 NOSIG",
      "metar_wdir": 170,
      "metar_wspd": 4,
      "metar_oat": 20,
      "metar_qnh": 1009,
      "hourly_oat": [
        19,
        20,
        22,
        23,
        24,
        24,
        24,
        23,
        23,
        22,
        22,
        20,
        20,
        18,
        18,
        18,
        17,
        17,
        16,
        16,
        15,
        15,
        15,
        16,
        18
      ]
    },
    "SIN": {
      "icao": "WSSS",
      "issued": "2026-06-09T23:00:00.000Z",
      "raw": "TAF WSSS 092300Z 1000/1106 20008KT 9999 FEW015 SCT020 PROB30 TEMPO 1003/1006 3000 TSRA FEW012CB BKN015",
      "groups": [
        {
          "text": "TAF WSSS 092300Z 1000/1106 20008KT 9999 FEW015 SCT020",
          "offset_h": 1,
          "wdir": 200,
          "wspd": 8
        },
        {
          "text": "PROB30",
          "offset_h": 0,
          "wdir": null,
          "wspd": null
        },
        {
          "text": "TEMPO 1003/1006 3000 TSRA FEW012CB BKN015",
          "offset_h": 4,
          "wdir": null,
          "wspd": null
        }
      ],
      "metar_raw": "METAR WSSS 092330Z 21008KT 9999 FEW018 SCT150 BKN300 27/24 Q1012 NOSIG",
      "metar_wdir": 210,
      "metar_wspd": 8,
      "metar_oat": 27,
      "metar_qnh": 1012,
      "hourly_oat": [
        27,
        28,
        28,
        28,
        27,
        28,
        30,
        30,
        29,
        29,
        28,
        28,
        28,
        27,
        28,
        28,
        28,
        28,
        28,
        28,
        28,
        28,
        28,
        28,
        28
      ]
    },
    "BKK": {
      "icao": "VTBS",
      "issued": "2026-06-09T23:00:00.000Z",
      "raw": "TAF VTBS 092300Z 1000/1106 20008KT 9999 FEW020 TEMPO 1008/1013 VRB15KT 4000 TSRA FEW018CB SCT020 BKN080",
      "groups": [
        {
          "text": "TAF VTBS 092300Z 1000/1106 20008KT 9999 FEW020",
          "offset_h": 1,
          "wdir": 200,
          "wspd": 8
        },
        {
          "text": "TEMPO 1008/1013 VRB15KT 4000 TSRA FEW018CB SCT020 BKN080",
          "offset_h": 9,
          "wdir": "VRB",
          "wspd": 15
        }
      ],
      "metar_raw": "METAR VTBS 092330Z 19007KT 9999 FEW020 29/25 Q1007 NOSIG",
      "metar_wdir": 190,
      "metar_wspd": 7,
      "metar_oat": 29,
      "metar_qnh": 1007,
      "hourly_oat": [
        27,
        29,
        30,
        30,
        32,
        31,
        30,
        32,
        29,
        28,
        30,
        29,
        27,
        27,
        27,
        27,
        28,
        27,
        27,
        27,
        26,
        26,
        26,
        26,
        27
      ]
    },
    "TSA": {
      "icao": "RCSS",
      "issued": "2026-06-09T23:00:00.000Z",
      "raw": "TAF RCSS 092300Z 1000/1024 10005KT 9999 FEW015 BKN032 TEMPO 1000/1004 4000 SHRA FEW008 FEW012CB BKN016 BKN040 TEMPO 1004/1010 09010KT 5000 RA FEW010 BKN017 BKN040 TEMPO 1020/1024 11010KT 5000 SHRA FEW010 FEW015CB BKN020 BKN040",
      "groups": [
        {
          "text": "TAF RCSS 092300Z 1000/1024 10005KT 9999 FEW015 BKN032",
          "offset_h": 1,
          "wdir": 100,
          "wspd": 5
        },
        {
          "text": "TEMPO 1000/1004 4000 SHRA FEW008 FEW012CB BKN016 BKN040",
          "offset_h": 1,
          "wdir": null,
          "wspd": null
        },
        {
          "text": "TEMPO 1004/1010 09010KT 5000 RA FEW010 BKN017 BKN040",
          "offset_h": 5,
          "wdir": 90,
          "wspd": 10
        },
        {
          "text": "TEMPO 1020/1024 11010KT 5000 SHRA FEW010 FEW015CB BKN020 BKN040",
          "offset_h": 21,
          "wdir": 110,
          "wspd": 10
        }
      ],
      "metar_raw": "SPECI RCSS 092332Z 10005KT 3500 -SHRA SCT008 BKN012 BKN030 24/23 Q1007 NOSIG RMK A2975",
      "metar_wdir": 100,
      "metar_wspd": 5,
      "metar_oat": 24,
      "metar_qnh": 1007,
      "hourly_oat": [
        23,
        23,
        23,
        24,
        23,
        23,
        24,
        24,
        25,
        24,
        24,
        24,
        23,
        23,
        22,
        22,
        22,
        22,
        22,
        22,
        22,
        22,
        22,
        22,
        22
      ]
    },
    "DLC": {
      "icao": "ZYTL",
      "issued": "2026-06-09T21:06:00.000Z",
      "raw": "TAF ZYTL 092106Z 1000/1024 29004MPS 5000 BR FEW040 TX24/1006Z TN17/1021Z",
      "groups": [
        {
          "text": "TAF ZYTL 092106Z 1000/1024 29004MPS 5000 BR FEW040 TX24/1006Z TN17/1021Z",
          "offset_h": 1,
          "wdir": null,
          "wspd": null
        }
      ],
      "metar_raw": "METAR ZYTL 092330Z 31003MPS 270V340 CAVOK 20/16 Q1011 NOSIG",
      "metar_wdir": null,
      "metar_wspd": null,
      "metar_oat": 20,
      "metar_qnh": 1011,
      "hourly_oat": [
        19,
        20,
        22,
        22,
        23,
        24,
        24,
        24,
        23,
        23,
        22,
        21,
        20,
        20,
        19,
        19,
        18,
        18,
        18,
        18,
        18,
        18,
        18,
        19,
        21
      ]
    },
    "PVG": {
      "icao": "ZSPD",
      "issued": "2026-06-09T21:05:00.000Z",
      "raw": "TAF ZSPD 092105Z 1000/1106 17004MPS 8000 BKN030 TX30/1006Z TX31/1106Z TN20/1021Z",
      "groups": [
        {
          "text": "TAF ZSPD 092105Z 1000/1106 17004MPS 8000 BKN030 TX30/1006Z TX31/1106Z TN20/1021Z",
          "offset_h": 1,
          "wdir": null,
          "wspd": null
        }
      ],
      "metar_raw": "METAR ZSPD 092330Z VRB01MPS CAVOK 23/17 Q1012 NOSIG",
      "metar_wdir": null,
      "metar_wspd": null,
      "metar_oat": 23,
      "metar_qnh": 1012,
      "hourly_oat": [
        20,
        22,
        23,
        25,
        26,
        26,
        26,
        26,
        26,
        26,
        25,
        24,
        22,
        21,
        20,
        20,
        20,
        19,
        19,
        19,
        19,
        19,
        19,
        20,
        22
      ]
    },
    "SHA": {
      "icao": "ZSSS",
      "issued": "2026-06-09T21:04:00.000Z",
      "raw": "TAF ZSSS 092104Z 1000/1106 16004MPS 8000 BKN030 TX31/1006Z TX32/1106Z TN21/1021Z",
      "groups": [
        {
          "text": "TAF ZSSS 092104Z 1000/1106 16004MPS 8000 BKN030 TX31/1006Z TX32/1106Z TN21/1021Z",
          "offset_h": 1,
          "wdir": null,
          "wspd": null
        }
      ],
      "metar_raw": "METAR ZSSS 092330Z VRB01MPS CAVOK 24/15 Q1011 NOSIG",
      "metar_wdir": null,
      "metar_wspd": null,
      "metar_oat": 24,
      "metar_qnh": 1011,
      "hourly_oat": [
        21,
        23,
        25,
        27,
        28,
        30,
        31,
        31,
        31,
        29,
        27,
        26,
        25,
        24,
        23,
        22,
        22,
        22,
        21,
        21,
        20,
        20,
        20,
        21,
        23
      ]
    },
    "PEK": {
      "icao": "ZBAA",
      "issued": "2026-06-09T21:03:00.000Z",
      "raw": "TAF ZBAA 092103Z 1000/1106 35004MPS CAVOK TX27/1007Z TX31/1106Z TN14/1021Z BECMG 1008/1009 -TSRA FEW030CB BKN040 BECMG 1010/1011 NSW NSC",
      "groups": [
        {
          "text": "TAF ZBAA 092103Z 1000/1106 35004MPS CAVOK TX27/1007Z TX31/1106Z TN14/1021Z",
          "offset_h": 1,
          "wdir": null,
          "wspd": null
        },
        {
          "text": "BECMG 1008/1009 -TSRA FEW030CB BKN040",
          "offset_h": 9,
          "wdir": null,
          "wspd": null
        },
        {
          "text": "BECMG 1010/1011 NSW NSC",
          "offset_h": 11,
          "wdir": null,
          "wspd": null
        }
      ],
      "metar_raw": "METAR ZBAA 092330Z 33002MPS 290V360 CAVOK 21/16 Q1012 NOSIG",
      "metar_wdir": null,
      "metar_wspd": null,
      "metar_oat": 21,
      "metar_qnh": 1012,
      "hourly_oat": [
        17,
        20,
        21,
        23,
        24,
        25,
        25,
        22,
        23,
        23,
        23,
        23,
        22,
        20,
        20,
        19,
        17,
        16,
        16,
        15,
        14,
        14,
        14,
        14,
        17
      ]
    },
    "CAN": {
      "icao": "ZGGG",
      "issued": "2026-06-09T21:03:00.000Z",
      "raw": "TAF ZGGG 092103Z 1000/1106 03003MPS 8000 BKN033 TX31/1007Z TX32/1106Z TN23/1022Z TEMPO 1022/1102 SHRA FEW026CB BKN030",
      "groups": [
        {
          "text": "TAF ZGGG 092103Z 1000/1106 03003MPS 8000 BKN033 TX31/1007Z TX32/1106Z TN23/1022Z",
          "offset_h": 1,
          "wdir": null,
          "wspd": null
        },
        {
          "text": "TEMPO 1022/1102 SHRA FEW026CB BKN030",
          "offset_h": 23,
          "wdir": null,
          "wspd": null
        }
      ],
      "metar_raw": "METAR ZGGG 092330Z 01002MPS 9999 BKN060 25/20 Q1009 NOSIG",
      "metar_wdir": null,
      "metar_wspd": null,
      "metar_oat": 25,
      "metar_qnh": 1009,
      "hourly_oat": [
        23,
        24,
        25,
        26,
        28,
        28,
        30,
        30,
        30,
        30,
        30,
        30,
        29,
        27,
        27,
        26,
        25,
        25,
        25,
        25,
        24,
        24,
        24,
        24,
        25
      ]
    }
  }
}