{
  "updated": "2026-06-13T00:04:20Z",
  "tafs": {
    "HNL": {
      "icao": "PHNL",
      "issued": "2026-06-12T23:41:00.000Z",
      "raw": "TAF PHNL 122341Z 1300/1406 14010KT P6SM FEW025 SCT045 FM130300 04007KT P6SM SCT025 SCT040 FM130900 VRB06KT P6SM FEW025 FEW045 FM132000 14010KT P6SM FEW040 FM140300 04007KT P6SM SCT025 SCT040",
      "groups": [
        {
          "text": "TAF PHNL 122341Z 1300/1406 14010KT P6SM FEW025 SCT045",
          "offset_h": 0,
          "wdir": 140,
          "wspd": 10
        },
        {
          "text": "FM130300 04007KT P6SM SCT025 SCT040",
          "offset_h": 3,
          "wdir": 40,
          "wspd": 7
        },
        {
          "text": "FM130900 VRB06KT P6SM FEW025 FEW045",
          "offset_h": 9,
          "wdir": "VRB",
          "wspd": 6
        },
        {
          "text": "FM132000 14010KT P6SM FEW040",
          "offset_h": 20,
          "wdir": 140,
          "wspd": 10
        },
        {
          "text": "FM140300 04007KT P6SM SCT025 SCT040",
          "offset_h": 27,
          "wdir": 40,
          "wspd": 7
        }
      ],
      "metar_raw": "METAR PHNL 122353Z 16008KT 10SM FEW025 SCT033 SCT045 29/18 A2992 RMK AO2 SLP133 T02890178 10300 20250 58013 $",
      "metar_wdir": 160,
      "metar_wspd": 8,
      "metar_oat": 29,
      "metar_qnh": 1013,
      "hourly_oat": [
        29,
        28,
        27,
        25,
        24,
        24,
        23,
        23,
        22,
        22,
        22,
        21,
        21,
        21,
        21,
        21,
        20,
        22,
        24,
        26,
        27,
        28,
        29,
        29,
        29
      ]
    },
    "LAX": {
      "icao": "KLAX",
      "issued": "2026-06-12T23:35:00.000Z",
      "raw": "TAF KLAX 122335Z 1300/1406 24015KT P6SM FEW008 SCT045 FM130200 25010KT P6SM BKN008 FM130900 25005KT P6SM OVC008 FM131700 26006KT P6SM SCT012 FM132100 26012KT P6SM FEW250 FM140300 26008KT P6SM SKC",
      "groups": [
        {
          "text": "TAF KLAX 122335Z 1300/1406 24015KT P6SM FEW008 SCT045",
          "offset_h": 0,
          "wdir": 240,
          "wspd": 15
        },
        {
          "text": "FM130200 25010KT P6SM BKN008",
          "offset_h": 2,
          "wdir": 250,
          "wspd": 10
        },
        {
          "text": "FM130900 25005KT P6SM OVC008",
          "offset_h": 9,
          "wdir": 250,
          "wspd": 5
        },
        {
          "text": "FM131700 26006KT P6SM SCT012",
          "offset_h": 17,
          "wdir": 260,
          "wspd": 6
        },
        {
          "text": "FM132100 26012KT P6SM FEW250",
          "offset_h": 21,
          "wdir": 260,
          "wspd": 12
        },
        {
          "text": "FM140300 26008KT P6SM SKC",
          "offset_h": 27,
          "wdir": 260,
          "wspd": 8
        }
      ],
      "metar_raw": "METAR KLAX 122353Z 25015KT 10SM BKN010 BKN040 21/17 A2983 RMK AO2 SLP099 T02060167 10233 20206 57006 $",
      "metar_wdir": 250,
      "metar_wspd": 15,
      "metar_oat": 21,
      "metar_qnh": 1010,
      "hourly_oat": [
        21,
        20,
        19,
        18,
        18,
        18,
        17,
        17,
        17,
        17,
        17,
        17,
        17,
        16,
        17,
        18,
        19,
        18,
        20,
        20,
        20,
        20,
        20,
        20,
        19
      ]
    },
    "SAN": {
      "icao": "KSAN",
      "issued": "2026-06-12T23:22:00.000Z",
      "raw": "TAF KSAN 122322Z 1300/1406 29012G18KT P6SM FEW010 SCT250 FM130400 VRB04KT P6SM BKN012 FM131600 VRB04KT P6SM SCT014 FM131800 28010KT P6SM FEW250 FM140200 VRB04KT P6SM SCT010",
      "groups": [
        {
          "text": "TAF KSAN 122322Z 1300/1406 29012G18KT P6SM FEW010 SCT250",
          "offset_h": 0,
          "wdir": 290,
          "wspd": 12
        },
        {
          "text": "FM130400 VRB04KT P6SM BKN012",
          "offset_h": 4,
          "wdir": "VRB",
          "wspd": 4
        },
        {
          "text": "FM131600 VRB04KT P6SM SCT014",
          "offset_h": 16,
          "wdir": "VRB",
          "wspd": 4
        },
        {
          "text": "FM131800 28010KT P6SM FEW250",
          "offset_h": 18,
          "wdir": 280,
          "wspd": 10
        },
        {
          "text": "FM140200 VRB04KT P6SM SCT010",
          "offset_h": 26,
          "wdir": "VRB",
          "wspd": 4
        }
      ],
      "metar_raw": "METAR KSAN 122351Z 30008G15KT 10SM FEW010 FEW050 SCT250 23/17 A2984 RMK AO2 SLP103 T02330172 10261 20228 55002",
      "metar_wdir": 300,
      "metar_wspd": 8,
      "metar_oat": 23,
      "metar_qnh": 1011,
      "hourly_oat": [
        23,
        22,
        21,
        20,
        20,
        19,
        19,
        19,
        19,
        19,
        19,
        18,
        18,
        18,
        18,
        19,
        20,
        22,
        23,
        24,
        24,
        23,
        23,
        22,
        22
      ]
    },
    "KIX": {
      "icao": "RJBB",
      "issued": "2026-06-12T23:06:00.000Z",
      "raw": "TAF RJBB 122306Z 1300/1406 35004KT 9999 FEW030 BECMG 1301/1303 30006KT BECMG 1305/1307 24010KT BECMG 1315/1318 12006KT BECMG 1403/1406 29008KT",
      "groups": [
        {
          "text": "TAF RJBB 122306Z 1300/1406 35004KT 9999 FEW030",
          "offset_h": 0,
          "wdir": 350,
          "wspd": 4
        },
        {
          "text": "BECMG 1301/1303 30006KT",
          "offset_h": 1,
          "wdir": 300,
          "wspd": 6
        },
        {
          "text": "BECMG 1305/1307 24010KT",
          "offset_h": 5,
          "wdir": 240,
          "wspd": 10
        },
        {
          "text": "BECMG 1315/1318 12006KT",
          "offset_h": 15,
          "wdir": 120,
          "wspd": 6
        },
        {
          "text": "BECMG 1403/1406 29008KT",
          "offset_h": 27,
          "wdir": 290,
          "wspd": 8
        }
      ],
      "metar_raw": "METAR RJBB 122330Z 35003KT 9999 FEW020 BKN/// 23/17 Q1014 NOSIG",
      "metar_wdir": 350,
      "metar_wspd": 3,
      "metar_oat": 23,
      "metar_qnh": 1014,
      "hourly_oat": [
        21,
        21,
        21,
        22,
        22,
        22,
        22,
        23,
        24,
        24,
        23,
        23,
        23,
        23,
        22,
        22,
        22,
        22,
        22,
        22,
        21,
        21,
        21,
        21,
        21
      ]
    },
    "ITM": {
      "icao": "RJOO",
      "issued": "2026-06-12T23:06:00.000Z",
      "raw": "TAF RJOO 122306Z 1300/1406 22006KT 9999 FEW030 BECMG 1307/1309 27006KT BECMG 1318/1321 10008KT",
      "groups": [
        {
          "text": "TAF RJOO 122306Z 1300/1406 22006KT 9999 FEW030",
          "offset_h": 0,
          "wdir": 220,
          "wspd": 6
        },
        {
          "text": "BECMG 1307/1309 27006KT",
          "offset_h": 7,
          "wdir": 270,
          "wspd": 6
        },
        {
          "text": "BECMG 1318/1321 10008KT",
          "offset_h": 18,
          "wdir": 100,
          "wspd": 8
        }
      ],
      "metar_raw": "METAR RJOO 122300Z VRB03KT CAVOK 24/13 Q1014",
      "metar_wdir": "VRB",
      "metar_wspd": 3,
      "metar_oat": 24,
      "metar_qnh": 1014,
      "hourly_oat": [
        24,
        26,
        27,
        28,
        29,
        29,
        28,
        28,
        27,
        25,
        24,
        23,
        23,
        22,
        21,
        21,
        20,
        20,
        20,
        19,
        19,
        20,
        20,
        22,
        23
      ]
    },
    "CTS": {
      "icao": "RJCC",
      "issued": "2026-06-12T23:05:00.000Z",
      "raw": "TAF RJCC 122305Z 1300/1406 17012KT 9999 FEW015 BKN025 TEMPO 1302/1308 -TSRA FEW015 BKN025 FEW025CB TEMPO 1312/1315 3000 BR FEW003 BKN005 TEMPO 1315/1321 1500 BR FEW001 BKN003 TEMPO 1321/1400 4000 BR FEW003 BKN006",
      "groups": [
        {
          "text": "TAF RJCC 122305Z 1300/1406 17012KT 9999 FEW015 BKN025",
          "offset_h": 0,
          "wdir": 170,
          "wspd": 12
        },
        {
          "text": "TEMPO 1302/1308 -TSRA FEW015 BKN025 FEW025CB",
          "offset_h": 2,
          "wdir": null,
          "wspd": null
        },
        {
          "text": "TEMPO 1312/1315 3000 BR FEW003 BKN005",
          "offset_h": 12,
          "wdir": null,
          "wspd": null
        },
        {
          "text": "TEMPO 1315/1321 1500 BR FEW001 BKN003",
          "offset_h": 15,
          "wdir": null,
          "wspd": null
        },
        {
          "text": "TEMPO 1321/1400 4000 BR FEW003 BKN006",
          "offset_h": 21,
          "wdir": null,
          "wspd": null
        }
      ],
      "metar_raw": "METAR RJCC 122330Z 16013KT 9999 FEW020 BKN/// 18/13 Q1013",
      "metar_wdir": 160,
      "metar_wspd": 13,
      "metar_oat": 18,
      "metar_qnh": 1013,
      "hourly_oat": [
        17,
        18,
        18,
        18,
        19,
        18,
        18,
        17,
        16,
        15,
        14,
        13,
        13,
        13,
        13,
        13,
        13,
        13,
        13,
        13,
        14,
        14,
        15,
        16,
        17
      ]
    },
    "NGO": {
      "icao": "RJGG",
      "issued": "2026-06-12T23:05:00.000Z",
      "raw": "TAF RJGG 122305Z 1300/1406 30004KT 9999 FEW030 BECMG 1301/1303 18012KT BECMG 1312/1315 12008KT",
      "groups": [
        {
          "text": "TAF RJGG 122305Z 1300/1406 30004KT 9999 FEW030",
          "offset_h": 0,
          "wdir": 300,
          "wspd": 4
        },
        {
          "text": "BECMG 1301/1303 18012KT",
          "offset_h": 1,
          "wdir": 180,
          "wspd": 12
        },
        {
          "text": "BECMG 1312/1315 12008KT",
          "offset_h": 12,
          "wdir": 120,
          "wspd": 8
        }
      ],
      "metar_raw": "METAR RJGG 122330Z VRB02KT 9999 FEW020 BKN/// 23/18 Q1014 NOSIG",
      "metar_wdir": "VRB",
      "metar_wspd": 2,
      "metar_oat": 23,
      "metar_qnh": 1014,
      "hourly_oat": [
        21,
        21,
        21,
        21,
        22,
        23,
        24,
        24,
        24,
        23,
        23,
        22,
        22,
        22,
        22,
        21,
        21,
        21,
        21,
        21,
        20,
        20,
        21,
        22,
        22
      ]
    },
    "HND": {
      "icao": "RJTT",
      "issued": "2026-06-12T23:05:00.000Z",
      "raw": "TAF RJTT 122305Z 1300/1406 12004KT 9999 FEW030 BECMG 1302/1304 18012KT",
      "groups": [
        {
          "text": "TAF RJTT 122305Z 1300/1406 12004KT 9999 FEW030",
          "offset_h": 0,
          "wdir": 120,
          "wspd": 4
        },
        {
          "text": "BECMG 1302/1304 18012KT",
          "offset_h": 2,
          "wdir": 180,
          "wspd": 12
        }
      ],
      "metar_raw": "METAR RJTT 122330Z 07003KT 9999 FEW020 BKN/// 22/19 Q1015 NOSIG",
      "metar_wdir": 70,
      "metar_wspd": 3,
      "metar_oat": 22,
      "metar_qnh": 1015,
      "hourly_oat": [
        22,
        23,
        24,
        25,
        26,
        26,
        25,
        25,
        24,
        23,
        23,
        22,
        22,
        22,
        22,
        22,
        21,
        21,
        21,
        20,
        20,
        20,
        22,
        22,
        23
      ]
    },
    "OKA": {
      "icao": "ROAH",
      "issued": "2026-06-12T23:05:00.000Z",
      "raw": "TAF ROAH 122305Z 1300/1406 08014KT 9999 FEW012 SCT020 TEMPO 1309/1312 4000 SHRA BR BECMG 1315/1318 12010KT TEMPO 1315/1321 FEW005 BKN008 BECMG 1321/1400 20014KT TEMPO 1321/1400 4000 SHRA BR FEW005 BKN008 FEW015CB TEMPO 1400/1406 3000 +TSRA BR FEW005 BKN008 SCT015CB",
      "groups": [
        {
          "text": "TAF ROAH 122305Z 1300/1406 08014KT 9999 FEW012 SCT020",
          "offset_h": 0,
          "wdir": 80,
          "wspd": 14
        },
        {
          "text": "TEMPO 1309/1312 4000 SHRA BR",
          "offset_h": 9,
          "wdir": null,
          "wspd": null
        },
        {
          "text": "BECMG 1315/1318 12010KT",
          "offset_h": 15,
          "wdir": 120,
          "wspd": 10
        },
        {
          "text": "TEMPO 1315/1321 FEW005 BKN008",
          "offset_h": 15,
          "wdir": null,
          "wspd": null
        },
        {
          "text": "BECMG 1321/1400 20014KT",
          "offset_h": 21,
          "wdir": 200,
          "wspd": 14
        },
        {
          "text": "TEMPO 1321/1400 4000 SHRA BR FEW005 BKN008 FEW015CB",
          "offset_h": 21,
          "wdir": null,
          "wspd": null
        },
        {
          "text": "TEMPO 1400/1406 3000 +TSRA BR FEW005 BKN008 SCT015CB",
          "offset_h": 24,
          "wdir": null,
          "wspd": null
        }
      ],
      "metar_raw": "METAR ROAH 122330Z 10016KT 9999 SCT018 BKN038 24/20 Q1012",
      "metar_wdir": 100,
      "metar_wspd": 16,
      "metar_oat": 24,
      "metar_qnh": 1012,
      "hourly_oat": [
        24,
        24,
        26,
        25,
        25,
        25,
        25,
        24,
        23,
        22,
        23,
        23,
        23,
        23,
        24,
        24,
        24,
        24,
        24,
        24,
        25,
        25,
        25,
        26,
        26
      ]
    },
    "NRT": {
      "icao": "RJAA",
      "issued": "2026-06-12T23:05:00.000Z",
      "raw": "TAF RJAA 122305Z 1300/1406 27004KT 9999 FEW012 BKN020 BECMG 1300/1302 20005KT TEMPO 1303/1307 -TSRA FEW015 FEW020CB BKN030 TEMPO 1318/1321 FEW003 BKN008",
      "groups": [
        {
          "text": "TAF RJAA 122305Z 1300/1406 27004KT 9999 FEW012 BKN020",
          "offset_h": 0,
          "wdir": 270,
          "wspd": 4
        },
        {
          "text": "BECMG 1300/1302 20005KT",
          "offset_h": 0,
          "wdir": 200,
          "wspd": 5
        },
        {
          "text": "TEMPO 1303/1307 -TSRA FEW015 FEW020CB BKN030",
          "offset_h": 3,
          "wdir": null,
          "wspd": null
        },
        {
          "text": "TEMPO 1318/1321 FEW003 BKN008",
          "offset_h": 18,
          "wdir": null,
          "wspd": null
        }
      ],
      "metar_raw": "METAR RJAA 122330Z 03003KT 350V080 9999 FEW020 BKN/// 22/17 Q1015 BECMG 20005KT",
      "metar_wdir": 30,
      "metar_wspd": 3,
      "metar_oat": 22,
      "metar_qnh": 1015,
      "hourly_oat": [
        23,
        24,
        26,
        26,
        26,
        26,
        26,
        26,
        26,
        25,
        24,
        22,
        21,
        20,
        20,
        20,
        20,
        19,
        18,
        18,
        18,
        19,
        21,
        23,
        24
      ]
    },
    "FUK": {
      "icao": "RJFF",
      "issued": "2026-06-12T23:05:00.000Z",
      "raw": "TAF RJFF 122305Z 1300/1406 17008KT 9999 FEW030 BECMG 1300/1302 32011KT BECMG 1312/1315 15004KT",
      "groups": [
        {
          "text": "TAF RJFF 122305Z 1300/1406 17008KT 9999 FEW030",
          "offset_h": 0,
          "wdir": 170,
          "wspd": 8
        },
        {
          "text": "BECMG 1300/1302 32011KT",
          "offset_h": 0,
          "wdir": 320,
          "wspd": 11
        },
        {
          "text": "BECMG 1312/1315 15004KT",
          "offset_h": 12,
          "wdir": 150,
          "wspd": 4
        }
      ],
      "metar_raw": "METAR RJFF 122330Z 17007KT CAVOK 24/15 Q1014 NOSIG",
      "metar_wdir": 170,
      "metar_wspd": 7,
      "metar_oat": 24,
      "metar_qnh": 1014,
      "hourly_oat": [
        22,
        24,
        25,
        25,
        25,
        25,
        25,
        24,
        24,
        23,
        22,
        22,
        22,
        21,
        21,
        20,
        20,
        20,
        19,
        19,
        19,
        19,
        20,
        21,
        23
      ]
    },
    "TPE": {
      "icao": "RCTP",
      "issued": "2026-06-12T23:00:00.000Z",
      "raw": "TAF RCTP 122300Z 1300/1406 36005KT 9999 FEW015 BKN032 TEMPO 1303/1309 30010KT FEW010 BKN020 BKN040 BECMG 1310/1312 22005KT TEMPO 1318/1324 16005KT 5000 RA FEW010 BKN017 BECMG 1400/1402 24010KT",
      "groups": [
        {
          "text": "TAF RCTP 122300Z 1300/1406 36005KT 9999 FEW015 BKN032",
          "offset_h": 0,
          "wdir": 360,
          "wspd": 5
        },
        {
          "text": "TEMPO 1303/1309 30010KT FEW010 BKN020 BKN040",
          "offset_h": 3,
          "wdir": 300,
          "wspd": 10
        },
        {
          "text": "BECMG 1310/1312 22005KT",
          "offset_h": 10,
          "wdir": 220,
          "wspd": 5
        },
        {
          "text": "TEMPO 1318/1324 16005KT 5000 RA FEW010 BKN017",
          "offset_h": 18,
          "wdir": 160,
          "wspd": 5
        },
        {
          "text": "BECMG 1400/1402 24010KT",
          "offset_h": 24,
          "wdir": 240,
          "wspd": 10
        }
      ],
      "metar_raw": "METAR RCTP 122330Z 16006KT 140V200 9999 FEW015 SCT022 BKN060 25/23 Q1011 NOSIG RMK A2986",
      "metar_wdir": 160,
      "metar_wspd": 6,
      "metar_oat": 25,
      "metar_qnh": 1011,
      "hourly_oat": [
        24,
        26,
        27,
        27,
        27,
        27,
        27,
        27,
        27,
        27,
        26,
        26,
        25,
        25,
        25,
        24,
        24,
        24,
        24,
        25,
        25,
        25,
        25,
        26,
        27
      ]
    },
    "BKK": {
      "icao": "VTBS",
      "issued": "2026-06-12T23:00:00.000Z",
      "raw": "TAF VTBS 122300Z 1300/1406 20008KT 9999 FEW020 TEMPO 1312/1316 VRB15KT 4000 TSRA FEW018CB SCT030 BKN100",
      "groups": [
        {
          "text": "TAF VTBS 122300Z 1300/1406 20008KT 9999 FEW020",
          "offset_h": 0,
          "wdir": 200,
          "wspd": 8
        },
        {
          "text": "TEMPO 1312/1316 VRB15KT 4000 TSRA FEW018CB SCT030 BKN100",
          "offset_h": 12,
          "wdir": "VRB",
          "wspd": 15
        }
      ],
      "metar_raw": "METAR VTBS 122330Z 03001KT 9999 FEW020 26/26 Q1012 NOSIG",
      "metar_wdir": 30,
      "metar_wspd": 1,
      "metar_oat": 26,
      "metar_qnh": 1012,
      "hourly_oat": [
        26,
        28,
        30,
        32,
        32,
        33,
        33,
        32,
        32,
        32,
        31,
        30,
        29,
        29,
        29,
        29,
        28,
        28,
        28,
        28,
        27,
        27,
        26,
        26,
        28
      ]
    },
    "SIN": {
      "icao": "WSSS",
      "issued": "2026-06-12T23:00:00.000Z",
      "raw": "TAF WSSS 122300Z 1300/1406 13007KT 9999 FEW015 SCT020 TEMPO 1307/1310 3000 TSRA FEW012CB BKN015",
      "groups": [
        {
          "text": "TAF WSSS 122300Z 1300/1406 13007KT 9999 FEW015 SCT020",
          "offset_h": 0,
          "wdir": 130,
          "wspd": 7
        },
        {
          "text": "TEMPO 1307/1310 3000 TSRA FEW012CB BKN015",
          "offset_h": 7,
          "wdir": null,
          "wspd": null
        }
      ],
      "metar_raw": "METAR WSSS 130000Z 29003KT 260V320 7000 FEW018 SCT170 BKN300 27/24 Q1013 NOSIG",
      "metar_wdir": 290,
      "metar_wspd": 3,
      "metar_oat": 27,
      "metar_qnh": 1013,
      "hourly_oat": [
        27,
        28,
        30,
        30,
        31,
        31,
        31,
        32,
        31,
        29,
        29,
        29,
        28,
        28,
        28,
        28,
        28,
        26,
        26,
        26,
        26,
        26,
        26,
        26,
        26
      ]
    },
    "KUL": {
      "icao": "WMKK",
      "issued": "2026-06-12T23:00:00.000Z",
      "raw": "TAF WMKK 122300Z 1300/1406 VRB03KT 9999 FEW018 TEMPO 1308/1312 5000 TSRA FEW017CB SCT020",
      "groups": [
        {
          "text": "TAF WMKK 122300Z 1300/1406 VRB03KT 9999 FEW018",
          "offset_h": 0,
          "wdir": "VRB",
          "wspd": 3
        },
        {
          "text": "TEMPO 1308/1312 5000 TSRA FEW017CB SCT020",
          "offset_h": 8,
          "wdir": null,
          "wspd": null
        }
      ],
      "metar_raw": "METAR WMKK 122330Z VRB02KT 9999 FEW017CB 27/24 Q1012 NOSIG",
      "metar_wdir": "VRB",
      "metar_wspd": 2,
      "metar_oat": 27,
      "metar_qnh": 1012,
      "hourly_oat": [
        25,
        26,
        28,
        30,
        31,
        31,
        31,
        29,
        30,
        30,
        30,
        28,
        27,
        26,
        26,
        25,
        25,
        25,
        26,
        25,
        25,
        24,
        24,
        23,
        23
      ]
    },
    "HAN": {
      "icao": "VVNB",
      "issued": "2026-06-12T23:00:00.000Z",
      "raw": "TAF VVNB 122300Z 1300/1324 14006KT 9999 FEW030",
      "groups": [
        {
          "text": "TAF VVNB 122300Z 1300/1324 14006KT 9999 FEW030",
          "offset_h": 0,
          "wdir": 140,
          "wspd": 6
        }
      ],
      "metar_raw": "METAR VVNB 122330Z 08004KT 040V100 7000 SCT007 28/26 Q1007 NOSIG",
      "metar_wdir": 80,
      "metar_wspd": 4,
      "metar_oat": 28,
      "metar_qnh": 1007,
      "hourly_oat": [
        29,
        30,
        32,
        33,
        34,
        35,
        35,
        34,
        34,
        35,
        34,
        32,
        32,
        31,
        30,
        30,
        30,
        30,
        29,
        29,
        28,
        28,
        28,
        28,
        30
      ]
    },
    "SGN": {
      "icao": "VVTS",
      "issued": "2026-06-12T23:00:00.000Z",
      "raw": "TAF VVTS 122300Z 1300/1406 25008KT 9999 SCT017 TEMPO 1307/1310 07016G28KT 2000 +TSRA SCT013 SCT015CB TEMPO 1310/1313 5000 SHRA SCT015 FEW017CB",
      "groups": [
        {
          "text": "TAF VVTS 122300Z 1300/1406 25008KT 9999 SCT017",
          "offset_h": 0,
          "wdir": 250,
          "wspd": 8
        },
        {
          "text": "TEMPO 1307/1310 07016G28KT 2000 +TSRA SCT013 SCT015CB",
          "offset_h": 7,
          "wdir": 70,
          "wspd": 16
        },
        {
          "text": "TEMPO 1310/1313 5000 SHRA SCT015 FEW017CB",
          "offset_h": 10,
          "wdir": null,
          "wspd": null
        }
      ],
      "metar_raw": "METAR VVTS 122330Z VRB02KT CAVOK 27/27 Q1012 NOSIG",
      "metar_wdir": "VRB",
      "metar_wspd": 2,
      "metar_oat": 27,
      "metar_qnh": 1012,
      "hourly_oat": [
        27,
        28,
        30,
        31,
        32,
        33,
        34,
        34,
        33,
        33,
        30,
        26,
        26,
        26,
        26,
        26,
        26,
        26,
        26,
        26,
        24,
        24,
        24,
        25,
        26
      ]
    },
    "GMP": {
      "icao": "RKSS",
      "issued": "2026-06-12T23:00:00.000Z",
      "raw": "TAF RKSS 122300Z 1300/1406 21005KT CAVOK TX31/1304Z TN19/1320Z TX30/1404Z BECMG 1301/1303 27008KT BECMG 1313/1315 18005KT BECMG 1318/1320 4000 BR SCT015 BECMG 1321/1323 CAVOK TEMPO 1405/1406 9999 -SHRA FEW010 BKN030",
      "groups": [
        {
          "text": "TAF RKSS 122300Z 1300/1406 21005KT CAVOK TX31/1304Z TN19/1320Z TX30/1404Z",
          "offset_h": 0,
          "wdir": 210,
          "wspd": 5
        },
        {
          "text": "BECMG 1301/1303 27008KT",
          "offset_h": 1,
          "wdir": 270,
          "wspd": 8
        },
        {
          "text": "BECMG 1313/1315 18005KT",
          "offset_h": 13,
          "wdir": 180,
          "wspd": 5
        },
        {
          "text": "BECMG 1318/1320 4000 BR SCT015",
          "offset_h": 18,
          "wdir": null,
          "wspd": null
        },
        {
          "text": "BECMG 1321/1323 CAVOK",
          "offset_h": 21,
          "wdir": null,
          "wspd": null
        },
        {
          "text": "TEMPO 1405/1406 9999 -SHRA FEW010 BKN030",
          "offset_h": 29,
          "wdir": null,
          "wspd": null
        }
      ],
      "metar_raw": "METAR RKSS 130000Z 18004KT 080V250 CAVOK 25/14 Q1013 NOSIG",
      "metar_wdir": 180,
      "metar_wspd": 4,
      "metar_oat": 25,
      "metar_qnh": 1013,
      "hourly_oat": [
        19,
        22,
        25,
        26,
        28,
        28,
        29,
        28,
        27,
        25,
        23,
        21,
        20,
        20,
        19,
        19,
        19,
        19,
        19,
        19,
        18,
        19,
        20,
        22,
        23
      ]
    },
    "CGK": {
      "icao": "WIII",
      "issued": "2026-06-12T23:00:00.000Z",
      "raw": "TAF WIII 122300Z 1300/1406 12005KT 3000 BR SCT020 BECMG 1301/1303 03012KT 9000 NSW",
      "groups": [
        {
          "text": "TAF WIII 122300Z 1300/1406 12005KT 3000 BR SCT020",
          "offset_h": 0,
          "wdir": 120,
          "wspd": 5
        },
        {
          "text": "BECMG 1301/1303 03012KT 9000 NSW",
          "offset_h": 1,
          "wdir": 30,
          "wspd": 12
        }
      ],
      "metar_raw": "METAR WIII 122330Z 10006KT 060V140 3000 BR SCT020 27/24 Q1012 NOSIG",
      "metar_wdir": 100,
      "metar_wspd": 6,
      "metar_oat": 27,
      "metar_qnh": 1012,
      "hourly_oat": [
        26,
        27,
        28,
        30,
        30,
        31,
        32,
        32,
        32,
        32,
        28,
        28,
        28,
        28,
        28,
        27,
        27,
        26,
        26,
        26,
        25,
        25,
        25,
        25,
        26
      ]
    },
    "TSA": {
      "icao": "RCSS",
      "issued": "2026-06-12T23:00:00.000Z",
      "raw": "TAF RCSS 122300Z 1300/1324 10005KT 9999 FEW015 BKN032 TEMPO 1304/1310 28008KT 4000 SHRA FEW010 FEW015CB BKN016 TEMPO 1320/1324 VRB05KT 5000 RA FEW010 BKN017",
      "groups": [
        {
          "text": "TAF RCSS 122300Z 1300/1324 10005KT 9999 FEW015 BKN032",
          "offset_h": 0,
          "wdir": 100,
          "wspd": 5
        },
        {
          "text": "TEMPO 1304/1310 28008KT 4000 SHRA FEW010 FEW015CB BKN016",
          "offset_h": 4,
          "wdir": 280,
          "wspd": 8
        },
        {
          "text": "TEMPO 1320/1324 VRB05KT 5000 RA FEW010 BKN017",
          "offset_h": 20,
          "wdir": "VRB",
          "wspd": 5
        }
      ],
      "metar_raw": "SPECI RCSS 122351Z 11004KT 9999 FEW010 BKN025 BKN040 24/24 Q1011 NOSIG RMK A2986",
      "metar_wdir": 110,
      "metar_wspd": 4,
      "metar_oat": 24,
      "metar_qnh": 1011,
      "hourly_oat": [
        25,
        26,
        27,
        28,
        29,
        30,
        29,
        29,
        29,
        28,
        27,
        26,
        26,
        25,
        25,
        25,
        24,
        24,
        24,
        24,
        24,
        24,
        24,
        26,
        26
      ]
    },
    "HKG": {
      "icao": "VHHH",
      "issued": "2026-06-12T23:00:00.000Z",
      "raw": "TAF VHHH 122300Z 1300/1406 20010KT 9999 FEW015 SCT030 TX31/1306Z TX30/1406Z TN26/1322Z TEMPO 1300/1302 24015G25KT 3000 TSRA SHRA FEW008CB SCT020 TEMPO 1314/1321 24015G25KT 3000 TSRA SHRA FEW008CB SCT020 TEMPO 1321/1403 24020G30KT 2500 TSRA +SHRA FEW008CB SCT015 TEMPO 1403/1406 4000 SHRA FEW010CB SCT020",
      "groups": [
        {
          "text": "TAF VHHH 122300Z 1300/1406 20010KT 9999 FEW015 SCT030 TX31/1306Z TX30/1406Z TN26/1322Z",
          "offset_h": 0,
          "wdir": 200,
          "wspd": 10
        },
        {
          "text": "TEMPO 1300/1302 24015G25KT 3000 TSRA SHRA FEW008CB SCT020",
          "offset_h": 0,
          "wdir": 240,
          "wspd": 15
        },
        {
          "text": "TEMPO 1314/1321 24015G25KT 3000 TSRA SHRA FEW008CB SCT020",
          "offset_h": 14,
          "wdir": 240,
          "wspd": 15
        },
        {
          "text": "TEMPO 1321/1403 24020G30KT 2500 TSRA +SHRA FEW008CB SCT015",
          "offset_h": 21,
          "wdir": 240,
          "wspd": 20
        },
        {
          "text": "TEMPO 1403/1406 4000 SHRA FEW010CB SCT020",
          "offset_h": 27,
          "wdir": null,
          "wspd": null
        }
      ],
      "metar_raw": "METAR VHHH 130000Z 09004KT 060V120 7000 SHRA FEW004 FEW012CB SCT025 27/25 Q1010 TEMPO 24015G25KT 3000 TSRA SHRA FEW008CB SCT020",
      "metar_wdir": 90,
      "metar_wspd": 4,
      "metar_oat": 27,
      "metar_qnh": 1010,
      "hourly_oat": [
        27,
        27,
        28,
        28,
        28,
        29,
        30,
        30,
        30,
        30,
        29,
        29,
        29,
        29,
        29,
        28,
        29,
        29,
        29,
        29,
        28,
        26,
        27,
        27,
        27
      ]
    },
    "PVG": {
      "icao": "ZSPD",
      "issued": "2026-06-12T21:11:00.000Z",
      "raw": "TAF ZSPD 122111Z 1300/1406 17004MPS 8000 BKN030 TX26/1306Z TX25/1406Z TN21/1321Z BECMG 1310/1311 11006MPS",
      "groups": [
        {
          "text": "TAF ZSPD 122111Z 1300/1406 17004MPS 8000 BKN030 TX26/1306Z TX25/1406Z TN21/1321Z",
          "offset_h": 0,
          "wdir": null,
          "wspd": null
        },
        {
          "text": "BECMG 1310/1311 11006MPS",
          "offset_h": 10,
          "wdir": null,
          "wspd": null
        }
      ],
      "metar_raw": "METAR ZSPD 122330Z 17004MPS 140V210 CAVOK 25/21 Q1011 NOSIG",
      "metar_wdir": null,
      "metar_wspd": null,
      "metar_oat": 25,
      "metar_qnh": 1011,
      "hourly_oat": [
        24,
        24,
        24,
        24,
        24,
        24,
        24,
        24,
        24,
        24,
        23,
        23,
        23,
        22,
        21,
        21,
        21,
        21,
        21,
        21,
        21,
        21,
        21,
        21,
        21
      ]
    },
    "SHA": {
      "icao": "ZSSS",
      "issued": "2026-06-12T21:07:00.000Z",
      "raw": "TAF ZSSS 122107Z 1300/1406 14004MPS 8000 BKN030 TX28/1306Z TX26/1406Z TN22/1321Z",
      "groups": [
        {
          "text": "TAF ZSSS 122107Z 1300/1406 14004MPS 8000 BKN030 TX28/1306Z TX26/1406Z TN22/1321Z",
          "offset_h": 0,
          "wdir": null,
          "wspd": null
        }
      ],
      "metar_raw": "METAR ZSSS 122330Z 19004MPS CAVOK 25/19 Q1010 NOSIG",
      "metar_wdir": null,
      "metar_wspd": null,
      "metar_oat": 25,
      "metar_qnh": 1010,
      "hourly_oat": [
        25,
        25,
        26,
        26,
        25,
        26,
        25,
        25,
        23,
        24,
        24,
        24,
        23,
        22,
        22,
        22,
        22,
        22,
        21,
        21,
        22,
        22,
        22,
        22,
        22
      ]
    },
    "DLC": {
      "icao": "ZYTL",
      "issued": "2026-06-12T21:06:00.000Z",
      "raw": "TAF ZYTL 122106Z 1300/1324 18004MPS 2000 TSRA BR BKN008 BKN026 FEW033CB TX25/1306Z TN19/1321Z BECMG 1300/1301 5000 BR SCT033",
      "groups": [
        {
          "text": "TAF ZYTL 122106Z 1300/1324 18004MPS 2000 TSRA BR BKN008 BKN026 FEW033CB TX25/1306Z TN19/1321Z",
          "offset_h": 0,
          "wdir": null,
          "wspd": null
        },
        {
          "text": "BECMG 1300/1301 5000 BR SCT033",
          "offset_h": 0,
          "wdir": null,
          "wspd": null
        }
      ],
      "metar_raw": "METAR ZYTL 122330Z 16002MPS 110V230 9999 -SHRA FEW040 21/17 Q1010 NOSIG",
      "metar_wdir": null,
      "metar_wspd": null,
      "metar_oat": 21,
      "metar_qnh": 1010,
      "hourly_oat": [
        25,
        25,
        25,
        23,
        26,
        26,
        24,
        26,
        25,
        23,
        22,
        21,
        21,
        20,
        21,
        20,
        20,
        19,
        19,
        19,
        19,
        19,
        20,
        21,
        23
      ]
    },
    "CAN": {
      "icao": "ZGGG",
      "issued": "2026-06-12T21:04:00.000Z",
      "raw": "TAF ZGGG 122104Z 1300/1406 17004MPS 8000 BKN033 TX31/1307Z TX29/1406Z TN25/1322Z TEMPO 1306/1310 TSRA SCT026CB BKN033 TEMPO 1320/1324 TSRA SCT026CB BKN033",
      "groups": [
        {
          "text": "TAF ZGGG 122104Z 1300/1406 17004MPS 8000 BKN033 TX31/1307Z TX29/1406Z TN25/1322Z",
          "offset_h": 0,
          "wdir": null,
          "wspd": null
        },
        {
          "text": "TEMPO 1306/1310 TSRA SCT026CB BKN033",
          "offset_h": 6,
          "wdir": null,
          "wspd": null
        },
        {
          "text": "TEMPO 1320/1324 TSRA SCT026CB BKN033",
          "offset_h": 20,
          "wdir": null,
          "wspd": null
        }
      ],
      "metar_raw": "METAR ZGGG 122330Z 08002MPS 5000 SCT009 OVC020 27/26 Q1009 NOSIG",
      "metar_wdir": null,
      "metar_wspd": null,
      "metar_oat": 27,
      "metar_qnh": 1009,
      "hourly_oat": [
        26,
        28,
        29,
        30,
        31,
        29,
        30,
        27,
        27,
        28,
        28,
        27,
        27,
        27,
        27,
        27,
        27,
        26,
        26,
        27,
        27,
        26,
        26,
        27,
        26
      ]
    },
    "PEK": {
      "icao": "ZBAA",
      "issued": "2026-06-12T21:00:00.000Z",
      "raw": "TAF ZBAA 122100Z 1300/1406 10004MPS 6000 NSC TX28/1306Z TX29/1406Z TN17/1321Z TEMPO 1300/1302 2800 -SHRA BR FEW040CB BKN040 TEMPO 1308/1313 -TSRA FEW040CB BKN040",
      "groups": [
        {
          "text": "TAF ZBAA 122100Z 1300/1406 10004MPS 6000 NSC TX28/1306Z TX29/1406Z TN17/1321Z",
          "offset_h": 0,
          "wdir": null,
          "wspd": null
        },
        {
          "text": "TEMPO 1300/1302 2800 -SHRA BR FEW040CB BKN040",
          "offset_h": 0,
          "wdir": null,
          "wspd": null
        },
        {
          "text": "TEMPO 1308/1313 -TSRA FEW040CB BKN040",
          "offset_h": 8,
          "wdir": null,
          "wspd": null
        }
      ],
      "metar_raw": "METAR ZBAA 122330Z VRB01MPS CAVOK 22/19 Q1005 NOSIG",
      "metar_wdir": null,
      "metar_wspd": null,
      "metar_oat": 22,
      "metar_qnh": 1005,
      "hourly_oat": [
        23,
        25,
        26,
        27,
        28,
        28,
        28,
        28,
        24,
        20,
        21,
        21,
        20,
        20,
        20,
        20,
        19,
        19,
        19,
        19,
        19,
        19,
        19,
        20,
        22
      ]
    }
  }
}