{
  "updated": "2026-07-20T23:45:53Z",
  "tafs": {
    "HNL": {
      "icao": "PHNL",
      "issued": "2026-07-20T23:32:00.000Z",
      "raw": "TAF PHNL 202332Z 2100/2206 06013G21KT P6SM FEW025 SCT050 FM210600 06008KT P6SM VCSH SCT025 SCT040 FM212100 08012G20KT P6SM VCSH SCT025 SCT040 BKN060",
      "groups": [
        {
          "text": "TAF PHNL 202332Z 2100/2206 06013G21KT P6SM FEW025 SCT050",
          "offset_h": 1,
          "wdir": 60,
          "wspd": 13
        },
        {
          "text": "FM210600 06008KT P6SM VCSH SCT025 SCT040",
          "offset_h": 7,
          "wdir": 60,
          "wspd": 8
        },
        {
          "text": "FM212100 08012G20KT P6SM VCSH SCT025 SCT040 BKN060",
          "offset_h": 22,
          "wdir": 80,
          "wspd": 12
        }
      ],
      "metar_raw": "METAR PHNL 202253Z 04012G21KT 10SM FEW023 SCT055 BKN075 29/20 A2994 RMK AO2 PK WND 08026/2154 SLP137 VCSH N T02940200 $",
      "metar_wdir": 40,
      "metar_wspd": 12,
      "metar_oat": 29,
      "metar_qnh": 1014,
      "hourly_oat": [
        30,
        29,
        29,
        28,
        27,
        26,
        25,
        24,
        24,
        24,
        24,
        24,
        24,
        24,
        23,
        23,
        22,
        22,
        24,
        25,
        26,
        27,
        27,
        29,
        29
      ]
    },
    "SAN": {
      "icao": "KSAN",
      "issued": "2026-07-20T23:30:00.000Z",
      "raw": "TAF KSAN 202330Z 2100/2206 29008KT P6SM BKN150 FM210300 VRB04KT P6SM FEW010 SCT150 TEMPO 2108/2111 BKN010 FM211100 VRB04KT P6SM BKN010 TEMPO 2111/2115 SCT010 FM211500 VRB04KT P6SM FEW015 FM211800 28010KT P6SM SCT150 FM220300 VRB04KT P6SM FEW009 FEW150",
      "groups": [
        {
          "text": "TAF KSAN 202330Z 2100/2206 29008KT P6SM BKN150",
          "offset_h": 1,
          "wdir": 290,
          "wspd": 8
        },
        {
          "text": "FM210300 VRB04KT P6SM FEW010 SCT150",
          "offset_h": 4,
          "wdir": "VRB",
          "wspd": 4
        },
        {
          "text": "TEMPO 2108/2111 BKN010",
          "offset_h": 9,
          "wdir": null,
          "wspd": null
        },
        {
          "text": "FM211100 VRB04KT P6SM BKN010",
          "offset_h": 12,
          "wdir": "VRB",
          "wspd": 4
        },
        {
          "text": "TEMPO 2111/2115 SCT010",
          "offset_h": 12,
          "wdir": null,
          "wspd": null
        },
        {
          "text": "FM211500 VRB04KT P6SM FEW015",
          "offset_h": 16,
          "wdir": "VRB",
          "wspd": 4
        },
        {
          "text": "FM211800 28010KT P6SM SCT150",
          "offset_h": 19,
          "wdir": 280,
          "wspd": 10
        },
        {
          "text": "FM220300 VRB04KT P6SM FEW009 FEW150",
          "offset_h": 28,
          "wdir": "VRB",
          "wspd": 4
        }
      ],
      "metar_raw": "METAR KSAN 202251Z 30006KT 10SM SCT100 BKN150 BKN190 24/19 A2991 RMK AO2 SLP129 T02390194",
      "metar_wdir": 300,
      "metar_wspd": 6,
      "metar_oat": 24,
      "metar_qnh": 1013,
      "hourly_oat": [
        27,
        26,
        25,
        24,
        22,
        21,
        21,
        21,
        20,
        20,
        20,
        19,
        19,
        19,
        19,
        19,
        21,
        23,
        24,
        24,
        26,
        28,
        28,
        26,
        26
      ]
    },
    "LAX": {
      "icao": "KLAX",
      "issued": "2026-07-20T23:30:00.000Z",
      "raw": "TAF KLAX 202330Z 2100/2206 26010KT P6SM SCT200 FM210400 26006KT P6SM SCT200 FM210800 VRB03KT P6SM SCT008 FM211000 VRB03KT 6SM BR BKN008 FM211500 18004KT P6SM BKN015 FM211700 26006KT P6SM SCT250 FM212100 26012KT P6SM SCT250 FM220300 26008KT P6SM SCT250",
      "groups": [
        {
          "text": "TAF KLAX 202330Z 2100/2206 26010KT P6SM SCT200",
          "offset_h": 1,
          "wdir": 260,
          "wspd": 10
        },
        {
          "text": "FM210400 26006KT P6SM SCT200",
          "offset_h": 5,
          "wdir": 260,
          "wspd": 6
        },
        {
          "text": "FM210800 VRB03KT P6SM SCT008",
          "offset_h": 9,
          "wdir": "VRB",
          "wspd": 3
        },
        {
          "text": "FM211000 VRB03KT 6SM BR BKN008",
          "offset_h": 11,
          "wdir": "VRB",
          "wspd": 3
        },
        {
          "text": "FM211500 18004KT P6SM BKN015",
          "offset_h": 16,
          "wdir": 180,
          "wspd": 4
        },
        {
          "text": "FM211700 26006KT P6SM SCT250",
          "offset_h": 18,
          "wdir": 260,
          "wspd": 6
        },
        {
          "text": "FM212100 26012KT P6SM SCT250",
          "offset_h": 22,
          "wdir": 260,
          "wspd": 12
        },
        {
          "text": "FM220300 26008KT P6SM SCT250",
          "offset_h": 28,
          "wdir": 260,
          "wspd": 8
        }
      ],
      "metar_raw": "METAR KLAX 202153Z 26010KT 10SM BKN200 26/18 A2990 RMK AO2 SLP124 T02560183 $",
      "metar_wdir": 260,
      "metar_wspd": 10,
      "metar_oat": 26,
      "metar_qnh": 1013,
      "hourly_oat": [
        26,
        25,
        23,
        22,
        21,
        21,
        20,
        21,
        20,
        20,
        19,
        19,
        18,
        19,
        18,
        19,
        21,
        23,
        25,
        28,
        26,
        26,
        25,
        26,
        25
      ]
    },
    "ITM": {
      "icao": "RJOO",
      "issued": "2026-07-20T23:06:00.000Z",
      "raw": "TAF RJOO 202306Z 2100/2206 24004KT 9999 FEW020 SCT040 BECMG 2100/2102 21006KT TEMPO 2103/2112 TS FEW015 FEW025CB BKN035 BECMG 2110/2112 26006KT BECMG 2200/2203 21006KT",
      "groups": [
        {
          "text": "TAF RJOO 202306Z 2100/2206 24004KT 9999 FEW020 SCT040",
          "offset_h": 1,
          "wdir": 240,
          "wspd": 4
        },
        {
          "text": "BECMG 2100/2102 21006KT",
          "offset_h": 1,
          "wdir": 210,
          "wspd": 6
        },
        {
          "text": "TEMPO 2103/2112 TS FEW015 FEW025CB BKN035",
          "offset_h": 4,
          "wdir": null,
          "wspd": null
        },
        {
          "text": "BECMG 2110/2112 26006KT",
          "offset_h": 11,
          "wdir": 260,
          "wspd": 6
        },
        {
          "text": "BECMG 2200/2203 21006KT",
          "offset_h": 25,
          "wdir": 210,
          "wspd": 6
        }
      ],
      "metar_raw": "METAR RJOO 202300Z 22003KT 140V260 9999 FEW015 31/26 Q1010",
      "metar_wdir": 220,
      "metar_wspd": 3,
      "metar_oat": 31,
      "metar_qnh": 1010,
      "hourly_oat": [
        29,
        30,
        31,
        32,
        33,
        34,
        34,
        35,
        34,
        34,
        33,
        31,
        30,
        29,
        29,
        28,
        28,
        28,
        27,
        27,
        27,
        27,
        27,
        28,
        29
      ]
    },
    "KIX": {
      "icao": "RJBB",
      "issued": "2026-07-20T23:06:00.000Z",
      "raw": "TAF RJBB 202306Z 2100/2206 27006KT 9999 FEW025 BECMG 2108/2110 20012KT",
      "groups": [
        {
          "text": "TAF RJBB 202306Z 2100/2206 27006KT 9999 FEW025",
          "offset_h": 1,
          "wdir": 270,
          "wspd": 6
        },
        {
          "text": "BECMG 2108/2110 20012KT",
          "offset_h": 9,
          "wdir": 200,
          "wspd": 12
        }
      ],
      "metar_raw": "METAR RJBB 202330Z 27004KT 9999 FEW020 29/26 Q1010 NOSIG",
      "metar_wdir": 270,
      "metar_wspd": 4,
      "metar_oat": 29,
      "metar_qnh": 1010,
      "hourly_oat": [
        28,
        28,
        28,
        28,
        28,
        28,
        28,
        28,
        28,
        29,
        30,
        29,
        29,
        29,
        29,
        29,
        28,
        28,
        28,
        28,
        28,
        28,
        28,
        28,
        28
      ]
    },
    "CTS": {
      "icao": "RJCC",
      "issued": "2026-07-20T23:05:00.000Z",
      "raw": "TAF RJCC 202305Z 2100/2206 35014KT 9999 FEW020 BKN040 TEMPO 2115/2121 FEW001 BKN003 TEMPO 2121/2200 FEW005 BKN007 BECMG 2203/2206 16010KT",
      "groups": [
        {
          "text": "TAF RJCC 202305Z 2100/2206 35014KT 9999 FEW020 BKN040",
          "offset_h": 1,
          "wdir": 350,
          "wspd": 14
        },
        {
          "text": "TEMPO 2115/2121 FEW001 BKN003",
          "offset_h": 16,
          "wdir": null,
          "wspd": null
        },
        {
          "text": "TEMPO 2121/2200 FEW005 BKN007",
          "offset_h": 22,
          "wdir": null,
          "wspd": null
        },
        {
          "text": "BECMG 2203/2206 16010KT",
          "offset_h": 28,
          "wdir": 160,
          "wspd": 10
        }
      ],
      "metar_raw": "METAR RJCC 202330Z 34009KT 9999 FEW010 SCT015 25/22 Q1007",
      "metar_wdir": 340,
      "metar_wspd": 9,
      "metar_oat": 25,
      "metar_qnh": 1007,
      "hourly_oat": [
        24,
        26,
        27,
        28,
        28,
        29,
        29,
        28,
        26,
        25,
        23,
        22,
        22,
        21,
        21,
        20,
        20,
        20,
        20,
        20,
        20,
        20,
        21,
        21,
        21
      ]
    },
    "FUK": {
      "icao": "RJFF",
      "issued": "2026-07-20T23:05:00.000Z",
      "raw": "TAF RJFF 202305Z 2100/2206 18008KT 9999 FEW020 SCT040 BECMG 2100/2102 32011KT BECMG 2109/2111 02004KT BECMG 2115/2118 15006KT BECMG 2200/2203 31011KT",
      "groups": [
        {
          "text": "TAF RJFF 202305Z 2100/2206 18008KT 9999 FEW020 SCT040",
          "offset_h": 1,
          "wdir": 180,
          "wspd": 8
        },
        {
          "text": "BECMG 2100/2102 32011KT",
          "offset_h": 1,
          "wdir": 320,
          "wspd": 11
        },
        {
          "text": "BECMG 2109/2111 02004KT",
          "offset_h": 10,
          "wdir": 20,
          "wspd": 4
        },
        {
          "text": "BECMG 2115/2118 15006KT",
          "offset_h": 16,
          "wdir": 150,
          "wspd": 6
        },
        {
          "text": "BECMG 2200/2203 31011KT",
          "offset_h": 25,
          "wdir": 310,
          "wspd": 11
        }
      ],
      "metar_raw": "METAR RJFF 202330Z 13004KT 090V170 9999 FEW025 SCT070 30/25 Q1010 BECMG 30008KT",
      "metar_wdir": 130,
      "metar_wspd": 4,
      "metar_oat": 30,
      "metar_qnh": 1010,
      "hourly_oat": [
        28,
        30,
        30,
        30,
        30,
        31,
        31,
        30,
        30,
        30,
        29,
        29,
        28,
        28,
        28,
        27,
        27,
        26,
        26,
        26,
        26,
        25,
        25,
        26,
        28
      ]
    },
    "NRT": {
      "icao": "RJAA",
      "issued": "2026-07-20T23:05:00.000Z",
      "raw": "TAF RJAA 202305Z 2100/2206 22006KT 9999 FEW030",
      "groups": [
        {
          "text": "TAF RJAA 202305Z 2100/2206 22006KT 9999 FEW030",
          "offset_h": 1,
          "wdir": 220,
          "wspd": 6
        }
      ],
      "metar_raw": "METAR RJAA 202330Z 25003KT 210V280 9999 FEW030 BKN130 30/26 Q1009 NOSIG",
      "metar_wdir": 250,
      "metar_wspd": 3,
      "metar_oat": 30,
      "metar_qnh": 1009,
      "hourly_oat": [
        29,
        31,
        32,
        34,
        35,
        35,
        36,
        36,
        35,
        33,
        32,
        31,
        30,
        29,
        28,
        27,
        27,
        26,
        26,
        26,
        25,
        25,
        26,
        27,
        29
      ]
    },
    "HND": {
      "icao": "RJTT",
      "issued": "2026-07-20T23:05:00.000Z",
      "raw": "TAF RJTT 202305Z 2100/2206 18012KT 9999 FEW030 BECMG 2115/2118 02004KT BECMG 2200/2203 12006KT BECMG 2203/2206 18014KT",
      "groups": [
        {
          "text": "TAF RJTT 202305Z 2100/2206 18012KT 9999 FEW030",
          "offset_h": 1,
          "wdir": 180,
          "wspd": 12
        },
        {
          "text": "BECMG 2115/2118 02004KT",
          "offset_h": 16,
          "wdir": 20,
          "wspd": 4
        },
        {
          "text": "BECMG 2200/2203 12006KT",
          "offset_h": 25,
          "wdir": 120,
          "wspd": 6
        },
        {
          "text": "BECMG 2203/2206 18014KT",
          "offset_h": 28,
          "wdir": 180,
          "wspd": 14
        }
      ],
      "metar_raw": "METAR RJTT 202330Z 17007KT 150V220 9999 FEW015 BKN090 30/26 Q1009 NOSIG",
      "metar_wdir": 170,
      "metar_wspd": 7,
      "metar_oat": 30,
      "metar_qnh": 1009,
      "hourly_oat": [
        28,
        29,
        30,
        31,
        31,
        32,
        32,
        32,
        31,
        30,
        29,
        28,
        28,
        28,
        28,
        27,
        27,
        27,
        26,
        26,
        26,
        26,
        26,
        27,
        28
      ]
    },
    "OKA": {
      "icao": "ROAH",
      "issued": "2026-07-20T23:05:00.000Z",
      "raw": "TAF ROAH 202305Z 2100/2206 25008KT 9999 FEW010 SCT020 TEMPO 2106/2109 4000 SHRA BR FEW005 BKN008 FEW015CB",
      "groups": [
        {
          "text": "TAF ROAH 202305Z 2100/2206 25008KT 9999 FEW010 SCT020",
          "offset_h": 1,
          "wdir": 250,
          "wspd": 8
        },
        {
          "text": "TEMPO 2106/2109 4000 SHRA BR FEW005 BKN008 FEW015CB",
          "offset_h": 7,
          "wdir": null,
          "wspd": null
        }
      ],
      "metar_raw": "METAR ROAH 202330Z 24005KT 9999 FEW010 SCT014 30/28 Q1010",
      "metar_wdir": 240,
      "metar_wspd": 5,
      "metar_oat": 30,
      "metar_qnh": 1010,
      "hourly_oat": [
        29,
        30,
        30,
        30,
        31,
        30,
        31,
        31,
        31,
        30,
        30,
        29,
        29,
        28,
        28,
        28,
        28,
        28,
        27,
        27,
        27,
        27,
        27,
        28,
        29
      ]
    },
    "NGO": {
      "icao": "RJGG",
      "issued": "2026-07-20T23:05:00.000Z",
      "raw": "TAF RJGG 202305Z 2100/2206 24004KT 9999 FEW030 BECMG 2105/2107 18010KT BECMG 2112/2115 12006KT BECMG 2118/2121 31006KT BECMG 2200/2203 20008KT",
      "groups": [
        {
          "text": "TAF RJGG 202305Z 2100/2206 24004KT 9999 FEW030",
          "offset_h": 1,
          "wdir": 240,
          "wspd": 4
        },
        {
          "text": "BECMG 2105/2107 18010KT",
          "offset_h": 6,
          "wdir": 180,
          "wspd": 10
        },
        {
          "text": "BECMG 2112/2115 12006KT",
          "offset_h": 13,
          "wdir": 120,
          "wspd": 6
        },
        {
          "text": "BECMG 2118/2121 31006KT",
          "offset_h": 19,
          "wdir": 310,
          "wspd": 6
        },
        {
          "text": "BECMG 2200/2203 20008KT",
          "offset_h": 25,
          "wdir": 200,
          "wspd": 8
        }
      ],
      "metar_raw": "METAR RJGG 202330Z 23003KT 9999 FEW020 30/28 Q1009 NOSIG",
      "metar_wdir": 230,
      "metar_wspd": 3,
      "metar_oat": 30,
      "metar_qnh": 1009,
      "hourly_oat": [
        27,
        28,
        28,
        29,
        29,
        29,
        30,
        30,
        31,
        30,
        30,
        30,
        29,
        29,
        29,
        29,
        28,
        28,
        28,
        28,
        28,
        28,
        28,
        28,
        28
      ]
    },
    "SIN": {
      "icao": "WSSS",
      "issued": "2026-07-20T23:00:00.000Z",
      "raw": "TAF WSSS 202300Z 2100/2206 15007KT 9999 FEW015 SCT020 TEMPO 2104/2107 3000 TSRA FEW012CB BKN015",
      "groups": [
        {
          "text": "TAF WSSS 202300Z 2100/2206 15007KT 9999 FEW015 SCT020",
          "offset_h": 1,
          "wdir": 150,
          "wspd": 7
        },
        {
          "text": "TEMPO 2104/2107 3000 TSRA FEW012CB BKN015",
          "offset_h": 5,
          "wdir": null,
          "wspd": null
        }
      ],
      "metar_raw": "METAR WSSS 202330Z VRB01KT 9000 FEW016 FEW018TCU SCT030 BKN300 26/24 Q1012 NOSIG",
      "metar_wdir": "VRB",
      "metar_wspd": 1,
      "metar_oat": 26,
      "metar_qnh": 1012,
      "hourly_oat": [
        25,
        26,
        28,
        29,
        29,
        29,
        30,
        30,
        30,
        30,
        31,
        30,
        29,
        28,
        28,
        28,
        28,
        28,
        28,
        28,
        27,
        26,
        23,
        24,
        24
      ]
    },
    "TSA": {
      "icao": "RCSS",
      "issued": "2026-07-20T23:00:00.000Z",
      "raw": "TAF RCSS 202300Z 2100/2124 31005KT 9999 FEW020 TEMPO 2102/2106 28010KT TEMPO 2106/2110 15010KT 3200 TSRA SCT008 FEW015CB BKN016 BKN040 BECMG 2110/2112 09005KT",
      "groups": [
        {
          "text": "TAF RCSS 202300Z 2100/2124 31005KT 9999 FEW020",
          "offset_h": 1,
          "wdir": 310,
          "wspd": 5
        },
        {
          "text": "TEMPO 2102/2106 28010KT",
          "offset_h": 3,
          "wdir": 280,
          "wspd": 10
        },
        {
          "text": "TEMPO 2106/2110 15010KT 3200 TSRA SCT008 FEW015CB BKN016 BKN040",
          "offset_h": 7,
          "wdir": 150,
          "wspd": 10
        },
        {
          "text": "BECMG 2110/2112 09005KT",
          "offset_h": 11,
          "wdir": 90,
          "wspd": 5
        }
      ],
      "metar_raw": "METAR RCSS 202330Z 25003KT 160V300 9999 FEW028 30/26 Q1009 NOSIG RMK A2982",
      "metar_wdir": 250,
      "metar_wspd": 3,
      "metar_oat": 30,
      "metar_qnh": 1009,
      "hourly_oat": [
        27,
        29,
        30,
        32,
        33,
        33,
        33,
        32,
        30,
        29,
        28,
        28,
        27,
        27,
        27,
        26,
        26,
        26,
        25,
        25,
        25,
        25,
        25,
        26,
        27
      ]
    },
    "TPE": {
      "icao": "RCTP",
      "issued": "2026-07-20T23:00:00.000Z",
      "raw": "TAF RCTP 202300Z 2100/2206 24015KT 9999 FEW015 TEMPO 2108/2112 5000 SHRA FEW010 FEW015TCU SCT020 BKN032 BECMG 2112/2114 21005KT BECMG 2200/2202 24015KT",
      "groups": [
        {
          "text": "TAF RCTP 202300Z 2100/2206 24015KT 9999 FEW015",
          "offset_h": 1,
          "wdir": 240,
          "wspd": 15
        },
        {
          "text": "TEMPO 2108/2112 5000 SHRA FEW010 FEW015TCU SCT020 BKN032",
          "offset_h": 9,
          "wdir": null,
          "wspd": null
        },
        {
          "text": "BECMG 2112/2114 21005KT",
          "offset_h": 13,
          "wdir": 210,
          "wspd": 5
        },
        {
          "text": "BECMG 2200/2202 24015KT",
          "offset_h": 25,
          "wdir": 240,
          "wspd": 15
        }
      ],
      "metar_raw": "METAR RCTP 202330Z 23009KT 9999 FEW015 31/25 Q1009 NOSIG RMK A2982",
      "metar_wdir": 230,
      "metar_wspd": 9,
      "metar_oat": 31,
      "metar_qnh": 1009,
      "hourly_oat": [
        28,
        29,
        31,
        31,
        32,
        31,
        31,
        31,
        31,
        30,
        29,
        29,
        28,
        28,
        28,
        27,
        27,
        27,
        26,
        26,
        26,
        26,
        26,
        26,
        28
      ]
    },
    "HKG": {
      "icao": "VHHH",
      "issued": "2026-07-20T23:00:00.000Z",
      "raw": "TAF VHHH 202300Z 2100/2206 20010KT 9999 FEW010 SCT025 TX31/2106Z TX32/2206Z TN26/2122Z TEMPO 2101/2105 24020G30KT 2000 TSRA SHRA FEW008CB SCT015",
      "groups": [
        {
          "text": "TAF VHHH 202300Z 2100/2206 20010KT 9999 FEW010 SCT025 TX31/2106Z TX32/2206Z TN26/2122Z",
          "offset_h": 1,
          "wdir": 200,
          "wspd": 10
        },
        {
          "text": "TEMPO 2101/2105 24020G30KT 2000 TSRA SHRA FEW008CB SCT015",
          "offset_h": 2,
          "wdir": 240,
          "wspd": 20
        }
      ],
      "metar_raw": "METAR VHHH 202330Z 16011KT 9999 FEW010 30/25 Q1007 NOSIG",
      "metar_wdir": 160,
      "metar_wspd": 11,
      "metar_oat": 30,
      "metar_qnh": 1007,
      "hourly_oat": [
        29,
        29,
        28,
        28,
        27,
        28,
        26,
        28,
        29,
        29,
        29,
        29,
        29,
        29,
        29,
        29,
        29,
        28,
        28,
        28,
        28,
        28,
        28,
        28,
        28
      ]
    },
    "GMP": {
      "icao": "RKSS",
      "issued": "2026-07-20T23:00:00.000Z",
      "raw": "TAF RKSS 202300Z 2100/2206 19007KT 6000 FEW010 BKN020 OVC070 TX27/2106Z TN24/2121Z TX30/2206Z TEMPO 2101/2104 -RA BECMG 2104/2106 22007KT -RA BECMG 2108/2110 NSW TEMPO 2203/2206 -RA",
      "groups": [
        {
          "text": "TAF RKSS 202300Z 2100/2206 19007KT 6000 FEW010 BKN020 OVC070 TX27/2106Z TN24/2121Z TX30/2206Z",
          "offset_h": 1,
          "wdir": 190,
          "wspd": 7
        },
        {
          "text": "TEMPO 2101/2104 -RA",
          "offset_h": 2,
          "wdir": null,
          "wspd": null
        },
        {
          "text": "BECMG 2104/2106 22007KT -RA",
          "offset_h": 5,
          "wdir": 220,
          "wspd": 7
        },
        {
          "text": "BECMG 2108/2110 NSW",
          "offset_h": 9,
          "wdir": null,
          "wspd": null
        },
        {
          "text": "TEMPO 2203/2206 -RA",
          "offset_h": 28,
          "wdir": null,
          "wspd": null
        }
      ],
      "metar_raw": "METAR RKSS 202300Z 15008KT 130V190 9999 -RA FEW015 BKN030 OVC070 26/26 Q1005 NOSIG",
      "metar_wdir": 150,
      "metar_wspd": 8,
      "metar_oat": 26,
      "metar_qnh": 1005,
      "hourly_oat": [
        25,
        25,
        25,
        25,
        26,
        26,
        26,
        26,
        26,
        26,
        26,
        25,
        25,
        25,
        24,
        24,
        24,
        24,
        24,
        24,
        24,
        24,
        24,
        24,
        25
      ]
    },
    "CGK": {
      "icao": "WIII",
      "issued": "2026-07-20T23:00:00.000Z",
      "raw": "TAF WIII 202300Z 2100/2206 15005KT 4000 HZ FEW020 BECMG 2102/2104 05012KT 8000 NSW BECMG 2115/2117 10005KT 4000 HZ",
      "groups": [
        {
          "text": "TAF WIII 202300Z 2100/2206 15005KT 4000 HZ FEW020",
          "offset_h": 1,
          "wdir": 150,
          "wspd": 5
        },
        {
          "text": "BECMG 2102/2104 05012KT 8000 NSW",
          "offset_h": 3,
          "wdir": 50,
          "wspd": 12
        },
        {
          "text": "BECMG 2115/2117 10005KT 4000 HZ",
          "offset_h": 16,
          "wdir": 100,
          "wspd": 5
        }
      ],
      "metar_raw": "METAR WIII 202330Z 18006KT 5000 HZ FEW020 26/22 Q1013 NOSIG",
      "metar_wdir": 180,
      "metar_wspd": 6,
      "metar_oat": 26,
      "metar_qnh": 1013,
      "hourly_oat": [
        24,
        25,
        27,
        29,
        30,
        32,
        32,
        31,
        30,
        30,
        30,
        29,
        28,
        27,
        27,
        27,
        26,
        25,
        25,
        25,
        24,
        24,
        24,
        24,
        24
      ]
    },
    "BKK": {
      "icao": "VTBS",
      "issued": "2026-07-20T23:00:00.000Z",
      "raw": "TAF VTBS 202300Z 2100/2206 26005KT 9999 FEW020 BECMG 2105/2107 20008KT TEMPO 2107/2112 VRB15G25KT 4000 TSRA FEW018CB SCT030 BKN100",
      "groups": [
        {
          "text": "TAF VTBS 202300Z 2100/2206 26005KT 9999 FEW020",
          "offset_h": 1,
          "wdir": 260,
          "wspd": 5
        },
        {
          "text": "BECMG 2105/2107 20008KT",
          "offset_h": 6,
          "wdir": 200,
          "wspd": 8
        },
        {
          "text": "TEMPO 2107/2112 VRB15G25KT 4000 TSRA FEW018CB SCT030 BKN100",
          "offset_h": 8,
          "wdir": "VRB",
          "wspd": 15
        }
      ],
      "metar_raw": "METAR VTBS 202330Z 26003KT 9999 FEW020 28/20 Q1010 NOSIG",
      "metar_wdir": 260,
      "metar_wspd": 3,
      "metar_oat": 28,
      "metar_qnh": 1010,
      "hourly_oat": [
        26,
        27,
        28,
        30,
        32,
        33,
        34,
        31,
        32,
        30,
        30,
        30,
        29,
        29,
        29,
        28,
        28,
        28,
        28,
        28,
        27,
        27,
        27,
        27,
        27
      ]
    },
    "KUL": {
      "icao": "WMKK",
      "issued": "2026-07-20T23:00:00.000Z",
      "raw": "TAF WMKK 202300Z 2100/2206 VRB03KT 9999 FEW018 PROB40 TEMPO 2105/2108 6000 -TSRA FEW017CB",
      "groups": [
        {
          "text": "TAF WMKK 202300Z 2100/2206 VRB03KT 9999 FEW018",
          "offset_h": 1,
          "wdir": "VRB",
          "wspd": 3
        },
        {
          "text": "PROB40",
          "offset_h": 0,
          "wdir": null,
          "wspd": null
        },
        {
          "text": "TEMPO 2105/2108 6000 -TSRA FEW017CB",
          "offset_h": 6,
          "wdir": null,
          "wspd": null
        }
      ],
      "metar_raw": "METAR WMKK 202330Z VRB01KT 9000 FEW010 FEW017CB 25/24 Q1011 NOSIG",
      "metar_wdir": "VRB",
      "metar_wspd": 1,
      "metar_oat": 25,
      "metar_qnh": 1011,
      "hourly_oat": [
        23,
        24,
        25,
        27,
        29,
        30,
        30,
        29,
        29,
        29,
        29,
        28,
        28,
        26,
        25,
        25,
        25,
        25,
        24,
        24,
        24,
        24,
        24,
        23,
        23
      ]
    },
    "HAN": {
      "icao": "VVNB",
      "issued": "2026-07-20T23:00:00.000Z",
      "raw": "TAF VVNB 202300Z 2100/2124 05005KT 6000 FEW030 PROB40 TEMPO 2103/2106 4000 TSRA SCT015 FEW027CB",
      "groups": [
        {
          "text": "TAF VVNB 202300Z 2100/2124 05005KT 6000 FEW030",
          "offset_h": 1,
          "wdir": 50,
          "wspd": 5
        },
        {
          "text": "PROB40",
          "offset_h": 0,
          "wdir": null,
          "wspd": null
        },
        {
          "text": "TEMPO 2103/2106 4000 TSRA SCT015 FEW027CB",
          "offset_h": 4,
          "wdir": null,
          "wspd": null
        }
      ],
      "metar_raw": "METAR VVNB 202330Z 00000KT 9000 NSC 28/26 Q1004 NOSIG",
      "metar_wdir": 0,
      "metar_wspd": 0,
      "metar_oat": 28,
      "metar_qnh": 1004,
      "hourly_oat": [
        26,
        27,
        28,
        29,
        30,
        31,
        32,
        32,
        33,
        32,
        31,
        31,
        30,
        29,
        29,
        28,
        28,
        28,
        27,
        27,
        27,
        27,
        26,
        26,
        26
      ]
    },
    "SGN": {
      "icao": "VVTS",
      "issued": "2026-07-20T23:00:00.000Z",
      "raw": "TAF VVTS 202300Z 2100/2206 26010KT 9999 SCT017",
      "groups": [
        {
          "text": "TAF VVTS 202300Z 2100/2206 26010KT 9999 SCT017",
          "offset_h": 1,
          "wdir": 260,
          "wspd": 10
        }
      ],
      "metar_raw": "METAR VVTS 202330Z 24007KT 9999 FEW015 27/26 Q1010 NOSIG",
      "metar_wdir": 240,
      "metar_wspd": 7,
      "metar_oat": 27,
      "metar_qnh": 1010,
      "hourly_oat": [
        25,
        26,
        28,
        30,
        31,
        32,
        33,
        34,
        34,
        34,
        34,
        33,
        31,
        29,
        28,
        28,
        27,
        27,
        27,
        26,
        26,
        26,
        26,
        25,
        25
      ]
    },
    "CAN": {
      "icao": "ZGGG",
      "issued": "2026-07-20T21:14:00.000Z",
      "raw": "TAF ZGGG 202114Z 2100/2206 12003MPS 8000 BKN030 TX31/2107Z TX32/2206Z TN27/2122Z TEMPO 2100/2104 TSRA SCT026CB BKN033 TEMPO 2104/2108 2500 +TSRA SCT026CB BKN033 TEMPO 2120/2124 SHRA FEW026CB BKN033",
      "groups": [
        {
          "text": "TAF ZGGG 202114Z 2100/2206 12003MPS 8000 BKN030 TX31/2107Z TX32/2206Z TN27/2122Z",
          "offset_h": 1,
          "wdir": null,
          "wspd": null
        },
        {
          "text": "TEMPO 2100/2104 TSRA SCT026CB BKN033",
          "offset_h": 1,
          "wdir": null,
          "wspd": null
        },
        {
          "text": "TEMPO 2104/2108 2500 +TSRA SCT026CB BKN033",
          "offset_h": 5,
          "wdir": null,
          "wspd": null
        },
        {
          "text": "TEMPO 2120/2124 SHRA FEW026CB BKN033",
          "offset_h": 21,
          "wdir": null,
          "wspd": null
        }
      ],
      "metar_raw": "METAR ZGGG 202330Z 13003MPS 100V160 9999 BKN023 28/25 Q1007 BECMG AT0100 TSRA SCT026CB BKN033",
      "metar_wdir": null,
      "metar_wspd": null,
      "metar_oat": 28,
      "metar_qnh": 1007,
      "hourly_oat": [
        25,
        26,
        27,
        29,
        30,
        30,
        29,
        29,
        29,
        30,
        29,
        29,
        28,
        28,
        27,
        27,
        27,
        27,
        27,
        27,
        26,
        26,
        26,
        25,
        26
      ]
    },
    "DLC": {
      "icao": "ZYTL",
      "issued": "2026-07-20T21:07:00.000Z",
      "raw": "TAF ZYTL 202107Z 2100/2124 16004MPS 5000 BR FEW033 TX30/2106Z TN23/2121Z",
      "groups": [
        {
          "text": "TAF ZYTL 202107Z 2100/2124 16004MPS 5000 BR FEW033 TX30/2106Z TN23/2121Z",
          "offset_h": 1,
          "wdir": null,
          "wspd": null
        }
      ],
      "metar_raw": "METAR ZYTL 202330Z 14002MPS 090V190 CAVOK 26/21 Q1005 NOSIG",
      "metar_wdir": null,
      "metar_wspd": null,
      "metar_oat": 26,
      "metar_qnh": 1005,
      "hourly_oat": [
        25,
        26,
        28,
        30,
        31,
        32,
        32,
        31,
        31,
        31,
        30,
        29,
        27,
        25,
        25,
        24,
        24,
        24,
        24,
        24,
        24,
        24,
        24,
        25,
        26
      ]
    },
    "PVG": {
      "icao": "ZSPD",
      "issued": "2026-07-20T21:06:00.000Z",
      "raw": "TAF ZSPD 202106Z 2100/2206 19004MPS 6000 SCT030 TX33/2106Z TX32/2206Z TN28/2121Z TEMPO 2106/2110 TSRA BKN015 FEW030CB",
      "groups": [
        {
          "text": "TAF ZSPD 202106Z 2100/2206 19004MPS 6000 SCT030 TX33/2106Z TX32/2206Z TN28/2121Z",
          "offset_h": 1,
          "wdir": null,
          "wspd": null
        },
        {
          "text": "TEMPO 2106/2110 TSRA BKN015 FEW030CB",
          "offset_h": 7,
          "wdir": null,
          "wspd": null
        }
      ],
      "metar_raw": "METAR ZSPD 202330Z VRB02MPS CAVOK 31/26 Q1006 NOSIG",
      "metar_wdir": null,
      "metar_wspd": null,
      "metar_oat": 31,
      "metar_qnh": 1006,
      "hourly_oat": [
        28,
        29,
        29,
        31,
        32,
        31,
        30,
        31,
        32,
        30,
        28,
        26,
        27,
        27,
        27,
        27,
        27,
        27,
        27,
        27,
        27,
        27,
        27,
        27,
        28
      ]
    },
    "SHA": {
      "icao": "ZSSS",
      "issued": "2026-07-20T21:06:00.000Z",
      "raw": "TAF ZSSS 202106Z 2100/2206 20004MPS 6000 SCT030 TX34/2106Z TX33/2206Z TN27/2121Z TEMPO 2106/2110 TSRA BKN015 FEW030CB",
      "groups": [
        {
          "text": "TAF ZSSS 202106Z 2100/2206 20004MPS 6000 SCT030 TX34/2106Z TX33/2206Z TN27/2121Z",
          "offset_h": 1,
          "wdir": null,
          "wspd": null
        },
        {
          "text": "TEMPO 2106/2110 TSRA BKN015 FEW030CB",
          "offset_h": 7,
          "wdir": null,
          "wspd": null
        }
      ],
      "metar_raw": "METAR ZSSS 202330Z VRB01MPS 9999 BKN026 28/26 Q1006 NOSIG",
      "metar_wdir": null,
      "metar_wspd": null,
      "metar_oat": 28,
      "metar_qnh": 1006,
      "hourly_oat": [
        28,
        29,
        30,
        31,
        29,
        30,
        31,
        31,
        31,
        29,
        28,
        28,
        27,
        27,
        27,
        27,
        27,
        27,
        27,
        27,
        27,
        27,
        27,
        27,
        27
      ]
    },
    "PEK": {
      "icao": "ZBAA",
      "issued": "2026-07-20T21:03:00.000Z",
      "raw": "TAF ZBAA 202103Z 2100/2206 16004MPS 6000 NSC TX31/2106Z TX33/2206Z TN24/2121Z",
      "groups": [
        {
          "text": "TAF ZBAA 202103Z 2100/2206 16004MPS 6000 NSC TX31/2106Z TX33/2206Z TN24/2121Z",
          "offset_h": 1,
          "wdir": null,
          "wspd": null
        }
      ],
      "metar_raw": "METAR ZBAA 202330Z VRB01MPS 8000 NSC 24/23 Q1005 NOSIG",
      "metar_wdir": null,
      "metar_wspd": null,
      "metar_oat": 24,
      "metar_qnh": 1005,
      "hourly_oat": [
        22,
        23,
        25,
        26,
        26,
        27,
        28,
        29,
        29,
        30,
        29,
        29,
        28,
        26,
        26,
        26,
        25,
        25,
        25,
        24,
        24,
        24,
        24,
        24,
        25
      ]
    }
  }
}