{
  "updated": "2026-07-12T09:47:05Z",
  "tafs": {
    "HNL": {
      "icao": "PHNL",
      "issued": "2026-07-12T08:58:00.000Z",
      "raw": "TAF PHNL 120858Z 1209/1312 05010KT P6SM VCSH FEW025 SCT040 FM121900 06015G25KT P6SM SCT025 BKN040 FM130600 05010KT P6SM SCT025 SCT040",
      "groups": [
        {
          "text": "TAF PHNL 120858Z 1209/1312 05010KT P6SM VCSH FEW025 SCT040",
          "offset_h": 0,
          "wdir": 50,
          "wspd": 10
        },
        {
          "text": "FM121900 06015G25KT P6SM SCT025 BKN040",
          "offset_h": 10,
          "wdir": 60,
          "wspd": 15
        },
        {
          "text": "FM130600 05010KT P6SM SCT025 SCT040",
          "offset_h": 21,
          "wdir": 50,
          "wspd": 10
        }
      ],
      "metar_raw": "METAR PHNL 120853Z 06013KT 10SM FEW025 FEW040 FEW200 27/20 A3006 RMK AO2 SLP177 T02670200 51015 $",
      "metar_wdir": 60,
      "metar_wspd": 13,
      "metar_oat": 27,
      "metar_qnh": 1018,
      "hourly_oat": [
        24,
        24,
        24,
        23,
        23,
        23,
        23,
        23,
        24,
        26,
        26,
        27,
        27,
        28,
        28,
        28,
        28,
        28,
        27,
        26,
        25,
        24,
        24,
        24,
        23
      ]
    },
    "LAX": {
      "icao": "KLAX",
      "issued": "2026-07-12T08:43:00.000Z",
      "raw": "TAF KLAX 120843Z 1209/1312 26006KT P6SM FEW012 BKN250 FM121200 VRB03KT 5SM HZ OVC015 FM121700 26007KT P6SM BKN025 FM121900 26012KT P6SM BKN250 FM130400 26008KT P6SM FEW015 BKN250 FM130800 VRB03KT P6SM OVC015",
      "groups": [
        {
          "text": "TAF KLAX 120843Z 1209/1312 26006KT P6SM FEW012 BKN250",
          "offset_h": 0,
          "wdir": 260,
          "wspd": 6
        },
        {
          "text": "FM121200 VRB03KT 5SM HZ OVC015",
          "offset_h": 3,
          "wdir": "VRB",
          "wspd": 3
        },
        {
          "text": "FM121700 26007KT P6SM BKN025",
          "offset_h": 8,
          "wdir": 260,
          "wspd": 7
        },
        {
          "text": "FM121900 26012KT P6SM BKN250",
          "offset_h": 10,
          "wdir": 260,
          "wspd": 12
        },
        {
          "text": "FM130400 26008KT P6SM FEW015 BKN250",
          "offset_h": 19,
          "wdir": 260,
          "wspd": 8
        },
        {
          "text": "FM130800 VRB03KT P6SM OVC015",
          "offset_h": 23,
          "wdir": "VRB",
          "wspd": 3
        }
      ],
      "metar_raw": "METAR KLAX 120853Z 28005KT 10SM FEW012 FEW150 BKN250 19/17 A2991 RMK AO2 SLP127 T01940172 58003 $",
      "metar_wdir": 280,
      "metar_wspd": 5,
      "metar_oat": 19,
      "metar_qnh": 1013,
      "hourly_oat": [
        18,
        17,
        18,
        18,
        18,
        18,
        20,
        23,
        25,
        27,
        24,
        22,
        21,
        21,
        21,
        21,
        22,
        20,
        19,
        19,
        19,
        19,
        19,
        18,
        18
      ]
    },
    "SAN": {
      "icao": "KSAN",
      "issued": "2026-07-12T08:41:00.000Z",
      "raw": "TAF KSAN 120841Z 1209/1312 VRB04KT P6SM SCT013 SCT120 TEMPO 1212/1216 BKN011 FM121900 28009KT P6SM SCT150 FM130300 VRB04KT P6SM SCT012 SCT200 FM130600 VRB03KT P6SM BKN012",
      "groups": [
        {
          "text": "TAF KSAN 120841Z 1209/1312 VRB04KT P6SM SCT013 SCT120",
          "offset_h": 0,
          "wdir": "VRB",
          "wspd": 4
        },
        {
          "text": "TEMPO 1212/1216 BKN011",
          "offset_h": 3,
          "wdir": null,
          "wspd": null
        },
        {
          "text": "FM121900 28009KT P6SM SCT150",
          "offset_h": 10,
          "wdir": 280,
          "wspd": 9
        },
        {
          "text": "FM130300 VRB04KT P6SM SCT012 SCT200",
          "offset_h": 18,
          "wdir": "VRB",
          "wspd": 4
        },
        {
          "text": "FM130600 VRB03KT P6SM BKN012",
          "offset_h": 21,
          "wdir": "VRB",
          "wspd": 3
        }
      ],
      "metar_raw": "METAR KSAN 120851Z 00000KT 10SM FEW020 FEW100 19/17 A2994 RMK AO2 SLP138 T01940167 55007 $",
      "metar_wdir": 0,
      "metar_wspd": 0,
      "metar_oat": 19,
      "metar_qnh": 1014,
      "hourly_oat": [
        19,
        18,
        18,
        17,
        17,
        18,
        20,
        21,
        24,
        20,
        20,
        24,
        26,
        25,
        24,
        23,
        21,
        21,
        20,
        20,
        20,
        19,
        19,
        19,
        19
      ]
    },
    "NGO": {
      "icao": "RJGG",
      "issued": "2026-07-12T08:34:00.000Z",
      "raw": "TAF AMD RJGG 120834Z 1208/1312 29006KT 9999 FEW020",
      "groups": [
        {
          "text": "TAF AMD RJGG 120834Z 1208/1312 29006KT 9999 FEW020",
          "offset_h": -1,
          "wdir": 290,
          "wspd": 6
        }
      ],
      "metar_raw": "METAR RJGG 120930Z 33012KT 9999 FEW020 BKN/// 30/25 Q1010 NOSIG",
      "metar_wdir": 330,
      "metar_wspd": 12,
      "metar_oat": 30,
      "metar_qnh": 1010,
      "hourly_oat": [
        27,
        26,
        26,
        27,
        28,
        27,
        27,
        27,
        26,
        26,
        26,
        26,
        26,
        26,
        27,
        27,
        27,
        28,
        29,
        29,
        29,
        29,
        29,
        28,
        28
      ]
    },
    "HKG": {
      "icao": "VHHH",
      "issued": "2026-07-12T08:00:00.000Z",
      "raw": "TAF VHHH 120800Z 1209/1315 22010KT 9999 FEW010 TX34/1306Z TN29/1222Z TEMPO 1220/1224 VRB05KT TEMPO 1303/1308 4000 SHRA FEW010CB SCT020 BECMG 1306/1308 16010KT",
      "groups": [
        {
          "text": "TAF VHHH 120800Z 1209/1315 22010KT 9999 FEW010 TX34/1306Z TN29/1222Z",
          "offset_h": 0,
          "wdir": 220,
          "wspd": 10
        },
        {
          "text": "TEMPO 1220/1224 VRB05KT",
          "offset_h": 11,
          "wdir": "VRB",
          "wspd": 5
        },
        {
          "text": "TEMPO 1303/1308 4000 SHRA FEW010CB SCT020",
          "offset_h": 18,
          "wdir": null,
          "wspd": null
        },
        {
          "text": "BECMG 1306/1308 16010KT",
          "offset_h": 21,
          "wdir": 160,
          "wspd": 10
        }
      ],
      "metar_raw": "METAR VHHH 120930Z 02006KT 9999 FEW010 34/27 Q0998 NOSIG",
      "metar_wdir": 20,
      "metar_wspd": 6,
      "metar_oat": 34,
      "metar_qnh": 998,
      "hourly_oat": [
        30,
        30,
        29,
        29,
        29,
        29,
        29,
        29,
        29,
        29,
        28,
        28,
        28,
        28,
        28,
        29,
        29,
        30,
        31,
        31,
        30,
        29,
        30,
        29,
        29
      ]
    },
    "SGN": {
      "icao": "VVTS",
      "issued": "2026-07-12T07:38:00.000Z",
      "raw": "TAF AMD VVTS 120738Z 1208/1312 25012KT 9999 SCT017 TEMPO 1208/1210 25015G25KT PROB40 TEMPO 1210/1212 25016G26KT 5000 TSRA BKN013 FEW015CB TEMPO 1218/1222 5000 SHRA BKN015 FEW017CB TEMPO 1307/1312 24016G28KT 3000 TSRA BKN015 SCT017CB",
      "groups": [
        {
          "text": "TAF AMD VVTS 120738Z 1208/1312 25012KT 9999 SCT017",
          "offset_h": -1,
          "wdir": 250,
          "wspd": 12
        },
        {
          "text": "TEMPO 1208/1210 25015G25KT",
          "offset_h": -1,
          "wdir": 250,
          "wspd": 15
        },
        {
          "text": "PROB40",
          "offset_h": 0,
          "wdir": null,
          "wspd": null
        },
        {
          "text": "TEMPO 1210/1212 25016G26KT 5000 TSRA BKN013 FEW015CB",
          "offset_h": 1,
          "wdir": 250,
          "wspd": 16
        },
        {
          "text": "TEMPO 1218/1222 5000 SHRA BKN015 FEW017CB",
          "offset_h": 9,
          "wdir": null,
          "wspd": null
        },
        {
          "text": "TEMPO 1307/1312 24016G28KT 3000 TSRA BKN015 SCT017CB",
          "offset_h": 22,
          "wdir": 240,
          "wspd": 16
        }
      ],
      "metar_raw": "METAR VVTS 120930Z 25014KT 9999 SCT029 30/25 Q1004 TEMPO 25017G27KT",
      "metar_wdir": 250,
      "metar_wspd": 14,
      "metar_oat": 30,
      "metar_qnh": 1004,
      "hourly_oat": [
        29,
        28,
        28,
        28,
        27,
        27,
        27,
        27,
        27,
        26,
        26,
        26,
        26,
        26,
        26,
        26,
        28,
        29,
        29,
        31,
        27,
        28,
        26,
        27,
        27
      ]
    },
    "OKA": {
      "icao": "ROAH",
      "issued": "2026-07-12T05:05:00.000Z",
      "raw": "TAF ROAH 120505Z 1206/1312 15023KT 9999 FEW008 BKN012 TEMPO 1206/1210 15025G35KT TEMPO 1215/1300 FEW005 BKN008",
      "groups": [
        {
          "text": "TAF ROAH 120505Z 1206/1312 15023KT 9999 FEW008 BKN012",
          "offset_h": -3,
          "wdir": 150,
          "wspd": 23
        },
        {
          "text": "TEMPO 1206/1210 15025G35KT",
          "offset_h": -3,
          "wdir": 150,
          "wspd": 25
        },
        {
          "text": "TEMPO 1215/1300 FEW005 BKN008",
          "offset_h": 6,
          "wdir": null,
          "wspd": null
        }
      ],
      "metar_raw": "METAR ROAH 120930Z 16018KT 9999 FEW008 SCT011 BKN/// 28/26 Q1009",
      "metar_wdir": 160,
      "metar_wspd": 18,
      "metar_oat": 28,
      "metar_qnh": 1009,
      "hourly_oat": [
        28,
        27,
        27,
        27,
        27,
        27,
        27,
        27,
        27,
        26,
        26,
        26,
        26,
        27,
        28,
        28,
        28,
        29,
        29,
        29,
        29,
        29,
        29,
        28,
        28
      ]
    },
    "FUK": {
      "icao": "RJFF",
      "issued": "2026-07-12T05:05:00.000Z",
      "raw": "TAF RJFF 120505Z 1206/1312 30010KT 8000 -SHRA BKN030 TEMPO 1207/1210 -TSRA FEW025CB BKN030 BECMG 1211/1213 16012KT BECMG 1303/1306 32010KT BECMG 1309/1312 18006KT",
      "groups": [
        {
          "text": "TAF RJFF 120505Z 1206/1312 30010KT 8000 -SHRA BKN030",
          "offset_h": -3,
          "wdir": 300,
          "wspd": 10
        },
        {
          "text": "TEMPO 1207/1210 -TSRA FEW025CB BKN030",
          "offset_h": -2,
          "wdir": null,
          "wspd": null
        },
        {
          "text": "BECMG 1211/1213 16012KT",
          "offset_h": 2,
          "wdir": 160,
          "wspd": 12
        },
        {
          "text": "BECMG 1303/1306 32010KT",
          "offset_h": 18,
          "wdir": 320,
          "wspd": 10
        },
        {
          "text": "BECMG 1309/1312 18006KT",
          "offset_h": 24,
          "wdir": 180,
          "wspd": 6
        }
      ],
      "metar_raw": "METAR RJFF 120930Z 32007KT 280V030 9999 FEW030 SCT/// 32/24 Q1012 TEMPO TL1000 -TSRA",
      "metar_wdir": 320,
      "metar_wspd": 7,
      "metar_oat": 32,
      "metar_qnh": 1012,
      "hourly_oat": [
        32,
        31,
        30,
        29,
        29,
        28,
        28,
        28,
        27,
        27,
        27,
        26,
        26,
        27,
        29,
        30,
        32,
        32,
        33,
        33,
        31,
        30,
        30,
        30,
        30
      ]
    },
    "CTS": {
      "icao": "RJCC",
      "issued": "2026-07-12T05:05:00.000Z",
      "raw": "TAF RJCC 120505Z 1206/1312 18008KT 9999 FEW005 BKN012 TEMPO 1206/1209 3000 -SHRA BR FEW001 BKN003 TEMPO 1209/1216 0700 FG VV001 BECMG 1212/1214 34004KT TEMPO 1216/1221 1500 BR FEW001 BKN003 TEMPO 1221/1300 4000 BR FEW003 BKN005 BECMG 1303/1306 18010KT TEMPO 1309/1312 FEW005 BKN008",
      "groups": [
        {
          "text": "TAF RJCC 120505Z 1206/1312 18008KT 9999 FEW005 BKN012",
          "offset_h": -3,
          "wdir": 180,
          "wspd": 8
        },
        {
          "text": "TEMPO 1206/1209 3000 -SHRA BR FEW001 BKN003",
          "offset_h": -3,
          "wdir": null,
          "wspd": null
        },
        {
          "text": "TEMPO 1209/1216 0700 FG VV001",
          "offset_h": 0,
          "wdir": null,
          "wspd": null
        },
        {
          "text": "BECMG 1212/1214 34004KT",
          "offset_h": 3,
          "wdir": 340,
          "wspd": 4
        },
        {
          "text": "TEMPO 1216/1221 1500 BR FEW001 BKN003",
          "offset_h": 7,
          "wdir": null,
          "wspd": null
        },
        {
          "text": "TEMPO 1221/1300 4000 BR FEW003 BKN005",
          "offset_h": 12,
          "wdir": null,
          "wspd": null
        },
        {
          "text": "BECMG 1303/1306 18010KT",
          "offset_h": 18,
          "wdir": 180,
          "wspd": 10
        },
        {
          "text": "TEMPO 1309/1312 FEW005 BKN008",
          "offset_h": 24,
          "wdir": null,
          "wspd": null
        }
      ],
      "metar_raw": "METAR RJCC 120930Z 17006KT 4000 -SHRA BR FEW001 SCT002 BKN003 21/20 Q1004",
      "metar_wdir": 170,
      "metar_wspd": 6,
      "metar_oat": 21,
      "metar_qnh": 1004,
      "hourly_oat": [
        22,
        21,
        20,
        20,
        20,
        20,
        20,
        20,
        20,
        20,
        21,
        21,
        21,
        22,
        24,
        25,
        26,
        27,
        26,
        26,
        26,
        25,
        24,
        24,
        23
      ]
    },
    "NRT": {
      "icao": "RJAA",
      "issued": "2026-07-12T05:05:00.000Z",
      "raw": "TAF RJAA 120505Z 1206/1312 21006KT 9999 FEW020 TEMPO 1210/1221 4000 -SHRA BR FEW001 BKN003 BECMG 1221/1300 28008KT",
      "groups": [
        {
          "text": "TAF RJAA 120505Z 1206/1312 21006KT 9999 FEW020",
          "offset_h": -3,
          "wdir": 210,
          "wspd": 6
        },
        {
          "text": "TEMPO 1210/1221 4000 -SHRA BR FEW001 BKN003",
          "offset_h": 1,
          "wdir": null,
          "wspd": null
        },
        {
          "text": "BECMG 1221/1300 28008KT",
          "offset_h": 12,
          "wdir": 280,
          "wspd": 8
        }
      ],
      "metar_raw": "METAR RJAA 120930Z VRB02KT 9999 FEW020 BKN130 BKN/// 27/23 Q1010 NOSIG",
      "metar_wdir": "VRB",
      "metar_wspd": 2,
      "metar_oat": 27,
      "metar_qnh": 1010,
      "hourly_oat": [
        26,
        26,
        25,
        24,
        24,
        24,
        24,
        24,
        24,
        24,
        24,
        24,
        24,
        24,
        24,
        25,
        26,
        27,
        28,
        29,
        28,
        28,
        27,
        26,
        26
      ]
    },
    "KIX": {
      "icao": "RJBB",
      "issued": "2026-07-12T05:05:00.000Z",
      "raw": "TAF RJBB 120505Z 1206/1312 23010KT 9999 FEW020",
      "groups": [
        {
          "text": "TAF RJBB 120505Z 1206/1312 23010KT 9999 FEW020",
          "offset_h": -3,
          "wdir": 230,
          "wspd": 10
        }
      ],
      "metar_raw": "METAR RJBB 120930Z 24005KT 9999 FEW030 SCT180 BKN/// 27/25 Q1012 NOSIG",
      "metar_wdir": 240,
      "metar_wspd": 5,
      "metar_oat": 27,
      "metar_qnh": 1012,
      "hourly_oat": [
        27,
        27,
        27,
        27,
        26,
        26,
        26,
        26,
        26,
        26,
        26,
        26,
        26,
        26,
        26,
        26,
        26,
        26,
        26,
        27,
        28,
        28,
        28,
        28,
        28
      ]
    },
    "HND": {
      "icao": "RJTT",
      "issued": "2026-07-12T05:05:00.000Z",
      "raw": "TAF RJTT 120505Z 1206/1312 18012KT 9999 FEW020",
      "groups": [
        {
          "text": "TAF RJTT 120505Z 1206/1312 18012KT 9999 FEW020",
          "offset_h": -3,
          "wdir": 180,
          "wspd": 12
        }
      ],
      "metar_raw": "METAR RJTT 120930Z 18007KT 9999 FEW030 BKN160 27/24 Q1010 NOSIG",
      "metar_wdir": 180,
      "metar_wspd": 7,
      "metar_oat": 27,
      "metar_qnh": 1010,
      "hourly_oat": [
        26,
        25,
        25,
        25,
        25,
        25,
        25,
        25,
        25,
        25,
        25,
        25,
        25,
        25,
        25,
        25,
        26,
        26,
        27,
        27,
        27,
        26,
        26,
        26,
        26
      ]
    },
    "ITM": {
      "icao": "RJOO",
      "issued": "2026-07-12T05:05:00.000Z",
      "raw": "TAF RJOO 120505Z 1206/1312 22006KT 9999 FEW025 BECMG 1212/1214 27004KT BECMG 1300/1303 21006KT TEMPO 1303/1309 TS FEW015 FEW025CB BKN030",
      "groups": [
        {
          "text": "TAF RJOO 120505Z 1206/1312 22006KT 9999 FEW025",
          "offset_h": -3,
          "wdir": 220,
          "wspd": 6
        },
        {
          "text": "BECMG 1212/1214 27004KT",
          "offset_h": 3,
          "wdir": 270,
          "wspd": 4
        },
        {
          "text": "BECMG 1300/1303 21006KT",
          "offset_h": 15,
          "wdir": 210,
          "wspd": 6
        },
        {
          "text": "TEMPO 1303/1309 TS FEW015 FEW025CB BKN030",
          "offset_h": 18,
          "wdir": null,
          "wspd": null
        }
      ],
      "metar_raw": "METAR RJOO 120900Z 18006KT 150V210 9999 FEW030 SCT080 BKN/// 31/23 Q1011",
      "metar_wdir": 180,
      "metar_wspd": 6,
      "metar_oat": 31,
      "metar_qnh": 1011,
      "hourly_oat": [
        30,
        29,
        28,
        28,
        27,
        27,
        26,
        26,
        26,
        25,
        25,
        25,
        25,
        26,
        27,
        28,
        29,
        30,
        30,
        30,
        31,
        31,
        31,
        31,
        30
      ]
    },
    "TPE": {
      "icao": "RCTP",
      "issued": "2026-07-12T05:00:00.000Z",
      "raw": "TAF RCTP 120500Z 1206/1312 18005KT 9999 FEW015 BKN032 TEMPO 1210/1216 26010KT TEMPO 1220/1224 15005KT BECMG 1303/1305 02007KT TEMPO 1306/1312 VRB05KT 5000 SHRA FEW010 FEW012TCU BKN015",
      "groups": [
        {
          "text": "TAF RCTP 120500Z 1206/1312 18005KT 9999 FEW015 BKN032",
          "offset_h": -3,
          "wdir": 180,
          "wspd": 5
        },
        {
          "text": "TEMPO 1210/1216 26010KT",
          "offset_h": 1,
          "wdir": 260,
          "wspd": 10
        },
        {
          "text": "TEMPO 1220/1224 15005KT",
          "offset_h": 11,
          "wdir": 150,
          "wspd": 5
        },
        {
          "text": "BECMG 1303/1305 02007KT",
          "offset_h": 18,
          "wdir": 20,
          "wspd": 7
        },
        {
          "text": "TEMPO 1306/1312 VRB05KT 5000 SHRA FEW010 FEW012TCU BKN015",
          "offset_h": 21,
          "wdir": "VRB",
          "wspd": 5
        }
      ],
      "metar_raw": "METAR RCTP 120930Z 18006KT 120V270 9999 FEW020 SCT050 BKN130 34/28 Q1000 NOSIG RMK A2955",
      "metar_wdir": 180,
      "metar_wspd": 6,
      "metar_oat": 34,
      "metar_qnh": 1000,
      "hourly_oat": [
        33,
        31,
        30,
        29,
        28,
        28,
        28,
        28,
        27,
        27,
        27,
        26,
        26,
        26,
        27,
        29,
        29,
        29,
        29,
        30,
        29,
        28,
        28,
        28,
        28
      ]
    },
    "TSA": {
      "icao": "RCSS",
      "issued": "2026-07-12T05:00:00.000Z",
      "raw": "TAF RCSS 120500Z 1206/1306 10005KT 9999 FEW015 BKN032 TEMPO 1215/1220 FEW012 BKN022 TEMPO 1302/1306 5000 SHRA FEW010 BKN017",
      "groups": [
        {
          "text": "TAF RCSS 120500Z 1206/1306 10005KT 9999 FEW015 BKN032",
          "offset_h": -3,
          "wdir": 100,
          "wspd": 5
        },
        {
          "text": "TEMPO 1215/1220 FEW012 BKN022",
          "offset_h": 6,
          "wdir": null,
          "wspd": null
        },
        {
          "text": "TEMPO 1302/1306 5000 SHRA FEW010 BKN017",
          "offset_h": 17,
          "wdir": null,
          "wspd": null
        }
      ],
      "metar_raw": "METAR RCSS 120930Z 12007KT 9999 FEW020 BKN100 33/28 Q1000 NOSIG RMK A2955",
      "metar_wdir": 120,
      "metar_wspd": 7,
      "metar_oat": 33,
      "metar_qnh": 1000,
      "hourly_oat": [
        31,
        31,
        29,
        28,
        28,
        28,
        27,
        27,
        26,
        26,
        25,
        25,
        25,
        26,
        27,
        28,
        29,
        30,
        31,
        32,
        32,
        32,
        29,
        28,
        27
      ]
    },
    "GMP": {
      "icao": "RKSS",
      "issued": "2026-07-12T05:00:00.000Z",
      "raw": "TAF RKSS 120500Z 1206/1312 24006KT 9999 SCT045 TN25/1220Z TX34/1305Z BECMG 1214/1216 18005KT BECMG 1301/1303 24007KT",
      "groups": [
        {
          "text": "TAF RKSS 120500Z 1206/1312 24006KT 9999 SCT045 TN25/1220Z TX34/1305Z",
          "offset_h": -3,
          "wdir": 240,
          "wspd": 6
        },
        {
          "text": "BECMG 1214/1216 18005KT",
          "offset_h": 5,
          "wdir": 180,
          "wspd": 5
        },
        {
          "text": "BECMG 1301/1303 24007KT",
          "offset_h": 16,
          "wdir": 240,
          "wspd": 7
        }
      ],
      "metar_raw": "METAR RKSS 120900Z 24008KT 210V270 CAVOK 34/25 Q1009 NOSIG",
      "metar_wdir": 240,
      "metar_wspd": 8,
      "metar_oat": 34,
      "metar_qnh": 1009,
      "hourly_oat": [
        31,
        30,
        29,
        28,
        28,
        27,
        27,
        26,
        26,
        26,
        25,
        25,
        25,
        26,
        28,
        29,
        30,
        31,
        31,
        32,
        32,
        32,
        32,
        31,
        30
      ]
    },
    "BKK": {
      "icao": "VTBS",
      "issued": "2026-07-12T05:00:00.000Z",
      "raw": "TAF VTBS 120500Z 1206/1312 24008KT 9999 FEW020 SCT030 TEMPO 1208/1212 VRB15KT 3000 TSRA FEW018CB SCT030 BKN080 TEMPO 1308/1312 VRB15KT 4000 TSRA FEW018CB SCT030 BKN080",
      "groups": [
        {
          "text": "TAF VTBS 120500Z 1206/1312 24008KT 9999 FEW020 SCT030",
          "offset_h": -3,
          "wdir": 240,
          "wspd": 8
        },
        {
          "text": "TEMPO 1208/1212 VRB15KT 3000 TSRA FEW018CB SCT030 BKN080",
          "offset_h": -1,
          "wdir": "VRB",
          "wspd": 15
        },
        {
          "text": "TEMPO 1308/1312 VRB15KT 4000 TSRA FEW018CB SCT030 BKN080",
          "offset_h": 23,
          "wdir": "VRB",
          "wspd": 15
        }
      ],
      "metar_raw": "METAR VTBS 120930Z 26010KT 9999 FEW020 30/22 Q1003 NOSIG",
      "metar_wdir": 260,
      "metar_wspd": 10,
      "metar_oat": 30,
      "metar_qnh": 1003,
      "hourly_oat": [
        29,
        29,
        28,
        28,
        28,
        27,
        27,
        27,
        27,
        27,
        27,
        27,
        26,
        26,
        26,
        27,
        27,
        28,
        30,
        31,
        31,
        31,
        30,
        30,
        30
      ]
    },
    "KUL": {
      "icao": "WMKK",
      "issued": "2026-07-12T05:00:00.000Z",
      "raw": "TAF WMKK 120500Z 1206/1312 VRB03KT 9999 FEW018",
      "groups": [
        {
          "text": "TAF WMKK 120500Z 1206/1312 VRB03KT 9999 FEW018",
          "offset_h": -3,
          "wdir": "VRB",
          "wspd": 3
        }
      ],
      "metar_raw": "METAR WMKK 120930Z VRB03KT 9999 FEW018 32/24 Q1006 NOSIG",
      "metar_wdir": "VRB",
      "metar_wspd": 3,
      "metar_oat": 32,
      "metar_qnh": 1006,
      "hourly_oat": [
        30,
        30,
        29,
        28,
        28,
        27,
        27,
        26,
        26,
        26,
        26,
        26,
        24,
        24,
        24,
        25,
        26,
        27,
        29,
        30,
        30,
        31,
        31,
        31,
        30
      ]
    },
    "HAN": {
      "icao": "VVNB",
      "issued": "2026-07-12T05:00:00.000Z",
      "raw": "TAF VVNB 120500Z 1206/1306 07008KT 9999 SCT025 TEMPO 1208/1212 3500 TSRA SCT010 FEW027CB",
      "groups": [
        {
          "text": "TAF VVNB 120500Z 1206/1306 07008KT 9999 SCT025",
          "offset_h": -3,
          "wdir": 70,
          "wspd": 8
        },
        {
          "text": "TEMPO 1208/1212 3500 TSRA SCT010 FEW027CB",
          "offset_h": -1,
          "wdir": null,
          "wspd": null
        }
      ],
      "metar_raw": "METAR VVNB 120930Z 11006KT 9999 FEW030TCU 33/27 Q0997 TEMPO FM1030 3500 TSRA SCT010 FEW027CB",
      "metar_wdir": 110,
      "metar_wspd": 6,
      "metar_oat": 33,
      "metar_qnh": 997,
      "hourly_oat": [
        28,
        27,
        27,
        27,
        27,
        27,
        27,
        26,
        26,
        26,
        26,
        26,
        26,
        26,
        26,
        27,
        28,
        29,
        31,
        32,
        33,
        33,
        33,
        33,
        30
      ]
    },
    "SIN": {
      "icao": "WSSS",
      "issued": "2026-07-12T05:00:00.000Z",
      "raw": "TAF WSSS 120500Z 1206/1312 15010KT 9999 FEW015 SCT020",
      "groups": [
        {
          "text": "TAF WSSS 120500Z 1206/1312 15010KT 9999 FEW015 SCT020",
          "offset_h": -3,
          "wdir": 150,
          "wspd": 10
        }
      ],
      "metar_raw": "METAR WSSS 120930Z 16009KT 9999 FEW016 FEW020TCU BKN270 29/24 Q1007 NOSIG",
      "metar_wdir": 160,
      "metar_wspd": 9,
      "metar_oat": 29,
      "metar_qnh": 1007,
      "hourly_oat": [
        31,
        30,
        29,
        29,
        29,
        29,
        29,
        29,
        28,
        28,
        28,
        28,
        28,
        28,
        28,
        28,
        29,
        29,
        30,
        29,
        29,
        30,
        30,
        31,
        30
      ]
    },
    "CGK": {
      "icao": "WIII",
      "issued": "2026-07-12T05:00:00.000Z",
      "raw": "TAF WIII 120500Z 1206/1312 06012KT 8000 SCT020 BECMG 1213/1215 17005KT 4000 HZ",
      "groups": [
        {
          "text": "TAF WIII 120500Z 1206/1312 06012KT 8000 SCT020",
          "offset_h": -3,
          "wdir": 60,
          "wspd": 12
        },
        {
          "text": "BECMG 1213/1215 17005KT 4000 HZ",
          "offset_h": 4,
          "wdir": 170,
          "wspd": 5
        }
      ],
      "metar_raw": "METAR WIII 120930Z 05013KT 9999 FEW020 30/22 Q1008 NOSIG",
      "metar_wdir": 50,
      "metar_wspd": 13,
      "metar_oat": 30,
      "metar_qnh": 1008,
      "hourly_oat": [
        31,
        30,
        29,
        28,
        28,
        28,
        27,
        26,
        26,
        25,
        24,
        24,
        24,
        24,
        24,
        25,
        27,
        29,
        31,
        32,
        34,
        34,
        33,
        32,
        31
      ]
    },
    "SHA": {
      "icao": "ZSSS",
      "issued": "2026-07-12T03:08:00.000Z",
      "raw": "TAF ZSSS 120308Z 1206/1312 15012G17MPS 6000 BKN015 TX31/1206Z TX33/1306Z TN28/1221Z BECMG 1223/1224 17007MPS",
      "groups": [
        {
          "text": "TAF ZSSS 120308Z 1206/1312 15012G17MPS 6000 BKN015 TX31/1206Z TX33/1306Z TN28/1221Z",
          "offset_h": -3,
          "wdir": null,
          "wspd": null
        },
        {
          "text": "BECMG 1223/1224 17007MPS",
          "offset_h": 14,
          "wdir": null,
          "wspd": null
        }
      ],
      "metar_raw": "SPECI ZSSS 120943Z 16011G16MPS 9999 SCT026 30/25 Q0995 WS R18L NOSIG",
      "metar_wdir": null,
      "metar_wspd": null,
      "metar_oat": 30,
      "metar_qnh": 995,
      "hourly_oat": [
        29,
        29,
        28,
        28,
        28,
        28,
        28,
        28,
        28,
        28,
        28,
        28,
        28,
        28,
        29,
        29,
        30,
        31,
        33,
        33,
        33,
        33,
        31,
        32,
        31
      ]
    },
    "PVG": {
      "icao": "ZSPD",
      "issued": "2026-07-12T03:08:00.000Z",
      "raw": "TAF ZSPD 120308Z 1206/1312 14016G23MPS 6000 BKN020 TX31/1206Z TX32/1306Z TN26/1221Z BECMG 1219/1220 16010G16MPS BECMG 1303/1304 16009MPS",
      "groups": [
        {
          "text": "TAF ZSPD 120308Z 1206/1312 14016G23MPS 6000 BKN020 TX31/1206Z TX32/1306Z TN26/1221Z",
          "offset_h": -3,
          "wdir": null,
          "wspd": null
        },
        {
          "text": "BECMG 1219/1220 16010G16MPS",
          "offset_h": 10,
          "wdir": null,
          "wspd": null
        },
        {
          "text": "BECMG 1303/1304 16009MPS",
          "offset_h": 18,
          "wdir": null,
          "wspd": null
        }
      ],
      "metar_raw": "METAR ZSPD 120930Z 14013G18MPS 9999 BKN023 29/25 Q0996 NOSIG",
      "metar_wdir": null,
      "metar_wspd": null,
      "metar_oat": 29,
      "metar_qnh": 996,
      "hourly_oat": [
        29,
        29,
        28,
        28,
        28,
        28,
        28,
        28,
        28,
        28,
        28,
        28,
        28,
        28,
        29,
        30,
        30,
        31,
        32,
        32,
        32,
        32,
        32,
        31,
        31
      ]
    },
    "DLC": {
      "icao": "ZYTL",
      "issued": "2026-07-12T03:04:00.000Z",
      "raw": "TAF ZYTL 120304Z 1206/1306 17004G11MPS 5000 BR SCT026 TX30/1206Z TN23/1220Z",
      "groups": [
        {
          "text": "TAF ZYTL 120304Z 1206/1306 17004G11MPS 5000 BR SCT026 TX30/1206Z TN23/1220Z",
          "offset_h": -3,
          "wdir": null,
          "wspd": null
        }
      ],
      "metar_raw": "METAR ZYTL 120930Z 12004MPS 9999 SCT013 BKN023 27/24 Q1006 NOSIG",
      "metar_wdir": null,
      "metar_wspd": null,
      "metar_oat": 27,
      "metar_qnh": 1006,
      "hourly_oat": [
        28,
        26,
        25,
        25,
        25,
        25,
        25,
        25,
        25,
        25,
        25,
        25,
        25,
        25,
        26,
        26,
        25,
        26,
        27,
        27,
        27,
        27,
        27,
        26,
        26
      ]
    },
    "CAN": {
      "icao": "ZGGG",
      "issued": "2026-07-12T03:04:00.000Z",
      "raw": "TAF ZGGG 120304Z 1206/1312 19003MPS 8000 SCT040 TX38/1207Z TX37/1307Z TN29/1222Z",
      "groups": [
        {
          "text": "TAF ZGGG 120304Z 1206/1312 19003MPS 8000 SCT040 TX38/1207Z TX37/1307Z TN29/1222Z",
          "offset_h": -3,
          "wdir": null,
          "wspd": null
        }
      ],
      "metar_raw": "METAR ZGGG 120930Z 21002MPS 160V250 9999 SCT060 38/24 Q0996 NOSIG",
      "metar_wdir": null,
      "metar_wspd": null,
      "metar_oat": 38,
      "metar_qnh": 996,
      "hourly_oat": [
        36,
        35,
        33,
        31,
        31,
        30,
        30,
        29,
        28,
        28,
        28,
        28,
        28,
        27,
        28,
        29,
        30,
        32,
        32,
        33,
        34,
        34,
        35,
        35,
        34
      ]
    },
    "PEK": {
      "icao": "ZBAA",
      "issued": "2026-07-12T03:01:00.000Z",
      "raw": "TAF ZBAA 120301Z 1206/1312 10004MPS 5000 BR NSC TX31/1207Z TX32/1307Z TN23/1221Z TEMPO 1218/1224 2800 -SHRA BR",
      "groups": [
        {
          "text": "TAF ZBAA 120301Z 1206/1312 10004MPS 5000 BR NSC TX31/1207Z TX32/1307Z TN23/1221Z",
          "offset_h": -3,
          "wdir": null,
          "wspd": null
        },
        {
          "text": "TEMPO 1218/1224 2800 -SHRA BR",
          "offset_h": 9,
          "wdir": null,
          "wspd": null
        }
      ],
      "metar_raw": "METAR ZBAA 120930Z VRB01MPS CAVOK 30/24 Q1003 NOSIG",
      "metar_wdir": null,
      "metar_wspd": null,
      "metar_oat": 30,
      "metar_qnh": 1003,
      "hourly_oat": [
        29,
        29,
        28,
        26,
        26,
        25,
        25,
        25,
        25,
        24,
        24,
        24,
        24,
        25,
        26,
        27,
        28,
        30,
        30,
        31,
        32,
        33,
        33,
        34,
        33
      ]
    }
  }
}