{
  "updated": "2026-06-05T11:50:41Z",
  "tafs": {
    "TPE": {
      "icao": "RCTP",
      "issued": "2026-06-05T11:48:00.000Z",
      "raw": "TAF COR RCTP 051148Z 0512/0618 01010KT 7000 FEW010 BKN032 TEMPO 0512/0518 04015KT 5000 RA SCT008 BKN011 TEMPO 0518/0524 32012KT FEW010 BKN018 BECMG 0600/0602 31005KT TEMPO 0604/0610 24008KT BECMG 0610/0612 23005KT TEMPO 0612/0618 24012KT",
      "groups": [
        {
          "text": "TAF COR RCTP 051148Z 0512/0618 01010KT 7000 FEW010 BKN032",
          "offset_h": 1,
          "wdir": 10,
          "wspd": 10
        },
        {
          "text": "TEMPO 0512/0518 04015KT 5000 RA SCT008 BKN011",
          "offset_h": 1,
          "wdir": 40,
          "wspd": 15
        },
        {
          "text": "TEMPO 0518/0524 32012KT FEW010 BKN018",
          "offset_h": 7,
          "wdir": 320,
          "wspd": 12
        },
        {
          "text": "BECMG 0600/0602 31005KT",
          "offset_h": 13,
          "wdir": 310,
          "wspd": 5
        },
        {
          "text": "TEMPO 0604/0610 24008KT",
          "offset_h": 17,
          "wdir": 240,
          "wspd": 8
        },
        {
          "text": "BECMG 0610/0612 23005KT",
          "offset_h": 23,
          "wdir": 230,
          "wspd": 5
        },
        {
          "text": "TEMPO 0612/0618 24012KT",
          "offset_h": 25,
          "wdir": 240,
          "wspd": 12
        }
      ],
      "metar_raw": "SPECI RCTP 051132Z 02012KT 9999 -RA SCT005 BKN008 BKN015 26/26 Q1004 WS R05R NOSIG RMK A2966",
      "metar_wdir": 20,
      "metar_wspd": 12,
      "metar_oat": 26,
      "metar_qnh": 1004,
      "hourly_oat": [
        26,
        25,
        25,
        25,
        25,
        25,
        25,
        25,
        25,
        25,
        25,
        25,
        25,
        25,
        26,
        26,
        26,
        27,
        27,
        27,
        27,
        27,
        26,
        26,
        26
      ]
    },
    "HNL": {
      "icao": "PHNL",
      "issued": "2026-06-05T11:21:00.000Z",
      "raw": "TAF PHNL 051121Z 0512/0618 06010KT P6SM FEW025 SCT040 FM052000 06015G25KT P6SM FEW025 SCT040 FM060800 06008KT P6SM FEW025 SCT040",
      "groups": [
        {
          "text": "TAF PHNL 051121Z 0512/0618 06010KT P6SM FEW025 SCT040",
          "offset_h": 1,
          "wdir": 60,
          "wspd": 10
        },
        {
          "text": "FM052000 06015G25KT P6SM FEW025 SCT040",
          "offset_h": 9,
          "wdir": 60,
          "wspd": 15
        },
        {
          "text": "FM060800 06008KT P6SM FEW025 SCT040",
          "offset_h": 21,
          "wdir": 60,
          "wspd": 8
        }
      ],
      "metar_raw": "METAR PHNL 051053Z 06012G19KT 10SM FEW025 BKN045 25/19 A3014 RMK AO2 SLP207 T02500189 $",
      "metar_wdir": 60,
      "metar_wspd": 12,
      "metar_oat": 25,
      "metar_qnh": 1021,
      "hourly_oat": [
        23,
        22,
        22,
        22,
        22,
        22,
        23,
        24,
        25,
        26,
        27,
        27,
        28,
        27,
        27,
        26,
        25,
        24,
        23,
        23,
        23,
        23,
        22,
        22,
        22
      ]
    },
    "SAN": {
      "icao": "KSAN",
      "issued": "2026-06-05T11:20:00.000Z",
      "raw": "TAF KSAN 051120Z 0512/0618 VRB05KT P6SM OVC015 FM051900 22009KT P6SM SCT015 TEMPO 0520/0524 BKN015 FM060000 21007KT P6SM BKN015 FM060300 VRB04KT P6SM OVC018 FM061600 19006KT P6SM BKN022",
      "groups": [
        {
          "text": "TAF KSAN 051120Z 0512/0618 VRB05KT P6SM OVC015",
          "offset_h": 1,
          "wdir": "VRB",
          "wspd": 5
        },
        {
          "text": "FM051900 22009KT P6SM SCT015",
          "offset_h": 8,
          "wdir": 220,
          "wspd": 9
        },
        {
          "text": "TEMPO 0520/0524 BKN015",
          "offset_h": 9,
          "wdir": null,
          "wspd": null
        },
        {
          "text": "FM060000 21007KT P6SM BKN015",
          "offset_h": 13,
          "wdir": 210,
          "wspd": 7
        },
        {
          "text": "FM060300 VRB04KT P6SM OVC018",
          "offset_h": 16,
          "wdir": "VRB",
          "wspd": 4
        },
        {
          "text": "FM061600 19006KT P6SM BKN022",
          "offset_h": 29,
          "wdir": 190,
          "wspd": 6
        }
      ],
      "metar_raw": "SPECI KSAN 051108Z 05004KT 10SM BKN014 18/14 A2985 RMK AO2 T01780144",
      "metar_wdir": 50,
      "metar_wspd": 4,
      "metar_oat": 18,
      "metar_qnh": 1011,
      "hourly_oat": [
        17,
        17,
        17,
        17,
        18,
        19,
        20,
        21,
        21,
        21,
        21,
        21,
        21,
        20,
        20,
        19,
        18,
        18,
        17,
        17,
        17,
        17,
        17,
        17,
        17
      ]
    },
    "LAX": {
      "icao": "KLAX",
      "issued": "2026-06-05T11:20:00.000Z",
      "raw": "TAF KLAX 051120Z 0512/0618 VRB03KT P6SM SCT008 OVC010 FM051800 26006KT P6SM SCT012 FM052000 26012KT P6SM FEW012 FM060200 26006KT P6SM SCT008 OVC010 FM060600 VRB03KT P6SM SCT008 OVC010 FM061700 26006KT P6SM OVC015",
      "groups": [
        {
          "text": "TAF KLAX 051120Z 0512/0618 VRB03KT P6SM SCT008 OVC010",
          "offset_h": 1,
          "wdir": "VRB",
          "wspd": 3
        },
        {
          "text": "FM051800 26006KT P6SM SCT012",
          "offset_h": 7,
          "wdir": 260,
          "wspd": 6
        },
        {
          "text": "FM052000 26012KT P6SM FEW012",
          "offset_h": 9,
          "wdir": 260,
          "wspd": 12
        },
        {
          "text": "FM060200 26006KT P6SM SCT008 OVC010",
          "offset_h": 15,
          "wdir": 260,
          "wspd": 6
        },
        {
          "text": "FM060600 VRB03KT P6SM SCT008 OVC010",
          "offset_h": 19,
          "wdir": "VRB",
          "wspd": 3
        },
        {
          "text": "FM061700 26006KT P6SM OVC015",
          "offset_h": 30,
          "wdir": 260,
          "wspd": 6
        }
      ],
      "metar_raw": "METAR KLAX 051053Z 00000KT 8SM FEW009 OVC011 18/15 A2985 RMK AO2 SLP104 T01780150 $",
      "metar_wdir": 0,
      "metar_wspd": 0,
      "metar_oat": 18,
      "metar_qnh": 1011,
      "hourly_oat": [
        17,
        17,
        17,
        17,
        18,
        19,
        20,
        22,
        22,
        22,
        21,
        21,
        21,
        20,
        19,
        18,
        18,
        18,
        17,
        17,
        17,
        17,
        17,
        17,
        16
      ]
    },
    "OKA": {
      "icao": "ROAH",
      "issued": "2026-06-05T11:10:00.000Z",
      "raw": "TAF ROAH 051110Z 0512/0618 17012KT 6000 FEW001 BKN003 TEMPO 0512/0514 3000 -SHRA BR FEW000 BKN001 TEMPO 0514/0518 3000 TSRA BR FEW000 BKN001 FEW015CB TEMPO 0518/0600 3000 -SHRA BR FEW000 BKN001 BECMG 0600/0603 18022KT FEW008 BKN012 TEMPO 0603/0615 FEW005 BKN008 TEMPO 0615/0618 4000 SHRA BR FEW003 BKN005 FEW015CB",
      "groups": [
        {
          "text": "TAF ROAH 051110Z 0512/0618 17012KT 6000 FEW001 BKN003",
          "offset_h": 1,
          "wdir": 170,
          "wspd": 12
        },
        {
          "text": "TEMPO 0512/0514 3000 -SHRA BR FEW000 BKN001",
          "offset_h": 1,
          "wdir": null,
          "wspd": null
        },
        {
          "text": "TEMPO 0514/0518 3000 TSRA BR FEW000 BKN001 FEW015CB",
          "offset_h": 3,
          "wdir": null,
          "wspd": null
        },
        {
          "text": "TEMPO 0518/0600 3000 -SHRA BR FEW000 BKN001",
          "offset_h": 7,
          "wdir": null,
          "wspd": null
        },
        {
          "text": "BECMG 0600/0603 18022KT FEW008 BKN012",
          "offset_h": 13,
          "wdir": 180,
          "wspd": 22
        },
        {
          "text": "TEMPO 0603/0615 FEW005 BKN008",
          "offset_h": 16,
          "wdir": null,
          "wspd": null
        },
        {
          "text": "TEMPO 0615/0618 4000 SHRA BR FEW003 BKN005 FEW015CB",
          "offset_h": 28,
          "wdir": null,
          "wspd": null
        }
      ],
      "metar_raw": "METAR ROAH 051130Z 17012KT 7000 FEW001 SCT002 BKN003 27/26 Q1008",
      "metar_wdir": 170,
      "metar_wspd": 12,
      "metar_oat": 27,
      "metar_qnh": 1008,
      "hourly_oat": [
        25,
        25,
        25,
        25,
        25,
        25,
        25,
        26,
        26,
        26,
        26,
        26,
        27,
        27,
        28,
        28,
        28,
        28,
        27,
        27,
        27,
        27,
        26,
        26,
        26
      ]
    },
    "KIX": {
      "icao": "RJBB",
      "issued": "2026-06-05T11:05:00.000Z",
      "raw": "TAF RJBB 051105Z 0512/0618 19006KT 9999 FEW020 BKN040 BECMG 0514/0516 03006KT BECMG 0603/0606 27006KT BECMG 0612/0615 11004KT",
      "groups": [
        {
          "text": "TAF RJBB 051105Z 0512/0618 19006KT 9999 FEW020 BKN040",
          "offset_h": 1,
          "wdir": 190,
          "wspd": 6
        },
        {
          "text": "BECMG 0514/0516 03006KT",
          "offset_h": 3,
          "wdir": 30,
          "wspd": 6
        },
        {
          "text": "BECMG 0603/0606 27006KT",
          "offset_h": 16,
          "wdir": 270,
          "wspd": 6
        },
        {
          "text": "BECMG 0612/0615 11004KT",
          "offset_h": 25,
          "wdir": 110,
          "wspd": 4
        }
      ],
      "metar_raw": "METAR RJBB 051130Z 16005KT 110V190 9999 FEW030 BKN045 22/18 Q1010 NOSIG",
      "metar_wdir": 160,
      "metar_wspd": 5,
      "metar_oat": 22,
      "metar_qnh": 1010,
      "hourly_oat": [
        22,
        22,
        22,
        22,
        21,
        21,
        21,
        21,
        21,
        21,
        20,
        20,
        20,
        20,
        21,
        21,
        21,
        22,
        22,
        22,
        22,
        22,
        22,
        22,
        22
      ]
    },
    "FUK": {
      "icao": "RJFF",
      "issued": "2026-06-05T11:05:00.000Z",
      "raw": "TAF RJFF 051105Z 0512/0618 14004KT 9999 FEW009",
      "groups": [
        {
          "text": "TAF RJFF 051105Z 0512/0618 14004KT 9999 FEW009",
          "offset_h": 1,
          "wdir": 140,
          "wspd": 4
        }
      ],
      "metar_raw": "METAR RJFF 051130Z VRB04KT 9999 FEW020 SCT030 BKN/// 22/18 Q1009 NOSIG",
      "metar_wdir": "VRB",
      "metar_wspd": 4,
      "metar_oat": 22,
      "metar_qnh": 1009,
      "hourly_oat": [
        22,
        21,
        21,
        20,
        20,
        19,
        19,
        19,
        19,
        18,
        18,
        20,
        22,
        24,
        25,
        26,
        27,
        28,
        28,
        28,
        28,
        28,
        27,
        26,
        26
      ]
    },
    "CTS": {
      "icao": "RJCC",
      "issued": "2026-06-05T11:05:00.000Z",
      "raw": "TAF RJCC 051105Z 0512/0618 16016KT 9999 FEW012 SCT015 BKN020 TEMPO 0615/0618 FEW003 BKN008 BECMG 0615/0618 18006KT",
      "groups": [
        {
          "text": "TAF RJCC 051105Z 0512/0618 16016KT 9999 FEW012 SCT015 BKN020",
          "offset_h": 1,
          "wdir": 160,
          "wspd": 16
        },
        {
          "text": "TEMPO 0615/0618 FEW003 BKN008",
          "offset_h": 28,
          "wdir": null,
          "wspd": null
        },
        {
          "text": "BECMG 0615/0618 18006KT",
          "offset_h": 28,
          "wdir": 180,
          "wspd": 6
        }
      ],
      "metar_raw": "METAR RJCC 051130Z 21014KT 9999 FEW015 10/07 Q1017",
      "metar_wdir": 210,
      "metar_wspd": 14,
      "metar_oat": 10,
      "metar_qnh": 1017,
      "hourly_oat": [
        10,
        10,
        10,
        10,
        10,
        10,
        10,
        10,
        9,
        10,
        10,
        10,
        11,
        12,
        12,
        14,
        15,
        13,
        12,
        13,
        12,
        11,
        11,
        11,
        10
      ]
    },
    "NRT": {
      "icao": "RJAA",
      "issued": "2026-06-05T11:05:00.000Z",
      "raw": "TAF RJAA 051105Z 0512/0618 36012KT 8000 FEW005 SCT008 BKN012 TEMPO 0512/0515 FEW003 BKN008 TEMPO 0515/0521 FEW002 BKN005 TEMPO 0521/0600 FEW003 BKN008 TEMPO 0615/0618 FEW003 BKN008",
      "groups": [
        {
          "text": "TAF RJAA 051105Z 0512/0618 36012KT 8000 FEW005 SCT008 BKN012",
          "offset_h": 1,
          "wdir": 360,
          "wspd": 12
        },
        {
          "text": "TEMPO 0512/0515 FEW003 BKN008",
          "offset_h": 1,
          "wdir": null,
          "wspd": null
        },
        {
          "text": "TEMPO 0515/0521 FEW002 BKN005",
          "offset_h": 4,
          "wdir": null,
          "wspd": null
        },
        {
          "text": "TEMPO 0521/0600 FEW003 BKN008",
          "offset_h": 10,
          "wdir": null,
          "wspd": null
        },
        {
          "text": "TEMPO 0615/0618 FEW003 BKN008",
          "offset_h": 28,
          "wdir": null,
          "wspd": null
        }
      ],
      "metar_raw": "METAR RJAA 051130Z 02015KT 7000 -SHRA BKN007 15/13 Q1013 NOSIG",
      "metar_wdir": 20,
      "metar_wspd": 15,
      "metar_oat": 15,
      "metar_qnh": 1013,
      "hourly_oat": [
        16,
        16,
        16,
        16,
        16,
        16,
        16,
        16,
        16,
        16,
        16,
        17,
        18,
        19,
        19,
        20,
        21,
        22,
        22,
        22,
        22,
        21,
        20,
        19,
        18
      ]
    },
    "HND": {
      "icao": "RJTT",
      "issued": "2026-06-05T11:05:00.000Z",
      "raw": "TAF RJTT 051105Z 0512/0618 01012KT 9999 FEW010 BKN015 BECMG 0603/0606 09006KT",
      "groups": [
        {
          "text": "TAF RJTT 051105Z 0512/0618 01012KT 9999 FEW010 BKN015",
          "offset_h": 1,
          "wdir": 10,
          "wspd": 12
        },
        {
          "text": "BECMG 0603/0606 09006KT",
          "offset_h": 16,
          "wdir": 90,
          "wspd": 6
        }
      ],
      "metar_raw": "METAR RJTT 051130Z 04014KT 9999 FEW010 BKN050 17/14 Q1013 NOSIG",
      "metar_wdir": 40,
      "metar_wspd": 14,
      "metar_oat": 17,
      "metar_qnh": 1013,
      "hourly_oat": [
        17,
        17,
        17,
        17,
        17,
        17,
        17,
        17,
        17,
        17,
        17,
        17,
        18,
        19,
        20,
        20,
        21,
        22,
        22,
        23,
        23,
        23,
        23,
        22,
        22
      ]
    },
    "ITM": {
      "icao": "RJOO",
      "issued": "2026-06-05T11:05:00.000Z",
      "raw": "TAF RJOO 051105Z 0512/0618 01004KT 9999 FEW030 BECMG 0522/0600 07006KT BECMG 0606/0609 33006KT",
      "groups": [
        {
          "text": "TAF RJOO 051105Z 0512/0618 01004KT 9999 FEW030",
          "offset_h": 1,
          "wdir": 10,
          "wspd": 4
        },
        {
          "text": "BECMG 0522/0600 07006KT",
          "offset_h": 11,
          "wdir": 70,
          "wspd": 6
        },
        {
          "text": "BECMG 0606/0609 33006KT",
          "offset_h": 19,
          "wdir": 330,
          "wspd": 6
        }
      ],
      "metar_raw": "METAR RJOO 051100Z 09005KT 050V150 9999 FEW020 SCT030 BKN040 22/15 Q1010",
      "metar_wdir": 90,
      "metar_wspd": 5,
      "metar_oat": 22,
      "metar_qnh": 1010,
      "hourly_oat": [
        21,
        21,
        20,
        20,
        19,
        19,
        19,
        19,
        18,
        18,
        19,
        20,
        21,
        22,
        22,
        23,
        24,
        25,
        26,
        26,
        26,
        25,
        24,
        23,
        23
      ]
    },
    "NGO": {
      "icao": "RJGG",
      "issued": "2026-06-05T11:05:00.000Z",
      "raw": "TAF RJGG 051105Z 0512/0618 15010KT 9999 FEW020 BKN040",
      "groups": [
        {
          "text": "TAF RJGG 051105Z 0512/0618 15010KT 9999 FEW020 BKN040",
          "offset_h": 1,
          "wdir": 150,
          "wspd": 10
        }
      ],
      "metar_raw": "METAR RJGG 051130Z 17012KT 9999 FEW020 SCT040 BKN050 20/16 Q1011 NOSIG",
      "metar_wdir": 170,
      "metar_wspd": 12,
      "metar_oat": 20,
      "metar_qnh": 1011,
      "hourly_oat": [
        21,
        21,
        21,
        21,
        21,
        21,
        20,
        20,
        20,
        20,
        20,
        20,
        20,
        20,
        21,
        21,
        21,
        21,
        21,
        22,
        22,
        22,
        22,
        21,
        21
      ]
    },
    "TSA": {
      "icao": "RCSS",
      "issued": "2026-06-05T11:00:00.000Z",
      "raw": "TAF RCSS 051100Z 0512/0612 09005KT 7000 FEW010 BKN032 TEMPO 0512/0518 3500 SHRA FEW008 BKN013 TEMPO 0518/0524 30005KT 4500 RA FEW010 BKN020 BECMG 0600/0602 28005KT TEMPO 0604/0610 32010KT",
      "groups": [
        {
          "text": "TAF RCSS 051100Z 0512/0612 09005KT 7000 FEW010 BKN032",
          "offset_h": 1,
          "wdir": 90,
          "wspd": 5
        },
        {
          "text": "TEMPO 0512/0518 3500 SHRA FEW008 BKN013",
          "offset_h": 1,
          "wdir": null,
          "wspd": null
        },
        {
          "text": "TEMPO 0518/0524 30005KT 4500 RA FEW010 BKN020",
          "offset_h": 7,
          "wdir": 300,
          "wspd": 5
        },
        {
          "text": "BECMG 0600/0602 28005KT",
          "offset_h": 13,
          "wdir": 280,
          "wspd": 5
        },
        {
          "text": "TEMPO 0604/0610 32010KT",
          "offset_h": 17,
          "wdir": 320,
          "wspd": 10
        }
      ],
      "metar_raw": "SPECI RCSS 051142Z VRB03KT 2000 +SHRA SCT006 BKN012 FEW015TCU BKN028 26/25 Q1004 NOSIG RMK TCU NW-N A2965",
      "metar_wdir": "VRB",
      "metar_wspd": 3,
      "metar_oat": 26,
      "metar_qnh": 1004,
      "hourly_oat": [
        26,
        25,
        25,
        25,
        25,
        25,
        25,
        25,
        25,
        25,
        24,
        25,
        25,
        26,
        26,
        27,
        27,
        28,
        28,
        28,
        28,
        28,
        28,
        28,
        27
      ]
    },
    "SIN": {
      "icao": "WSSS",
      "issued": "2026-06-05T11:00:00.000Z",
      "raw": "TAF WSSS 051100Z 0512/0618 14008KT 9999 FEW015 SCT020 PROB30 TEMPO 0605/0608 3000 TSRA FEW012CB BKN015",
      "groups": [
        {
          "text": "TAF WSSS 051100Z 0512/0618 14008KT 9999 FEW015 SCT020",
          "offset_h": 1,
          "wdir": 140,
          "wspd": 8
        },
        {
          "text": "PROB30",
          "offset_h": 0,
          "wdir": null,
          "wspd": null
        },
        {
          "text": "TEMPO 0605/0608 3000 TSRA FEW012CB BKN015",
          "offset_h": 18,
          "wdir": null,
          "wspd": null
        }
      ],
      "metar_raw": "METAR WSSS 051130Z 13009KT 100V160 9999 FEW018 BKN300 31/26 Q1008 NOSIG",
      "metar_wdir": 130,
      "metar_wspd": 9,
      "metar_oat": 31,
      "metar_qnh": 1008,
      "hourly_oat": [
        31,
        30,
        30,
        30,
        30,
        30,
        30,
        30,
        30,
        29,
        29,
        28,
        27,
        28,
        29,
        30,
        30,
        31,
        32,
        32,
        32,
        32,
        29,
        30,
        30
      ]
    },
    "GMP": {
      "icao": "RKSS",
      "issued": "2026-06-05T11:00:00.000Z",
      "raw": "TAF RKSS 051100Z 0512/0618 28005KT CAVOK TN14/0520Z TX29/0606Z BECMG 0518/0520 06005KT 6000 NSC TEMPO 0603/0609 28007KT CAVOK BECMG 0609/0611 35005KT CAVOK BECMG 0615/0617 09005KT",
      "groups": [
        {
          "text": "TAF RKSS 051100Z 0512/0618 28005KT CAVOK TN14/0520Z TX29/0606Z",
          "offset_h": 1,
          "wdir": 280,
          "wspd": 5
        },
        {
          "text": "BECMG 0518/0520 06005KT 6000 NSC",
          "offset_h": 7,
          "wdir": 60,
          "wspd": 5
        },
        {
          "text": "TEMPO 0603/0609 28007KT CAVOK",
          "offset_h": 16,
          "wdir": 280,
          "wspd": 7
        },
        {
          "text": "BECMG 0609/0611 35005KT CAVOK",
          "offset_h": 22,
          "wdir": 350,
          "wspd": 5
        },
        {
          "text": "BECMG 0615/0617 09005KT",
          "offset_h": 28,
          "wdir": 90,
          "wspd": 5
        }
      ],
      "metar_raw": "METAR RKSS 051100Z 26005KT 230V290 CAVOK 20/15 Q1010 NOSIG",
      "metar_wdir": 260,
      "metar_wspd": 5,
      "metar_oat": 20,
      "metar_qnh": 1010,
      "hourly_oat": [
        19,
        18,
        17,
        16,
        16,
        16,
        15,
        14,
        14,
        14,
        13,
        14,
        16,
        19,
        22,
        24,
        25,
        27,
        28,
        28,
        28,
        27,
        25,
        23,
        22
      ]
    },
    "CGK": {
      "icao": "WIII",
      "issued": "2026-06-05T11:00:00.000Z",
      "raw": "TAF WIII 051100Z 0512/0618 07011KT 7000 SCT020 BECMG 0512/0514 17005KT BECMG 0514/0516 5000 HZ BECMG 0600/0602 07012KT 7000 NSW",
      "groups": [
        {
          "text": "TAF WIII 051100Z 0512/0618 07011KT 7000 SCT020",
          "offset_h": 1,
          "wdir": 70,
          "wspd": 11
        },
        {
          "text": "BECMG 0512/0514 17005KT",
          "offset_h": 1,
          "wdir": 170,
          "wspd": 5
        },
        {
          "text": "BECMG 0514/0516 5000 HZ",
          "offset_h": 3,
          "wdir": null,
          "wspd": null
        },
        {
          "text": "BECMG 0600/0602 07012KT 7000 NSW",
          "offset_h": 13,
          "wdir": 70,
          "wspd": 12
        }
      ],
      "metar_raw": "METAR WIII 051130Z 07014KT 8000 FEW020 29/24 Q1009 NOSIG",
      "metar_wdir": 70,
      "metar_wspd": 14,
      "metar_oat": 29,
      "metar_qnh": 1009,
      "hourly_oat": [
        30,
        29,
        28,
        28,
        28,
        27,
        27,
        27,
        27,
        26,
        26,
        26,
        25,
        26,
        28,
        30,
        32,
        33,
        34,
        34,
        34,
        34,
        32,
        31,
        30
      ]
    },
    "KUL": {
      "icao": "WMKK",
      "issued": "2026-06-05T11:00:00.000Z",
      "raw": "TAF WMKK 051100Z 0512/0618 VRB03KT 9000 FEW030 PROB30 TEMPO 0519/0523 5000 TSRA FEW017CB SCT030",
      "groups": [
        {
          "text": "TAF WMKK 051100Z 0512/0618 VRB03KT 9000 FEW030",
          "offset_h": 1,
          "wdir": "VRB",
          "wspd": 3
        },
        {
          "text": "PROB30",
          "offset_h": 0,
          "wdir": null,
          "wspd": null
        },
        {
          "text": "TEMPO 0519/0523 5000 TSRA FEW017CB SCT030",
          "offset_h": 8,
          "wdir": null,
          "wspd": null
        }
      ],
      "metar_raw": "METAR WMKK 051130Z 12003KT 050V200 9000 FEW030 30/26 Q1007 NOSIG",
      "metar_wdir": 120,
      "metar_wspd": 3,
      "metar_oat": 30,
      "metar_qnh": 1007,
      "hourly_oat": [
        30,
        29,
        29,
        28,
        28,
        28,
        28,
        26,
        26,
        24,
        25,
        25,
        25,
        26,
        27,
        28,
        30,
        30,
        31,
        32,
        31,
        31,
        31,
        29,
        28
      ]
    },
    "BKK": {
      "icao": "VTBS",
      "issued": "2026-06-05T11:00:00.000Z",
      "raw": "TAF VTBS 051100Z 0512/0618 20015KT 9999 FEW020 TEMPO 0512/0516 VRB15KT 4000 TSRA FEW018CB SCT020 BKN080 TEMPO 0610/0614 VRB15KT 4000 TSRA FEW018CB SCT020 BKN080",
      "groups": [
        {
          "text": "TAF VTBS 051100Z 0512/0618 20015KT 9999 FEW020",
          "offset_h": 1,
          "wdir": 200,
          "wspd": 15
        },
        {
          "text": "TEMPO 0512/0516 VRB15KT 4000 TSRA FEW018CB SCT020 BKN080",
          "offset_h": 1,
          "wdir": "VRB",
          "wspd": 15
        },
        {
          "text": "TEMPO 0610/0614 VRB15KT 4000 TSRA FEW018CB SCT020 BKN080",
          "offset_h": 23,
          "wdir": "VRB",
          "wspd": 15
        }
      ],
      "metar_raw": "METAR VTBS 051130Z 19020KT 9999 SCT020 31/25 Q1004 NOSIG",
      "metar_wdir": 190,
      "metar_wspd": 20,
      "metar_oat": 31,
      "metar_qnh": 1004,
      "hourly_oat": [
        28,
        28,
        28,
        28,
        28,
        28,
        28,
        28,
        28,
        28,
        27,
        27,
        28,
        29,
        30,
        31,
        31,
        31,
        29,
        31,
        31,
        31,
        30,
        29,
        26
      ]
    },
    "HAN": {
      "icao": "VVNB",
      "issued": "2026-06-05T11:00:00.000Z",
      "raw": "TAF VVNB 051100Z 0512/0612 12008KT 8000 SCT020 TEMPO 0512/0515 24015G28KT 2000 +TSRA BKN010 FEW027CB TEMPO 0610/0612 3000 TSRA SCT010 FEW027CB",
      "groups": [
        {
          "text": "TAF VVNB 051100Z 0512/0612 12008KT 8000 SCT020",
          "offset_h": 1,
          "wdir": 120,
          "wspd": 8
        },
        {
          "text": "TEMPO 0512/0515 24015G28KT 2000 +TSRA BKN010 FEW027CB",
          "offset_h": 1,
          "wdir": 240,
          "wspd": 15
        },
        {
          "text": "TEMPO 0610/0612 3000 TSRA SCT010 FEW027CB",
          "offset_h": 23,
          "wdir": null,
          "wspd": null
        }
      ],
      "metar_raw": "METAR VVNB 051130Z 06004KT 340V090 9999 FEW011 30/26 Q1001 TEMPO FM1245 24015G28KT 1400 +TSRA",
      "metar_wdir": 60,
      "metar_wspd": 4,
      "metar_oat": 30,
      "metar_qnh": 1001,
      "hourly_oat": [
        30,
        29,
        29,
        29,
        28,
        28,
        28,
        28,
        28,
        27,
        27,
        27,
        27,
        27,
        29,
        31,
        32,
        33,
        34,
        34,
        35,
        35,
        35,
        34,
        32
      ]
    },
    "SGN": {
      "icao": "VVTS",
      "issued": "2026-06-05T11:00:00.000Z",
      "raw": "TAF VVTS 051100Z 0512/0618 24010KT 9999 SCT017 PROB40 TEMPO 0512/0515 5000 TSRA BKN015 FEW017CB TEMPO 0607/0611 5000 TSRA BKN015 FEW017CB",
      "groups": [
        {
          "text": "TAF VVTS 051100Z 0512/0618 24010KT 9999 SCT017",
          "offset_h": 1,
          "wdir": 240,
          "wspd": 10
        },
        {
          "text": "PROB40",
          "offset_h": 0,
          "wdir": null,
          "wspd": null
        },
        {
          "text": "TEMPO 0512/0515 5000 TSRA BKN015 FEW017CB",
          "offset_h": 1,
          "wdir": null,
          "wspd": null
        },
        {
          "text": "TEMPO 0607/0611 5000 TSRA BKN015 FEW017CB",
          "offset_h": 20,
          "wdir": null,
          "wspd": null
        }
      ],
      "metar_raw": "METAR VVTS 051130Z 25011KT 9999 FEW025 32/24 Q1007 NOSIG",
      "metar_wdir": 250,
      "metar_wspd": 11,
      "metar_oat": 32,
      "metar_qnh": 1007,
      "hourly_oat": [
        29,
        29,
        28,
        28,
        28,
        27,
        27,
        27,
        27,
        26,
        26,
        26,
        26,
        28,
        29,
        30,
        31,
        32,
        33,
        33,
        34,
        34,
        33,
        31,
        30
      ]
    },
    "HKG": {
      "icao": "VHHH",
      "issued": "2026-06-05T11:00:00.000Z",
      "raw": "TAF VHHH 051100Z 0512/0618 24010KT 9999 FEW015 SCT025 TX33/0606Z TN27/0523Z TEMPO 0512/0515 4000 SHRA FEW010CB SCT020 TEMPO 0521/0524 VRB15G25KT 2500 TSRA SHRA FEW008CB SCT020 TEMPO 0600/0606 4000 SHRA FEW010CB SCT020 TEMPO 0606/0609 VRB15G25KT 2500 TSRA SHRA FEW008CB SCT020 PROB30 TEMPO 0612/0618 VRB15G25KT 2500 TSRA SHRA FEW008CB SCT020",
      "groups": [
        {
          "text": "TAF VHHH 051100Z 0512/0618 24010KT 9999 FEW015 SCT025 TX33/0606Z TN27/0523Z",
          "offset_h": 1,
          "wdir": 240,
          "wspd": 10
        },
        {
          "text": "TEMPO 0512/0515 4000 SHRA FEW010CB SCT020",
          "offset_h": 1,
          "wdir": null,
          "wspd": null
        },
        {
          "text": "TEMPO 0521/0524 VRB15G25KT 2500 TSRA SHRA FEW008CB SCT020",
          "offset_h": 10,
          "wdir": "VRB",
          "wspd": 15
        },
        {
          "text": "TEMPO 0600/0606 4000 SHRA FEW010CB SCT020",
          "offset_h": 13,
          "wdir": null,
          "wspd": null
        },
        {
          "text": "TEMPO 0606/0609 VRB15G25KT 2500 TSRA SHRA FEW008CB SCT020",
          "offset_h": 19,
          "wdir": "VRB",
          "wspd": 15
        },
        {
          "text": "PROB30",
          "offset_h": 0,
          "wdir": null,
          "wspd": null
        },
        {
          "text": "TEMPO 0612/0618 VRB15G25KT 2500 TSRA SHRA FEW008CB SCT020",
          "offset_h": 25,
          "wdir": "VRB",
          "wspd": 15
        }
      ],
      "metar_raw": "METAR VHHH 051130Z VRB02KT 9999 FEW015 31/25 Q1003 NOSIG",
      "metar_wdir": "VRB",
      "metar_wspd": 2,
      "metar_oat": 31,
      "metar_qnh": 1003,
      "hourly_oat": [
        29,
        29,
        29,
        30,
        30,
        29,
        30,
        29,
        29,
        29,
        29,
        29,
        30,
        30,
        30,
        30,
        29,
        28,
        28,
        29,
        30,
        30,
        30,
        29,
        29
      ]
    },
    "DLC": {
      "icao": "ZYTL",
      "issued": "2026-06-05T09:13:00.000Z",
      "raw": "TAF ZYTL 050913Z 0512/0612 14004MPS 5000 BR FEW030 TX20/0512Z TN15/0521Z BECMG 0523/0524 2500 BECMG 0600/0601 3000 -RA BR BKN011 TEMPO 0607/0612 2000 RA BR SCT004 BKN007",
      "groups": [
        {
          "text": "TAF ZYTL 050913Z 0512/0612 14004MPS 5000 BR FEW030 TX20/0512Z TN15/0521Z",
          "offset_h": 1,
          "wdir": null,
          "wspd": null
        },
        {
          "text": "BECMG 0523/0524 2500",
          "offset_h": 12,
          "wdir": null,
          "wspd": null
        },
        {
          "text": "BECMG 0600/0601 3000 -RA BR BKN011",
          "offset_h": 13,
          "wdir": null,
          "wspd": null
        },
        {
          "text": "TEMPO 0607/0612 2000 RA BR SCT004 BKN007",
          "offset_h": 20,
          "wdir": null,
          "wspd": null
        }
      ],
      "metar_raw": "METAR ZYTL 051130Z 28003MPS CAVOK 19/08 Q1010 NOSIG",
      "metar_wdir": null,
      "metar_wspd": null,
      "metar_oat": 19,
      "metar_qnh": 1010,
      "hourly_oat": [
        19,
        19,
        18,
        17,
        17,
        16,
        16,
        16,
        16,
        15,
        15,
        16,
        17,
        17,
        17,
        16,
        16,
        17,
        17,
        16,
        15,
        16,
        16,
        16,
        16
      ]
    },
    "SHA": {
      "icao": "ZSSS",
      "issued": "2026-06-05T09:06:00.000Z",
      "raw": "TAF ZSSS 050906Z 0512/0618 12004MPS 8000 BKN020 TX22/0512Z TX27/0606Z TN19/0521Z BECMG 0613/0614 05004MPS",
      "groups": [
        {
          "text": "TAF ZSSS 050906Z 0512/0618 12004MPS 8000 BKN020 TX22/0512Z TX27/0606Z TN19/0521Z",
          "offset_h": 1,
          "wdir": null,
          "wspd": null
        },
        {
          "text": "BECMG 0613/0614 05004MPS",
          "offset_h": 26,
          "wdir": null,
          "wspd": null
        }
      ],
      "metar_raw": "METAR ZSSS 051130Z 11005MPS CAVOK 24/16 Q1010 NOSIG",
      "metar_wdir": null,
      "metar_wspd": null,
      "metar_oat": 24,
      "metar_qnh": 1010,
      "hourly_oat": [
        22,
        22,
        21,
        21,
        21,
        20,
        20,
        20,
        19,
        19,
        19,
        20,
        21,
        23,
        24,
        26,
        26,
        27,
        27,
        27,
        26,
        26,
        25,
        24,
        22
      ]
    },
    "PVG": {
      "icao": "ZSPD",
      "issued": "2026-06-05T09:06:00.000Z",
      "raw": "TAF ZSPD 050906Z 0512/0618 11005MPS 6000 BKN030 TX22/0512Z TX26/0606Z TN20/0521Z BECMG 0612/0613 05004MPS",
      "groups": [
        {
          "text": "TAF ZSPD 050906Z 0512/0618 11005MPS 6000 BKN030 TX22/0512Z TX26/0606Z TN20/0521Z",
          "offset_h": 1,
          "wdir": null,
          "wspd": null
        },
        {
          "text": "BECMG 0612/0613 05004MPS",
          "offset_h": 25,
          "wdir": null,
          "wspd": null
        }
      ],
      "metar_raw": "METAR ZSPD 051130Z 11004MPS CAVOK 22/18 Q1011 NOSIG",
      "metar_wdir": null,
      "metar_wspd": null,
      "metar_oat": 22,
      "metar_qnh": 1011,
      "hourly_oat": [
        22,
        22,
        22,
        22,
        22,
        21,
        21,
        21,
        21,
        21,
        21,
        22,
        22,
        23,
        24,
        25,
        25,
        25,
        25,
        24,
        24,
        24,
        24,
        23,
        22
      ]
    },
    "CAN": {
      "icao": "ZGGG",
      "issued": "2026-06-05T09:05:00.000Z",
      "raw": "TAF ZGGG 050905Z 0512/0618 21003MPS 8000 BKN033 TX32/0512Z TX35/0607Z TN28/0522Z TEMPO 0518/0522 TSRA FEW026CB BKN033 TEMPO 0606/0610 2500 +TSRA SCT026CB BKN033",
      "groups": [
        {
          "text": "TAF ZGGG 050905Z 0512/0618 21003MPS 8000 BKN033 TX32/0512Z TX35/0607Z TN28/0522Z",
          "offset_h": 1,
          "wdir": null,
          "wspd": null
        },
        {
          "text": "TEMPO 0518/0522 TSRA FEW026CB BKN033",
          "offset_h": 7,
          "wdir": null,
          "wspd": null
        },
        {
          "text": "TEMPO 0606/0610 2500 +TSRA SCT026CB BKN033",
          "offset_h": 19,
          "wdir": null,
          "wspd": null
        }
      ],
      "metar_raw": "METAR ZGGG 051130Z 07003MPS CAVOK 32/25 Q1003 NOSIG",
      "metar_wdir": null,
      "metar_wspd": null,
      "metar_oat": 32,
      "metar_qnh": 1003,
      "hourly_oat": [
        28,
        28,
        28,
        27,
        27,
        27,
        27,
        27,
        26,
        25,
        24,
        25,
        26,
        27,
        29,
        30,
        31,
        32,
        29,
        31,
        31,
        28,
        28,
        29,
        27
      ]
    },
    "PEK": {
      "icao": "ZBAA",
      "issued": "2026-06-05T09:02:00.000Z",
      "raw": "TAF ZBAA 050902Z 0512/0618 15004MPS 6000 NSC TX22/0512Z TN15/0521Z TN14/0618Z BECMG 0519/0520 2800 -SHRA BR BECMG 0608/0609 4000 BR",
      "groups": [
        {
          "text": "TAF ZBAA 050902Z 0512/0618 15004MPS 6000 NSC TX22/0512Z TN15/0521Z TN14/0618Z",
          "offset_h": 1,
          "wdir": null,
          "wspd": null
        },
        {
          "text": "BECMG 0519/0520 2800 -SHRA BR",
          "offset_h": 8,
          "wdir": null,
          "wspd": null
        },
        {
          "text": "BECMG 0608/0609 4000 BR",
          "offset_h": 21,
          "wdir": null,
          "wspd": null
        }
      ],
      "metar_raw": "METAR ZBAA 051130Z 19004MPS CAVOK 24/09 Q1008 NOSIG",
      "metar_wdir": null,
      "metar_wspd": null,
      "metar_oat": 24,
      "metar_qnh": 1008,
      "hourly_oat": [
        24,
        22,
        22,
        22,
        21,
        20,
        19,
        19,
        18,
        17,
        16,
        15,
        16,
        16,
        16,
        16,
        17,
        18,
        17,
        17,
        17,
        18,
        17,
        17,
        17
      ]
    }
  }
}