{
  "updated": "2026-07-15T01:18:39Z",
  "tafs": {
    "GMP": {
      "icao": "RKSS",
      "issued": "2026-07-15T00:55:00.000Z",
      "raw": "TAF AMD RKSS 150055Z 1501/1606 24009KT 4000 BR BKN020 TX29/1506Z TN23/1520Z TX32/1606Z TEMPO 1501/1502 2500 -DZ SCT005 BKN025 BECMG 1503/1505 6000 NSW BKN030 BECMG 1513/1515 18005KT SCT010 BECMG 1522/1524 25006KT CAVOK",
      "groups": [
        {
          "text": "TAF AMD RKSS 150055Z 1501/1606 24009KT 4000 BR BKN020 TX29/1506Z TN23/1520Z TX32/1606Z",
          "offset_h": 0,
          "wdir": 240,
          "wspd": 9
        },
        {
          "text": "TEMPO 1501/1502 2500 -DZ SCT005 BKN025",
          "offset_h": 0,
          "wdir": null,
          "wspd": null
        },
        {
          "text": "BECMG 1503/1505 6000 NSW BKN030",
          "offset_h": 2,
          "wdir": null,
          "wspd": null
        },
        {
          "text": "BECMG 1513/1515 18005KT SCT010",
          "offset_h": 12,
          "wdir": 180,
          "wspd": 5
        },
        {
          "text": "BECMG 1522/1524 25006KT CAVOK",
          "offset_h": 21,
          "wdir": 250,
          "wspd": 6
        }
      ],
      "metar_raw": "METAR RKSS 150100Z 23007KT 200V260 3000 -DZ SCT005 BKN025 OVC070 24/24 Q1000 NOSIG",
      "metar_wdir": 230,
      "metar_wspd": 7,
      "metar_oat": 24,
      "metar_qnh": 1000,
      "hourly_oat": [
        25,
        26,
        26,
        27,
        28,
        28,
        28,
        28,
        27,
        26,
        25,
        24,
        24,
        23,
        22,
        22,
        22,
        22,
        21,
        22,
        22,
        23,
        23,
        25,
        27
      ]
    },
    "OKA": {
      "icao": "ROAH",
      "issued": "2026-07-15T00:02:00.000Z",
      "raw": "TAF AMD ROAH 150002Z 1500/1606 22010KT 9999 FEW008 BKN012 TEMPO 1500/1503 FEW005 BKN008 TEMPO 1515/1600 FEW005 BKN008",
      "groups": [
        {
          "text": "TAF AMD ROAH 150002Z 1500/1606 22010KT 9999 FEW008 BKN012",
          "offset_h": -1,
          "wdir": 220,
          "wspd": 10
        },
        {
          "text": "TEMPO 1500/1503 FEW005 BKN008",
          "offset_h": -1,
          "wdir": null,
          "wspd": null
        },
        {
          "text": "TEMPO 1515/1600 FEW005 BKN008",
          "offset_h": 14,
          "wdir": null,
          "wspd": null
        }
      ],
      "metar_raw": "METAR ROAH 150100Z 24009KT 9999 FEW007 BKN008 29/26 Q1011",
      "metar_wdir": 240,
      "metar_wspd": 9,
      "metar_oat": 29,
      "metar_qnh": 1011,
      "hourly_oat": [
        29,
        29,
        29,
        30,
        29,
        29,
        29,
        29,
        28,
        28,
        28,
        27,
        27,
        27,
        27,
        27,
        27,
        27,
        27,
        27,
        27,
        27,
        28,
        28,
        29
      ]
    },
    "TPE": {
      "icao": "RCTP",
      "issued": "2026-07-14T23:52:00.000Z",
      "raw": "TAF COR RCTP 142352Z 1500/1606 20005KT 9999 FEW010 BKN032 TEMPO 1500/1506 26008KT TEMPO 1506/1512 26011KT 4000 SHRA FEW010 BKN017 FEW020CB TEMPO 1512/1518 13005KT TEMPO 1518/1524 14005KT",
      "groups": [
        {
          "text": "TAF COR RCTP 142352Z 1500/1606 20005KT 9999 FEW010 BKN032",
          "offset_h": -1,
          "wdir": 200,
          "wspd": 5
        },
        {
          "text": "TEMPO 1500/1506 26008KT",
          "offset_h": -1,
          "wdir": 260,
          "wspd": 8
        },
        {
          "text": "TEMPO 1506/1512 26011KT 4000 SHRA FEW010 BKN017 FEW020CB",
          "offset_h": 5,
          "wdir": 260,
          "wspd": 11
        },
        {
          "text": "TEMPO 1512/1518 13005KT",
          "offset_h": 11,
          "wdir": 130,
          "wspd": 5
        },
        {
          "text": "TEMPO 1518/1524 14005KT",
          "offset_h": 17,
          "wdir": 140,
          "wspd": 5
        }
      ],
      "metar_raw": "METAR RCTP 150100Z 26010KT 9999 FEW015 32/25 Q1010 NOSIG RMK A2983",
      "metar_wdir": 260,
      "metar_wspd": 10,
      "metar_oat": 32,
      "metar_qnh": 1010,
      "hourly_oat": [
        30,
        31,
        31,
        31,
        31,
        31,
        30,
        29,
        29,
        29,
        28,
        28,
        27,
        27,
        27,
        26,
        26,
        26,
        26,
        26,
        26,
        26,
        28,
        29,
        30
      ]
    },
    "HNL": {
      "icao": "PHNL",
      "issued": "2026-07-14T23:26:00.000Z",
      "raw": "TAF PHNL 142326Z 1500/1606 04012G20KT P6SM VCSH FEW025 SCT040 FM150500 04008KT P6SM VCSH FEW025 BKN040 FM152000 07011G18KT P6SM FEW025 SCT045 FM160500 06006KT P6SM FEW025 SCT045",
      "groups": [
        {
          "text": "TAF PHNL 142326Z 1500/1606 04012G20KT P6SM VCSH FEW025 SCT040",
          "offset_h": -1,
          "wdir": 40,
          "wspd": 12
        },
        {
          "text": "FM150500 04008KT P6SM VCSH FEW025 BKN040",
          "offset_h": 4,
          "wdir": 40,
          "wspd": 8
        },
        {
          "text": "FM152000 07011G18KT P6SM FEW025 SCT045",
          "offset_h": 19,
          "wdir": 70,
          "wspd": 11
        },
        {
          "text": "FM160500 06006KT P6SM FEW025 SCT045",
          "offset_h": 28,
          "wdir": 60,
          "wspd": 6
        }
      ],
      "metar_raw": "METAR PHNL 150053Z 02014KT 10SM FEW025 SCT040 SCT060 29/19 A2991 RMK AO2 SLP126 T02890189 $",
      "metar_wdir": 20,
      "metar_wspd": 14,
      "metar_oat": 29,
      "metar_qnh": 1013,
      "hourly_oat": [
        27,
        27,
        26,
        25,
        24,
        24,
        24,
        23,
        23,
        23,
        23,
        23,
        23,
        22,
        22,
        22,
        24,
        26,
        27,
        28,
        29,
        29,
        29,
        29,
        28
      ]
    },
    "LAX": {
      "icao": "KLAX",
      "issued": "2026-07-14T23:25:00.000Z",
      "raw": "TAF KLAX 142325Z 1500/1606 26012KT P6SM FEW080 FM150500 26007KT P6SM SKC FM151000 VRB03KT P6SM SCT006 FM151600 24006KT P6SM FEW006 FM152000 26012KT P6SM SKC FM160300 26006KT P6SM SKC",
      "groups": [
        {
          "text": "TAF KLAX 142325Z 1500/1606 26012KT P6SM FEW080",
          "offset_h": -1,
          "wdir": 260,
          "wspd": 12
        },
        {
          "text": "FM150500 26007KT P6SM SKC",
          "offset_h": 4,
          "wdir": 260,
          "wspd": 7
        },
        {
          "text": "FM151000 VRB03KT P6SM SCT006",
          "offset_h": 9,
          "wdir": "VRB",
          "wspd": 3
        },
        {
          "text": "FM151600 24006KT P6SM FEW006",
          "offset_h": 15,
          "wdir": 240,
          "wspd": 6
        },
        {
          "text": "FM152000 26012KT P6SM SKC",
          "offset_h": 19,
          "wdir": 260,
          "wspd": 12
        },
        {
          "text": "FM160300 26006KT P6SM SKC",
          "offset_h": 26,
          "wdir": 260,
          "wspd": 6
        }
      ],
      "metar_raw": "METAR KLAX 150053Z COR 26015KT 10SM FEW080 23/17 A2988 RMK AO2 SLP115 T02330172 $",
      "metar_wdir": 260,
      "metar_wspd": 15,
      "metar_oat": 23,
      "metar_qnh": 1012,
      "hourly_oat": [
        23,
        22,
        21,
        20,
        19,
        19,
        19,
        18,
        18,
        18,
        18,
        17,
        17,
        18,
        21,
        24,
        26,
        27,
        27,
        27,
        27,
        27,
        26,
        25,
        24
      ]
    },
    "SAN": {
      "icao": "KSAN",
      "issued": "2026-07-14T23:20:00.000Z",
      "raw": "TAF KSAN 142320Z 1500/1606 31010G17KT P6SM FEW200 FM150300 VRB04KT P6SM FEW010 FM151100 VRB03KT P6SM BKN007 FM151600 27005KT P6SM FEW010 FM151900 29009KT P6SM SCT200 FM160200 VRB04KT P6SM FEW007 SCT120",
      "groups": [
        {
          "text": "TAF KSAN 142320Z 1500/1606 31010G17KT P6SM FEW200",
          "offset_h": -1,
          "wdir": 310,
          "wspd": 10
        },
        {
          "text": "FM150300 VRB04KT P6SM FEW010",
          "offset_h": 2,
          "wdir": "VRB",
          "wspd": 4
        },
        {
          "text": "FM151100 VRB03KT P6SM BKN007",
          "offset_h": 10,
          "wdir": "VRB",
          "wspd": 3
        },
        {
          "text": "FM151600 27005KT P6SM FEW010",
          "offset_h": 15,
          "wdir": 270,
          "wspd": 5
        },
        {
          "text": "FM151900 29009KT P6SM SCT200",
          "offset_h": 18,
          "wdir": 290,
          "wspd": 9
        },
        {
          "text": "FM160200 VRB04KT P6SM FEW007 SCT120",
          "offset_h": 25,
          "wdir": "VRB",
          "wspd": 4
        }
      ],
      "metar_raw": "METAR KSAN 150051Z 30007KT 10SM FEW011 FEW060 SCT150 24/17 A2989 RMK AO2 SLP123 T02440172 $",
      "metar_wdir": 300,
      "metar_wspd": 7,
      "metar_oat": 24,
      "metar_qnh": 1012,
      "hourly_oat": [
        24,
        23,
        22,
        21,
        21,
        20,
        20,
        19,
        19,
        19,
        18,
        18,
        18,
        20,
        21,
        23,
        24,
        26,
        27,
        28,
        28,
        27,
        27,
        26,
        25
      ]
    },
    "CTS": {
      "icao": "RJCC",
      "issued": "2026-07-14T23:05:00.000Z",
      "raw": "TAF RJCC 142305Z 1500/1606 17016KT 9999 FEW005 BKN012 TEMPO 1500/1502 2000 BR FEW001 BKN003 TEMPO 1502/1504 FEW001 BKN005 TEMPO 1508/1512 FEW002 BKN005 TEMPO 1512/1518 15028G38KT 3000 SHRA BR FEW001 BKN003 TEMPO 1518/1521 FEW001 BKN003 BECMG 1521/1600 01010KT BECMG 1603/1606 17012KT",
      "groups": [
        {
          "text": "TAF RJCC 142305Z 1500/1606 17016KT 9999 FEW005 BKN012",
          "offset_h": -1,
          "wdir": 170,
          "wspd": 16
        },
        {
          "text": "TEMPO 1500/1502 2000 BR FEW001 BKN003",
          "offset_h": -1,
          "wdir": null,
          "wspd": null
        },
        {
          "text": "TEMPO 1502/1504 FEW001 BKN005",
          "offset_h": 1,
          "wdir": null,
          "wspd": null
        },
        {
          "text": "TEMPO 1508/1512 FEW002 BKN005",
          "offset_h": 7,
          "wdir": null,
          "wspd": null
        },
        {
          "text": "TEMPO 1512/1518 15028G38KT 3000 SHRA BR FEW001 BKN003",
          "offset_h": 11,
          "wdir": 150,
          "wspd": 28
        },
        {
          "text": "TEMPO 1518/1521 FEW001 BKN003",
          "offset_h": 17,
          "wdir": null,
          "wspd": null
        },
        {
          "text": "BECMG 1521/1600 01010KT",
          "offset_h": 20,
          "wdir": 10,
          "wspd": 10
        },
        {
          "text": "BECMG 1603/1606 17012KT",
          "offset_h": 26,
          "wdir": 170,
          "wspd": 12
        }
      ],
      "metar_raw": "METAR RJCC 150100Z 16012KT 6000 FEW002 BKN005 BKN006 23/22 Q1002",
      "metar_wdir": 160,
      "metar_wspd": 12,
      "metar_oat": 23,
      "metar_qnh": 1002,
      "hourly_oat": [
        23,
        24,
        25,
        25,
        26,
        25,
        25,
        24,
        23,
        22,
        22,
        22,
        22,
        21,
        21,
        21,
        21,
        22,
        22,
        22,
        22,
        24,
        25,
        27,
        28
      ]
    },
    "FUK": {
      "icao": "RJFF",
      "issued": "2026-07-14T23:05:00.000Z",
      "raw": "TAF RJFF 142305Z 1500/1606 20012KT 9999 FEW020 BKN040 BECMG 1521/1600 31011KT",
      "groups": [
        {
          "text": "TAF RJFF 142305Z 1500/1606 20012KT 9999 FEW020 BKN040",
          "offset_h": -1,
          "wdir": 200,
          "wspd": 12
        },
        {
          "text": "BECMG 1521/1600 31011KT",
          "offset_h": 20,
          "wdir": 310,
          "wspd": 11
        }
      ],
      "metar_raw": "METAR RJFF 150100Z 20014KT 9999 FEW015 SCT045 BKN/// 32/24 Q1005 NOSIG",
      "metar_wdir": 200,
      "metar_wspd": 14,
      "metar_oat": 32,
      "metar_qnh": 1005,
      "hourly_oat": [
        30,
        31,
        32,
        32,
        32,
        32,
        32,
        32,
        31,
        30,
        29,
        29,
        28,
        28,
        28,
        27,
        27,
        26,
        26,
        26,
        26,
        27,
        28,
        29,
        30
      ]
    },
    "NRT": {
      "icao": "RJAA",
      "issued": "2026-07-14T23:05:00.000Z",
      "raw": "TAF RJAA 142305Z 1500/1606 15012KT 9999 FEW030 BECMG 1521/1600 27006KT BECMG 1600/1603 12010KT",
      "groups": [
        {
          "text": "TAF RJAA 142305Z 1500/1606 15012KT 9999 FEW030",
          "offset_h": -1,
          "wdir": 150,
          "wspd": 12
        },
        {
          "text": "BECMG 1521/1600 27006KT",
          "offset_h": 20,
          "wdir": 270,
          "wspd": 6
        },
        {
          "text": "BECMG 1600/1603 12010KT",
          "offset_h": 23,
          "wdir": 120,
          "wspd": 10
        }
      ],
      "metar_raw": "METAR RJAA 150100Z 18007KT 150V220 9999 FEW030 BKN/// 32/25 Q1005 NOSIG",
      "metar_wdir": 180,
      "metar_wspd": 7,
      "metar_oat": 32,
      "metar_qnh": 1005,
      "hourly_oat": [
        31,
        31,
        32,
        33,
        33,
        32,
        31,
        30,
        30,
        29,
        28,
        27,
        27,
        26,
        26,
        26,
        26,
        26,
        26,
        26,
        26,
        27,
        28,
        29,
        30
      ]
    },
    "KIX": {
      "icao": "RJBB",
      "issued": "2026-07-14T23:05:00.000Z",
      "raw": "TAF RJBB 142305Z 1500/1606 26005KT 9999 FEW030",
      "groups": [
        {
          "text": "TAF RJBB 142305Z 1500/1606 26005KT 9999 FEW030",
          "offset_h": -1,
          "wdir": 260,
          "wspd": 5
        }
      ],
      "metar_raw": "METAR RJBB 150100Z 18005KT 110V290 9999 FEW030 BKN/// 31/24 Q1005 NOSIG",
      "metar_wdir": 180,
      "metar_wspd": 5,
      "metar_oat": 31,
      "metar_qnh": 1005,
      "hourly_oat": [
        28,
        28,
        28,
        28,
        27,
        28,
        28,
        28,
        28,
        28,
        28,
        28,
        28,
        28,
        27,
        27,
        27,
        27,
        27,
        27,
        27,
        27,
        27,
        27,
        27
      ]
    },
    "HND": {
      "icao": "RJTT",
      "issued": "2026-07-14T23:05:00.000Z",
      "raw": "TAF RJTT 142305Z 1500/1606 19014KT 9999 FEW030 BECMG 1521/1600 12006KT",
      "groups": [
        {
          "text": "TAF RJTT 142305Z 1500/1606 19014KT 9999 FEW030",
          "offset_h": -1,
          "wdir": 190,
          "wspd": 14
        },
        {
          "text": "BECMG 1521/1600 12006KT",
          "offset_h": 20,
          "wdir": 120,
          "wspd": 6
        }
      ],
      "metar_raw": "METAR RJTT 150100Z 18011KT 9999 FEW005 BKN025 31/26 Q1005 NOSIG",
      "metar_wdir": 180,
      "metar_wspd": 11,
      "metar_oat": 31,
      "metar_qnh": 1005,
      "hourly_oat": [
        29,
        30,
        30,
        30,
        30,
        30,
        29,
        28,
        27,
        27,
        27,
        26,
        26,
        26,
        26,
        26,
        26,
        26,
        26,
        26,
        26,
        27,
        27,
        28,
        29
      ]
    },
    "ITM": {
      "icao": "RJOO",
      "issued": "2026-07-14T23:05:00.000Z",
      "raw": "TAF RJOO 142305Z 1500/1606 22008KT 9999 FEW030 BECMG 1503/1505 25008KT BECMG 1515/1518 21008KT",
      "groups": [
        {
          "text": "TAF RJOO 142305Z 1500/1606 22008KT 9999 FEW030",
          "offset_h": -1,
          "wdir": 220,
          "wspd": 8
        },
        {
          "text": "BECMG 1503/1505 25008KT",
          "offset_h": 2,
          "wdir": 250,
          "wspd": 8
        },
        {
          "text": "BECMG 1515/1518 21008KT",
          "offset_h": 14,
          "wdir": 210,
          "wspd": 8
        }
      ],
      "metar_raw": "METAR RJOO 150100Z VRB04KT 9999 FEW030 BKN/// 33/24 Q1005",
      "metar_wdir": "VRB",
      "metar_wspd": 4,
      "metar_oat": 33,
      "metar_qnh": 1005,
      "hourly_oat": [
        30,
        31,
        31,
        32,
        32,
        32,
        31,
        31,
        30,
        29,
        28,
        28,
        27,
        27,
        27,
        27,
        27,
        26,
        26,
        25,
        26,
        27,
        28,
        30,
        30
      ]
    },
    "NGO": {
      "icao": "RJGG",
      "issued": "2026-07-14T23:05:00.000Z",
      "raw": "TAF RJGG 142305Z 1500/1606 19010KT 9999 FEW030 BECMG 1512/1515 28006KT",
      "groups": [
        {
          "text": "TAF RJGG 142305Z 1500/1606 19010KT 9999 FEW030",
          "offset_h": -1,
          "wdir": 190,
          "wspd": 10
        },
        {
          "text": "BECMG 1512/1515 28006KT",
          "offset_h": 11,
          "wdir": 280,
          "wspd": 6
        }
      ],
      "metar_raw": "METAR RJGG 150100Z 19007KT 9999 FEW020 BKN/// 28/25 Q1005 NOSIG",
      "metar_wdir": 190,
      "metar_wspd": 7,
      "metar_oat": 28,
      "metar_qnh": 1005,
      "hourly_oat": [
        28,
        28,
        28,
        29,
        29,
        29,
        29,
        29,
        29,
        29,
        29,
        28,
        28,
        28,
        28,
        28,
        28,
        28,
        28,
        27,
        27,
        27,
        27,
        27,
        27
      ]
    },
    "HKG": {
      "icao": "VHHH",
      "issued": "2026-07-14T23:00:00.000Z",
      "raw": "TAF VHHH 142300Z 1500/1606 22010KT 9999 FEW015 SCT030 TX30/1506Z TX31/1606Z TN28/1522Z TEMPO 1500/1504 22015G25KT 2000 TSRA +SHRA FEW008CB SCT015 TEMPO 1504/1506 3000 SHRA FEW010CB SCT020 BECMG 1509/1511 16010KT TEMPO 1521/1603 2500 TSRA SHRA FEW008CB SCT015",
      "groups": [
        {
          "text": "TAF VHHH 142300Z 1500/1606 22010KT 9999 FEW015 SCT030 TX30/1506Z TX31/1606Z TN28/1522Z",
          "offset_h": -1,
          "wdir": 220,
          "wspd": 10
        },
        {
          "text": "TEMPO 1500/1504 22015G25KT 2000 TSRA +SHRA FEW008CB SCT015",
          "offset_h": -1,
          "wdir": 220,
          "wspd": 15
        },
        {
          "text": "TEMPO 1504/1506 3000 SHRA FEW010CB SCT020",
          "offset_h": 3,
          "wdir": null,
          "wspd": null
        },
        {
          "text": "BECMG 1509/1511 16010KT",
          "offset_h": 8,
          "wdir": 160,
          "wspd": 10
        },
        {
          "text": "TEMPO 1521/1603 2500 TSRA SHRA FEW008CB SCT015",
          "offset_h": 20,
          "wdir": null,
          "wspd": null
        }
      ],
      "metar_raw": "METAR VHHH 150100Z 20012KT 9999 -SHRA FEW008 FEW015CB SCT025 29/25 Q1006 TEMPO 22020G30KT 2000 TSRA +SHRA FEW008CB SCT015",
      "metar_wdir": 200,
      "metar_wspd": 12,
      "metar_oat": 29,
      "metar_qnh": 1006,
      "hourly_oat": [
        26,
        26,
        27,
        28,
        28,
        28,
        28,
        28,
        29,
        29,
        28,
        28,
        28,
        28,
        27,
        26,
        26,
        27,
        26,
        26,
        26,
        27,
        26,
        26,
        27
      ]
    },
    "SGN": {
      "icao": "VVTS",
      "issued": "2026-07-14T23:00:00.000Z",
      "raw": "TAF VVTS 142300Z 1500/1606 25008KT 9999 SCT017 SCT040 TEMPO 1506/1511 24015G28KT 2500 +TSRA SCT015 SCT017CB BKN040",
      "groups": [
        {
          "text": "TAF VVTS 142300Z 1500/1606 25008KT 9999 SCT017 SCT040",
          "offset_h": -1,
          "wdir": 250,
          "wspd": 8
        },
        {
          "text": "TEMPO 1506/1511 24015G28KT 2500 +TSRA SCT015 SCT017CB BKN040",
          "offset_h": 5,
          "wdir": 240,
          "wspd": 15
        }
      ],
      "metar_raw": "METAR VVTS 150100Z 23011KT 9999 FEW021 30/26 Q1011 NOSIG",
      "metar_wdir": 230,
      "metar_wspd": 11,
      "metar_oat": 30,
      "metar_qnh": 1011,
      "hourly_oat": [
        27,
        29,
        30,
        31,
        32,
        32,
        32,
        26,
        27,
        27,
        26,
        26,
        26,
        26,
        26,
        26,
        25,
        25,
        25,
        25,
        25,
        25,
        25,
        26,
        28
      ]
    },
    "SIN": {
      "icao": "WSSS",
      "issued": "2026-07-14T23:00:00.000Z",
      "raw": "TAF WSSS 142300Z 1500/1606 15007KT 9999 FEW015 SCT020",
      "groups": [
        {
          "text": "TAF WSSS 142300Z 1500/1606 15007KT 9999 FEW015 SCT020",
          "offset_h": -1,
          "wdir": 150,
          "wspd": 7
        }
      ],
      "metar_raw": "METAR WSSS 150100Z 12008KT 9999 FEW016 BKN300 30/25 Q1012 NOSIG",
      "metar_wdir": 120,
      "metar_wspd": 8,
      "metar_oat": 30,
      "metar_qnh": 1012,
      "hourly_oat": [
        29,
        30,
        31,
        31,
        31,
        31,
        30,
        30,
        28,
        27,
        27,
        27,
        27,
        27,
        27,
        27,
        27,
        27,
        28,
        27,
        27,
        27,
        27,
        28,
        28
      ]
    },
    "KUL": {
      "icao": "WMKK",
      "issued": "2026-07-14T23:00:00.000Z",
      "raw": "TAF WMKK 142300Z 1500/1606 13007KT 9999 FEW018",
      "groups": [
        {
          "text": "TAF WMKK 142300Z 1500/1606 13007KT 9999 FEW018",
          "offset_h": -1,
          "wdir": 130,
          "wspd": 7
        }
      ],
      "metar_raw": "METAR WMKK 150100Z 11005KT 060V170 9999 FEW017CB 29/24 Q1011 NOSIG",
      "metar_wdir": 110,
      "metar_wspd": 5,
      "metar_oat": 29,
      "metar_qnh": 1011,
      "hourly_oat": [
        28,
        29,
        30,
        31,
        31,
        32,
        31,
        31,
        31,
        30,
        29,
        28,
        28,
        28,
        27,
        27,
        27,
        26,
        26,
        25,
        25,
        25,
        25,
        26,
        27
      ]
    },
    "BKK": {
      "icao": "VTBS",
      "issued": "2026-07-14T23:00:00.000Z",
      "raw": "TAF VTBS 142300Z 1500/1606 20008KT 9999 FEW020 TEMPO 1510/1514 VRB15KT 4000 TSRA FEW018CB SCT030 BKN100",
      "groups": [
        {
          "text": "TAF VTBS 142300Z 1500/1606 20008KT 9999 FEW020",
          "offset_h": -1,
          "wdir": 200,
          "wspd": 8
        },
        {
          "text": "TEMPO 1510/1514 VRB15KT 4000 TSRA FEW018CB SCT030 BKN100",
          "offset_h": 9,
          "wdir": "VRB",
          "wspd": 15
        }
      ],
      "metar_raw": "METAR VTBS 150100Z 21010KT 9999 FEW020 30/24 Q1010 NOSIG",
      "metar_wdir": 210,
      "metar_wspd": 10,
      "metar_oat": 30,
      "metar_qnh": 1010,
      "hourly_oat": [
        30,
        31,
        31,
        31,
        31,
        31,
        31,
        30,
        29,
        28,
        28,
        28,
        28,
        28,
        28,
        28,
        28,
        27,
        27,
        27,
        27,
        27,
        27,
        28,
        29
      ]
    },
    "HAN": {
      "icao": "VVNB",
      "issued": "2026-07-14T23:00:00.000Z",
      "raw": "TAF VVNB 142300Z 1500/1524 12006KT 9999 FEW025 TEMPO 1503/1507 4000 SHRA SCT012 FEW025TCU",
      "groups": [
        {
          "text": "TAF VVNB 142300Z 1500/1524 12006KT 9999 FEW025",
          "offset_h": -1,
          "wdir": 120,
          "wspd": 6
        },
        {
          "text": "TEMPO 1503/1507 4000 SHRA SCT012 FEW025TCU",
          "offset_h": 2,
          "wdir": null,
          "wspd": null
        }
      ],
      "metar_raw": "METAR VVNB 150100Z 12005KT 090V160 CAVOK 30/26 Q1002 NOSIG",
      "metar_wdir": 120,
      "metar_wspd": 5,
      "metar_oat": 30,
      "metar_qnh": 1002,
      "hourly_oat": [
        30,
        32,
        32,
        33,
        34,
        34,
        34,
        34,
        34,
        34,
        32,
        31,
        30,
        30,
        29,
        29,
        29,
        28,
        28,
        28,
        28,
        28,
        28,
        29,
        30
      ]
    },
    "TSA": {
      "icao": "RCSS",
      "issued": "2026-07-14T23:00:00.000Z",
      "raw": "TAF RCSS 142300Z 1500/1524 09005KT 9999 FEW010 BKN032 TEMPO 1500/1506 27005KT TEMPO 1506/1510 14010KT 4000 SHRA FEW010 BKN017 FEW020CB",
      "groups": [
        {
          "text": "TAF RCSS 142300Z 1500/1524 09005KT 9999 FEW010 BKN032",
          "offset_h": -1,
          "wdir": 90,
          "wspd": 5
        },
        {
          "text": "TEMPO 1500/1506 27005KT",
          "offset_h": -1,
          "wdir": 270,
          "wspd": 5
        },
        {
          "text": "TEMPO 1506/1510 14010KT 4000 SHRA FEW010 BKN017 FEW020CB",
          "offset_h": 5,
          "wdir": 140,
          "wspd": 10
        }
      ],
      "metar_raw": "METAR RCSS 150100Z 23004KT 200V260 9999 FEW020 SCT035 33/27 Q1009 NOSIG RMK A2982",
      "metar_wdir": 230,
      "metar_wspd": 4,
      "metar_oat": 33,
      "metar_qnh": 1009,
      "hourly_oat": [
        31,
        33,
        34,
        33,
        32,
        32,
        32,
        31,
        29,
        29,
        28,
        28,
        28,
        27,
        27,
        27,
        26,
        26,
        26,
        26,
        26,
        26,
        27,
        29,
        30
      ]
    },
    "CGK": {
      "icao": "WIII",
      "issued": "2026-07-14T23:00:00.000Z",
      "raw": "TAF WIII 142300Z 1500/1606 13005KT 4000 HZ FEW020 BECMG 1501/1503 06012KT 8000 NSW BECMG 1514/1516 12005KT",
      "groups": [
        {
          "text": "TAF WIII 142300Z 1500/1606 13005KT 4000 HZ FEW020",
          "offset_h": -1,
          "wdir": 130,
          "wspd": 5
        },
        {
          "text": "BECMG 1501/1503 06012KT 8000 NSW",
          "offset_h": 0,
          "wdir": 60,
          "wspd": 12
        },
        {
          "text": "BECMG 1514/1516 12005KT",
          "offset_h": 13,
          "wdir": 120,
          "wspd": 5
        }
      ],
      "metar_raw": "METAR WIII 150100Z 12007KT 5000 HZ NSC 28/23 Q1013 NOSIG",
      "metar_wdir": 120,
      "metar_wspd": 7,
      "metar_oat": 28,
      "metar_qnh": 1013,
      "hourly_oat": [
        28,
        30,
        31,
        33,
        34,
        34,
        34,
        33,
        31,
        30,
        29,
        29,
        28,
        28,
        27,
        27,
        26,
        26,
        25,
        25,
        25,
        25,
        25,
        25,
        28
      ]
    },
    "DLC": {
      "icao": "ZYTL",
      "issued": "2026-07-14T21:07:00.000Z",
      "raw": "TAF ZYTL 142107Z 1500/1524 26004G10MPS 5000 BR NSC TX30/1506Z TN23/1521Z",
      "groups": [
        {
          "text": "TAF ZYTL 142107Z 1500/1524 26004G10MPS 5000 BR NSC TX30/1506Z TN23/1521Z",
          "offset_h": -1,
          "wdir": null,
          "wspd": null
        }
      ],
      "metar_raw": "METAR ZYTL 150100Z 28005MPS CAVOK 29/24 Q1000 NOSIG",
      "metar_wdir": null,
      "metar_wspd": null,
      "metar_oat": 29,
      "metar_qnh": 1000,
      "hourly_oat": [
        29,
        30,
        30,
        31,
        31,
        32,
        32,
        31,
        30,
        28,
        27,
        26,
        26,
        25,
        25,
        25,
        24,
        24,
        24,
        24,
        24,
        25,
        26,
        28,
        29
      ]
    },
    "SHA": {
      "icao": "ZSSS",
      "issued": "2026-07-14T21:06:00.000Z",
      "raw": "TAF ZSSS 142106Z 1500/1606 18004MPS 8000 SCT030 TX38/1506Z TX37/1606Z TN29/1521Z TEMPO 1506/1509 TSRA BKN011 SCT030CB",
      "groups": [
        {
          "text": "TAF ZSSS 142106Z 1500/1606 18004MPS 8000 SCT030 TX38/1506Z TX37/1606Z TN29/1521Z",
          "offset_h": -1,
          "wdir": null,
          "wspd": null
        },
        {
          "text": "TEMPO 1506/1509 TSRA BKN011 SCT030CB",
          "offset_h": 5,
          "wdir": null,
          "wspd": null
        }
      ],
      "metar_raw": "METAR ZSSS 150100Z 24005MPS 170V260 CAVOK 35/25 Q1004 NOSIG",
      "metar_wdir": null,
      "metar_wspd": null,
      "metar_oat": 35,
      "metar_qnh": 1004,
      "hourly_oat": [
        34,
        35,
        36,
        37,
        37,
        37,
        38,
        37,
        37,
        36,
        35,
        35,
        33,
        32,
        31,
        31,
        31,
        30,
        30,
        30,
        30,
        30,
        32,
        33,
        35
      ]
    },
    "PVG": {
      "icao": "ZSPD",
      "issued": "2026-07-14T21:06:00.000Z",
      "raw": "TAF ZSPD 142106Z 1500/1606 18004MPS 8000 SCT030 TX36/1506Z TX37/1606Z TN28/1521Z TEMPO 1505/1509 TSRA BKN008 SCT030CB",
      "groups": [
        {
          "text": "TAF ZSPD 142106Z 1500/1606 18004MPS 8000 SCT030 TX36/1506Z TX37/1606Z TN28/1521Z",
          "offset_h": -1,
          "wdir": null,
          "wspd": null
        },
        {
          "text": "TEMPO 1505/1509 TSRA BKN008 SCT030CB",
          "offset_h": 4,
          "wdir": null,
          "wspd": null
        }
      ],
      "metar_raw": "METAR ZSPD 150100Z 24007MPS CAVOK 35/25 Q1004 NOSIG",
      "metar_wdir": null,
      "metar_wspd": null,
      "metar_oat": 35,
      "metar_qnh": 1004,
      "hourly_oat": [
        33,
        34,
        36,
        36,
        37,
        37,
        37,
        36,
        35,
        33,
        32,
        31,
        30,
        30,
        30,
        30,
        29,
        29,
        29,
        29,
        28,
        29,
        31,
        33,
        34
      ]
    },
    "PEK": {
      "icao": "ZBAA",
      "issued": "2026-07-14T21:03:00.000Z",
      "raw": "TAF ZBAA 142103Z 1500/1606 18003MPS CAVOK TX36/1506Z TX32/1606Z TN24/1521Z",
      "groups": [
        {
          "text": "TAF ZBAA 142103Z 1500/1606 18003MPS CAVOK TX36/1506Z TX32/1606Z TN24/1521Z",
          "offset_h": -1,
          "wdir": null,
          "wspd": null
        }
      ],
      "metar_raw": "METAR ZBAA 150100Z 01003MPS 340V050 CAVOK 30/22 Q1001 NOSIG",
      "metar_wdir": null,
      "metar_wspd": null,
      "metar_oat": 30,
      "metar_qnh": 1001,
      "hourly_oat": [
        29,
        31,
        32,
        33,
        34,
        34,
        34,
        34,
        34,
        32,
        30,
        29,
        28,
        27,
        26,
        25,
        25,
        24,
        25,
        25,
        24,
        24,
        26,
        26,
        28
      ]
    },
    "CAN": {
      "icao": "ZGGG",
      "issued": "2026-07-14T21:03:00.000Z",
      "raw": "TAF ZGGG 142103Z 1500/1606 15004MPS 8000 BKN033 TX35/1507Z TX34/1606Z TN26/1522Z TEMPO 1505/1509 TSRA SCT026CB BKN033 TEMPO 1520/1524 SHRA FEW026CB BKN033",
      "groups": [
        {
          "text": "TAF ZGGG 142103Z 1500/1606 15004MPS 8000 BKN033 TX35/1507Z TX34/1606Z TN26/1522Z",
          "offset_h": -1,
          "wdir": null,
          "wspd": null
        },
        {
          "text": "TEMPO 1505/1509 TSRA SCT026CB BKN033",
          "offset_h": 4,
          "wdir": null,
          "wspd": null
        },
        {
          "text": "TEMPO 1520/1524 SHRA FEW026CB BKN033",
          "offset_h": 19,
          "wdir": null,
          "wspd": null
        }
      ],
      "metar_raw": "METAR ZGGG 150100Z 13003MPS 9999 -SHRA OVC026 27/25 Q1006 NOSIG",
      "metar_wdir": null,
      "metar_wspd": null,
      "metar_oat": 27,
      "metar_qnh": 1006,
      "hourly_oat": [
        27,
        30,
        29,
        28,
        27,
        28,
        29,
        30,
        30,
        29,
        28,
        27,
        26,
        26,
        27,
        26,
        26,
        24,
        24,
        24,
        24,
        25,
        25,
        26,
        27
      ]
    }
  }
}