{
  "updated": "2026-06-30T02:12:16Z",
  "tafs": {
    "HKG": {
      "icao": "VHHH",
      "issued": "2026-06-30T02:00:00.000Z",
      "raw": "TAF VHHH 300200Z 3003/0109 12010KT 9999 FEW015 SCT025 TX33/3006Z TX33/0106Z TN28/3022Z TEMPO 3004/3009 27010KT TEMPO 3005/3007 4000 SHRA FEW008CB SCT015 TEMPO 0104/0109 27010KT",
      "groups": [
        {
          "text": "TAF VHHH 300200Z 3003/0109 12010KT 9999 FEW015 SCT025 TX33/3006Z TX33/0106Z TN28/3022Z",
          "offset_h": 1,
          "wdir": 120,
          "wspd": 10
        },
        {
          "text": "TEMPO 3004/3009 27010KT",
          "offset_h": 2,
          "wdir": 270,
          "wspd": 10
        },
        {
          "text": "TEMPO 3005/3007 4000 SHRA FEW008CB SCT015",
          "offset_h": 3,
          "wdir": null,
          "wspd": null
        },
        {
          "text": "TEMPO 0104/0109 27010KT",
          "offset_h": 26,
          "wdir": 270,
          "wspd": 10
        }
      ],
      "metar_raw": "METAR VHHH 300200Z 07007KT 9999 FEW015 30/24 Q1008 NOSIG",
      "metar_wdir": 70,
      "metar_wspd": 7,
      "metar_oat": 30,
      "metar_qnh": 1008,
      "hourly_oat": [
        30,
        30,
        30,
        30,
        30,
        30,
        30,
        29,
        29,
        29,
        29,
        29,
        29,
        29,
        29,
        29,
        28,
        28,
        28,
        28,
        28,
        29,
        29,
        30,
        30
      ]
    },
    "SIN": {
      "icao": "WSSS",
      "issued": "2026-06-30T01:40:00.000Z",
      "raw": "TAF AMD WSSS 300140Z 3001/0106 22006KT 9999 FEW015 SCT020",
      "groups": [
        {
          "text": "TAF AMD WSSS 300140Z 3001/0106 22006KT 9999 FEW015 SCT020",
          "offset_h": -1,
          "wdir": 220,
          "wspd": 6
        }
      ],
      "metar_raw": "METAR WSSS 300200Z 20010KT 9999 FEW016 SCT170 BKN280 28/23 Q1011 NOSIG",
      "metar_wdir": 200,
      "metar_wspd": 10,
      "metar_oat": 28,
      "metar_qnh": 1011,
      "hourly_oat": [
        29,
        29,
        28,
        30,
        30,
        30,
        30,
        30,
        29,
        29,
        28,
        28,
        28,
        25,
        26,
        26,
        25,
        25,
        25,
        26,
        26,
        26,
        27,
        28,
        28
      ]
    },
    "LAX": {
      "icao": "KLAX",
      "issued": "2026-06-29T23:42:00.000Z",
      "raw": "TAF KLAX 292342Z 3000/0106 26012G20KT P6SM FEW035 FM300500 26008KT P6SM BKN025 FM300800 26006KT P6SM SCT015 OVC025 FM301600 VRB03KT P6SM BKN025 OVC035 FM302000 26012KT P6SM SCT025 BKN035 FM010300 26008KT P6SM BKN015",
      "groups": [
        {
          "text": "TAF KLAX 292342Z 3000/0106 26012G20KT P6SM FEW035",
          "offset_h": -2,
          "wdir": 260,
          "wspd": 12
        },
        {
          "text": "FM300500 26008KT P6SM BKN025",
          "offset_h": 3,
          "wdir": 260,
          "wspd": 8
        },
        {
          "text": "FM300800 26006KT P6SM SCT015 OVC025",
          "offset_h": 6,
          "wdir": 260,
          "wspd": 6
        },
        {
          "text": "FM301600 VRB03KT P6SM BKN025 OVC035",
          "offset_h": 14,
          "wdir": "VRB",
          "wspd": 3
        },
        {
          "text": "FM302000 26012KT P6SM SCT025 BKN035",
          "offset_h": 18,
          "wdir": 260,
          "wspd": 12
        },
        {
          "text": "FM010300 26008KT P6SM BKN015",
          "offset_h": 25,
          "wdir": 260,
          "wspd": 8
        }
      ],
      "metar_raw": "METAR KLAX 300153Z 24009G17KT 10SM FEW010 19/14 A2987 RMK AO2 SLP114 T01940139 $",
      "metar_wdir": 240,
      "metar_wspd": 9,
      "metar_oat": 19,
      "metar_qnh": 1012,
      "hourly_oat": [
        19,
        18,
        16,
        16,
        15,
        15,
        14,
        14,
        13,
        13,
        13,
        14,
        16,
        17,
        18,
        18,
        19,
        19,
        20,
        20,
        20,
        20,
        19,
        18,
        17
      ]
    },
    "HNL": {
      "icao": "PHNL",
      "issued": "2026-06-29T23:23:00.000Z",
      "raw": "TAF PHNL 292323Z 3000/0106 06016G26KT P6SM FEW025 SCT045 FM300500 05009KT P6SM FEW025 SCT040 FM302000 06014G24KT P6SM SCT025 SCT045 FM010500 05009KT P6SM FEW025 SCT040",
      "groups": [
        {
          "text": "TAF PHNL 292323Z 3000/0106 06016G26KT P6SM FEW025 SCT045",
          "offset_h": -2,
          "wdir": 60,
          "wspd": 16
        },
        {
          "text": "FM300500 05009KT P6SM FEW025 SCT040",
          "offset_h": 3,
          "wdir": 50,
          "wspd": 9
        },
        {
          "text": "FM302000 06014G24KT P6SM SCT025 SCT045",
          "offset_h": 18,
          "wdir": 60,
          "wspd": 14
        },
        {
          "text": "FM010500 05009KT P6SM FEW025 SCT040",
          "offset_h": 27,
          "wdir": 50,
          "wspd": 9
        }
      ],
      "metar_raw": "METAR PHNL 300153Z 06015G23KT 10SM FEW024 SCT038 SCT050 30/19 A2997 RMK AO2 SLP149 T03000194 $",
      "metar_wdir": 60,
      "metar_wspd": 15,
      "metar_oat": 30,
      "metar_qnh": 1015,
      "hourly_oat": [
        29,
        28,
        26,
        25,
        24,
        24,
        24,
        24,
        24,
        24,
        24,
        23,
        24,
        24,
        23,
        25,
        26,
        28,
        29,
        30,
        30,
        30,
        30,
        30,
        29
      ]
    },
    "SAN": {
      "icao": "KSAN",
      "issued": "2026-06-29T23:21:00.000Z",
      "raw": "TAF KSAN 292321Z 3000/0106 23008G16KT P6SM SCT026 TEMPO 3000/3004 BKN025 FM300400 VRB04KT P6SM OVC025 TEMPO 3011/3015 6SM -DZ BKN020 FM301600 VRB03KT P6SM BKN035 FM301800 27010G18KT P6SM FEW025 FM010300 28006KT P6SM BKN022",
      "groups": [
        {
          "text": "TAF KSAN 292321Z 3000/0106 23008G16KT P6SM SCT026",
          "offset_h": -2,
          "wdir": 230,
          "wspd": 8
        },
        {
          "text": "TEMPO 3000/3004 BKN025",
          "offset_h": -2,
          "wdir": null,
          "wspd": null
        },
        {
          "text": "FM300400 VRB04KT P6SM OVC025",
          "offset_h": 2,
          "wdir": "VRB",
          "wspd": 4
        },
        {
          "text": "TEMPO 3011/3015 6SM -DZ BKN020",
          "offset_h": 9,
          "wdir": null,
          "wspd": null
        },
        {
          "text": "FM301600 VRB03KT P6SM BKN035",
          "offset_h": 14,
          "wdir": "VRB",
          "wspd": 3
        },
        {
          "text": "FM301800 27010G18KT P6SM FEW025",
          "offset_h": 16,
          "wdir": 270,
          "wspd": 10
        },
        {
          "text": "FM010300 28006KT P6SM BKN022",
          "offset_h": 25,
          "wdir": 280,
          "wspd": 6
        }
      ],
      "metar_raw": "METAR KSAN 300151Z 24008G18KT 220V300 10SM BKN024 20/13 A2992 RMK AO2 SLP131 T02000133",
      "metar_wdir": 240,
      "metar_wspd": 8,
      "metar_oat": 20,
      "metar_qnh": 1013,
      "hourly_oat": [
        19,
        18,
        18,
        18,
        17,
        17,
        17,
        17,
        17,
        17,
        16,
        16,
        17,
        18,
        19,
        20,
        20,
        21,
        22,
        22,
        22,
        21,
        21,
        20,
        19
      ]
    },
    "OKA": {
      "icao": "ROAH",
      "issued": "2026-06-29T23:05:00.000Z",
      "raw": "TAF ROAH 292305Z 3000/0106 19010KT 9999 FEW008 SCT012 TEMPO 3012/3021 FEW005 BKN008",
      "groups": [
        {
          "text": "TAF ROAH 292305Z 3000/0106 19010KT 9999 FEW008 SCT012",
          "offset_h": -2,
          "wdir": 190,
          "wspd": 10
        },
        {
          "text": "TEMPO 3012/3021 FEW005 BKN008",
          "offset_h": 10,
          "wdir": null,
          "wspd": null
        }
      ],
      "metar_raw": "METAR ROAH 300200Z 18010KT 9999 FEW013 BKN/// 30/27 Q1013",
      "metar_wdir": 180,
      "metar_wspd": 10,
      "metar_oat": 30,
      "metar_qnh": 1013,
      "hourly_oat": [
        30,
        30,
        30,
        30,
        30,
        29,
        29,
        28,
        28,
        27,
        27,
        27,
        27,
        27,
        27,
        26,
        26,
        26,
        26,
        26,
        27,
        28,
        29,
        29,
        29
      ]
    },
    "NGO": {
      "icao": "RJGG",
      "issued": "2026-06-29T23:05:00.000Z",
      "raw": "TAF RJGG 292305Z 3000/0106 27006KT 9999 FEW030 BECMG 3001/3003 20010KT BECMG 3008/3010 13010KT TEMPO 3015/3021 FEW003 BKN008 BECMG 3018/3021 03004KT BECMG 0100/0103 24006KT",
      "groups": [
        {
          "text": "TAF RJGG 292305Z 3000/0106 27006KT 9999 FEW030",
          "offset_h": -2,
          "wdir": 270,
          "wspd": 6
        },
        {
          "text": "BECMG 3001/3003 20010KT",
          "offset_h": -1,
          "wdir": 200,
          "wspd": 10
        },
        {
          "text": "BECMG 3008/3010 13010KT",
          "offset_h": 6,
          "wdir": 130,
          "wspd": 10
        },
        {
          "text": "TEMPO 3015/3021 FEW003 BKN008",
          "offset_h": 13,
          "wdir": null,
          "wspd": null
        },
        {
          "text": "BECMG 3018/3021 03004KT",
          "offset_h": 16,
          "wdir": 30,
          "wspd": 4
        },
        {
          "text": "BECMG 0100/0103 24006KT",
          "offset_h": 22,
          "wdir": 240,
          "wspd": 6
        }
      ],
      "metar_raw": "METAR RJGG 300200Z 25005KT 6000 FEW020 BKN/// 25/22 Q1012 NOSIG",
      "metar_wdir": 250,
      "metar_wspd": 5,
      "metar_oat": 25,
      "metar_qnh": 1012,
      "hourly_oat": [
        23,
        23,
        23,
        24,
        25,
        25,
        25,
        25,
        24,
        24,
        24,
        23,
        23,
        23,
        23,
        23,
        23,
        23,
        22,
        22,
        23,
        23,
        23,
        23,
        23
      ]
    },
    "FUK": {
      "icao": "RJFF",
      "issued": "2026-06-29T23:05:00.000Z",
      "raw": "TAF RJFF 292305Z 3000/0106 17006KT 9999 -RA FEW025 SCT040 BECMG 3002/3004 32011KT BECMG 3012/3015 14004KT TEMPO 3021/0106 4000 SHRA BR",
      "groups": [
        {
          "text": "TAF RJFF 292305Z 3000/0106 17006KT 9999 -RA FEW025 SCT040",
          "offset_h": -2,
          "wdir": 170,
          "wspd": 6
        },
        {
          "text": "BECMG 3002/3004 32011KT",
          "offset_h": 0,
          "wdir": 320,
          "wspd": 11
        },
        {
          "text": "BECMG 3012/3015 14004KT",
          "offset_h": 10,
          "wdir": 140,
          "wspd": 4
        },
        {
          "text": "TEMPO 3021/0106 4000 SHRA BR",
          "offset_h": 19,
          "wdir": null,
          "wspd": null
        }
      ],
      "metar_raw": "METAR RJFF 300200Z VRB03KT 9999 FEW015 SCT030 BKN/// 26/20 Q1012 BECMG 27008KT",
      "metar_wdir": "VRB",
      "metar_wspd": 3,
      "metar_oat": 26,
      "metar_qnh": 1012,
      "hourly_oat": [
        26,
        26,
        26,
        26,
        25,
        24,
        24,
        24,
        24,
        23,
        23,
        23,
        22,
        22,
        22,
        22,
        22,
        22,
        22,
        22,
        22,
        22,
        22,
        23,
        24
      ]
    },
    "CTS": {
      "icao": "RJCC",
      "issued": "2026-06-29T23:05:00.000Z",
      "raw": "TAF RJCC 292305Z 3000/0106 03004KT 9999 FEW030 BECMG 3000/3002 17012KT TEMPO 3009/3011 FEW003 BKN005 TEMPO 3011/3015 2000 BR FEW001 BKN003 TEMPO 3015/3021 0700 FG VV001 TEMPO 3021/0100 2000 BR FEW001 BKN003 TEMPO 0100/0103 FEW003 BKN008",
      "groups": [
        {
          "text": "TAF RJCC 292305Z 3000/0106 03004KT 9999 FEW030",
          "offset_h": -2,
          "wdir": 30,
          "wspd": 4
        },
        {
          "text": "BECMG 3000/3002 17012KT",
          "offset_h": -2,
          "wdir": 170,
          "wspd": 12
        },
        {
          "text": "TEMPO 3009/3011 FEW003 BKN005",
          "offset_h": 7,
          "wdir": null,
          "wspd": null
        },
        {
          "text": "TEMPO 3011/3015 2000 BR FEW001 BKN003",
          "offset_h": 9,
          "wdir": null,
          "wspd": null
        },
        {
          "text": "TEMPO 3015/3021 0700 FG VV001",
          "offset_h": 13,
          "wdir": null,
          "wspd": null
        },
        {
          "text": "TEMPO 3021/0100 2000 BR FEW001 BKN003",
          "offset_h": 19,
          "wdir": null,
          "wspd": null
        },
        {
          "text": "TEMPO 0100/0103 FEW003 BKN008",
          "offset_h": 22,
          "wdir": null,
          "wspd": null
        }
      ],
      "metar_raw": "METAR RJCC 300200Z VRB02KT 9999 FEW010 SCT018 BKN022 19/14 Q1013",
      "metar_wdir": "VRB",
      "metar_wspd": 2,
      "metar_oat": 19,
      "metar_qnh": 1013,
      "hourly_oat": [
        20,
        21,
        22,
        22,
        21,
        21,
        20,
        19,
        17,
        16,
        15,
        14,
        14,
        14,
        13,
        13,
        13,
        13,
        14,
        14,
        17,
        19,
        21,
        22,
        24
      ]
    },
    "NRT": {
      "icao": "RJAA",
      "issued": "2026-06-29T23:05:00.000Z",
      "raw": "TAF RJAA 292305Z 3000/0106 11008KT 9999 FEW012 BKN020 TEMPO 3000/3001 4000 BR BECMG 3009/3011 02006KT TEMPO 3012/3015 FEW001 BKN003 TEMPO 3015/0100 0800 FG VV001 BECMG 0103/0106 10006KT",
      "groups": [
        {
          "text": "TAF RJAA 292305Z 3000/0106 11008KT 9999 FEW012 BKN020",
          "offset_h": -2,
          "wdir": 110,
          "wspd": 8
        },
        {
          "text": "TEMPO 3000/3001 4000 BR",
          "offset_h": -2,
          "wdir": null,
          "wspd": null
        },
        {
          "text": "BECMG 3009/3011 02006KT",
          "offset_h": 7,
          "wdir": 20,
          "wspd": 6
        },
        {
          "text": "TEMPO 3012/3015 FEW001 BKN003",
          "offset_h": 10,
          "wdir": null,
          "wspd": null
        },
        {
          "text": "TEMPO 3015/0100 0800 FG VV001",
          "offset_h": 13,
          "wdir": null,
          "wspd": null
        },
        {
          "text": "BECMG 0103/0106 10006KT",
          "offset_h": 25,
          "wdir": 100,
          "wspd": 6
        }
      ],
      "metar_raw": "METAR RJAA 300200Z 08005KT 9999 FEW012 BKN020 BKN/// 26/21 Q1012 NOSIG",
      "metar_wdir": 80,
      "metar_wspd": 5,
      "metar_oat": 26,
      "metar_qnh": 1012,
      "hourly_oat": [
        25,
        26,
        26,
        26,
        26,
        26,
        26,
        25,
        24,
        23,
        22,
        22,
        21,
        21,
        21,
        20,
        20,
        20,
        20,
        20,
        21,
        22,
        23,
        24,
        25
      ]
    },
    "KIX": {
      "icao": "RJBB",
      "issued": "2026-06-29T23:05:00.000Z",
      "raw": "TAF RJBB 292305Z 3000/0106 30005KT 9999 FEW030 BECMG 3005/3007 22012KT BECMG 3018/3021 04005KT BECMG 0103/0106 24006KT",
      "groups": [
        {
          "text": "TAF RJBB 292305Z 3000/0106 30005KT 9999 FEW030",
          "offset_h": -2,
          "wdir": 300,
          "wspd": 5
        },
        {
          "text": "BECMG 3005/3007 22012KT",
          "offset_h": 3,
          "wdir": 220,
          "wspd": 12
        },
        {
          "text": "BECMG 3018/3021 04005KT",
          "offset_h": 16,
          "wdir": 40,
          "wspd": 5
        },
        {
          "text": "BECMG 0103/0106 24006KT",
          "offset_h": 25,
          "wdir": 240,
          "wspd": 6
        }
      ],
      "metar_raw": "METAR RJBB 300200Z 29005KT 9999 FEW020 BKN/// 25/22 Q1013 NOSIG",
      "metar_wdir": 290,
      "metar_wspd": 5,
      "metar_oat": 25,
      "metar_qnh": 1013,
      "hourly_oat": [
        24,
        24,
        24,
        24,
        24,
        25,
        25,
        25,
        25,
        24,
        24,
        24,
        24,
        24,
        23,
        23,
        23,
        23,
        23,
        23,
        23,
        23,
        23,
        23,
        23
      ]
    },
    "HND": {
      "icao": "RJTT",
      "issued": "2026-06-29T23:05:00.000Z",
      "raw": "TAF RJTT 292305Z 3000/0106 03006KT 9999 FEW015 SCT030 BECMG 3005/3007 07008KT BECMG 3012/3015 05006KT TEMPO 3015/0100 FEW005 BKN008 BECMG 0100/0103 12006KT BECMG 0103/0106 18010KT",
      "groups": [
        {
          "text": "TAF RJTT 292305Z 3000/0106 03006KT 9999 FEW015 SCT030",
          "offset_h": -2,
          "wdir": 30,
          "wspd": 6
        },
        {
          "text": "BECMG 3005/3007 07008KT",
          "offset_h": 3,
          "wdir": 70,
          "wspd": 8
        },
        {
          "text": "BECMG 3012/3015 05006KT",
          "offset_h": 10,
          "wdir": 50,
          "wspd": 6
        },
        {
          "text": "TEMPO 3015/0100 FEW005 BKN008",
          "offset_h": 13,
          "wdir": null,
          "wspd": null
        },
        {
          "text": "BECMG 0100/0103 12006KT",
          "offset_h": 22,
          "wdir": 120,
          "wspd": 6
        },
        {
          "text": "BECMG 0103/0106 18010KT",
          "offset_h": 25,
          "wdir": 180,
          "wspd": 10
        }
      ],
      "metar_raw": "METAR RJTT 300200Z 06003KT 9999 FEW015 BKN/// 25/22 Q1012 NOSIG",
      "metar_wdir": 60,
      "metar_wspd": 3,
      "metar_oat": 25,
      "metar_qnh": 1012,
      "hourly_oat": [
        25,
        26,
        27,
        27,
        27,
        26,
        26,
        26,
        25,
        24,
        24,
        23,
        23,
        22,
        22,
        22,
        22,
        22,
        22,
        22,
        22,
        22,
        23,
        24,
        24
      ]
    },
    "ITM": {
      "icao": "RJOO",
      "issued": "2026-06-29T23:05:00.000Z",
      "raw": "TAF RJOO 292305Z 3000/0106 22006KT 9999 FEW030 BECMG 3009/3011 24006KT BECMG 3021/0100 20005KT",
      "groups": [
        {
          "text": "TAF RJOO 292305Z 3000/0106 22006KT 9999 FEW030",
          "offset_h": -2,
          "wdir": 220,
          "wspd": 6
        },
        {
          "text": "BECMG 3009/3011 24006KT",
          "offset_h": 7,
          "wdir": 240,
          "wspd": 6
        },
        {
          "text": "BECMG 3021/0100 20005KT",
          "offset_h": 19,
          "wdir": 200,
          "wspd": 5
        }
      ],
      "metar_raw": "METAR RJOO 300200Z 17003KT 090V240 9999 FEW025 BKN/// 28/19 Q1012",
      "metar_wdir": 170,
      "metar_wspd": 3,
      "metar_oat": 28,
      "metar_qnh": 1012,
      "hourly_oat": [
        28,
        29,
        29,
        29,
        29,
        28,
        28,
        27,
        26,
        25,
        24,
        24,
        24,
        23,
        23,
        22,
        22,
        22,
        22,
        22,
        23,
        24,
        25,
        26,
        26
      ]
    },
    "KUL": {
      "icao": "WMKK",
      "issued": "2026-06-29T23:00:00.000Z",
      "raw": "TAF WMKK 292300Z 3000/0106 VRB03KT 9999 FEW018",
      "groups": [
        {
          "text": "TAF WMKK 292300Z 3000/0106 VRB03KT 9999 FEW018",
          "offset_h": -2,
          "wdir": "VRB",
          "wspd": 3
        }
      ],
      "metar_raw": "METAR WMKK 300200Z 00000KT 9000 FEW018 29/25 Q1010 NOSIG",
      "metar_wdir": 0,
      "metar_wspd": 0,
      "metar_oat": 29,
      "metar_qnh": 1010,
      "hourly_oat": [
        27,
        28,
        30,
        30,
        28,
        29,
        29,
        29,
        29,
        28,
        26,
        26,
        26,
        26,
        25,
        24,
        24,
        24,
        24,
        24,
        24,
        24,
        25,
        27,
        28
      ]
    },
    "GMP": {
      "icao": "RKSS",
      "issued": "2026-06-29T23:00:00.000Z",
      "raw": "TAF RKSS 292300Z 3000/0106 21005KT CAVOK TX32/3005Z TN22/3019Z TX32/0105Z BECMG 3001/3003 28007KT 9999 SCT040 BECMG 3013/3015 06005KT CAVOK BECMG 0101/0103 28007KT",
      "groups": [
        {
          "text": "TAF RKSS 292300Z 3000/0106 21005KT CAVOK TX32/3005Z TN22/3019Z TX32/0105Z",
          "offset_h": -2,
          "wdir": 210,
          "wspd": 5
        },
        {
          "text": "BECMG 3001/3003 28007KT 9999 SCT040",
          "offset_h": -1,
          "wdir": 280,
          "wspd": 7
        },
        {
          "text": "BECMG 3013/3015 06005KT CAVOK",
          "offset_h": 11,
          "wdir": 60,
          "wspd": 5
        },
        {
          "text": "BECMG 0101/0103 28007KT",
          "offset_h": 23,
          "wdir": 280,
          "wspd": 7
        }
      ],
      "metar_raw": "METAR RKSS 300200Z 31003KT CAVOK 29/18 Q1012 NOSIG",
      "metar_wdir": 310,
      "metar_wspd": 3,
      "metar_oat": 29,
      "metar_qnh": 1012,
      "hourly_oat": [
        25,
        26,
        28,
        28,
        28,
        27,
        26,
        25,
        24,
        23,
        22,
        22,
        21,
        21,
        21,
        21,
        20,
        20,
        20,
        20,
        21,
        23,
        24,
        26,
        28
      ]
    },
    "CGK": {
      "icao": "WIII",
      "issued": "2026-06-29T23:00:00.000Z",
      "raw": "TAF WIII 292300Z 3000/0106 VRB03KT 3000 HZ SCT020 BECMG 3001/3003 05010KT 8000 NSW BECMG 3015/3017 15005KT 4000 HZ",
      "groups": [
        {
          "text": "TAF WIII 292300Z 3000/0106 VRB03KT 3000 HZ SCT020",
          "offset_h": -2,
          "wdir": "VRB",
          "wspd": 3
        },
        {
          "text": "BECMG 3001/3003 05010KT 8000 NSW",
          "offset_h": -1,
          "wdir": 50,
          "wspd": 10
        },
        {
          "text": "BECMG 3015/3017 15005KT 4000 HZ",
          "offset_h": 13,
          "wdir": 150,
          "wspd": 5
        }
      ],
      "metar_raw": "METAR WIII 300200Z VRB05KT 3000 HZ NSC 29/23 Q1011 NOSIG",
      "metar_wdir": "VRB",
      "metar_wspd": 5,
      "metar_oat": 29,
      "metar_qnh": 1011,
      "hourly_oat": [
        29,
        31,
        32,
        32,
        33,
        33,
        32,
        31,
        29,
        28,
        28,
        28,
        28,
        27,
        26,
        26,
        25,
        25,
        24,
        24,
        23,
        23,
        24,
        26,
        28
      ]
    },
    "BKK": {
      "icao": "VTBS",
      "issued": "2026-06-29T23:00:00.000Z",
      "raw": "TAF VTBS 292300Z 3000/0106 24008KT 9999 FEW020 TEMPO 3009/3014 VRB15KT 3000 TSRA FEW018CB SCT020 BKN080",
      "groups": [
        {
          "text": "TAF VTBS 292300Z 3000/0106 24008KT 9999 FEW020",
          "offset_h": -2,
          "wdir": 240,
          "wspd": 8
        },
        {
          "text": "TEMPO 3009/3014 VRB15KT 3000 TSRA FEW018CB SCT020 BKN080",
          "offset_h": 7,
          "wdir": "VRB",
          "wspd": 15
        }
      ],
      "metar_raw": "METAR VTBS 300200Z 27004KT 210V300 9999 FEW020 30/21 Q1008 NOSIG",
      "metar_wdir": 270,
      "metar_wspd": 4,
      "metar_oat": 30,
      "metar_qnh": 1008,
      "hourly_oat": [
        30,
        31,
        32,
        33,
        33,
        28,
        28,
        29,
        30,
        29,
        27,
        26,
        26,
        26,
        27,
        27,
        26,
        26,
        26,
        26,
        26,
        26,
        27,
        29,
        30
      ]
    },
    "HAN": {
      "icao": "VVNB",
      "issued": "2026-06-29T23:00:00.000Z",
      "raw": "TAF VVNB 292300Z 3000/3024 10008KT 6000 SCT015 TEMPO 3009/3013 3000 +TSRA BKN010 FEW027CB TEMPO 3016/3021 3000 +TSRA BKN010 FEW027CB",
      "groups": [
        {
          "text": "TAF VVNB 292300Z 3000/3024 10008KT 6000 SCT015",
          "offset_h": -2,
          "wdir": 100,
          "wspd": 8
        },
        {
          "text": "TEMPO 3009/3013 3000 +TSRA BKN010 FEW027CB",
          "offset_h": 7,
          "wdir": null,
          "wspd": null
        },
        {
          "text": "TEMPO 3016/3021 3000 +TSRA BKN010 FEW027CB",
          "offset_h": 14,
          "wdir": null,
          "wspd": null
        }
      ],
      "metar_raw": "METAR VVNB 300200Z 09007KT 9999 BKN009 FEW030TCU BKN069 27/26 Q1005 NOSIG",
      "metar_wdir": 90,
      "metar_wspd": 7,
      "metar_oat": 27,
      "metar_qnh": 1005,
      "hourly_oat": [
        27,
        28,
        29,
        30,
        31,
        31,
        30,
        31,
        30,
        29,
        27,
        26,
        26,
        26,
        25,
        25,
        25,
        24,
        24,
        25,
        25,
        25,
        26,
        27,
        28
      ]
    },
    "SGN": {
      "icao": "VVTS",
      "issued": "2026-06-29T23:00:00.000Z",
      "raw": "TAF VVTS 292300Z 3000/0106 25010KT 9999 SCT017 TEMPO 3003/3007 5000 SHRA SCT015 FEW017CB BKN040 TEMPO 3007/3011 25015G28KT 3000 TSRA SCT013 SCT015CB",
      "groups": [
        {
          "text": "TAF VVTS 292300Z 3000/0106 25010KT 9999 SCT017",
          "offset_h": -2,
          "wdir": 250,
          "wspd": 10
        },
        {
          "text": "TEMPO 3003/3007 5000 SHRA SCT015 FEW017CB BKN040",
          "offset_h": 1,
          "wdir": null,
          "wspd": null
        },
        {
          "text": "TEMPO 3007/3011 25015G28KT 3000 TSRA SCT013 SCT015CB",
          "offset_h": 5,
          "wdir": 250,
          "wspd": 15
        }
      ],
      "metar_raw": "METAR VVTS 300200Z 27006KT 240V300 9999 BKN021 31/27 Q1008 NOSIG",
      "metar_wdir": 270,
      "metar_wspd": 6,
      "metar_oat": 31,
      "metar_qnh": 1008,
      "hourly_oat": [
        29,
        30,
        32,
        33,
        32,
        26,
        27,
        28,
        28,
        27,
        27,
        27,
        27,
        27,
        27,
        26,
        26,
        26,
        26,
        26,
        26,
        26,
        27,
        28,
        29
      ]
    },
    "TSA": {
      "icao": "RCSS",
      "issued": "2026-06-29T23:00:00.000Z",
      "raw": "TAF RCSS 292300Z 3000/3024 08005KT 9999 FEW015 BKN032 TEMPO 3006/3010 30005KT 5000 SHRA FEW010 FEW015CB BKN020",
      "groups": [
        {
          "text": "TAF RCSS 292300Z 3000/3024 08005KT 9999 FEW015 BKN032",
          "offset_h": -2,
          "wdir": 80,
          "wspd": 5
        },
        {
          "text": "TEMPO 3006/3010 30005KT 5000 SHRA FEW010 FEW015CB BKN020",
          "offset_h": 4,
          "wdir": 300,
          "wspd": 5
        }
      ],
      "metar_raw": "METAR RCSS 300200Z 29006KT 260V020 9999 FEW020 SCT035 BKN250 35/27 Q1009 NOSIG RMK 30006KT/R10 A2982",
      "metar_wdir": 290,
      "metar_wspd": 6,
      "metar_oat": 35,
      "metar_qnh": 1009,
      "hourly_oat": [
        32,
        33,
        33,
        33,
        32,
        32,
        31,
        31,
        30,
        28,
        28,
        27,
        27,
        27,
        26,
        26,
        26,
        26,
        26,
        26,
        26,
        28,
        29,
        31,
        33
      ]
    },
    "TPE": {
      "icao": "RCTP",
      "issued": "2026-06-29T23:00:00.000Z",
      "raw": "TAF RCTP 292300Z 3000/0106 35008KT 9999 FEW015 BKN060 TEMPO 3006/3010 28005KT FEW012 FEW015CB BKN025 BECMG 3012/3014 20005KT BECMG 0100/0102 29005KT",
      "groups": [
        {
          "text": "TAF RCTP 292300Z 3000/0106 35008KT 9999 FEW015 BKN060",
          "offset_h": -2,
          "wdir": 350,
          "wspd": 8
        },
        {
          "text": "TEMPO 3006/3010 28005KT FEW012 FEW015CB BKN025",
          "offset_h": 4,
          "wdir": 280,
          "wspd": 5
        },
        {
          "text": "BECMG 3012/3014 20005KT",
          "offset_h": 10,
          "wdir": 200,
          "wspd": 5
        },
        {
          "text": "BECMG 0100/0102 29005KT",
          "offset_h": 22,
          "wdir": 290,
          "wspd": 5
        }
      ],
      "metar_raw": "METAR RCTP 300200Z 33006KT 9999 FEW015 BKN200 30/26 Q1010 NOSIG RMK A2985",
      "metar_wdir": 330,
      "metar_wspd": 6,
      "metar_oat": 30,
      "metar_qnh": 1010,
      "hourly_oat": [
        30,
        30,
        30,
        30,
        30,
        30,
        30,
        30,
        29,
        28,
        28,
        28,
        27,
        27,
        27,
        26,
        26,
        26,
        26,
        26,
        26,
        28,
        29,
        30,
        30
      ]
    },
    "SHA": {
      "icao": "ZSSS",
      "issued": "2026-06-29T21:22:00.000Z",
      "raw": "TAF ZSSS 292122Z 3000/0106 16004MPS 6000 -SHRA BKN013 TX28/3006Z TX27/0106Z TN22/3021Z TEMPO 3000/3004 TSRA BKN008 SCT030CB TEMPO 3007/3010 SHRA BKN008 FEW030CB TEMPO 3021/0103 TSRA BKN008 SCT030CB",
      "groups": [
        {
          "text": "TAF ZSSS 292122Z 3000/0106 16004MPS 6000 -SHRA BKN013 TX28/3006Z TX27/0106Z TN22/3021Z",
          "offset_h": -2,
          "wdir": null,
          "wspd": null
        },
        {
          "text": "TEMPO 3000/3004 TSRA BKN008 SCT030CB",
          "offset_h": -2,
          "wdir": null,
          "wspd": null
        },
        {
          "text": "TEMPO 3007/3010 SHRA BKN008 FEW030CB",
          "offset_h": 5,
          "wdir": null,
          "wspd": null
        },
        {
          "text": "TEMPO 3021/0103 TSRA BKN008 SCT030CB",
          "offset_h": 19,
          "wdir": null,
          "wspd": null
        }
      ],
      "metar_raw": "METAR ZSSS 300200Z 08003MPS 060V130 9999 -SHRA BKN008 24/24 Q1009 BECMG TL0340 BKN011",
      "metar_wdir": null,
      "metar_wspd": null,
      "metar_oat": 24,
      "metar_qnh": 1009,
      "hourly_oat": [
        25,
        25,
        25,
        26,
        26,
        27,
        27,
        26,
        26,
        26,
        25,
        25,
        25,
        25,
        24,
        24,
        25,
        24,
        24,
        24,
        24,
        24,
        24,
        24,
        24
      ]
    },
    "PVG": {
      "icao": "ZSPD",
      "issued": "2026-06-29T21:22:00.000Z",
      "raw": "TAF ZSPD 292122Z 3000/0106 17004MPS 6000 -SHRA BKN011 TX27/3006Z TX27/0106Z TN21/3021Z TEMPO 3000/3004 TSRA BKN008 SCT030CB TEMPO 3007/3010 SHRA BKN008 FEW030CB TEMPO 3021/0103 TSRA BKN008 SCT030CB",
      "groups": [
        {
          "text": "TAF ZSPD 292122Z 3000/0106 17004MPS 6000 -SHRA BKN011 TX27/3006Z TX27/0106Z TN21/3021Z",
          "offset_h": -2,
          "wdir": null,
          "wspd": null
        },
        {
          "text": "TEMPO 3000/3004 TSRA BKN008 SCT030CB",
          "offset_h": -2,
          "wdir": null,
          "wspd": null
        },
        {
          "text": "TEMPO 3007/3010 SHRA BKN008 FEW030CB",
          "offset_h": 5,
          "wdir": null,
          "wspd": null
        },
        {
          "text": "TEMPO 3021/0103 TSRA BKN008 SCT030CB",
          "offset_h": 19,
          "wdir": null,
          "wspd": null
        }
      ],
      "metar_raw": "METAR ZSPD 300200Z 06005MPS 020V080 6000 -SHRA BKN008 FEW030CB 24/24 Q1009 RESHRA NOSIG",
      "metar_wdir": null,
      "metar_wspd": null,
      "metar_oat": 24,
      "metar_qnh": 1009,
      "hourly_oat": [
        25,
        26,
        25,
        25,
        26,
        26,
        27,
        27,
        26,
        26,
        26,
        25,
        24,
        24,
        24,
        24,
        24,
        24,
        24,
        24,
        24,
        24,
        24,
        24,
        24
      ]
    },
    "DLC": {
      "icao": "ZYTL",
      "issued": "2026-06-29T21:13:00.000Z",
      "raw": "TAF ZYTL 292113Z 3000/3024 15004MPS 5000 BR SCT030 TX27/3006Z TN20/3021Z TEMPO 3002/3006 2000 -SHRA BR BKN010 FEW030CB TEMPO 3016/3022 2000 -SHRA BR BKN010 FEW030CB",
      "groups": [
        {
          "text": "TAF ZYTL 292113Z 3000/3024 15004MPS 5000 BR SCT030 TX27/3006Z TN20/3021Z",
          "offset_h": -2,
          "wdir": null,
          "wspd": null
        },
        {
          "text": "TEMPO 3002/3006 2000 -SHRA BR BKN010 FEW030CB",
          "offset_h": 0,
          "wdir": null,
          "wspd": null
        },
        {
          "text": "TEMPO 3016/3022 2000 -SHRA BR BKN010 FEW030CB",
          "offset_h": 14,
          "wdir": null,
          "wspd": null
        }
      ],
      "metar_raw": "METAR ZYTL 300200Z 17004MPS 130V200 8000 -SHRA SCT014 BKN023 24/20 Q1011 NOSIG",
      "metar_wdir": null,
      "metar_wspd": null,
      "metar_oat": 24,
      "metar_qnh": 1011,
      "hourly_oat": [
        26,
        28,
        27,
        27,
        25,
        26,
        25,
        25,
        24,
        23,
        23,
        23,
        23,
        23,
        23,
        22,
        22,
        20,
        20,
        20,
        20,
        22,
        22,
        24,
        24
      ]
    },
    "PEK": {
      "icao": "ZBAA",
      "issued": "2026-06-29T21:08:00.000Z",
      "raw": "TAF ZBAA 292108Z 3000/0106 14003MPS 6000 NSC TX27/3007Z TX30/0106Z TN21/3021Z TEMPO 3007/3011 -TSRA FEW040CB BKN040",
      "groups": [
        {
          "text": "TAF ZBAA 292108Z 3000/0106 14003MPS 6000 NSC TX27/3007Z TX30/0106Z TN21/3021Z",
          "offset_h": -2,
          "wdir": null,
          "wspd": null
        },
        {
          "text": "TEMPO 3007/3011 -TSRA FEW040CB BKN040",
          "offset_h": 5,
          "wdir": null,
          "wspd": null
        }
      ],
      "metar_raw": "METAR ZBAA 300200Z VRB01MPS CAVOK 25/20 Q1009 NOSIG",
      "metar_wdir": null,
      "metar_wspd": null,
      "metar_oat": 25,
      "metar_qnh": 1009,
      "hourly_oat": [
        26,
        26,
        26,
        27,
        28,
        28,
        28,
        23,
        23,
        23,
        23,
        22,
        21,
        21,
        22,
        22,
        22,
        22,
        22,
        22,
        22,
        22,
        23,
        25,
        26
      ]
    },
    "CAN": {
      "icao": "ZGGG",
      "issued": "2026-06-29T21:02:00.000Z",
      "raw": "TAF ZGGG 292102Z 3000/0106 13003MPS 8000 BKN030 TX33/3007Z TX34/0106Z TN26/3022Z TEMPO 3006/3010 TSRA SCT026CB BKN030",
      "groups": [
        {
          "text": "TAF ZGGG 292102Z 3000/0106 13003MPS 8000 BKN030 TX33/3007Z TX34/0106Z TN26/3022Z",
          "offset_h": -2,
          "wdir": null,
          "wspd": null
        },
        {
          "text": "TEMPO 3006/3010 TSRA SCT026CB BKN030",
          "offset_h": 4,
          "wdir": null,
          "wspd": null
        }
      ],
      "metar_raw": "METAR ZGGG 300200Z 09004MPS 050V110 9999 SCT020 31/27 Q1008 NOSIG",
      "metar_wdir": null,
      "metar_wspd": null,
      "metar_oat": 31,
      "metar_qnh": 1008,
      "hourly_oat": [
        30,
        31,
        32,
        33,
        29,
        30,
        31,
        31,
        30,
        29,
        28,
        28,
        28,
        28,
        27,
        27,
        26,
        26,
        26,
        25,
        25,
        26,
        27,
        28,
        30
      ]
    }
  }
}