{
  "updated": "2026-07-07T23:45:12Z",
  "tafs": {
    "SAN": {
      "icao": "KSAN",
      "issued": "2026-07-07T23:20:00.000Z",
      "raw": "TAF KSAN 072320Z 0800/0906 30007KT P6SM FEW017 FM080600 VRB03KT P6SM BKN011 FM081600 VRB04KT P6SM FEW015 FM081800 27011KT P6SM SKC FM090200 VRB04KT P6SM FEW010",
      "groups": [
        {
          "text": "TAF KSAN 072320Z 0800/0906 30007KT P6SM FEW017",
          "offset_h": 1,
          "wdir": 300,
          "wspd": 7
        },
        {
          "text": "FM080600 VRB03KT P6SM BKN011",
          "offset_h": 7,
          "wdir": "VRB",
          "wspd": 3
        },
        {
          "text": "FM081600 VRB04KT P6SM FEW015",
          "offset_h": 17,
          "wdir": "VRB",
          "wspd": 4
        },
        {
          "text": "FM081800 27011KT P6SM SKC",
          "offset_h": 19,
          "wdir": 270,
          "wspd": 11
        },
        {
          "text": "FM090200 VRB04KT P6SM FEW010",
          "offset_h": 27,
          "wdir": "VRB",
          "wspd": 4
        }
      ],
      "metar_raw": "METAR KSAN 072251Z COR 32008KT 10SM FEW017 23/16 A2995 RMK AO2 SLP143 T02280161 $",
      "metar_wdir": 320,
      "metar_wspd": 8,
      "metar_oat": 23,
      "metar_qnh": 1014,
      "hourly_oat": [
        22,
        21,
        20,
        20,
        19,
        19,
        19,
        18,
        18,
        17,
        16,
        17,
        17,
        18,
        18,
        18,
        18,
        20,
        22,
        24,
        24,
        25,
        25,
        24,
        24
      ]
    },
    "HNL": {
      "icao": "PHNL",
      "issued": "2026-07-07T23:20:00.000Z",
      "raw": "TAF PHNL 072320Z 0800/0906 05018G26KT P6SM SCT025 SCT040 FM080500 05014G22KT P6SM SCT025 SCT040 FM081000 05011KT P6SM SCT025 SCT040 FM081800 06018G26KT P6SM FEW025 SCT040 FM090500 05014G22KT P6SM SCT025 SCT040",
      "groups": [
        {
          "text": "TAF PHNL 072320Z 0800/0906 05018G26KT P6SM SCT025 SCT040",
          "offset_h": 1,
          "wdir": 50,
          "wspd": 18
        },
        {
          "text": "FM080500 05014G22KT P6SM SCT025 SCT040",
          "offset_h": 6,
          "wdir": 50,
          "wspd": 14
        },
        {
          "text": "FM081000 05011KT P6SM SCT025 SCT040",
          "offset_h": 11,
          "wdir": 50,
          "wspd": 11
        },
        {
          "text": "FM081800 06018G26KT P6SM FEW025 SCT040",
          "offset_h": 19,
          "wdir": 60,
          "wspd": 18
        },
        {
          "text": "FM090500 05014G22KT P6SM SCT025 SCT040",
          "offset_h": 30,
          "wdir": 50,
          "wspd": 14
        }
      ],
      "metar_raw": "METAR PHNL 072253Z 04017G26KT 10SM FEW025 FEW043 29/18 A3001 RMK AO2 PK WND 03027/2226 SLP162 T02940178 $",
      "metar_wdir": 40,
      "metar_wspd": 17,
      "metar_oat": 29,
      "metar_qnh": 1016,
      "hourly_oat": [
        28,
        28,
        28,
        28,
        27,
        25,
        24,
        23,
        23,
        23,
        23,
        23,
        23,
        23,
        23,
        23,
        23,
        23,
        24,
        26,
        27,
        28,
        28,
        29,
        29
      ]
    },
    "NRT": {
      "icao": "RJAA",
      "issued": "2026-07-07T23:05:00.000Z",
      "raw": "TAF RJAA 072305Z 0800/0906 13010KT 9999 FEW015 BKN030",
      "groups": [
        {
          "text": "TAF RJAA 072305Z 0800/0906 13010KT 9999 FEW015 BKN030",
          "offset_h": 1,
          "wdir": 130,
          "wspd": 10
        }
      ],
      "metar_raw": "METAR RJAA 072330Z 02006KT 310V060 9999 FEW020 SCT/// 24/19 Q1014 BECMG 08006KT",
      "metar_wdir": 20,
      "metar_wspd": 6,
      "metar_oat": 24,
      "metar_qnh": 1014,
      "hourly_oat": [
        24,
        25,
        26,
        27,
        27,
        27,
        26,
        26,
        26,
        25,
        24,
        23,
        22,
        22,
        22,
        22,
        21,
        21,
        20,
        20,
        20,
        20,
        21,
        23,
        24
      ]
    },
    "NGO": {
      "icao": "RJGG",
      "issued": "2026-07-07T23:05:00.000Z",
      "raw": "TAF RJGG 072305Z 0800/0906 16010KT 9999 FEW030 BECMG 0818/0821 08004KT",
      "groups": [
        {
          "text": "TAF RJGG 072305Z 0800/0906 16010KT 9999 FEW030",
          "offset_h": 1,
          "wdir": 160,
          "wspd": 10
        },
        {
          "text": "BECMG 0818/0821 08004KT",
          "offset_h": 19,
          "wdir": 80,
          "wspd": 4
        }
      ],
      "metar_raw": "METAR RJGG 072330Z 29004KT 9999 FEW015 BKN/// 25/21 Q1014 BECMG 18005KT",
      "metar_wdir": 290,
      "metar_wspd": 4,
      "metar_oat": 25,
      "metar_qnh": 1014,
      "hourly_oat": [
        24,
        24,
        24,
        24,
        24,
        24,
        24,
        25,
        25,
        24,
        24,
        24,
        24,
        23,
        23,
        23,
        23,
        23,
        23,
        23,
        23,
        22,
        22,
        23,
        23
      ]
    },
    "OKA": {
      "icao": "ROAH",
      "issued": "2026-07-07T23:05:00.000Z",
      "raw": "TAF ROAH 072305Z 0800/0906 01014KT 9999 FEW015 SCT025 BECMG 0900/0903 07014KT",
      "groups": [
        {
          "text": "TAF ROAH 072305Z 0800/0906 01014KT 9999 FEW015 SCT025",
          "offset_h": 1,
          "wdir": 10,
          "wspd": 14
        },
        {
          "text": "BECMG 0900/0903 07014KT",
          "offset_h": 25,
          "wdir": 70,
          "wspd": 14
        }
      ],
      "metar_raw": "METAR ROAH 072330Z 07010KT 040V100 9999 FEW025 30/24 Q1009",
      "metar_wdir": 70,
      "metar_wspd": 10,
      "metar_oat": 30,
      "metar_qnh": 1009,
      "hourly_oat": [
        29,
        30,
        31,
        32,
        33,
        33,
        33,
        33,
        32,
        31,
        30,
        29,
        29,
        28,
        28,
        28,
        28,
        28,
        28,
        28,
        28,
        28,
        28,
        29,
        30
      ]
    },
    "ITM": {
      "icao": "RJOO",
      "issued": "2026-07-07T23:05:00.000Z",
      "raw": "TAF RJOO 072305Z 0800/0906 13006KT 9999 FEW015 BKN030 BECMG 0803/0805 24006KT BECMG 0815/0818 09006KT",
      "groups": [
        {
          "text": "TAF RJOO 072305Z 0800/0906 13006KT 9999 FEW015 BKN030",
          "offset_h": 1,
          "wdir": 130,
          "wspd": 6
        },
        {
          "text": "BECMG 0803/0805 24006KT",
          "offset_h": 4,
          "wdir": 240,
          "wspd": 6
        },
        {
          "text": "BECMG 0815/0818 09006KT",
          "offset_h": 16,
          "wdir": 90,
          "wspd": 6
        }
      ],
      "metar_raw": "METAR RJOO 072300Z 08008KT 040V100 9999 FEW020 SCT080 BKN/// 26/20 Q1014",
      "metar_wdir": 80,
      "metar_wspd": 8,
      "metar_oat": 26,
      "metar_qnh": 1014,
      "hourly_oat": [
        24,
        25,
        26,
        27,
        28,
        29,
        29,
        29,
        29,
        28,
        27,
        26,
        26,
        25,
        25,
        24,
        24,
        24,
        24,
        23,
        23,
        23,
        23,
        24,
        25
      ]
    },
    "FUK": {
      "icao": "RJFF",
      "issued": "2026-07-07T23:05:00.000Z",
      "raw": "TAF RJFF 072305Z 0800/0906 16012KT 9999 FEW025 SCT035 BECMG 0802/0804 34012KT BECMG 0812/0815 14004KT BECMG 0900/0903 31010KT",
      "groups": [
        {
          "text": "TAF RJFF 072305Z 0800/0906 16012KT 9999 FEW025 SCT035",
          "offset_h": 1,
          "wdir": 160,
          "wspd": 12
        },
        {
          "text": "BECMG 0802/0804 34012KT",
          "offset_h": 3,
          "wdir": 340,
          "wspd": 12
        },
        {
          "text": "BECMG 0812/0815 14004KT",
          "offset_h": 13,
          "wdir": 140,
          "wspd": 4
        },
        {
          "text": "BECMG 0900/0903 31010KT",
          "offset_h": 25,
          "wdir": 310,
          "wspd": 10
        }
      ],
      "metar_raw": "METAR RJFF 072330Z 14012KT 9999 FEW015 SCT040 BKN050 29/25 Q1011 NOSIG",
      "metar_wdir": 140,
      "metar_wspd": 12,
      "metar_oat": 29,
      "metar_qnh": 1011,
      "hourly_oat": [
        28,
        30,
        31,
        32,
        32,
        31,
        30,
        29,
        30,
        30,
        30,
        29,
        28,
        28,
        27,
        27,
        26,
        26,
        26,
        26,
        26,
        25,
        25,
        26,
        27
      ]
    },
    "HND": {
      "icao": "RJTT",
      "issued": "2026-07-07T23:05:00.000Z",
      "raw": "TAF RJTT 072305Z 0800/0906 07004KT 9999 FEW020 SCT040 BECMG 0805/0807 18010KT",
      "groups": [
        {
          "text": "TAF RJTT 072305Z 0800/0906 07004KT 9999 FEW020 SCT040",
          "offset_h": 1,
          "wdir": 70,
          "wspd": 4
        },
        {
          "text": "BECMG 0805/0807 18010KT",
          "offset_h": 6,
          "wdir": 180,
          "wspd": 10
        }
      ],
      "metar_raw": "METAR RJTT 072330Z 07003KT 9999 FEW015 BKN/// 24/19 Q1015 NOSIG",
      "metar_wdir": 70,
      "metar_wspd": 3,
      "metar_oat": 24,
      "metar_qnh": 1015,
      "hourly_oat": [
        23,
        24,
        25,
        26,
        27,
        28,
        28,
        28,
        27,
        26,
        25,
        25,
        24,
        24,
        24,
        23,
        23,
        23,
        23,
        22,
        22,
        22,
        23,
        23,
        24
      ]
    },
    "CTS": {
      "icao": "RJCC",
      "issued": "2026-07-07T23:05:00.000Z",
      "raw": "TAF RJCC 072305Z 0800/0906 17012KT 9999 FEW008 BKN015 TEMPO 0806/0809 FEW005 BKN008 TEMPO 0809/0815 4000 BR FEW003 BKN005 TEMPO 0815/0900 1500 -SHRA BR FEW001 BKN003 TEMPO 0900/0906 3000 -SHRA BR FEW003 BKN005",
      "groups": [
        {
          "text": "TAF RJCC 072305Z 0800/0906 17012KT 9999 FEW008 BKN015",
          "offset_h": 1,
          "wdir": 170,
          "wspd": 12
        },
        {
          "text": "TEMPO 0806/0809 FEW005 BKN008",
          "offset_h": 7,
          "wdir": null,
          "wspd": null
        },
        {
          "text": "TEMPO 0809/0815 4000 BR FEW003 BKN005",
          "offset_h": 10,
          "wdir": null,
          "wspd": null
        },
        {
          "text": "TEMPO 0815/0900 1500 -SHRA BR FEW001 BKN003",
          "offset_h": 16,
          "wdir": null,
          "wspd": null
        },
        {
          "text": "TEMPO 0900/0906 3000 -SHRA BR FEW003 BKN005",
          "offset_h": 25,
          "wdir": null,
          "wspd": null
        }
      ],
      "metar_raw": "METAR RJCC 072330Z 19011KT 9999 FEW007 SCT010 BKN020 21/18 Q1015",
      "metar_wdir": 190,
      "metar_wspd": 11,
      "metar_oat": 21,
      "metar_qnh": 1015,
      "hourly_oat": [
        21,
        22,
        22,
        22,
        23,
        23,
        22,
        22,
        21,
        21,
        20,
        19,
        18,
        18,
        18,
        18,
        18,
        18,
        18,
        18,
        18,
        18,
        18,
        19,
        19
      ]
    },
    "KIX": {
      "icao": "RJBB",
      "issued": "2026-07-07T23:05:00.000Z",
      "raw": "TAF RJBB 072305Z 0800/0906 34006KT 9999 FEW015 SCT040 BECMG 0804/0806 22008KT BECMG 0821/0900 34004KT BECMG 0903/0906 25012KT",
      "groups": [
        {
          "text": "TAF RJBB 072305Z 0800/0906 34006KT 9999 FEW015 SCT040",
          "offset_h": 1,
          "wdir": 340,
          "wspd": 6
        },
        {
          "text": "BECMG 0804/0806 22008KT",
          "offset_h": 5,
          "wdir": 220,
          "wspd": 8
        },
        {
          "text": "BECMG 0821/0900 34004KT",
          "offset_h": 22,
          "wdir": 340,
          "wspd": 4
        },
        {
          "text": "BECMG 0903/0906 25012KT",
          "offset_h": 28,
          "wdir": 250,
          "wspd": 12
        }
      ],
      "metar_raw": "METAR RJBB 072330Z 03007KT 9999 FEW015 BKN080 25/22 Q1013 NOSIG",
      "metar_wdir": 30,
      "metar_wspd": 7,
      "metar_oat": 25,
      "metar_qnh": 1013,
      "hourly_oat": [
        24,
        24,
        24,
        24,
        24,
        24,
        24,
        25,
        25,
        25,
        25,
        25,
        25,
        25,
        25,
        25,
        25,
        25,
        24,
        24,
        24,
        24,
        24,
        24,
        24
      ]
    },
    "GMP": {
      "icao": "RKSS",
      "issued": "2026-07-07T23:00:00.000Z",
      "raw": "TAF RKSS 072300Z 0800/0906 19015G25KT 9999 SCT010 BKN020 OVC070 TX28/0800Z TN24/0820Z TX28/0906Z BECMG 0801/0803 20015G35KT -RA BECMG 0805/0807 21010KT BECMG 0812/0814 15005KT TEMPO 0819/0821 3000 RA SCT010CB BKN020 OVC070 BECMG 0900/0902 21010KT",
      "groups": [
        {
          "text": "TAF RKSS 072300Z 0800/0906 19015G25KT 9999 SCT010 BKN020 OVC070 TX28/0800Z TN24/0820Z TX28/0906Z",
          "offset_h": 1,
          "wdir": 190,
          "wspd": 15
        },
        {
          "text": "BECMG 0801/0803 20015G35KT -RA",
          "offset_h": 2,
          "wdir": 200,
          "wspd": 15
        },
        {
          "text": "BECMG 0805/0807 21010KT",
          "offset_h": 6,
          "wdir": 210,
          "wspd": 10
        },
        {
          "text": "BECMG 0812/0814 15005KT",
          "offset_h": 13,
          "wdir": 150,
          "wspd": 5
        },
        {
          "text": "TEMPO 0819/0821 3000 RA SCT010CB BKN020 OVC070",
          "offset_h": 20,
          "wdir": null,
          "wspd": null
        },
        {
          "text": "BECMG 0900/0902 21010KT",
          "offset_h": 25,
          "wdir": 210,
          "wspd": 10
        }
      ],
      "metar_raw": "METAR RKSS 072300Z 20010KT 5000 -RA SCT005 BKN025 OVC080 24/24 Q1004 NOSIG",
      "metar_wdir": 200,
      "metar_wspd": 10,
      "metar_oat": 24,
      "metar_qnh": 1004,
      "hourly_oat": [
        24,
        24,
        24,
        24,
        25,
        25,
        26,
        26,
        26,
        26,
        26,
        25,
        24,
        24,
        23,
        23,
        23,
        23,
        24,
        23,
        23,
        24,
        24,
        24,
        24
      ]
    },
    "BKK": {
      "icao": "VTBS",
      "issued": "2026-07-07T23:00:00.000Z",
      "raw": "TAF VTBS 072300Z 0800/0906 22008KT 9999 FEW020 TEMPO 0810/0814 VRB15KT 4000 TSRA FEW018CB SCT020 BKN080",
      "groups": [
        {
          "text": "TAF VTBS 072300Z 0800/0906 22008KT 9999 FEW020",
          "offset_h": 1,
          "wdir": 220,
          "wspd": 8
        },
        {
          "text": "TEMPO 0810/0814 VRB15KT 4000 TSRA FEW018CB SCT020 BKN080",
          "offset_h": 11,
          "wdir": "VRB",
          "wspd": 15
        }
      ],
      "metar_raw": "METAR VTBS 072330Z 28002KT 9999 FEW020 28/24 Q1008 NOSIG",
      "metar_wdir": 280,
      "metar_wspd": 2,
      "metar_oat": 28,
      "metar_qnh": 1008,
      "hourly_oat": [
        26,
        27,
        29,
        30,
        31,
        32,
        33,
        32,
        32,
        31,
        31,
        31,
        30,
        30,
        29,
        29,
        28,
        28,
        28,
        27,
        27,
        26,
        26,
        26,
        26
      ]
    },
    "CGK": {
      "icao": "WIII",
      "issued": "2026-07-07T23:00:00.000Z",
      "raw": "TAF WIII 072300Z 0800/0906 VRB03KT 4000 HZ FEW020 BECMG 0802/0804 04010KT 8000 NSW BECMG 0814/0816 16005KT 4000 HZ",
      "groups": [
        {
          "text": "TAF WIII 072300Z 0800/0906 VRB03KT 4000 HZ FEW020",
          "offset_h": 1,
          "wdir": "VRB",
          "wspd": 3
        },
        {
          "text": "BECMG 0802/0804 04010KT 8000 NSW",
          "offset_h": 3,
          "wdir": 40,
          "wspd": 10
        },
        {
          "text": "BECMG 0814/0816 16005KT 4000 HZ",
          "offset_h": 15,
          "wdir": 160,
          "wspd": 5
        }
      ],
      "metar_raw": "METAR WIII 072330Z 19003KT 150V220 3000 HZ SCT020 26/23 Q1012 NOSIG",
      "metar_wdir": 190,
      "metar_wspd": 3,
      "metar_oat": 26,
      "metar_qnh": 1012,
      "hourly_oat": [
        24,
        25,
        27,
        29,
        30,
        32,
        33,
        33,
        33,
        32,
        31,
        30,
        29,
        28,
        28,
        28,
        27,
        27,
        26,
        25,
        25,
        24,
        24,
        24,
        24
      ]
    },
    "SIN": {
      "icao": "WSSS",
      "issued": "2026-07-07T23:00:00.000Z",
      "raw": "TAF WSSS 072300Z 0800/0906 16008KT 9999 FEW015 SCT020 TEMPO 0802/0805 3000 TSRA FEW012CB BKN015",
      "groups": [
        {
          "text": "TAF WSSS 072300Z 0800/0906 16008KT 9999 FEW015 SCT020",
          "offset_h": 1,
          "wdir": 160,
          "wspd": 8
        },
        {
          "text": "TEMPO 0802/0805 3000 TSRA FEW012CB BKN015",
          "offset_h": 3,
          "wdir": null,
          "wspd": null
        }
      ],
      "metar_raw": "METAR WSSS 072330Z 14006KT 9999 FEW018 FEW020CB BKN160 29/25 Q1011 NOSIG",
      "metar_wdir": 140,
      "metar_wspd": 6,
      "metar_oat": 29,
      "metar_qnh": 1011,
      "hourly_oat": [
        27,
        27,
        28,
        29,
        30,
        29,
        29,
        28,
        29,
        29,
        29,
        29,
        29,
        28,
        28,
        28,
        28,
        27,
        27,
        27,
        27,
        27,
        27,
        27,
        26
      ]
    },
    "KUL": {
      "icao": "WMKK",
      "issued": "2026-07-07T23:00:00.000Z",
      "raw": "TAF WMKK 072300Z 0800/0906 VRB03KT 9999 FEW018 PROB30 TEMPO 0806/0809 5000 TSRA FEW017CB",
      "groups": [
        {
          "text": "TAF WMKK 072300Z 0800/0906 VRB03KT 9999 FEW018",
          "offset_h": 1,
          "wdir": "VRB",
          "wspd": 3
        },
        {
          "text": "PROB30",
          "offset_h": 0,
          "wdir": null,
          "wspd": null
        },
        {
          "text": "TEMPO 0806/0809 5000 TSRA FEW017CB",
          "offset_h": 7,
          "wdir": null,
          "wspd": null
        }
      ],
      "metar_raw": "METAR WMKK 072330Z 11005KT 050V170 9000 FEW010 25/23 Q1011 NOSIG",
      "metar_wdir": 110,
      "metar_wspd": 5,
      "metar_oat": 25,
      "metar_qnh": 1011,
      "hourly_oat": [
        24,
        24,
        25,
        26,
        28,
        29,
        30,
        30,
        30,
        30,
        30,
        29,
        28,
        27,
        27,
        27,
        26,
        26,
        26,
        25,
        25,
        24,
        25,
        25,
        25
      ]
    },
    "HAN": {
      "icao": "VVNB",
      "issued": "2026-07-07T23:00:00.000Z",
      "raw": "TAF VVNB 072300Z 0800/0824 09005KT 9999 SCT015 BKN030 TEMPO 0802/0805 4000 SHRA SCT010 FEW025TCU BKN030 TEMPO 0810/0815 32015G25KT 3000 TSRA BKN012 FEW027CB BKN030",
      "groups": [
        {
          "text": "TAF VVNB 072300Z 0800/0824 09005KT 9999 SCT015 BKN030",
          "offset_h": 1,
          "wdir": 90,
          "wspd": 5
        },
        {
          "text": "TEMPO 0802/0805 4000 SHRA SCT010 FEW025TCU BKN030",
          "offset_h": 3,
          "wdir": null,
          "wspd": null
        },
        {
          "text": "TEMPO 0810/0815 32015G25KT 3000 TSRA BKN012 FEW027CB BKN030",
          "offset_h": 11,
          "wdir": 320,
          "wspd": 15
        }
      ],
      "metar_raw": "METAR VVNB 072330Z 07005KT 9999 SCT015 BKN019 29/27 Q1001 NOSIG",
      "metar_wdir": 70,
      "metar_wspd": 5,
      "metar_oat": 29,
      "metar_qnh": 1001,
      "hourly_oat": [
        25,
        26,
        28,
        29,
        30,
        31,
        32,
        33,
        33,
        33,
        28,
        28,
        28,
        28,
        27,
        27,
        27,
        26,
        26,
        26,
        26,
        26,
        25,
        25,
        26
      ]
    },
    "SGN": {
      "icao": "VVTS",
      "issued": "2026-07-07T23:00:00.000Z",
      "raw": "TAF VVTS 072300Z 0800/0906 22008KT 9999 SCT017 SCT040 TEMPO 0806/0811 22016G28KT 2500 +TSRA SCT015 SCT017CB BKN040 TEMPO 0902/0906 4000 TSRA SCT015 SCT017CB BKN040",
      "groups": [
        {
          "text": "TAF VVTS 072300Z 0800/0906 22008KT 9999 SCT017 SCT040",
          "offset_h": 1,
          "wdir": 220,
          "wspd": 8
        },
        {
          "text": "TEMPO 0806/0811 22016G28KT 2500 +TSRA SCT015 SCT017CB BKN040",
          "offset_h": 7,
          "wdir": 220,
          "wspd": 16
        },
        {
          "text": "TEMPO 0902/0906 4000 TSRA SCT015 SCT017CB BKN040",
          "offset_h": 27,
          "wdir": null,
          "wspd": null
        }
      ],
      "metar_raw": "METAR VVTS 072330Z 19003KT 150V220 9999 BKN014 27/26 Q1010 NOSIG",
      "metar_wdir": 190,
      "metar_wspd": 3,
      "metar_oat": 27,
      "metar_qnh": 1010,
      "hourly_oat": [
        25,
        26,
        26,
        29,
        30,
        31,
        32,
        27,
        27,
        28,
        28,
        27,
        27,
        26,
        26,
        26,
        26,
        25,
        25,
        25,
        25,
        25,
        25,
        25,
        25
      ]
    },
    "TSA": {
      "icao": "RCSS",
      "issued": "2026-07-07T23:00:00.000Z",
      "raw": "TAF RCSS 072300Z 0800/0824 27005KT 9999 FEW020 BKN032 TEMPO 0806/0810 5000 SHRA FEW010 FEW015CB BKN022 BECMG 0810/0812 09005KT",
      "groups": [
        {
          "text": "TAF RCSS 072300Z 0800/0824 27005KT 9999 FEW020 BKN032",
          "offset_h": 1,
          "wdir": 270,
          "wspd": 5
        },
        {
          "text": "TEMPO 0806/0810 5000 SHRA FEW010 FEW015CB BKN022",
          "offset_h": 7,
          "wdir": null,
          "wspd": null
        },
        {
          "text": "BECMG 0810/0812 09005KT",
          "offset_h": 11,
          "wdir": 90,
          "wspd": 5
        }
      ],
      "metar_raw": "METAR RCSS 072330Z VRB01KT 9999 FEW020 32/26 Q1009 NOSIG RMK A2982",
      "metar_wdir": "VRB",
      "metar_wspd": 1,
      "metar_oat": 32,
      "metar_qnh": 1009,
      "hourly_oat": [
        28,
        29,
        31,
        32,
        33,
        34,
        34,
        33,
        33,
        33,
        32,
        31,
        29,
        28,
        27,
        26,
        26,
        25,
        25,
        24,
        24,
        24,
        24,
        24,
        25
      ]
    },
    "TPE": {
      "icao": "RCTP",
      "issued": "2026-07-07T23:00:00.000Z",
      "raw": "TAF RCTP 072300Z 0800/0906 27007KT 9999 FEW020 BECMG 0814/0816 18005KT BECMG 0902/0904 01010KT",
      "groups": [
        {
          "text": "TAF RCTP 072300Z 0800/0906 27007KT 9999 FEW020",
          "offset_h": 1,
          "wdir": 270,
          "wspd": 7
        },
        {
          "text": "BECMG 0814/0816 18005KT",
          "offset_h": 15,
          "wdir": 180,
          "wspd": 5
        },
        {
          "text": "BECMG 0902/0904 01010KT",
          "offset_h": 27,
          "wdir": 10,
          "wspd": 10
        }
      ],
      "metar_raw": "METAR RCTP 072330Z 23006KT 9999 FEW020 31/25 Q1009 NOSIG RMK A2982",
      "metar_wdir": 230,
      "metar_wspd": 6,
      "metar_oat": 31,
      "metar_qnh": 1009,
      "hourly_oat": [
        28,
        29,
        30,
        31,
        31,
        31,
        31,
        31,
        31,
        31,
        30,
        29,
        28,
        28,
        28,
        27,
        27,
        26,
        26,
        26,
        25,
        25,
        24,
        25,
        26
      ]
    },
    "HKG": {
      "icao": "VHHH",
      "issued": "2026-07-07T23:00:00.000Z",
      "raw": "TAF VHHH 072300Z 0800/0906 16010KT 9999 FEW010 SCT025 TX31/0806Z TN27/0822Z TX32/0906Z TEMPO 0800/0802 3000 SHRA FEW008CB SCT020 TEMPO 0802/0805 20020G30KT 1500 TSRA +SHRA FEW008CB SCT015 TEMPO 0805/0809 3000 SHRA FEW008CB SCT020 TEMPO 0818/0824 3000 SHRA FEW008CB SCT020",
      "groups": [
        {
          "text": "TAF VHHH 072300Z 0800/0906 16010KT 9999 FEW010 SCT025 TX31/0806Z TN27/0822Z TX32/0906Z",
          "offset_h": 1,
          "wdir": 160,
          "wspd": 10
        },
        {
          "text": "TEMPO 0800/0802 3000 SHRA FEW008CB SCT020",
          "offset_h": 1,
          "wdir": null,
          "wspd": null
        },
        {
          "text": "TEMPO 0802/0805 20020G30KT 1500 TSRA +SHRA FEW008CB SCT015",
          "offset_h": 3,
          "wdir": 200,
          "wspd": 20
        },
        {
          "text": "TEMPO 0805/0809 3000 SHRA FEW008CB SCT020",
          "offset_h": 6,
          "wdir": null,
          "wspd": null
        },
        {
          "text": "TEMPO 0818/0824 3000 SHRA FEW008CB SCT020",
          "offset_h": 19,
          "wdir": null,
          "wspd": null
        }
      ],
      "metar_raw": "METAR VHHH 072330Z 09010KT 9999 FEW012 SCT025 29/25 Q1006 NOSIG",
      "metar_wdir": 90,
      "metar_wspd": 10,
      "metar_oat": 29,
      "metar_qnh": 1006,
      "hourly_oat": [
        26,
        26,
        27,
        27,
        28,
        28,
        28,
        29,
        28,
        29,
        29,
        28,
        28,
        28,
        28,
        28,
        28,
        28,
        28,
        28,
        28,
        27,
        27,
        27,
        27
      ]
    },
    "DLC": {
      "icao": "ZYTL",
      "issued": "2026-07-07T21:08:00.000Z",
      "raw": "TAF ZYTL 072108Z 0800/0824 25005MPS 5000 BR BKN026 TX29/0806Z TN22/0820Z BECMG 0805/0806 17004MPS",
      "groups": [
        {
          "text": "TAF ZYTL 072108Z 0800/0824 25005MPS 5000 BR BKN026 TX29/0806Z TN22/0820Z",
          "offset_h": 1,
          "wdir": null,
          "wspd": null
        },
        {
          "text": "BECMG 0805/0806 17004MPS",
          "offset_h": 6,
          "wdir": null,
          "wspd": null
        }
      ],
      "metar_raw": "METAR ZYTL 072330Z 31003MPS 270V360 7000 SCT010 BKN023 25/21 Q1001 NOSIG",
      "metar_wdir": null,
      "metar_wspd": null,
      "metar_oat": 25,
      "metar_qnh": 1001,
      "hourly_oat": [
        24,
        26,
        28,
        29,
        30,
        30,
        30,
        30,
        30,
        29,
        28,
        27,
        26,
        25,
        26,
        25,
        25,
        25,
        25,
        24,
        24,
        23,
        22,
        23,
        24
      ]
    },
    "PEK": {
      "icao": "ZBAA",
      "issued": "2026-07-07T21:08:00.000Z",
      "raw": "TAF ZBAA 072108Z 0800/0906 15003MPS CAVOK TX33/0807Z TX33/0906Z TN22/0821Z TEMPO 0806/0810 -TSRA FEW040CB BKN040",
      "groups": [
        {
          "text": "TAF ZBAA 072108Z 0800/0906 15003MPS CAVOK TX33/0807Z TX33/0906Z TN22/0821Z",
          "offset_h": 1,
          "wdir": null,
          "wspd": null
        },
        {
          "text": "TEMPO 0806/0810 -TSRA FEW040CB BKN040",
          "offset_h": 7,
          "wdir": null,
          "wspd": null
        }
      ],
      "metar_raw": "METAR ZBAA 072330Z 02002MPS 340V060 CAVOK 25/22 Q1000 NOSIG",
      "metar_wdir": null,
      "metar_wspd": null,
      "metar_oat": 25,
      "metar_qnh": 1000,
      "hourly_oat": [
        22,
        24,
        25,
        27,
        28,
        29,
        30,
        30,
        31,
        32,
        32,
        31,
        30,
        28,
        27,
        26,
        25,
        25,
        24,
        24,
        24,
        22,
        22,
        22,
        24
      ]
    },
    "CAN": {
      "icao": "ZGGG",
      "issued": "2026-07-07T21:07:00.000Z",
      "raw": "TAF ZGGG 072107Z 0800/0906 15004MPS 8000 BKN033 TX31/0807Z TX33/0906Z TN26/0822Z TEMPO 0800/0804 SHRA FEW026CB BKN033 TEMPO 0804/0809 TSRA SCT010 SCT026CB BKN033 TEMPO 0814/0818 SHRA FEW026CB BKN033",
      "groups": [
        {
          "text": "TAF ZGGG 072107Z 0800/0906 15004MPS 8000 BKN033 TX31/0807Z TX33/0906Z TN26/0822Z",
          "offset_h": 1,
          "wdir": null,
          "wspd": null
        },
        {
          "text": "TEMPO 0800/0804 SHRA FEW026CB BKN033",
          "offset_h": 1,
          "wdir": null,
          "wspd": null
        },
        {
          "text": "TEMPO 0804/0809 TSRA SCT010 SCT026CB BKN033",
          "offset_h": 5,
          "wdir": null,
          "wspd": null
        },
        {
          "text": "TEMPO 0814/0818 SHRA FEW026CB BKN033",
          "offset_h": 15,
          "wdir": null,
          "wspd": null
        }
      ],
      "metar_raw": "METAR ZGGG 072330Z 08004MPS 9999 BKN033 25/24 Q1006 NOSIG",
      "metar_wdir": null,
      "metar_wspd": null,
      "metar_oat": 25,
      "metar_qnh": 1006,
      "hourly_oat": [
        25,
        26,
        26,
        28,
        27,
        29,
        28,
        27,
        28,
        27,
        28,
        28,
        28,
        27,
        27,
        26,
        26,
        25,
        25,
        25,
        25,
        25,
        25,
        25,
        26
      ]
    },
    "PVG": {
      "icao": "ZSPD",
      "issued": "2026-07-07T21:04:00.000Z",
      "raw": "TAF ZSPD 072104Z 0800/0906 17004MPS 8000 SCT030 TX34/0806Z TX34/0906Z TN26/0821Z",
      "groups": [
        {
          "text": "TAF ZSPD 072104Z 0800/0906 17004MPS 8000 SCT030 TX34/0806Z TX34/0906Z TN26/0821Z",
          "offset_h": 1,
          "wdir": null,
          "wspd": null
        }
      ],
      "metar_raw": "METAR ZSPD 072330Z 20004MPS CAVOK 30/26 Q1005 NOSIG",
      "metar_wdir": null,
      "metar_wspd": null,
      "metar_oat": 30,
      "metar_qnh": 1005,
      "hourly_oat": [
        29,
        30,
        32,
        31,
        32,
        32,
        33,
        33,
        33,
        33,
        32,
        31,
        30,
        29,
        28,
        28,
        28,
        27,
        27,
        27,
        27,
        27,
        26,
        27,
        28
      ]
    },
    "SHA": {
      "icao": "ZSSS",
      "issued": "2026-07-07T21:04:00.000Z",
      "raw": "TAF ZSSS 072104Z 0800/0906 17004MPS 8000 SCT030 TX35/0806Z TX35/0906Z TN28/0821Z",
      "groups": [
        {
          "text": "TAF ZSSS 072104Z 0800/0906 17004MPS 8000 SCT030 TX35/0806Z TX35/0906Z TN28/0821Z",
          "offset_h": 1,
          "wdir": null,
          "wspd": null
        }
      ],
      "metar_raw": "METAR ZSSS 072330Z 21003MPS 120V260 CAVOK 32/26 Q1005 NOSIG",
      "metar_wdir": null,
      "metar_wspd": null,
      "metar_oat": 32,
      "metar_qnh": 1005,
      "hourly_oat": [
        29,
        29,
        30,
        30,
        30,
        31,
        32,
        33,
        33,
        33,
        32,
        32,
        31,
        30,
        29,
        28,
        28,
        28,
        28,
        27,
        27,
        27,
        27,
        27,
        28
      ]
    },
    "LAX": {
      "icao": "KLAX",
      "issued": "2026-07-07T20:24:00.000Z",
      "raw": "TAF KLAX 072024Z 0720/0824 26012KT P6SM FEW010 SCT030 TEMPO 0720/0724 26010G20KT FM080300 25006KT P6SM SKC FM080900 VRB03KT P6SM SCT008 FM081700 25012KT P6SM SKC",
      "groups": [
        {
          "text": "TAF KLAX 072024Z 0720/0824 26012KT P6SM FEW010 SCT030",
          "offset_h": -3,
          "wdir": 260,
          "wspd": 12
        },
        {
          "text": "TEMPO 0720/0724 26010G20KT",
          "offset_h": -3,
          "wdir": 260,
          "wspd": 10
        },
        {
          "text": "FM080300 25006KT P6SM SKC",
          "offset_h": 4,
          "wdir": 250,
          "wspd": 6
        },
        {
          "text": "FM080900 VRB03KT P6SM SCT008",
          "offset_h": 10,
          "wdir": "VRB",
          "wspd": 3
        },
        {
          "text": "FM081700 25012KT P6SM SKC",
          "offset_h": 18,
          "wdir": 250,
          "wspd": 12
        }
      ],
      "metar_raw": "METAR KLAX 072253Z 26017KT 10SM CLR 23/14 A2993 RMK AO2 SLP132 T02330144",
      "metar_wdir": 260,
      "metar_wspd": 17,
      "metar_oat": 23,
      "metar_qnh": 1014,
      "hourly_oat": [
        22,
        22,
        22,
        21,
        20,
        18,
        18,
        17,
        16,
        16,
        16,
        15,
        14,
        14,
        14,
        16,
        19,
        22,
        24,
        24,
        24,
        24,
        24,
        24,
        23
      ]
    }
  }
}