{
  "updated": "2026-07-13T05:25:00Z",
  "tafs": {
    "SAN": {
      "icao": "KSAN",
      "issued": "2026-07-13T05:20:00.000Z",
      "raw": "TAF KSAN 130520Z 1306/1412 VRB04KT P6SM SCT012 SCT150 SCT250 FM130900 VRB03KT P6SM BKN011 FM131700 VRB04KT P6SM SCT015 SCT150 FM131900 27008KT P6SM SCT150 FM140200 VRB04KT P6SM SCT015 SCT150",
      "groups": [
        {
          "text": "TAF KSAN 130520Z 1306/1412 VRB04KT P6SM SCT012 SCT150 SCT250",
          "offset_h": 1,
          "wdir": "VRB",
          "wspd": 4
        },
        {
          "text": "FM130900 VRB03KT P6SM BKN011",
          "offset_h": 4,
          "wdir": "VRB",
          "wspd": 3
        },
        {
          "text": "FM131700 VRB04KT P6SM SCT015 SCT150",
          "offset_h": 12,
          "wdir": "VRB",
          "wspd": 4
        },
        {
          "text": "FM131900 27008KT P6SM SCT150",
          "offset_h": 14,
          "wdir": 270,
          "wspd": 8
        },
        {
          "text": "FM140200 VRB04KT P6SM SCT015 SCT150",
          "offset_h": 21,
          "wdir": "VRB",
          "wspd": 4
        }
      ],
      "metar_raw": "METAR KSAN 130451Z 28005KT 10SM FEW012 BKN180 BKN250 21/18 A2996 RMK AO2 SLP145 T02060178 $",
      "metar_wdir": 280,
      "metar_wspd": 5,
      "metar_oat": 21,
      "metar_qnh": 1015,
      "hourly_oat": [
        20,
        19,
        19,
        19,
        19,
        18,
        18,
        18,
        18,
        19,
        20,
        22,
        23,
        23,
        24,
        24,
        25,
        25,
        24,
        23,
        22,
        21,
        20,
        20,
        20
      ]
    },
    "HNL": {
      "icao": "PHNL",
      "issued": "2026-07-13T05:20:00.000Z",
      "raw": "TAF PHNL 130520Z 1306/1412 06015G25KT P6SM SCT025 SCT040 FM130800 05010KT P6SM FEW025 SCT040 FM132000 06015G25KT P6SM FEW025 SCT040 FM140600 05011KT P6SM FEW025 SCT040",
      "groups": [
        {
          "text": "TAF PHNL 130520Z 1306/1412 06015G25KT P6SM SCT025 SCT040",
          "offset_h": 1,
          "wdir": 60,
          "wspd": 15
        },
        {
          "text": "FM130800 05010KT P6SM FEW025 SCT040",
          "offset_h": 3,
          "wdir": 50,
          "wspd": 10
        },
        {
          "text": "FM132000 06015G25KT P6SM FEW025 SCT040",
          "offset_h": 15,
          "wdir": 60,
          "wspd": 15
        },
        {
          "text": "FM140600 05011KT P6SM FEW025 SCT040",
          "offset_h": 25,
          "wdir": 50,
          "wspd": 11
        }
      ],
      "metar_raw": "METAR PHNL 130453Z 06015G26KT 10SM FEW015 FEW025 BKN040 BKN250 27/19 A3001 RMK AO2 PK WND 06026/0446 SLP161 T02670194 $",
      "metar_wdir": 60,
      "metar_wspd": 15,
      "metar_oat": 27,
      "metar_qnh": 1016,
      "hourly_oat": [
        24,
        24,
        24,
        24,
        23,
        23,
        23,
        22,
        22,
        22,
        22,
        22,
        24,
        25,
        26,
        28,
        29,
        30,
        29,
        29,
        29,
        28,
        27,
        26,
        24
      ]
    },
    "CGK": {
      "icao": "WIII",
      "issued": "2026-07-13T05:00:00.000Z",
      "raw": "TAF WIII 130500Z 1306/1412 06010KT 8000 SCT020 BECMG 1311/1313 13005KT BECMG 1314/1316 5000 HZ",
      "groups": [
        {
          "text": "TAF WIII 130500Z 1306/1412 06010KT 8000 SCT020",
          "offset_h": 1,
          "wdir": 60,
          "wspd": 10
        },
        {
          "text": "BECMG 1311/1313 13005KT",
          "offset_h": 6,
          "wdir": 130,
          "wspd": 5
        },
        {
          "text": "BECMG 1314/1316 5000 HZ",
          "offset_h": 9,
          "wdir": null,
          "wspd": null
        }
      ],
      "metar_raw": "METAR WIII 130500Z 06016KT 7000 FEW020 32/21 Q1010 NOSIG",
      "metar_wdir": 60,
      "metar_wspd": 16,
      "metar_oat": 32,
      "metar_qnh": 1010,
      "hourly_oat": [
        34,
        34,
        34,
        32,
        31,
        30,
        28,
        28,
        28,
        28,
        27,
        27,
        26,
        26,
        26,
        25,
        25,
        25,
        24,
        26,
        28,
        30,
        31,
        33,
        34
      ]
    },
    "TPE": {
      "icao": "RCTP",
      "issued": "2026-07-13T05:00:00.000Z",
      "raw": "TAF RCTP 130500Z 1306/1412 32008KT 9999 FEW015 BKN032 TEMPO 1306/1310 15010KT 4000 SHRA FEW012 FEW015CB BKN016 TEMPO 1310/1314 23005KT FEW012 BKN020 BECMG 1314/1316 14005KT BECMG 1323/1401 35008KT TEMPO 1406/1410 14008KT 5000 SHRA FEW012 FEW015CB BKN020",
      "groups": [
        {
          "text": "TAF RCTP 130500Z 1306/1412 32008KT 9999 FEW015 BKN032",
          "offset_h": 1,
          "wdir": 320,
          "wspd": 8
        },
        {
          "text": "TEMPO 1306/1310 15010KT 4000 SHRA FEW012 FEW015CB BKN016",
          "offset_h": 1,
          "wdir": 150,
          "wspd": 10
        },
        {
          "text": "TEMPO 1310/1314 23005KT FEW012 BKN020",
          "offset_h": 5,
          "wdir": 230,
          "wspd": 5
        },
        {
          "text": "BECMG 1314/1316 14005KT",
          "offset_h": 9,
          "wdir": 140,
          "wspd": 5
        },
        {
          "text": "BECMG 1323/1401 35008KT",
          "offset_h": 18,
          "wdir": 350,
          "wspd": 8
        },
        {
          "text": "TEMPO 1406/1410 14008KT 5000 SHRA FEW012 FEW015CB BKN020",
          "offset_h": 25,
          "wdir": 140,
          "wspd": 8
        }
      ],
      "metar_raw": "METAR RCTP 130500Z 30008KT 270V340 9999 VCSH FEW010 SCT020 BKN035 31/27 Q1006 NOSIG RMK A2971",
      "metar_wdir": 300,
      "metar_wspd": 8,
      "metar_oat": 31,
      "metar_qnh": 1006,
      "hourly_oat": [
        29,
        29,
        29,
        29,
        28,
        27,
        27,
        27,
        26,
        26,
        26,
        26,
        26,
        26,
        26,
        25,
        26,
        26,
        27,
        29,
        30,
        30,
        30,
        29,
        29
      ]
    },
    "HKG": {
      "icao": "VHHH",
      "issued": "2026-07-13T05:00:00.000Z",
      "raw": "TAF VHHH 130500Z 1306/1412 03010KT 9999 FEW020 TX34/1306Z TX30/1406Z TN27/1322Z BECMG 1307/1309 10010KT TEMPO 1307/1310 3500 SHRA FEW010CB SCT020 TEMPO 1318/1322 09015G25KT 2000 TSRA SHRA FEW010CB SCT020 TEMPO 1322/1403 12020G30KT 1500 TSRA +SHRA FEW008CB SCT015 TEMPO 1403/1412 15020G30KT 2000 +SHRA FEW010CB SCT020",
      "groups": [
        {
          "text": "TAF VHHH 130500Z 1306/1412 03010KT 9999 FEW020 TX34/1306Z TX30/1406Z TN27/1322Z",
          "offset_h": 1,
          "wdir": 30,
          "wspd": 10
        },
        {
          "text": "BECMG 1307/1309 10010KT",
          "offset_h": 2,
          "wdir": 100,
          "wspd": 10
        },
        {
          "text": "TEMPO 1307/1310 3500 SHRA FEW010CB SCT020",
          "offset_h": 2,
          "wdir": null,
          "wspd": null
        },
        {
          "text": "TEMPO 1318/1322 09015G25KT 2000 TSRA SHRA FEW010CB SCT020",
          "offset_h": 13,
          "wdir": 90,
          "wspd": 15
        },
        {
          "text": "TEMPO 1322/1403 12020G30KT 1500 TSRA +SHRA FEW008CB SCT015",
          "offset_h": 17,
          "wdir": 120,
          "wspd": 20
        },
        {
          "text": "TEMPO 1403/1412 15020G30KT 2000 +SHRA FEW010CB SCT020",
          "offset_h": 22,
          "wdir": 150,
          "wspd": 20
        }
      ],
      "metar_raw": "METAR VHHH 130500Z 33006KT 9999 FEW015 33/25 Q1002 NOSIG",
      "metar_wdir": 330,
      "metar_wspd": 6,
      "metar_oat": 33,
      "metar_qnh": 1002,
      "hourly_oat": [
        30,
        30,
        30,
        30,
        30,
        29,
        29,
        29,
        28,
        28,
        28,
        28,
        27,
        26,
        26,
        26,
        26,
        26,
        26,
        26,
        27,
        27,
        27,
        27,
        27
      ]
    },
    "GMP": {
      "icao": "RKSS",
      "issued": "2026-07-13T05:00:00.000Z",
      "raw": "TAF RKSS 130500Z 1306/1412 22008KT 9999 SCT035 TN26/1321Z TX30/1405Z BECMG 1311/1313 32005KT BECMG 1316/1318 17006KT FEW010 BKN030 OVC080 BECMG 1403/1405 18016G35KT 6000 -RA BECMG 1407/1409 3500 RA",
      "groups": [
        {
          "text": "TAF RKSS 130500Z 1306/1412 22008KT 9999 SCT035 TN26/1321Z TX30/1405Z",
          "offset_h": 1,
          "wdir": 220,
          "wspd": 8
        },
        {
          "text": "BECMG 1311/1313 32005KT",
          "offset_h": 6,
          "wdir": 320,
          "wspd": 5
        },
        {
          "text": "BECMG 1316/1318 17006KT FEW010 BKN030 OVC080",
          "offset_h": 11,
          "wdir": 170,
          "wspd": 6
        },
        {
          "text": "BECMG 1403/1405 18016G35KT 6000 -RA",
          "offset_h": 22,
          "wdir": 180,
          "wspd": 16
        },
        {
          "text": "BECMG 1407/1409 3500 RA",
          "offset_h": 26,
          "wdir": null,
          "wspd": null
        }
      ],
      "metar_raw": "METAR RKSS 130500Z 22009KT 180V250 9999 SCT035 33/25 Q1009 NOSIG",
      "metar_wdir": 220,
      "metar_wspd": 9,
      "metar_oat": 33,
      "metar_qnh": 1009,
      "hourly_oat": [
        32,
        32,
        32,
        31,
        30,
        29,
        28,
        28,
        27,
        27,
        26,
        26,
        26,
        26,
        26,
        26,
        25,
        26,
        27,
        28,
        29,
        30,
        30,
        30,
        30
      ]
    },
    "TSA": {
      "icao": "RCSS",
      "issued": "2026-07-13T05:00:00.000Z",
      "raw": "TAF RCSS 130500Z 1306/1406 30005KT 9999 FEW015 BKN032 TEMPO 1306/1310 20010KT 4000 TSRA FEW012 FEW015CB BKN020 TEMPO 1310/1314 7000 -SHRA FEW012 BKN020 BECMG 1322/1324 09005KT",
      "groups": [
        {
          "text": "TAF RCSS 130500Z 1306/1406 30005KT 9999 FEW015 BKN032",
          "offset_h": 1,
          "wdir": 300,
          "wspd": 5
        },
        {
          "text": "TEMPO 1306/1310 20010KT 4000 TSRA FEW012 FEW015CB BKN020",
          "offset_h": 1,
          "wdir": 200,
          "wspd": 10
        },
        {
          "text": "TEMPO 1310/1314 7000 -SHRA FEW012 BKN020",
          "offset_h": 5,
          "wdir": null,
          "wspd": null
        },
        {
          "text": "BECMG 1322/1324 09005KT",
          "offset_h": 17,
          "wdir": 90,
          "wspd": 5
        }
      ],
      "metar_raw": "METAR RCSS 130500Z VRB05KT 9999 VCSH FEW018 FEW020CB BKN035 BKN050 32/27 Q1005 WS R10 NOSIG RMK CB SW A2969",
      "metar_wdir": "VRB",
      "metar_wspd": 5,
      "metar_oat": 32,
      "metar_qnh": 1005,
      "hourly_oat": [
        29,
        28,
        30,
        29,
        29,
        28,
        27,
        27,
        27,
        26,
        26,
        26,
        26,
        26,
        26,
        26,
        26,
        26,
        28,
        29,
        30,
        32,
        33,
        33,
        32
      ]
    },
    "DLC": {
      "icao": "ZYTL",
      "issued": "2026-07-13T03:13:00.000Z",
      "raw": "TAF ZYTL 130313Z 1306/1406 14007G13MPS 5000 -SHRA BR BKN008 BKN026 TX27/1306Z TN24/1321Z TEMPO 1316/1318 2500 TSRA BR BKN005 BKN026 FEW033CB TEMPO 1318/1324 1400 +TSRA BR BKN005 BKN026 SCT033CB BECMG 1401/1402 34007G13MPS",
      "groups": [
        {
          "text": "TAF ZYTL 130313Z 1306/1406 14007G13MPS 5000 -SHRA BR BKN008 BKN026 TX27/1306Z TN24/1321Z",
          "offset_h": 1,
          "wdir": null,
          "wspd": null
        },
        {
          "text": "TEMPO 1316/1318 2500 TSRA BR BKN005 BKN026 FEW033CB",
          "offset_h": 11,
          "wdir": null,
          "wspd": null
        },
        {
          "text": "TEMPO 1318/1324 1400 +TSRA BR BKN005 BKN026 SCT033CB",
          "offset_h": 13,
          "wdir": null,
          "wspd": null
        },
        {
          "text": "BECMG 1401/1402 34007G13MPS",
          "offset_h": 20,
          "wdir": null,
          "wspd": null
        }
      ],
      "metar_raw": "METAR ZYTL 130500Z 14007MPS 7000 BKN008 BKN023 25/24 Q1002 NOSIG",
      "metar_wdir": null,
      "metar_wspd": null,
      "metar_oat": 25,
      "metar_qnh": 1002,
      "hourly_oat": [
        26,
        26,
        27,
        26,
        26,
        25,
        25,
        24,
        24,
        24,
        24,
        24,
        24,
        24,
        24,
        24,
        24,
        24,
        24,
        25,
        26,
        26,
        27,
        27,
        28
      ]
    },
    "CAN": {
      "icao": "ZGGG",
      "issued": "2026-07-13T03:05:00.000Z",
      "raw": "TAF ZGGG 130305Z 1306/1412 15003MPS 8000 BKN030 TX38/1307Z TX32/1407Z TN28/1322Z TEMPO 1308/1312 TSRA FEW026CB BKN030 TEMPO 1321/1401 4000 TSRA SCT026CB BKN030 TEMPO 1404/1409 1200 +TSRA SCT010 SCT026CB BKN030 TEMPO 1409/1412 SHRA FEW026CB BKN030",
      "groups": [
        {
          "text": "TAF ZGGG 130305Z 1306/1412 15003MPS 8000 BKN030 TX38/1307Z TX32/1407Z TN28/1322Z",
          "offset_h": 1,
          "wdir": null,
          "wspd": null
        },
        {
          "text": "TEMPO 1308/1312 TSRA FEW026CB BKN030",
          "offset_h": 3,
          "wdir": null,
          "wspd": null
        },
        {
          "text": "TEMPO 1321/1401 4000 TSRA SCT026CB BKN030",
          "offset_h": 16,
          "wdir": null,
          "wspd": null
        },
        {
          "text": "TEMPO 1404/1409 1200 +TSRA SCT010 SCT026CB BKN030",
          "offset_h": 23,
          "wdir": null,
          "wspd": null
        },
        {
          "text": "TEMPO 1409/1412 SHRA FEW026CB BKN030",
          "offset_h": 28,
          "wdir": null,
          "wspd": null
        }
      ],
      "metar_raw": "METAR ZGGG 130500Z 15002MPS 090V230 9999 SCT036 36/26 Q1002 NOSIG",
      "metar_wdir": null,
      "metar_wspd": null,
      "metar_oat": 36,
      "metar_qnh": 1002,
      "hourly_oat": [
        34,
        35,
        35,
        35,
        33,
        32,
        30,
        29,
        28,
        28,
        28,
        27,
        27,
        27,
        27,
        27,
        27,
        26,
        26,
        27,
        28,
        30,
        31,
        32,
        29
      ]
    },
    "LAX": {
      "icao": "KLAX",
      "issued": "2026-07-13T03:05:00.000Z",
      "raw": "TAF KLAX 130305Z 1303/1406 26008KT P6SM BKN150 FM130800 VRB03KT P6SM SCT015 FM131700 26006KT P6SM BKN120 FM132100 26012KT P6SM BKN250",
      "groups": [
        {
          "text": "TAF KLAX 130305Z 1303/1406 26008KT P6SM BKN150",
          "offset_h": -2,
          "wdir": 260,
          "wspd": 8
        },
        {
          "text": "FM130800 VRB03KT P6SM SCT015",
          "offset_h": 3,
          "wdir": "VRB",
          "wspd": 3
        },
        {
          "text": "FM131700 26006KT P6SM BKN120",
          "offset_h": 12,
          "wdir": 260,
          "wspd": 6
        },
        {
          "text": "FM132100 26012KT P6SM BKN250",
          "offset_h": 16,
          "wdir": 260,
          "wspd": 12
        }
      ],
      "metar_raw": "METAR KLAX 130453Z 24005KT 10SM FEW009 FEW190 SCT260 20/18 A2993 RMK AO2 SLP132 T02000178 $",
      "metar_wdir": 240,
      "metar_wspd": 5,
      "metar_oat": 20,
      "metar_qnh": 1014,
      "hourly_oat": [
        19,
        19,
        18,
        18,
        18,
        18,
        18,
        18,
        18,
        19,
        20,
        22,
        23,
        24,
        24,
        24,
        24,
        23,
        22,
        21,
        21,
        20,
        19,
        19,
        19
      ]
    },
    "CTS": {
      "icao": "RJCC",
      "issued": "2026-07-13T03:04:00.000Z",
      "raw": "TAF AMD RJCC 130304Z 1303/1406 17008KT 9999 FEW005 BKN015 TEMPO 1307/1312 FEW003 BKN005 TEMPO 1312/1315 3000 BR FEW001 BKN003 TEMPO 1315/1400 0700 FG VV001 TEMPO 1400/1406 FEW003 BKN005",
      "groups": [
        {
          "text": "TAF AMD RJCC 130304Z 1303/1406 17008KT 9999 FEW005 BKN015",
          "offset_h": -2,
          "wdir": 170,
          "wspd": 8
        },
        {
          "text": "TEMPO 1307/1312 FEW003 BKN005",
          "offset_h": 2,
          "wdir": null,
          "wspd": null
        },
        {
          "text": "TEMPO 1312/1315 3000 BR FEW001 BKN003",
          "offset_h": 7,
          "wdir": null,
          "wspd": null
        },
        {
          "text": "TEMPO 1315/1400 0700 FG VV001",
          "offset_h": 10,
          "wdir": null,
          "wspd": null
        },
        {
          "text": "TEMPO 1400/1406 FEW003 BKN005",
          "offset_h": 19,
          "wdir": null,
          "wspd": null
        }
      ],
      "metar_raw": "METAR RJCC 130500Z 20008KT 9999 FEW015 BKN/// 26/22 Q1004",
      "metar_wdir": 200,
      "metar_wspd": 8,
      "metar_oat": 26,
      "metar_qnh": 1004,
      "hourly_oat": [
        26,
        26,
        25,
        24,
        23,
        22,
        22,
        21,
        21,
        21,
        21,
        21,
        20,
        20,
        20,
        20,
        21,
        22,
        22,
        22,
        22,
        22,
        23,
        24,
        25
      ]
    },
    "SHA": {
      "icao": "ZSSS",
      "issued": "2026-07-13T03:04:00.000Z",
      "raw": "TAF ZSSS 130304Z 1306/1412 16008G13MPS 8000 BKN020 TX35/1306Z TX36/1406Z TN28/1321Z BECMG 1309/1310 17005MPS",
      "groups": [
        {
          "text": "TAF ZSSS 130304Z 1306/1412 16008G13MPS 8000 BKN020 TX35/1306Z TX36/1406Z TN28/1321Z",
          "offset_h": 1,
          "wdir": null,
          "wspd": null
        },
        {
          "text": "BECMG 1309/1310 17005MPS",
          "offset_h": 4,
          "wdir": null,
          "wspd": null
        }
      ],
      "metar_raw": "METAR ZSSS 130500Z 19008G13MPS 150V220 9999 SCT040 34/25 Q1000 NOSIG",
      "metar_wdir": null,
      "metar_wspd": null,
      "metar_oat": 34,
      "metar_qnh": 1000,
      "hourly_oat": [
        33,
        34,
        33,
        33,
        32,
        31,
        30,
        30,
        29,
        29,
        28,
        28,
        28,
        28,
        28,
        27,
        27,
        28,
        29,
        30,
        31,
        32,
        34,
        35,
        35
      ]
    },
    "PVG": {
      "icao": "ZSPD",
      "issued": "2026-07-13T03:04:00.000Z",
      "raw": "TAF ZSPD 130304Z 1306/1412 17010G15MPS 8000 BKN020 TX34/1306Z TX35/1406Z TN28/1321Z BECMG 1310/1311 18007MPS",
      "groups": [
        {
          "text": "TAF ZSPD 130304Z 1306/1412 17010G15MPS 8000 BKN020 TX34/1306Z TX35/1406Z TN28/1321Z",
          "offset_h": 1,
          "wdir": null,
          "wspd": null
        },
        {
          "text": "BECMG 1310/1311 18007MPS",
          "offset_h": 5,
          "wdir": null,
          "wspd": null
        }
      ],
      "metar_raw": "METAR ZSPD 130500Z 17012MPS CAVOK 33/27 Q1000 NOSIG",
      "metar_wdir": null,
      "metar_wspd": null,
      "metar_oat": 33,
      "metar_qnh": 1000,
      "hourly_oat": [
        32,
        33,
        32,
        31,
        31,
        30,
        29,
        29,
        29,
        28,
        28,
        28,
        28,
        28,
        28,
        28,
        27,
        28,
        29,
        30,
        31,
        32,
        33,
        34,
        34
      ]
    },
    "PEK": {
      "icao": "ZBAA",
      "issued": "2026-07-13T03:01:00.000Z",
      "raw": "TAF ZBAA 130301Z 1306/1412 15003MPS CAVOK TX33/1306Z TX33/1406Z TN24/1321Z",
      "groups": [
        {
          "text": "TAF ZBAA 130301Z 1306/1412 15003MPS CAVOK TX33/1306Z TX33/1406Z TN24/1321Z",
          "offset_h": 1,
          "wdir": null,
          "wspd": null
        }
      ],
      "metar_raw": "METAR ZBAA 130500Z VRB02MPS 9999 FEW033 33/25 Q1001 NOSIG",
      "metar_wdir": null,
      "metar_wspd": null,
      "metar_oat": 33,
      "metar_qnh": 1001,
      "hourly_oat": [
        32,
        33,
        33,
        33,
        33,
        32,
        30,
        28,
        28,
        27,
        26,
        26,
        25,
        25,
        24,
        24,
        23,
        23,
        24,
        26,
        28,
        30,
        31,
        33,
        33
      ]
    },
    "HAN": {
      "icao": "VVNB",
      "issued": "2026-07-13T02:00:00.000Z",
      "raw": "TAF AMD VVNB 130200Z 1302/1403 08006KT 9000 FEW025 TEMPO 1308/1312 3500 TSRA SCT010 FEW027CB",
      "groups": [
        {
          "text": "TAF AMD VVNB 130200Z 1302/1403 08006KT 9000 FEW025",
          "offset_h": -3,
          "wdir": 80,
          "wspd": 6
        },
        {
          "text": "TEMPO 1308/1312 3500 TSRA SCT010 FEW027CB",
          "offset_h": 3,
          "wdir": null,
          "wspd": null
        }
      ],
      "metar_raw": "METAR VVNB 130500Z VRB03KT 9999 FEW034 35/27 Q1002 NOSIG",
      "metar_wdir": "VRB",
      "metar_wspd": 3,
      "metar_oat": 35,
      "metar_qnh": 1002,
      "hourly_oat": [
        33,
        33,
        34,
        33,
        30,
        31,
        30,
        30,
        29,
        29,
        28,
        28,
        28,
        27,
        27,
        27,
        26,
        26,
        27,
        28,
        29,
        31,
        32,
        33,
        33
      ]
    },
    "HND": {
      "icao": "RJTT",
      "issued": "2026-07-13T01:54:00.000Z",
      "raw": "TAF AMD RJTT 130154Z 1301/1406 20004KT 9999 FEW030 BECMG 1305/1307 30005KT BECMG 1318/1321 18012KT",
      "groups": [
        {
          "text": "TAF AMD RJTT 130154Z 1301/1406 20004KT 9999 FEW030",
          "offset_h": -4,
          "wdir": 200,
          "wspd": 4
        },
        {
          "text": "BECMG 1305/1307 30005KT",
          "offset_h": 0,
          "wdir": 300,
          "wspd": 5
        },
        {
          "text": "BECMG 1318/1321 18012KT",
          "offset_h": 13,
          "wdir": 180,
          "wspd": 12
        }
      ],
      "metar_raw": "METAR RJTT 130500Z 11003KT 9000 -SHRA FEW030 BKN040 BKN100 27/26 Q1005 NOSIG",
      "metar_wdir": 110,
      "metar_wspd": 3,
      "metar_oat": 27,
      "metar_qnh": 1005,
      "hourly_oat": [
        27,
        27,
        27,
        27,
        27,
        26,
        26,
        26,
        25,
        25,
        25,
        25,
        25,
        24,
        24,
        24,
        24,
        25,
        27,
        28,
        29,
        30,
        30,
        30,
        30
      ]
    },
    "ITM": {
      "icao": "RJOO",
      "issued": "2026-07-12T23:05:00.000Z",
      "raw": "TAF RJOO 122305Z 1300/1406 22005KT 9999 FEW025 TEMPO 1304/1308 TS FEW020 FEW025CB SCT035 BECMG 1308/1310 32006KT BECMG 1321/1400 22006KT",
      "groups": [
        {
          "text": "TAF RJOO 122305Z 1300/1406 22005KT 9999 FEW025",
          "offset_h": -5,
          "wdir": 220,
          "wspd": 5
        },
        {
          "text": "TEMPO 1304/1308 TS FEW020 FEW025CB SCT035",
          "offset_h": -1,
          "wdir": null,
          "wspd": null
        },
        {
          "text": "BECMG 1308/1310 32006KT",
          "offset_h": 3,
          "wdir": 320,
          "wspd": 6
        },
        {
          "text": "BECMG 1321/1400 22006KT",
          "offset_h": 16,
          "wdir": 220,
          "wspd": 6
        }
      ],
      "metar_raw": "METAR RJOO 130500Z 22007KT 180V290 9999 FEW030 SCT040 BKN/// 33/25 Q1009",
      "metar_wdir": 220,
      "metar_wspd": 7,
      "metar_oat": 33,
      "metar_qnh": 1009,
      "hourly_oat": [
        33,
        34,
        33,
        33,
        32,
        31,
        30,
        29,
        28,
        27,
        27,
        26,
        26,
        25,
        25,
        25,
        25,
        26,
        28,
        29,
        30,
        31,
        32,
        32,
        32
      ]
    },
    "OKA": {
      "icao": "ROAH",
      "issued": "2026-07-12T23:05:00.000Z",
      "raw": "TAF ROAH 122305Z 1300/1406 17018KT 9999 FEW010 SCT020 TEMPO 1315/1400 FEW005 BKN008",
      "groups": [
        {
          "text": "TAF ROAH 122305Z 1300/1406 17018KT 9999 FEW010 SCT020",
          "offset_h": -5,
          "wdir": 170,
          "wspd": 18
        },
        {
          "text": "TEMPO 1315/1400 FEW005 BKN008",
          "offset_h": 10,
          "wdir": null,
          "wspd": null
        }
      ],
      "metar_raw": "METAR ROAH 130500Z 16016KT 9999 FEW017 31/25 Q1011",
      "metar_wdir": 160,
      "metar_wspd": 16,
      "metar_oat": 31,
      "metar_qnh": 1011,
      "hourly_oat": [
        29,
        29,
        29,
        28,
        28,
        27,
        27,
        27,
        27,
        26,
        26,
        26,
        26,
        26,
        26,
        26,
        26,
        27,
        27,
        28,
        28,
        29,
        29,
        29,
        29
      ]
    },
    "NGO": {
      "icao": "RJGG",
      "issued": "2026-07-12T23:05:00.000Z",
      "raw": "TAF RJGG 122305Z 1300/1406 31014KT 9999 FEW030",
      "groups": [
        {
          "text": "TAF RJGG 122305Z 1300/1406 31014KT 9999 FEW030",
          "offset_h": -5,
          "wdir": 310,
          "wspd": 14
        }
      ],
      "metar_raw": "METAR RJGG 130500Z 31021KT 9999 FEW015 BKN/// 30/24 Q1008 NOSIG",
      "metar_wdir": 310,
      "metar_wspd": 21,
      "metar_oat": 30,
      "metar_qnh": 1008,
      "hourly_oat": [
        29,
        29,
        29,
        28,
        28,
        28,
        28,
        27,
        27,
        27,
        27,
        27,
        27,
        27,
        26,
        26,
        26,
        27,
        27,
        27,
        28,
        27,
        27,
        28,
        29
      ]
    },
    "FUK": {
      "icao": "RJFF",
      "issued": "2026-07-12T23:05:00.000Z",
      "raw": "TAF RJFF 122305Z 1300/1406 16006KT 9999 FEW025 BKN040 BECMG 1302/1304 32011KT BECMG 1308/1310 20004KT",
      "groups": [
        {
          "text": "TAF RJFF 122305Z 1300/1406 16006KT 9999 FEW025 BKN040",
          "offset_h": -5,
          "wdir": 160,
          "wspd": 6
        },
        {
          "text": "BECMG 1302/1304 32011KT",
          "offset_h": -3,
          "wdir": 320,
          "wspd": 11
        },
        {
          "text": "BECMG 1308/1310 20004KT",
          "offset_h": 3,
          "wdir": 200,
          "wspd": 4
        }
      ],
      "metar_raw": "METAR RJFF 130500Z 34008KT 9999 FEW030 SCT050 BKN/// 33/25 Q1011 NOSIG",
      "metar_wdir": 340,
      "metar_wspd": 8,
      "metar_oat": 33,
      "metar_qnh": 1011,
      "hourly_oat": [
        31,
        30,
        30,
        30,
        31,
        31,
        30,
        29,
        28,
        28,
        27,
        27,
        27,
        26,
        26,
        26,
        26,
        27,
        29,
        30,
        31,
        32,
        32,
        32,
        33
      ]
    },
    "NRT": {
      "icao": "RJAA",
      "issued": "2026-07-12T23:05:00.000Z",
      "raw": "TAF RJAA 122305Z 1300/1406 28012KT 9999 FEW020 BKN040 BECMG 1308/1310 36006KT BECMG 1315/1318 14010KT",
      "groups": [
        {
          "text": "TAF RJAA 122305Z 1300/1406 28012KT 9999 FEW020 BKN040",
          "offset_h": -5,
          "wdir": 280,
          "wspd": 12
        },
        {
          "text": "BECMG 1308/1310 36006KT",
          "offset_h": 3,
          "wdir": 360,
          "wspd": 6
        },
        {
          "text": "BECMG 1315/1318 14010KT",
          "offset_h": 10,
          "wdir": 140,
          "wspd": 10
        }
      ],
      "metar_raw": "METAR RJAA 130500Z 35006KT 320V020 9999 -SHRA FEW030 SCT070 BKN100 28/23 Q1006 NOSIG",
      "metar_wdir": 350,
      "metar_wspd": 6,
      "metar_oat": 28,
      "metar_qnh": 1006,
      "hourly_oat": [
        29,
        28,
        28,
        27,
        27,
        26,
        26,
        26,
        25,
        25,
        25,
        24,
        24,
        24,
        24,
        23,
        24,
        25,
        27,
        28,
        29,
        30,
        31,
        31,
        31
      ]
    },
    "KIX": {
      "icao": "RJBB",
      "issued": "2026-07-12T23:05:00.000Z",
      "raw": "TAF RJBB 122305Z 1300/1406 22006KT 9999 FEW030 SCT045 BECMG 1312/1315 12004KT BECMG 1403/1406 22005KT",
      "groups": [
        {
          "text": "TAF RJBB 122305Z 1300/1406 22006KT 9999 FEW030 SCT045",
          "offset_h": -5,
          "wdir": 220,
          "wspd": 6
        },
        {
          "text": "BECMG 1312/1315 12004KT",
          "offset_h": 7,
          "wdir": 120,
          "wspd": 4
        },
        {
          "text": "BECMG 1403/1406 22005KT",
          "offset_h": 22,
          "wdir": 220,
          "wspd": 5
        }
      ],
      "metar_raw": "METAR RJBB 130500Z 25006KT 9999 FEW030 BKN/// 31/25 Q1010 NOSIG",
      "metar_wdir": 250,
      "metar_wspd": 6,
      "metar_oat": 31,
      "metar_qnh": 1010,
      "hourly_oat": [
        27,
        28,
        28,
        28,
        28,
        28,
        27,
        27,
        27,
        27,
        27,
        27,
        26,
        26,
        26,
        26,
        26,
        26,
        26,
        26,
        26,
        26,
        26,
        27,
        27
      ]
    },
    "BKK": {
      "icao": "VTBS",
      "issued": "2026-07-12T23:00:00.000Z",
      "raw": "TAF VTBS 122300Z 1300/1406 24008KT 9999 FEW020 TEMPO 1308/1312 VRB15KT 4000 TSRA FEW018CB SCT030 BKN080",
      "groups": [
        {
          "text": "TAF VTBS 122300Z 1300/1406 24008KT 9999 FEW020",
          "offset_h": -5,
          "wdir": 240,
          "wspd": 8
        },
        {
          "text": "TEMPO 1308/1312 VRB15KT 4000 TSRA FEW018CB SCT030 BKN080",
          "offset_h": 3,
          "wdir": "VRB",
          "wspd": 15
        }
      ],
      "metar_raw": "METAR VTBS 130500Z 22012KT 9999 FEW020 32/22 Q1006 NOSIG",
      "metar_wdir": 220,
      "metar_wspd": 12,
      "metar_oat": 32,
      "metar_qnh": 1006,
      "hourly_oat": [
        31,
        30,
        30,
        30,
        29,
        28,
        28,
        28,
        28,
        28,
        28,
        27,
        27,
        27,
        27,
        27,
        27,
        27,
        27,
        28,
        29,
        30,
        30,
        29,
        30
      ]
    },
    "KUL": {
      "icao": "WMKK",
      "issued": "2026-07-12T23:00:00.000Z",
      "raw": "TAF WMKK 122300Z 1300/1406 14007KT 9999 FEW018",
      "groups": [
        {
          "text": "TAF WMKK 122300Z 1300/1406 14007KT 9999 FEW018",
          "offset_h": -5,
          "wdir": 140,
          "wspd": 7
        }
      ],
      "metar_raw": "METAR WMKK 130500Z VRB06KT 8000 FEW017CB SCT018 32/25 Q1008 NOSIG",
      "metar_wdir": "VRB",
      "metar_wspd": 6,
      "metar_oat": 32,
      "metar_qnh": 1008,
      "hourly_oat": [
        30,
        30,
        31,
        30,
        30,
        30,
        29,
        28,
        27,
        27,
        27,
        27,
        26,
        26,
        26,
        23,
        24,
        23,
        23,
        24,
        25,
        27,
        29,
        30,
        30
      ]
    },
    "SIN": {
      "icao": "WSSS",
      "issued": "2026-07-12T23:00:00.000Z",
      "raw": "TAF WSSS 122300Z 1300/1406 15008KT 9999 FEW015 SCT020",
      "groups": [
        {
          "text": "TAF WSSS 122300Z 1300/1406 15008KT 9999 FEW015 SCT020",
          "offset_h": -5,
          "wdir": 150,
          "wspd": 8
        }
      ],
      "metar_raw": "METAR WSSS 130500Z 11011KT 080V150 9999 -SHRA FEW020TCU SCT025 BKN300 31/24 Q1010 NOSIG",
      "metar_wdir": 110,
      "metar_wspd": 11,
      "metar_oat": 31,
      "metar_qnh": 1010,
      "hourly_oat": [
        31,
        31,
        31,
        31,
        30,
        30,
        30,
        29,
        29,
        29,
        29,
        29,
        28,
        28,
        28,
        28,
        28,
        28,
        28,
        25,
        26,
        28,
        29,
        30,
        31
      ]
    },
    "SGN": {
      "icao": "VVTS",
      "issued": "2026-07-12T23:00:00.000Z",
      "raw": "TAF VVTS 122300Z 1300/1406 22010KT 9999 SCT017 TEMPO 1304/1307 22015G28KT 4000 TSRA SCT015 SCT017CB TEMPO 1307/1311 5000 SHRA SCT015 FEW017CB",
      "groups": [
        {
          "text": "TAF VVTS 122300Z 1300/1406 22010KT 9999 SCT017",
          "offset_h": -5,
          "wdir": 220,
          "wspd": 10
        },
        {
          "text": "TEMPO 1304/1307 22015G28KT 4000 TSRA SCT015 SCT017CB",
          "offset_h": -1,
          "wdir": 220,
          "wspd": 15
        },
        {
          "text": "TEMPO 1307/1311 5000 SHRA SCT015 FEW017CB",
          "offset_h": 2,
          "wdir": null,
          "wspd": null
        }
      ],
      "metar_raw": "METAR VVTS 130500Z 24015KT 210V270 9999 BKN027 33/25 Q1006 NOSIG",
      "metar_wdir": 240,
      "metar_wspd": 15,
      "metar_oat": 33,
      "metar_qnh": 1006,
      "hourly_oat": [
        28,
        29,
        30,
        27,
        26,
        26,
        26,
        26,
        26,
        26,
        26,
        25,
        25,
        25,
        25,
        25,
        25,
        25,
        25,
        26,
        27,
        28,
        29,
        30,
        31
      ]
    }
  }
}