{
  "updated": "2026-07-16T13:17:12Z",
  "tafs": {
    "FUK": {
      "icao": "RJFF",
      "issued": "2026-07-16T13:04:00.000Z",
      "raw": "TAF AMD RJFF 161304Z 1613/1718 14008KT 9999 FEW030 BECMG 1700/1703 33008KT TEMPO 1703/1706 4000 -TSRA BR FEW007 BKN020 FEW025CB TEMPO 1706/1709 4000 -TSRA BR BKN008 FEW025CB BKN040 TEMPO 1709/1712 BKN008 BKN040 BECMG 1712/1715 15010KT",
      "groups": [
        {
          "text": "TAF AMD RJFF 161304Z 1613/1718 14008KT 9999 FEW030",
          "offset_h": 0,
          "wdir": 140,
          "wspd": 8
        },
        {
          "text": "BECMG 1700/1703 33008KT",
          "offset_h": 11,
          "wdir": 330,
          "wspd": 8
        },
        {
          "text": "TEMPO 1703/1706 4000 -TSRA BR FEW007 BKN020 FEW025CB",
          "offset_h": 14,
          "wdir": null,
          "wspd": null
        },
        {
          "text": "TEMPO 1706/1709 4000 -TSRA BR BKN008 FEW025CB BKN040",
          "offset_h": 17,
          "wdir": null,
          "wspd": null
        },
        {
          "text": "TEMPO 1709/1712 BKN008 BKN040",
          "offset_h": 20,
          "wdir": null,
          "wspd": null
        },
        {
          "text": "BECMG 1712/1715 15010KT",
          "offset_h": 23,
          "wdir": 150,
          "wspd": 10
        }
      ],
      "metar_raw": "METAR RJFF 161300Z 14008KT CAVOK 29/25 Q1003 NOSIG",
      "metar_wdir": 140,
      "metar_wspd": 8,
      "metar_oat": 29,
      "metar_qnh": 1003,
      "hourly_oat": [
        27,
        27,
        27,
        27,
        27,
        27,
        26,
        26,
        26,
        27,
        28,
        29,
        30,
        30,
        31,
        30,
        31,
        29,
        28,
        28,
        28,
        28,
        28,
        27,
        27
      ]
    },
    "SAN": {
      "icao": "KSAN",
      "issued": "2026-07-16T12:50:00.000Z",
      "raw": "TAF KSAN 161250Z 1613/1718 18006KT P6SM OVC007 FM161700 20011G20KT P6SM SCT150 FM170000 20008KT P6SM FEW012 FEW200 FM170700 VRB04KT P6SM BKN009",
      "groups": [
        {
          "text": "TAF KSAN 161250Z 1613/1718 18006KT P6SM OVC007",
          "offset_h": 0,
          "wdir": 180,
          "wspd": 6
        },
        {
          "text": "FM161700 20011G20KT P6SM SCT150",
          "offset_h": 4,
          "wdir": 200,
          "wspd": 11
        },
        {
          "text": "FM170000 20008KT P6SM FEW012 FEW200",
          "offset_h": 11,
          "wdir": 200,
          "wspd": 8
        },
        {
          "text": "FM170700 VRB04KT P6SM BKN009",
          "offset_h": 18,
          "wdir": "VRB",
          "wspd": 4
        }
      ],
      "metar_raw": "METAR KSAN 161251Z 19007KT 9SM OVC007 21/19 A2983 RMK AO2 SLP102 T02060189 $",
      "metar_wdir": 190,
      "metar_wspd": 7,
      "metar_oat": 21,
      "metar_qnh": 1010,
      "hourly_oat": [
        20,
        20,
        21,
        22,
        21,
        22,
        24,
        24,
        25,
        26,
        26,
        24,
        23,
        22,
        20,
        20,
        20,
        20,
        20,
        20,
        19,
        19,
        20,
        20,
        20
      ]
    },
    "LAX": {
      "icao": "KLAX",
      "issued": "2026-07-16T11:23:00.000Z",
      "raw": "TAF KLAX 161123Z 1612/1718 11006KT P6SM SCT008 FM161800 24006KT P6SM SKC FM162000 26012KT P6SM SKC FM170300 26006KT P6SM SCT250 FM170800 11005KT P6SM BKN012 FM171600 11005KT P6SM SCT012",
      "groups": [
        {
          "text": "TAF KLAX 161123Z 1612/1718 11006KT P6SM SCT008",
          "offset_h": -1,
          "wdir": 110,
          "wspd": 6
        },
        {
          "text": "FM161800 24006KT P6SM SKC",
          "offset_h": 5,
          "wdir": 240,
          "wspd": 6
        },
        {
          "text": "FM162000 26012KT P6SM SKC",
          "offset_h": 7,
          "wdir": 260,
          "wspd": 12
        },
        {
          "text": "FM170300 26006KT P6SM SCT250",
          "offset_h": 14,
          "wdir": 260,
          "wspd": 6
        },
        {
          "text": "FM170800 11005KT P6SM BKN012",
          "offset_h": 19,
          "wdir": 110,
          "wspd": 5
        },
        {
          "text": "FM171600 11005KT P6SM SCT012",
          "offset_h": 27,
          "wdir": 110,
          "wspd": 5
        }
      ],
      "metar_raw": "METAR KLAX 161253Z 09005KT 9SM FEW010 FEW200 SCT250 21/19 A2981 RMK AO2 SLP091 T02060189 $",
      "metar_wdir": 90,
      "metar_wspd": 5,
      "metar_oat": 21,
      "metar_qnh": 1009,
      "hourly_oat": [
        19,
        21,
        23,
        26,
        28,
        29,
        29,
        27,
        26,
        25,
        24,
        23,
        22,
        21,
        20,
        20,
        20,
        20,
        20,
        20,
        20,
        19,
        18,
        19,
        19
      ]
    },
    "HNL": {
      "icao": "PHNL",
      "issued": "2026-07-16T11:20:00.000Z",
      "raw": "TAF PHNL 161120Z 1612/1718 VRB06KT P6SM FEW025 FEW045 FM162000 07014G22KT P6SM FEW025 SCT040 FM170600 06009KT P6SM FEW025 FEW040",
      "groups": [
        {
          "text": "TAF PHNL 161120Z 1612/1718 VRB06KT P6SM FEW025 FEW045",
          "offset_h": -1,
          "wdir": "VRB",
          "wspd": 6
        },
        {
          "text": "FM162000 07014G22KT P6SM FEW025 SCT040",
          "offset_h": 7,
          "wdir": 70,
          "wspd": 14
        },
        {
          "text": "FM170600 06009KT P6SM FEW025 FEW040",
          "offset_h": 17,
          "wdir": 60,
          "wspd": 9
        }
      ],
      "metar_raw": "METAR PHNL 161253Z 06007KT 10SM FEW025 FEW045 25/21 A2994 RMK AO2 SLP136 T02500206 $",
      "metar_wdir": 60,
      "metar_wspd": 7,
      "metar_oat": 25,
      "metar_qnh": 1014,
      "hourly_oat": [
        23,
        23,
        23,
        23,
        24,
        26,
        28,
        29,
        29,
        30,
        30,
        30,
        28,
        28,
        28,
        26,
        25,
        25,
        24,
        24,
        24,
        24,
        24,
        23,
        23
      ]
    },
    "OKA": {
      "icao": "ROAH",
      "issued": "2026-07-16T11:07:00.000Z",
      "raw": "TAF ROAH 161107Z 1612/1718 23010KT 9999 FEW005 BKN010 TEMPO 1612/1614 FEW004 BKN006 TEMPO 1614/1621 FEW003 BKN005 TEMPO 1621/1703 FEW005 BKN008 TEMPO 1712/1718 FEW004 BKN006",
      "groups": [
        {
          "text": "TAF ROAH 161107Z 1612/1718 23010KT 9999 FEW005 BKN010",
          "offset_h": -1,
          "wdir": 230,
          "wspd": 10
        },
        {
          "text": "TEMPO 1612/1614 FEW004 BKN006",
          "offset_h": -1,
          "wdir": null,
          "wspd": null
        },
        {
          "text": "TEMPO 1614/1621 FEW003 BKN005",
          "offset_h": 1,
          "wdir": null,
          "wspd": null
        },
        {
          "text": "TEMPO 1621/1703 FEW005 BKN008",
          "offset_h": 8,
          "wdir": null,
          "wspd": null
        },
        {
          "text": "TEMPO 1712/1718 FEW004 BKN006",
          "offset_h": 23,
          "wdir": null,
          "wspd": null
        }
      ],
      "metar_raw": "METAR ROAH 161300Z 22007KT 9999 FEW005 BKN007 28/27 Q1009",
      "metar_wdir": 220,
      "metar_wspd": 7,
      "metar_oat": 28,
      "metar_qnh": 1009,
      "hourly_oat": [
        28,
        28,
        28,
        28,
        27,
        27,
        27,
        27,
        27,
        28,
        28,
        29,
        29,
        30,
        30,
        30,
        30,
        30,
        29,
        29,
        29,
        28,
        28,
        28,
        28
      ]
    },
    "NGO": {
      "icao": "RJGG",
      "issued": "2026-07-16T11:05:00.000Z",
      "raw": "TAF RJGG 161105Z 1612/1718 31006KT 9999 FEW030 BECMG 1700/1703 16012KT",
      "groups": [
        {
          "text": "TAF RJGG 161105Z 1612/1718 31006KT 9999 FEW030",
          "offset_h": -1,
          "wdir": 310,
          "wspd": 6
        },
        {
          "text": "BECMG 1700/1703 16012KT",
          "offset_h": 11,
          "wdir": 160,
          "wspd": 12
        }
      ],
      "metar_raw": "METAR RJGG 161300Z 29004KT 9999 FEW020 SCT/// 30/24 Q1001 NOSIG",
      "metar_wdir": 290,
      "metar_wspd": 4,
      "metar_oat": 30,
      "metar_qnh": 1001,
      "hourly_oat": [
        28,
        28,
        27,
        27,
        27,
        27,
        27,
        27,
        26,
        26,
        27,
        27,
        27,
        27,
        27,
        28,
        29,
        28,
        28,
        28,
        28,
        27,
        27,
        27,
        27
      ]
    },
    "CTS": {
      "icao": "RJCC",
      "issued": "2026-07-16T11:05:00.000Z",
      "raw": "TAF RJCC 161105Z 1612/1718 16008KT 9999 FEW005 BKN012 TEMPO 1616/1619 1500 BR FEW001 BKN003 TEMPO 1619/1623 0700 FG VV001 TEMPO 1623/1703 FEW002 BKN005 TEMPO 1703/1709 FEW003 BKN008 TEMPO 1709/1718 1500 -SHRA BR FEW001 BKN003",
      "groups": [
        {
          "text": "TAF RJCC 161105Z 1612/1718 16008KT 9999 FEW005 BKN012",
          "offset_h": -1,
          "wdir": 160,
          "wspd": 8
        },
        {
          "text": "TEMPO 1616/1619 1500 BR FEW001 BKN003",
          "offset_h": 3,
          "wdir": null,
          "wspd": null
        },
        {
          "text": "TEMPO 1619/1623 0700 FG VV001",
          "offset_h": 6,
          "wdir": null,
          "wspd": null
        },
        {
          "text": "TEMPO 1623/1703 FEW002 BKN005",
          "offset_h": 10,
          "wdir": null,
          "wspd": null
        },
        {
          "text": "TEMPO 1703/1709 FEW003 BKN008",
          "offset_h": 14,
          "wdir": null,
          "wspd": null
        },
        {
          "text": "TEMPO 1709/1718 1500 -SHRA BR FEW001 BKN003",
          "offset_h": 20,
          "wdir": null,
          "wspd": null
        }
      ],
      "metar_raw": "METAR RJCC 161300Z 16004KT 9999 FEW015 21/20 Q1004",
      "metar_wdir": 160,
      "metar_wspd": 4,
      "metar_oat": 21,
      "metar_qnh": 1004,
      "hourly_oat": [
        21,
        20,
        20,
        20,
        20,
        20,
        20,
        20,
        20,
        20,
        21,
        22,
        23,
        23,
        24,
        24,
        23,
        23,
        23,
        22,
        22,
        22,
        22,
        22,
        21
      ]
    },
    "HND": {
      "icao": "RJTT",
      "issued": "2026-07-16T11:05:00.000Z",
      "raw": "TAF RJTT 161105Z 1612/1718 18006KT 8000 FEW005 BKN012 BECMG 1612/1614 34004KT TEMPO 1615/1700 FEW005 BKN008 BECMG 1700/1703 18012KT TEMPO 1700/1706 -TSRA FEW008 BKN015 FEW025CB",
      "groups": [
        {
          "text": "TAF RJTT 161105Z 1612/1718 18006KT 8000 FEW005 BKN012",
          "offset_h": -1,
          "wdir": 180,
          "wspd": 6
        },
        {
          "text": "BECMG 1612/1614 34004KT",
          "offset_h": -1,
          "wdir": 340,
          "wspd": 4
        },
        {
          "text": "TEMPO 1615/1700 FEW005 BKN008",
          "offset_h": 2,
          "wdir": null,
          "wspd": null
        },
        {
          "text": "BECMG 1700/1703 18012KT",
          "offset_h": 11,
          "wdir": 180,
          "wspd": 12
        },
        {
          "text": "TEMPO 1700/1706 -TSRA FEW008 BKN015 FEW025CB",
          "offset_h": 11,
          "wdir": null,
          "wspd": null
        }
      ],
      "metar_raw": "METAR RJTT 161300Z 19010KT 9999 SCT025 BKN150 29/25 Q1002 BECMG 30006KT",
      "metar_wdir": 190,
      "metar_wspd": 10,
      "metar_oat": 29,
      "metar_qnh": 1002,
      "hourly_oat": [
        27,
        27,
        27,
        26,
        26,
        26,
        26,
        26,
        26,
        26,
        27,
        27,
        28,
        29,
        29,
        29,
        28,
        28,
        28,
        27,
        27,
        27,
        26,
        26,
        26
      ]
    },
    "ITM": {
      "icao": "RJOO",
      "issued": "2026-07-16T11:05:00.000Z",
      "raw": "TAF RJOO 161105Z 1612/1718 34006KT 9999 FEW030 BECMG 1622/1700 21006KT BECMG 1715/1718 32004KT",
      "groups": [
        {
          "text": "TAF RJOO 161105Z 1612/1718 34006KT 9999 FEW030",
          "offset_h": -1,
          "wdir": 340,
          "wspd": 6
        },
        {
          "text": "BECMG 1622/1700 21006KT",
          "offset_h": 9,
          "wdir": 210,
          "wspd": 6
        },
        {
          "text": "BECMG 1715/1718 32004KT",
          "offset_h": 26,
          "wdir": 320,
          "wspd": 4
        }
      ],
      "metar_raw": "METAR RJOO 161300Z AUTO 05003KT 290V070 9999 NCD 29/21 Q1002",
      "metar_wdir": 50,
      "metar_wspd": 3,
      "metar_oat": 29,
      "metar_qnh": 1002,
      "hourly_oat": [
        28,
        27,
        26,
        26,
        25,
        25,
        24,
        24,
        24,
        26,
        27,
        29,
        31,
        32,
        34,
        34,
        34,
        33,
        32,
        32,
        31,
        30,
        29,
        28,
        28
      ]
    },
    "KIX": {
      "icao": "RJBB",
      "issued": "2026-07-16T11:05:00.000Z",
      "raw": "TAF RJBB 161105Z 1612/1718 04008KT 9999 FEW030 BECMG 1700/1703 24006KT BECMG 1715/1718 11004KT",
      "groups": [
        {
          "text": "TAF RJBB 161105Z 1612/1718 04008KT 9999 FEW030",
          "offset_h": -1,
          "wdir": 40,
          "wspd": 8
        },
        {
          "text": "BECMG 1700/1703 24006KT",
          "offset_h": 11,
          "wdir": 240,
          "wspd": 6
        },
        {
          "text": "BECMG 1715/1718 11004KT",
          "offset_h": 26,
          "wdir": 110,
          "wspd": 4
        }
      ],
      "metar_raw": "METAR RJBB 161300Z VRB02KT 9999 FEW030 BKN/// 29/24 Q1002 BECMG 04006KT",
      "metar_wdir": "VRB",
      "metar_wspd": 2,
      "metar_oat": 29,
      "metar_qnh": 1002,
      "hourly_oat": [
        28,
        28,
        28,
        28,
        27,
        27,
        27,
        27,
        26,
        26,
        26,
        27,
        27,
        27,
        27,
        27,
        28,
        28,
        28,
        28,
        28,
        28,
        28,
        27,
        27
      ]
    },
    "NRT": {
      "icao": "RJAA",
      "issued": "2026-07-16T11:05:00.000Z",
      "raw": "TAF RJAA 161105Z 1612/1718 14006KT 6000 -SHRA FEW005 BKN012 TEMPO 1612/1615 4000 BR FEW001 BKN005 TEMPO 1615/1618 3000 -SHRA BR FEW001 BKN005 TEMPO 1618/1623 4000 -SHRA BR FEW001 BKN005 TEMPO 1623/1703 FEW001 BKN008",
      "groups": [
        {
          "text": "TAF RJAA 161105Z 1612/1718 14006KT 6000 -SHRA FEW005 BKN012",
          "offset_h": -1,
          "wdir": 140,
          "wspd": 6
        },
        {
          "text": "TEMPO 1612/1615 4000 BR FEW001 BKN005",
          "offset_h": -1,
          "wdir": null,
          "wspd": null
        },
        {
          "text": "TEMPO 1615/1618 3000 -SHRA BR FEW001 BKN005",
          "offset_h": 2,
          "wdir": null,
          "wspd": null
        },
        {
          "text": "TEMPO 1618/1623 4000 -SHRA BR FEW001 BKN005",
          "offset_h": 5,
          "wdir": null,
          "wspd": null
        },
        {
          "text": "TEMPO 1623/1703 FEW001 BKN008",
          "offset_h": 10,
          "wdir": null,
          "wspd": null
        }
      ],
      "metar_raw": "METAR RJAA 161300Z 14006KT 6000 FEW003 SCT005 BKN007 27/26 Q1003 TEMPO 4000 BR FEW002 BKN005",
      "metar_wdir": 140,
      "metar_wspd": 6,
      "metar_oat": 27,
      "metar_qnh": 1003,
      "hourly_oat": [
        26,
        26,
        26,
        26,
        26,
        26,
        26,
        26,
        26,
        26,
        27,
        27,
        27,
        28,
        28,
        27,
        27,
        27,
        26,
        26,
        26,
        26,
        25,
        25,
        25
      ]
    },
    "KUL": {
      "icao": "WMKK",
      "issued": "2026-07-16T11:00:00.000Z",
      "raw": "TAF WMKK 161100Z 1612/1718 VRB03KT 9999 FEW030",
      "groups": [
        {
          "text": "TAF WMKK 161100Z 1612/1718 VRB03KT 9999 FEW030",
          "offset_h": -1,
          "wdir": "VRB",
          "wspd": 3
        }
      ],
      "metar_raw": "METAR WMKK 161300Z VRB02KT 9000 FEW030 29/25 Q1010 NOSIG",
      "metar_wdir": "VRB",
      "metar_wspd": 2,
      "metar_oat": 29,
      "metar_qnh": 1010,
      "hourly_oat": [
        28,
        28,
        28,
        27,
        27,
        26,
        25,
        24,
        24,
        24,
        24,
        24,
        26,
        28,
        29,
        30,
        31,
        29,
        28,
        28,
        27,
        27,
        26,
        26,
        25
      ]
    },
    "SGN": {
      "icao": "VVTS",
      "issued": "2026-07-16T11:00:00.000Z",
      "raw": "TAF VVTS 161100Z 1612/1718 25008KT 9999 SCT017 TEMPO 1612/1616 25015G26KT 3500 TSRA SCT013 SCT015CB TEMPO 1709/1713 5000 TSRA SCT015 FEW017CB",
      "groups": [
        {
          "text": "TAF VVTS 161100Z 1612/1718 25008KT 9999 SCT017",
          "offset_h": -1,
          "wdir": 250,
          "wspd": 8
        },
        {
          "text": "TEMPO 1612/1616 25015G26KT 3500 TSRA SCT013 SCT015CB",
          "offset_h": -1,
          "wdir": 250,
          "wspd": 15
        },
        {
          "text": "TEMPO 1709/1713 5000 TSRA SCT015 FEW017CB",
          "offset_h": 20,
          "wdir": null,
          "wspd": null
        }
      ],
      "metar_raw": "METAR VVTS 161300Z 31015KT 8000 -SHRA SCT015 FEW018CB BKN041 25/24 Q1012 TEMPO TL1330 30017G28KT 3000 TSRA",
      "metar_wdir": 310,
      "metar_wspd": 15,
      "metar_oat": 25,
      "metar_qnh": 1012,
      "hourly_oat": [
        27,
        27,
        27,
        26,
        26,
        26,
        26,
        25,
        25,
        25,
        25,
        26,
        28,
        29,
        31,
        32,
        33,
        33,
        33,
        32,
        27,
        27,
        27,
        26,
        26
      ]
    },
    "HKG": {
      "icao": "VHHH",
      "issued": "2026-07-16T11:00:00.000Z",
      "raw": "TAF VHHH 161100Z 1612/1718 20010KT 9999 FEW010 SCT025 TX30/1706Z TN26/1622Z TEMPO 1612/1613 08010KT TEMPO 1613/1616 VRB15G25KT 2500 TSRA SHRA FEW010CB SCT015 TEMPO 1618/1623 3000 SHRA FEW010CB SCT020 TEMPO 1623/1705 VRB20G30KT 2000 TSRA +SHRA FEW008CB SCT015 TEMPO 1705/1708 3000 SHRA FEW010CB SCT020",
      "groups": [
        {
          "text": "TAF VHHH 161100Z 1612/1718 20010KT 9999 FEW010 SCT025 TX30/1706Z TN26/1622Z",
          "offset_h": -1,
          "wdir": 200,
          "wspd": 10
        },
        {
          "text": "TEMPO 1612/1613 08010KT",
          "offset_h": -1,
          "wdir": 80,
          "wspd": 10
        },
        {
          "text": "TEMPO 1613/1616 VRB15G25KT 2500 TSRA SHRA FEW010CB SCT015",
          "offset_h": 0,
          "wdir": "VRB",
          "wspd": 15
        },
        {
          "text": "TEMPO 1618/1623 3000 SHRA FEW010CB SCT020",
          "offset_h": 5,
          "wdir": null,
          "wspd": null
        },
        {
          "text": "TEMPO 1623/1705 VRB20G30KT 2000 TSRA +SHRA FEW008CB SCT015",
          "offset_h": 10,
          "wdir": "VRB",
          "wspd": 20
        },
        {
          "text": "TEMPO 1705/1708 3000 SHRA FEW010CB SCT020",
          "offset_h": 16,
          "wdir": null,
          "wspd": null
        }
      ],
      "metar_raw": "METAR VHHH 161300Z 09011KT 9999 FEW010 SCT035 28/24 Q1007 TEMPO VRB15G25KT 2500 TSRA SHRA FEW010CB SCT015",
      "metar_wdir": 90,
      "metar_wspd": 11,
      "metar_oat": 28,
      "metar_qnh": 1007,
      "hourly_oat": [
        28,
        28,
        28,
        27,
        27,
        27,
        26,
        27,
        26,
        26,
        27,
        27,
        26,
        27,
        28,
        29,
        29,
        29,
        29,
        30,
        30,
        29,
        29,
        29,
        29
      ]
    },
    "GMP": {
      "icao": "RKSS",
      "issued": "2026-07-16T11:00:00.000Z",
      "raw": "TAF RKSS 161100Z 1612/1718 28005KT CAVOK TN23/1619Z TX32/1706Z BECMG 1615/1617 06005KT 6000 NSC BECMG 1702/1704 27007KT SCT030 BKN200 BECMG 1712/1714 07008KT 4000 -RA FEW010 BKN025 OVC070 BECMG 1715/1717 10010KT 2500 RA",
      "groups": [
        {
          "text": "TAF RKSS 161100Z 1612/1718 28005KT CAVOK TN23/1619Z TX32/1706Z",
          "offset_h": -1,
          "wdir": 280,
          "wspd": 5
        },
        {
          "text": "BECMG 1615/1617 06005KT 6000 NSC",
          "offset_h": 2,
          "wdir": 60,
          "wspd": 5
        },
        {
          "text": "BECMG 1702/1704 27007KT SCT030 BKN200",
          "offset_h": 13,
          "wdir": 270,
          "wspd": 7
        },
        {
          "text": "BECMG 1712/1714 07008KT 4000 -RA FEW010 BKN025 OVC070",
          "offset_h": 23,
          "wdir": 70,
          "wspd": 8
        },
        {
          "text": "BECMG 1715/1717 10010KT 2500 RA",
          "offset_h": 26,
          "wdir": 100,
          "wspd": 10
        }
      ],
      "metar_raw": "METAR RKSS 161300Z 30007KT CAVOK 24/24 Q1004 NOSIG",
      "metar_wdir": 300,
      "metar_wspd": 7,
      "metar_oat": 24,
      "metar_qnh": 1004,
      "hourly_oat": [
        24,
        24,
        24,
        23,
        23,
        22,
        22,
        22,
        22,
        23,
        24,
        25,
        26,
        27,
        28,
        27,
        27,
        26,
        27,
        27,
        26,
        26,
        25,
        24,
        24
      ]
    },
    "CGK": {
      "icao": "WIII",
      "issued": "2026-07-16T11:00:00.000Z",
      "raw": "TAF WIII 161100Z 1612/1718 06010KT 7000 FEW020 BECMG 1618/1620 15005KT 5000 HZ BECMG 1702/1704 06013KT 8000 NSW",
      "groups": [
        {
          "text": "TAF WIII 161100Z 1612/1718 06010KT 7000 FEW020",
          "offset_h": -1,
          "wdir": 60,
          "wspd": 10
        },
        {
          "text": "BECMG 1618/1620 15005KT 5000 HZ",
          "offset_h": 5,
          "wdir": 150,
          "wspd": 5
        },
        {
          "text": "BECMG 1702/1704 06013KT 8000 NSW",
          "offset_h": 13,
          "wdir": 60,
          "wspd": 13
        }
      ],
      "metar_raw": "METAR WIII 161300Z 07012KT 6000 FEW020 28/22 Q1012 NOSIG",
      "metar_wdir": 70,
      "metar_wspd": 12,
      "metar_oat": 28,
      "metar_qnh": 1012,
      "hourly_oat": [
        28,
        28,
        27,
        27,
        26,
        26,
        25,
        25,
        25,
        24,
        24,
        25,
        27,
        30,
        32,
        33,
        33,
        33,
        32,
        32,
        31,
        30,
        29,
        28,
        28
      ]
    },
    "SIN": {
      "icao": "WSSS",
      "issued": "2026-07-16T11:00:00.000Z",
      "raw": "TAF WSSS 161100Z 1612/1718 15007KT 9999 FEW015 SCT020 TEMPO 1705/1708 3000 TSRA FEW012CB BKN015",
      "groups": [
        {
          "text": "TAF WSSS 161100Z 1612/1718 15007KT 9999 FEW015 SCT020",
          "offset_h": -1,
          "wdir": 150,
          "wspd": 7
        },
        {
          "text": "TEMPO 1705/1708 3000 TSRA FEW012CB BKN015",
          "offset_h": 16,
          "wdir": null,
          "wspd": null
        }
      ],
      "metar_raw": "METAR WSSS 161300Z 12008KT 9999 FEW018 BKN300 29/25 Q1011 NOSIG",
      "metar_wdir": 120,
      "metar_wspd": 8,
      "metar_oat": 29,
      "metar_qnh": 1011,
      "hourly_oat": [
        29,
        29,
        29,
        29,
        29,
        29,
        28,
        28,
        28,
        26,
        26,
        26,
        27,
        28,
        29,
        30,
        30,
        31,
        30,
        30,
        29,
        28,
        28,
        28,
        28
      ]
    },
    "HAN": {
      "icao": "VVNB",
      "issued": "2026-07-16T11:00:00.000Z",
      "raw": "TAF VVNB 161100Z 1612/1712 14005KT 9999 FEW020 PROB30 TEMPO 1621/1701 3500 TSRA SCT015 FEW027CB",
      "groups": [
        {
          "text": "TAF VVNB 161100Z 1612/1712 14005KT 9999 FEW020",
          "offset_h": -1,
          "wdir": 140,
          "wspd": 5
        },
        {
          "text": "PROB30",
          "offset_h": 0,
          "wdir": null,
          "wspd": null
        },
        {
          "text": "TEMPO 1621/1701 3500 TSRA SCT015 FEW027CB",
          "offset_h": 8,
          "wdir": null,
          "wspd": null
        }
      ],
      "metar_raw": "METAR VVNB 161300Z VRB02KT 7000 NSC 29/27 Q1001 NOSIG",
      "metar_wdir": "VRB",
      "metar_wspd": 2,
      "metar_oat": 29,
      "metar_qnh": 1001,
      "hourly_oat": [
        30,
        30,
        29,
        29,
        29,
        29,
        29,
        28,
        28,
        28,
        28,
        28,
        30,
        31,
        32,
        33,
        33,
        34,
        34,
        34,
        33,
        33,
        32,
        31,
        30
      ]
    },
    "BKK": {
      "icao": "VTBS",
      "issued": "2026-07-16T11:00:00.000Z",
      "raw": "TAF VTBS 161100Z 1612/1718 22008KT 9999 FEW020 TEMPO 1709/1713 VRB15KT 3000 TSRA FEW018CB SCT030 BKN080",
      "groups": [
        {
          "text": "TAF VTBS 161100Z 1612/1718 22008KT 9999 FEW020",
          "offset_h": -1,
          "wdir": 220,
          "wspd": 8
        },
        {
          "text": "TEMPO 1709/1713 VRB15KT 3000 TSRA FEW018CB SCT030 BKN080",
          "offset_h": 20,
          "wdir": "VRB",
          "wspd": 15
        }
      ],
      "metar_raw": "METAR VTBS 161300Z 20005KT 9000 -RA FEW020CB SCT040 25/25 Q1009 RETS NOSIG",
      "metar_wdir": 200,
      "metar_wspd": 5,
      "metar_oat": 25,
      "metar_qnh": 1009,
      "hourly_oat": [
        27,
        28,
        28,
        27,
        27,
        27,
        27,
        27,
        27,
        27,
        26,
        27,
        28,
        29,
        31,
        32,
        32,
        30,
        31,
        30,
        28,
        27,
        28,
        27,
        27
      ]
    },
    "TSA": {
      "icao": "RCSS",
      "issued": "2026-07-16T11:00:00.000Z",
      "raw": "TAF RCSS 161100Z 1612/1712 29005KT 9999 FEW015 TEMPO 1700/1705 26010KT TEMPO 1705/1711 16010KT 3000 SHRA FEW010 FEW015CB BKN020",
      "groups": [
        {
          "text": "TAF RCSS 161100Z 1612/1712 29005KT 9999 FEW015",
          "offset_h": -1,
          "wdir": 290,
          "wspd": 5
        },
        {
          "text": "TEMPO 1700/1705 26010KT",
          "offset_h": 11,
          "wdir": 260,
          "wspd": 10
        },
        {
          "text": "TEMPO 1705/1711 16010KT 3000 SHRA FEW010 FEW015CB BKN020",
          "offset_h": 16,
          "wdir": 160,
          "wspd": 10
        }
      ],
      "metar_raw": "METAR RCSS 161300Z 08003KT 050V110 9999 FEW018 SCT025 BKN040 29/27 Q1007 NOSIG RMK A2976",
      "metar_wdir": 80,
      "metar_wspd": 3,
      "metar_oat": 29,
      "metar_qnh": 1007,
      "hourly_oat": [
        27,
        27,
        26,
        26,
        26,
        26,
        26,
        26,
        25,
        26,
        27,
        28,
        30,
        31,
        33,
        33,
        32,
        31,
        30,
        30,
        29,
        29,
        28,
        28,
        27
      ]
    },
    "TPE": {
      "icao": "RCTP",
      "issued": "2026-07-16T11:00:00.000Z",
      "raw": "TAF RCTP 161100Z 1612/1718 24015KT 9999 FEW015 TEMPO 1616/1622 17010KT TEMPO 1704/1708 24015G25KT TEMPO 1708/1711 FEW010 FEW015TCU BKN025 BECMG 1711/1713 22010KT",
      "groups": [
        {
          "text": "TAF RCTP 161100Z 1612/1718 24015KT 9999 FEW015",
          "offset_h": -1,
          "wdir": 240,
          "wspd": 15
        },
        {
          "text": "TEMPO 1616/1622 17010KT",
          "offset_h": 3,
          "wdir": 170,
          "wspd": 10
        },
        {
          "text": "TEMPO 1704/1708 24015G25KT",
          "offset_h": 15,
          "wdir": 240,
          "wspd": 15
        },
        {
          "text": "TEMPO 1708/1711 FEW010 FEW015TCU BKN025",
          "offset_h": 19,
          "wdir": null,
          "wspd": null
        },
        {
          "text": "BECMG 1711/1713 22010KT",
          "offset_h": 22,
          "wdir": 220,
          "wspd": 10
        }
      ],
      "metar_raw": "METAR RCTP 161300Z 23009KT 9999 FEW015 28/26 Q1007 NOSIG RMK A2976",
      "metar_wdir": 230,
      "metar_wspd": 9,
      "metar_oat": 28,
      "metar_qnh": 1007,
      "hourly_oat": [
        28,
        27,
        27,
        27,
        27,
        27,
        26,
        26,
        27,
        27,
        28,
        28,
        30,
        30,
        30,
        30,
        30,
        30,
        30,
        29,
        29,
        28,
        28,
        28,
        27
      ]
    },
    "DLC": {
      "icao": "ZYTL",
      "issued": "2026-07-16T09:19:00.000Z",
      "raw": "TAF ZYTL 160919Z 1612/1712 12004MPS 3500 BR FEW020 TX28/1706Z TN24/1620Z TEMPO 1615/1618 0900 FG SCT003 BKN011",
      "groups": [
        {
          "text": "TAF ZYTL 160919Z 1612/1712 12004MPS 3500 BR FEW020 TX28/1706Z TN24/1620Z",
          "offset_h": -1,
          "wdir": null,
          "wspd": null
        },
        {
          "text": "TEMPO 1615/1618 0900 FG SCT003 BKN011",
          "offset_h": 2,
          "wdir": null,
          "wspd": null
        }
      ],
      "metar_raw": "METAR ZYTL 161300Z 10002MPS 6000 NSC 25/22 Q1003 NOSIG",
      "metar_wdir": null,
      "metar_wspd": null,
      "metar_oat": 25,
      "metar_qnh": 1003,
      "hourly_oat": [
        24,
        24,
        24,
        24,
        24,
        24,
        24,
        23,
        24,
        24,
        25,
        25,
        25,
        26,
        25,
        25,
        26,
        26,
        26,
        25,
        26,
        25,
        24,
        23,
        22
      ]
    },
    "CAN": {
      "icao": "ZGGG",
      "issued": "2026-07-16T09:11:00.000Z",
      "raw": "TAF ZGGG 160911Z 1612/1718 14003MPS 8000 BKN033 TX27/1612Z TX33/1707Z TN25/1622Z TEMPO 1618/1622 SHRA FEW026CB BKN030 TEMPO 1706/1710 TSRA SCT026CB BKN030",
      "groups": [
        {
          "text": "TAF ZGGG 160911Z 1612/1718 14003MPS 8000 BKN033 TX27/1612Z TX33/1707Z TN25/1622Z",
          "offset_h": -1,
          "wdir": null,
          "wspd": null
        },
        {
          "text": "TEMPO 1618/1622 SHRA FEW026CB BKN030",
          "offset_h": 5,
          "wdir": null,
          "wspd": null
        },
        {
          "text": "TEMPO 1706/1710 TSRA SCT026CB BKN030",
          "offset_h": 17,
          "wdir": null,
          "wspd": null
        }
      ],
      "metar_raw": "METAR ZGGG 161300Z 13003MPS CAVOK 28/25 Q1006 NOSIG",
      "metar_wdir": null,
      "metar_wspd": null,
      "metar_oat": 28,
      "metar_qnh": 1006,
      "hourly_oat": [
        27,
        27,
        27,
        27,
        26,
        26,
        26,
        26,
        26,
        26,
        26,
        27,
        28,
        29,
        30,
        31,
        31,
        32,
        28,
        29,
        30,
        30,
        29,
        28,
        28
      ]
    },
    "SHA": {
      "icao": "ZSSS",
      "issued": "2026-07-16T09:05:00.000Z",
      "raw": "TAF ZSSS 160905Z 1612/1718 18004MPS 8000 SCT030 TX36/1612Z TX38/1706Z TN30/1621Z TEMPO 1706/1710 TSRA BKN015 FEW030CB",
      "groups": [
        {
          "text": "TAF ZSSS 160905Z 1612/1718 18004MPS 8000 SCT030 TX36/1612Z TX38/1706Z TN30/1621Z",
          "offset_h": -1,
          "wdir": null,
          "wspd": null
        },
        {
          "text": "TEMPO 1706/1710 TSRA BKN015 FEW030CB",
          "offset_h": 17,
          "wdir": null,
          "wspd": null
        }
      ],
      "metar_raw": "METAR ZSSS 161300Z 20003MPS CAVOK 35/25 Q1002 NOSIG",
      "metar_wdir": null,
      "metar_wspd": null,
      "metar_oat": 35,
      "metar_qnh": 1002,
      "hourly_oat": [
        35,
        33,
        32,
        32,
        32,
        31,
        31,
        31,
        30,
        30,
        32,
        34,
        35,
        36,
        37,
        37,
        38,
        38,
        38,
        37,
        37,
        36,
        35,
        34,
        33
      ]
    },
    "PVG": {
      "icao": "ZSPD",
      "issued": "2026-07-16T09:05:00.000Z",
      "raw": "TAF ZSPD 160905Z 1612/1718 18004MPS 8000 SCT030 TX34/1612Z TX38/1706Z TN30/1621Z TEMPO 1706/1710 TSRA BKN015 FEW030CB",
      "groups": [
        {
          "text": "TAF ZSPD 160905Z 1612/1718 18004MPS 8000 SCT030 TX34/1612Z TX38/1706Z TN30/1621Z",
          "offset_h": -1,
          "wdir": null,
          "wspd": null
        },
        {
          "text": "TEMPO 1706/1710 TSRA BKN015 FEW030CB",
          "offset_h": 17,
          "wdir": null,
          "wspd": null
        }
      ],
      "metar_raw": "METAR ZSPD 161300Z 17003MPS CAVOK 31/27 Q1002 NOSIG",
      "metar_wdir": null,
      "metar_wspd": null,
      "metar_oat": 31,
      "metar_qnh": 1002,
      "hourly_oat": [
        31,
        31,
        31,
        30,
        30,
        30,
        30,
        29,
        29,
        30,
        32,
        34,
        35,
        36,
        37,
        37,
        35,
        34,
        33,
        34,
        34,
        34,
        33,
        31,
        31
      ]
    },
    "PEK": {
      "icao": "ZBAA",
      "issued": "2026-07-16T09:00:00.000Z",
      "raw": "TAF ZBAA 160900Z 1612/1718 18004MPS CAVOK TX35/1707Z TN24/1621Z TN22/1718Z",
      "groups": [
        {
          "text": "TAF ZBAA 160900Z 1612/1718 18004MPS CAVOK TX35/1707Z TN24/1621Z TN22/1718Z",
          "offset_h": -1,
          "wdir": null,
          "wspd": null
        }
      ],
      "metar_raw": "METAR ZBAA 161300Z 15003MPS CAVOK 30/19 Q1003 NOSIG",
      "metar_wdir": null,
      "metar_wspd": null,
      "metar_oat": 30,
      "metar_qnh": 1003,
      "hourly_oat": [
        26,
        26,
        25,
        25,
        25,
        24,
        23,
        22,
        21,
        21,
        22,
        23,
        24,
        25,
        29,
        30,
        31,
        32,
        32,
        32,
        31,
        29,
        28,
        26,
        25
      ]
    }
  }
}