{
  "updated": "2026-06-21T21:03:31Z",
  "tafs": {
    "HNL": {
      "icao": "PHNL",
      "issued": "2026-06-21T20:55:00.000Z",
      "raw": "TAF PHNL 212055Z 2121/2224 04011G17KT P6SM FEW025 SCT035 FM220700 VRB06KT P6SM FEW020 FM222000 06012G20KT P6SM FEW035 SCT050",
      "groups": [
        {
          "text": "TAF PHNL 212055Z 2121/2224 04011G17KT P6SM FEW025 SCT035",
          "offset_h": 0,
          "wdir": 40,
          "wspd": 11
        },
        {
          "text": "FM220700 VRB06KT P6SM FEW020",
          "offset_h": 10,
          "wdir": "VRB",
          "wspd": 6
        },
        {
          "text": "FM222000 06012G20KT P6SM FEW035 SCT050",
          "offset_h": 23,
          "wdir": 60,
          "wspd": 12
        }
      ],
      "metar_raw": "METAR PHNL 212053Z 04008KT 10SM FEW025 FEW035 30/20 A3001 RMK AO2 SLP163 T03000200 58006 $",
      "metar_wdir": 40,
      "metar_wspd": 8,
      "metar_oat": 30,
      "metar_qnh": 1016,
      "hourly_oat": [
        30,
        30,
        31,
        31,
        30,
        29,
        28,
        27,
        26,
        24,
        24,
        24,
        23,
        23,
        23,
        23,
        23,
        23,
        23,
        23,
        24,
        26,
        27,
        29,
        29
      ]
    },
    "NRT": {
      "icao": "RJAA",
      "issued": "2026-06-21T20:43:00.000Z",
      "raw": "TAF AMD RJAA 212043Z 2120/2300 02010KT 9999 FEW015 BKN030 BECMG 2204/2206 08006KT BECMG 2212/2215 01006KT TEMPO 2215/2221 FEW002 BKN005",
      "groups": [
        {
          "text": "TAF AMD RJAA 212043Z 2120/2300 02010KT 9999 FEW015 BKN030",
          "offset_h": -1,
          "wdir": 20,
          "wspd": 10
        },
        {
          "text": "BECMG 2204/2206 08006KT",
          "offset_h": 7,
          "wdir": 80,
          "wspd": 6
        },
        {
          "text": "BECMG 2212/2215 01006KT",
          "offset_h": 15,
          "wdir": 10,
          "wspd": 6
        },
        {
          "text": "TEMPO 2215/2221 FEW002 BKN005",
          "offset_h": 18,
          "wdir": null,
          "wspd": null
        }
      ],
      "metar_raw": "METAR RJAA 212030Z AUTO VRB02KT 9999 SCT040 20/19 Q1000 BECMG 01005KT",
      "metar_wdir": "VRB",
      "metar_wspd": 2,
      "metar_oat": 20,
      "metar_qnh": 1000,
      "hourly_oat": [
        20,
        20,
        21,
        22,
        23,
        24,
        25,
        25,
        25,
        25,
        23,
        22,
        22,
        21,
        21,
        20,
        20,
        19,
        19,
        18,
        18,
        18,
        18,
        18,
        18
      ]
    },
    "SAN": {
      "icao": "KSAN",
      "issued": "2026-06-21T20:39:00.000Z",
      "raw": "TAF KSAN 212039Z 2121/2224 29011KT P6SM FEW030 FM220300 VRB04KT P6SM BKN020 FM220900 VRB04KT P6SM OVC018 FM221800 29010KT P6SM SCT022",
      "groups": [
        {
          "text": "TAF KSAN 212039Z 2121/2224 29011KT P6SM FEW030",
          "offset_h": 0,
          "wdir": 290,
          "wspd": 11
        },
        {
          "text": "FM220300 VRB04KT P6SM BKN020",
          "offset_h": 6,
          "wdir": "VRB",
          "wspd": 4
        },
        {
          "text": "FM220900 VRB04KT P6SM OVC018",
          "offset_h": 12,
          "wdir": "VRB",
          "wspd": 4
        },
        {
          "text": "FM221800 29010KT P6SM SCT022",
          "offset_h": 21,
          "wdir": 290,
          "wspd": 10
        }
      ],
      "metar_raw": "METAR KSAN 212051Z 32011G19KT 10SM FEW029 FEW200 22/13 A2992 RMK AO2 SLP131 T02220128 58011 $",
      "metar_wdir": 320,
      "metar_wspd": 11,
      "metar_oat": 22,
      "metar_qnh": 1013,
      "hourly_oat": [
        22,
        22,
        21,
        20,
        20,
        19,
        18,
        18,
        18,
        17,
        17,
        18,
        18,
        17,
        17,
        17,
        16,
        16,
        17,
        18,
        20,
        21,
        22,
        21,
        21
      ]
    },
    "HKG": {
      "icao": "VHHH",
      "issued": "2026-06-21T20:00:00.000Z",
      "raw": "TAF VHHH 212000Z 2121/2303 22010KT 9999 FEW015 TX34/2206Z TN28/2122Z TN29/2222Z",
      "groups": [
        {
          "text": "TAF VHHH 212000Z 2121/2303 22010KT 9999 FEW015 TX34/2206Z TN28/2122Z TN29/2222Z",
          "offset_h": 0,
          "wdir": 220,
          "wspd": 10
        }
      ],
      "metar_raw": "METAR VHHH 212100Z 21009KT 9999 FEW015 29/24 Q1008 NOSIG",
      "metar_wdir": 210,
      "metar_wspd": 9,
      "metar_oat": 29,
      "metar_qnh": 1008,
      "hourly_oat": [
        28,
        28,
        29,
        29,
        29,
        30,
        30,
        30,
        30,
        30,
        30,
        30,
        30,
        29,
        29,
        29,
        29,
        29,
        29,
        28,
        28,
        28,
        28,
        28,
        28
      ]
    },
    "LAX": {
      "icao": "KLAX",
      "issued": "2026-06-21T17:35:00.000Z",
      "raw": "TAF KLAX 211735Z 2118/2224 23008KT P6SM BKN020 FM211900 25010KT P6SM SCT250 FM220600 VRB03KT P6SM OVC012 FM221800 23011KT P6SM SCT022",
      "groups": [
        {
          "text": "TAF KLAX 211735Z 2118/2224 23008KT P6SM BKN020",
          "offset_h": -3,
          "wdir": 230,
          "wspd": 8
        },
        {
          "text": "FM211900 25010KT P6SM SCT250",
          "offset_h": -2,
          "wdir": 250,
          "wspd": 10
        },
        {
          "text": "FM220600 VRB03KT P6SM OVC012",
          "offset_h": 9,
          "wdir": "VRB",
          "wspd": 3
        },
        {
          "text": "FM221800 23011KT P6SM SCT022",
          "offset_h": 21,
          "wdir": 230,
          "wspd": 11
        }
      ],
      "metar_raw": "METAR KLAX 212053Z 25012G18KT 10SM FEW017 SCT026 21/13 A2992 RMK AO2 SLP130 T02110133 58004 $",
      "metar_wdir": 250,
      "metar_wspd": 12,
      "metar_oat": 21,
      "metar_qnh": 1013,
      "hourly_oat": [
        21,
        20,
        20,
        19,
        19,
        18,
        17,
        16,
        16,
        16,
        16,
        16,
        16,
        16,
        16,
        16,
        16,
        16,
        17,
        17,
        18,
        20,
        19,
        20,
        20
      ]
    },
    "NGO": {
      "icao": "RJGG",
      "issued": "2026-06-21T17:05:00.000Z",
      "raw": "TAF RJGG 211705Z 2118/2300 30020KT 9999 FEW020 SCT040",
      "groups": [
        {
          "text": "TAF RJGG 211705Z 2118/2300 30020KT 9999 FEW020 SCT040",
          "offset_h": -3,
          "wdir": 300,
          "wspd": 20
        }
      ],
      "metar_raw": "METAR RJGG 212030Z AUTO 32015KT 9999 NCD 23/18 Q1003 NOSIG",
      "metar_wdir": 320,
      "metar_wspd": 15,
      "metar_oat": 23,
      "metar_qnh": 1003,
      "hourly_oat": [
        23,
        23,
        24,
        24,
        24,
        24,
        24,
        24,
        24,
        24,
        24,
        24,
        24,
        23,
        23,
        23,
        23,
        23,
        23,
        22,
        22,
        22,
        22,
        22,
        22
      ]
    },
    "FUK": {
      "icao": "RJFF",
      "issued": "2026-06-21T17:05:00.000Z",
      "raw": "TAF RJFF 211705Z 2118/2300 01006KT 9000 -SHRA FEW015 BKN020 BECMG 2212/2215 18004KT",
      "groups": [
        {
          "text": "TAF RJFF 211705Z 2118/2300 01006KT 9000 -SHRA FEW015 BKN020",
          "offset_h": -3,
          "wdir": 10,
          "wspd": 6
        },
        {
          "text": "BECMG 2212/2215 18004KT",
          "offset_h": 15,
          "wdir": 180,
          "wspd": 4
        }
      ],
      "metar_raw": "METAR RJFF 212030Z AUTO 34004KT 9999 FEW015 BKN027 OVC030 22/18 Q1009 NOSIG",
      "metar_wdir": 340,
      "metar_wspd": 4,
      "metar_oat": 22,
      "metar_qnh": 1009,
      "hourly_oat": [
        21,
        21,
        22,
        22,
        23,
        23,
        22,
        22,
        22,
        22,
        22,
        22,
        21,
        21,
        21,
        21,
        20,
        20,
        20,
        20,
        19,
        20,
        20,
        20,
        19
      ]
    },
    "CTS": {
      "icao": "RJCC",
      "issued": "2026-06-21T17:05:00.000Z",
      "raw": "TAF RJCC 211705Z 2118/2300 18006KT 9999 FEW010 BKN030 BECMG 2118/2120 34004KT BECMG 2123/2201 16006KT TEMPO 2206/2212 FEW004 BKN008 TEMPO 2212/2218 4000 -SHRA BR FEW003 BKN006 TEMPO 2218/2300 FEW004 BKN008",
      "groups": [
        {
          "text": "TAF RJCC 211705Z 2118/2300 18006KT 9999 FEW010 BKN030",
          "offset_h": -3,
          "wdir": 180,
          "wspd": 6
        },
        {
          "text": "BECMG 2118/2120 34004KT",
          "offset_h": -3,
          "wdir": 340,
          "wspd": 4
        },
        {
          "text": "BECMG 2123/2201 16006KT",
          "offset_h": 2,
          "wdir": 160,
          "wspd": 6
        },
        {
          "text": "TEMPO 2206/2212 FEW004 BKN008",
          "offset_h": 9,
          "wdir": null,
          "wspd": null
        },
        {
          "text": "TEMPO 2212/2218 4000 -SHRA BR FEW003 BKN006",
          "offset_h": 15,
          "wdir": null,
          "wspd": null
        },
        {
          "text": "TEMPO 2218/2300 FEW004 BKN008",
          "offset_h": 21,
          "wdir": null,
          "wspd": null
        }
      ],
      "metar_raw": "METAR RJCC 212030Z 34006KT 9999 FEW015 BKN100 BKN/// 15/13 Q1008",
      "metar_wdir": 340,
      "metar_wspd": 6,
      "metar_oat": 15,
      "metar_qnh": 1008,
      "hourly_oat": [
        15,
        16,
        18,
        19,
        20,
        20,
        20,
        18,
        17,
        17,
        16,
        16,
        15,
        14,
        14,
        13,
        13,
        13,
        13,
        12,
        12,
        12,
        12,
        12,
        12
      ]
    },
    "HND": {
      "icao": "RJTT",
      "issued": "2026-06-21T17:05:00.000Z",
      "raw": "TAF RJTT 211705Z 2118/2300 35006KT 9999 FEW010 SCT020 BECMG 2123/2201 10006KT BECMG 2203/2205 18010KT BECMG 2212/2215 08008KT BECMG 2218/2221 04008KT",
      "groups": [
        {
          "text": "TAF RJTT 211705Z 2118/2300 35006KT 9999 FEW010 SCT020",
          "offset_h": -3,
          "wdir": 350,
          "wspd": 6
        },
        {
          "text": "BECMG 2123/2201 10006KT",
          "offset_h": 2,
          "wdir": 100,
          "wspd": 6
        },
        {
          "text": "BECMG 2203/2205 18010KT",
          "offset_h": 6,
          "wdir": 180,
          "wspd": 10
        },
        {
          "text": "BECMG 2212/2215 08008KT",
          "offset_h": 15,
          "wdir": 80,
          "wspd": 8
        },
        {
          "text": "BECMG 2218/2221 04008KT",
          "offset_h": 21,
          "wdir": 40,
          "wspd": 8
        }
      ],
      "metar_raw": "METAR RJTT 212030Z 01003KT 9999 FEW020 BKN/// 22/18 Q1000 NOSIG",
      "metar_wdir": 10,
      "metar_wspd": 3,
      "metar_oat": 22,
      "metar_qnh": 1000,
      "hourly_oat": [
        21,
        22,
        22,
        23,
        24,
        24,
        25,
        25,
        25,
        25,
        24,
        24,
        24,
        23,
        23,
        22,
        22,
        22,
        22,
        21,
        21,
        21,
        21,
        20,
        20
      ]
    },
    "KIX": {
      "icao": "RJBB",
      "issued": "2026-06-21T17:05:00.000Z",
      "raw": "TAF RJBB 211705Z 2118/2300 29008KT 9999 FEW020 SCT030 BECMG 2206/2209 01010KT",
      "groups": [
        {
          "text": "TAF RJBB 211705Z 2118/2300 29008KT 9999 FEW020 SCT030",
          "offset_h": -3,
          "wdir": 290,
          "wspd": 8
        },
        {
          "text": "BECMG 2206/2209 01010KT",
          "offset_h": 9,
          "wdir": 10,
          "wspd": 10
        }
      ],
      "metar_raw": "METAR RJBB 212030Z AUTO 31009KT 9999 SCT041 22/19 Q1006 NOSIG",
      "metar_wdir": 310,
      "metar_wspd": 9,
      "metar_oat": 22,
      "metar_qnh": 1006,
      "hourly_oat": [
        22,
        22,
        22,
        22,
        23,
        23,
        23,
        23,
        23,
        23,
        23,
        23,
        23,
        24,
        23,
        23,
        23,
        22,
        22,
        22,
        22,
        22,
        22,
        22,
        22
      ]
    },
    "ITM": {
      "icao": "RJOO",
      "issued": "2026-06-21T17:05:00.000Z",
      "raw": "TAF RJOO 211705Z 2118/2300 32010KT 9999 FEW015 SCT020 BKN030",
      "groups": [
        {
          "text": "TAF RJOO 211705Z 2118/2300 32010KT 9999 FEW015 SCT020 BKN030",
          "offset_h": -3,
          "wdir": 320,
          "wspd": 10
        }
      ],
      "metar_raw": "METAR RJOO 212000Z AUTO 05002KT 9999 BKN027 OVC230 21/19 Q1006",
      "metar_wdir": 50,
      "metar_wspd": 2,
      "metar_oat": 21,
      "metar_qnh": 1006,
      "hourly_oat": [
        21,
        22,
        24,
        24,
        25,
        25,
        25,
        24,
        24,
        24,
        24,
        24,
        23,
        23,
        22,
        22,
        21,
        21,
        21,
        20,
        20,
        19,
        19,
        19,
        20
      ]
    },
    "OKA": {
      "icao": "ROAH",
      "issued": "2026-06-21T17:05:00.000Z",
      "raw": "TAF ROAH 211705Z 2118/2300 20005KT 9999 FEW008 SCT012 TEMPO 2212/2221 FEW005 BKN008",
      "groups": [
        {
          "text": "TAF ROAH 211705Z 2118/2300 20005KT 9999 FEW008 SCT012",
          "offset_h": -3,
          "wdir": 200,
          "wspd": 5
        },
        {
          "text": "TEMPO 2212/2221 FEW005 BKN008",
          "offset_h": 15,
          "wdir": null,
          "wspd": null
        }
      ],
      "metar_raw": "METAR ROAH 212030Z AUTO 13004KT 9999 NCD 25/24 Q1008",
      "metar_wdir": 130,
      "metar_wspd": 4,
      "metar_oat": 25,
      "metar_qnh": 1008,
      "hourly_oat": [
        24,
        26,
        27,
        28,
        29,
        30,
        30,
        30,
        30,
        30,
        29,
        29,
        29,
        28,
        27,
        27,
        27,
        28,
        28,
        27,
        27,
        27,
        27,
        27,
        27
      ]
    },
    "GMP": {
      "icao": "RKSS",
      "issued": "2026-06-21T17:00:00.000Z",
      "raw": "TAF RKSS 211700Z 2118/2224 06005KT CAVOK TN21/2119Z TX29/2205Z TN20/2220Z BECMG 2201/2203 27007KT 9999 BKN035 TEMPO 2206/2208 6000 -SHRA FEW008CB BKN025 OVC070 BECMG 2210/2212 16005KT",
      "groups": [
        {
          "text": "TAF RKSS 211700Z 2118/2224 06005KT CAVOK TN21/2119Z TX29/2205Z TN20/2220Z",
          "offset_h": -3,
          "wdir": 60,
          "wspd": 5
        },
        {
          "text": "BECMG 2201/2203 27007KT 9999 BKN035",
          "offset_h": 4,
          "wdir": 270,
          "wspd": 7
        },
        {
          "text": "TEMPO 2206/2208 6000 -SHRA FEW008CB BKN025 OVC070",
          "offset_h": 9,
          "wdir": null,
          "wspd": null
        },
        {
          "text": "BECMG 2210/2212 16005KT",
          "offset_h": 13,
          "wdir": 160,
          "wspd": 5
        }
      ],
      "metar_raw": "METAR RKSS 212000Z 35002KT CAVOK 21/21 Q1008 NOSIG",
      "metar_wdir": 350,
      "metar_wspd": 2,
      "metar_oat": 21,
      "metar_qnh": 1008,
      "hourly_oat": [
        20,
        20,
        21,
        22,
        23,
        25,
        26,
        27,
        27,
        25,
        26,
        25,
        25,
        24,
        23,
        22,
        21,
        20,
        20,
        20,
        19,
        19,
        19,
        18,
        19
      ]
    },
    "KUL": {
      "icao": "WMKK",
      "issued": "2026-06-21T17:00:00.000Z",
      "raw": "TAF WMKK 211700Z 2118/2300 VRB02KT 9000 FEW010 PROB30 TEMPO 2119/2123 5000 TSRA FEW010 FEW017CB",
      "groups": [
        {
          "text": "TAF WMKK 211700Z 2118/2300 VRB02KT 9000 FEW010",
          "offset_h": -3,
          "wdir": "VRB",
          "wspd": 2
        },
        {
          "text": "PROB30",
          "offset_h": 0,
          "wdir": null,
          "wspd": null
        },
        {
          "text": "TEMPO 2119/2123 5000 TSRA FEW010 FEW017CB",
          "offset_h": -2,
          "wdir": null,
          "wspd": null
        }
      ],
      "metar_raw": "METAR WMKK 212030Z 25003KT 200V320 9000 FEW010 FEW017CB 27/25 Q1010 NOSIG",
      "metar_wdir": 250,
      "metar_wspd": 3,
      "metar_oat": 27,
      "metar_qnh": 1010,
      "hourly_oat": [
        23,
        23,
        23,
        23,
        24,
        26,
        27,
        29,
        29,
        29,
        28,
        26,
        26,
        25,
        25,
        24,
        24,
        24,
        24,
        24,
        24,
        24,
        24,
        24,
        24
      ]
    },
    "HAN": {
      "icao": "VVNB",
      "issued": "2026-06-21T17:00:00.000Z",
      "raw": "TAF VVNB 211700Z 2118/2218 10007KT 9999 SCT025 TEMPO 2210/2214 22015G25KT 3000 TSRA BKN012 FEW027CB",
      "groups": [
        {
          "text": "TAF VVNB 211700Z 2118/2218 10007KT 9999 SCT025",
          "offset_h": -3,
          "wdir": 100,
          "wspd": 7
        },
        {
          "text": "TEMPO 2210/2214 22015G25KT 3000 TSRA BKN012 FEW027CB",
          "offset_h": 13,
          "wdir": 220,
          "wspd": 15
        }
      ],
      "metar_raw": "METAR VVNB 212030Z 03003KT CAVOK 27/26 Q1004 NOSIG",
      "metar_wdir": 30,
      "metar_wspd": 3,
      "metar_oat": 27,
      "metar_qnh": 1004,
      "hourly_oat": [
        28,
        28,
        29,
        29,
        31,
        33,
        34,
        34,
        35,
        36,
        36,
        36,
        36,
        35,
        34,
        32,
        32,
        31,
        30,
        30,
        30,
        30,
        30,
        30,
        30
      ]
    },
    "SGN": {
      "icao": "VVTS",
      "issued": "2026-06-21T17:00:00.000Z",
      "raw": "TAF VVTS 211700Z 2118/2224 25008KT 9999 SCT017 TEMPO 2208/2212 24015G26KT 3000 TSRA SCT013 SCT015CB TEMPO 2212/2215 5000 SHRA SCT015 FEW017CB BKN040",
      "groups": [
        {
          "text": "TAF VVTS 211700Z 2118/2224 25008KT 9999 SCT017",
          "offset_h": -3,
          "wdir": 250,
          "wspd": 8
        },
        {
          "text": "TEMPO 2208/2212 24015G26KT 3000 TSRA SCT013 SCT015CB",
          "offset_h": 11,
          "wdir": 240,
          "wspd": 15
        },
        {
          "text": "TEMPO 2212/2215 5000 SHRA SCT015 FEW017CB BKN040",
          "offset_h": 15,
          "wdir": null,
          "wspd": null
        }
      ],
      "metar_raw": "METAR VVTS 212030Z 24004KT CAVOK 27/26 Q1009 NOSIG",
      "metar_wdir": 240,
      "metar_wspd": 4,
      "metar_oat": 27,
      "metar_qnh": 1009,
      "hourly_oat": [
        26,
        26,
        26,
        28,
        29,
        31,
        32,
        33,
        34,
        34,
        34,
        34,
        29,
        28,
        28,
        26,
        26,
        26,
        25,
        25,
        25,
        25,
        25,
        25,
        25
      ]
    },
    "TSA": {
      "icao": "RCSS",
      "issued": "2026-06-21T17:00:00.000Z",
      "raw": "TAF RCSS 211700Z 2118/2218 10005KT 9999 FEW020 BECMG 2201/2203 31005KT TEMPO 2203/2209 28010KT BECMG 2210/2212 10005KT",
      "groups": [
        {
          "text": "TAF RCSS 211700Z 2118/2218 10005KT 9999 FEW020",
          "offset_h": -3,
          "wdir": 100,
          "wspd": 5
        },
        {
          "text": "BECMG 2201/2203 31005KT",
          "offset_h": 4,
          "wdir": 310,
          "wspd": 5
        },
        {
          "text": "TEMPO 2203/2209 28010KT",
          "offset_h": 6,
          "wdir": 280,
          "wspd": 10
        },
        {
          "text": "BECMG 2210/2212 10005KT",
          "offset_h": 13,
          "wdir": 100,
          "wspd": 5
        }
      ],
      "metar_raw": "METAR RCSS 212000Z 30003KT 9999 FEW020 BKN200 27/25 Q1007 NOSIG RMK A2975",
      "metar_wdir": 300,
      "metar_wspd": 3,
      "metar_oat": 27,
      "metar_qnh": 1007,
      "hourly_oat": [
        25,
        25,
        27,
        28,
        30,
        31,
        33,
        34,
        33,
        33,
        33,
        33,
        32,
        30,
        29,
        28,
        27,
        27,
        26,
        26,
        26,
        26,
        26,
        25,
        25
      ]
    },
    "TPE": {
      "icao": "RCTP",
      "issued": "2026-06-21T17:00:00.000Z",
      "raw": "TAF RCTP 211700Z 2118/2224 21005KT 9999 FEW020 TEMPO 2118/2124 FEW010 BKN016 BECMG 2200/2202 25010KT TEMPO 2203/2209 28015KT BECMG 2210/2212 21005KT TEMPO 2218/2224 FEW010 BKN016",
      "groups": [
        {
          "text": "TAF RCTP 211700Z 2118/2224 21005KT 9999 FEW020",
          "offset_h": -3,
          "wdir": 210,
          "wspd": 5
        },
        {
          "text": "TEMPO 2118/2124 FEW010 BKN016",
          "offset_h": -3,
          "wdir": null,
          "wspd": null
        },
        {
          "text": "BECMG 2200/2202 25010KT",
          "offset_h": 3,
          "wdir": 250,
          "wspd": 10
        },
        {
          "text": "TEMPO 2203/2209 28015KT",
          "offset_h": 6,
          "wdir": 280,
          "wspd": 15
        },
        {
          "text": "BECMG 2210/2212 21005KT",
          "offset_h": 13,
          "wdir": 210,
          "wspd": 5
        },
        {
          "text": "TEMPO 2218/2224 FEW010 BKN016",
          "offset_h": 21,
          "wdir": null,
          "wspd": null
        }
      ],
      "metar_raw": "METAR RCTP 212030Z 24007KT 9999 FEW015 26/25 Q1007 NOSIG RMK A2975",
      "metar_wdir": 240,
      "metar_wspd": 7,
      "metar_oat": 26,
      "metar_qnh": 1007,
      "hourly_oat": [
        25,
        26,
        27,
        28,
        29,
        30,
        30,
        31,
        31,
        31,
        31,
        30,
        29,
        28,
        28,
        27,
        27,
        27,
        26,
        26,
        25,
        26,
        26,
        25,
        25
      ]
    },
    "BKK": {
      "icao": "VTBS",
      "issued": "2026-06-21T17:00:00.000Z",
      "raw": "TAF VTBS 211700Z 2118/2224 32005KT 9999 FEW020 BECMG 2200/2202 25008KT TEMPO 2210/2214 VRB15KT 4000 TSRA FEW018CB SCT020 BKN080",
      "groups": [
        {
          "text": "TAF VTBS 211700Z 2118/2224 32005KT 9999 FEW020",
          "offset_h": -3,
          "wdir": 320,
          "wspd": 5
        },
        {
          "text": "BECMG 2200/2202 25008KT",
          "offset_h": 3,
          "wdir": 250,
          "wspd": 8
        },
        {
          "text": "TEMPO 2210/2214 VRB15KT 4000 TSRA FEW018CB SCT020 BKN080",
          "offset_h": 13,
          "wdir": "VRB",
          "wspd": 15
        }
      ],
      "metar_raw": "METAR VTBS 212030Z VRB02KT 9999 FEW020 28/24 Q1009 NOSIG",
      "metar_wdir": "VRB",
      "metar_wspd": 2,
      "metar_oat": 28,
      "metar_qnh": 1009,
      "hourly_oat": [
        26,
        26,
        26,
        27,
        28,
        30,
        32,
        33,
        34,
        35,
        35,
        34,
        33,
        32,
        31,
        30,
        30,
        30,
        29,
        29,
        29,
        28,
        28,
        27,
        27
      ]
    },
    "SIN": {
      "icao": "WSSS",
      "issued": "2026-06-21T17:00:00.000Z",
      "raw": "TAF WSSS 211700Z 2118/2300 22008KT 9999 FEW015 SCT020 TEMPO 2203/2206 3000 TSRA FEW012CB BKN015",
      "groups": [
        {
          "text": "TAF WSSS 211700Z 2118/2300 22008KT 9999 FEW015 SCT020",
          "offset_h": -3,
          "wdir": 220,
          "wspd": 8
        },
        {
          "text": "TEMPO 2203/2206 3000 TSRA FEW012CB BKN015",
          "offset_h": 6,
          "wdir": null,
          "wspd": null
        }
      ],
      "metar_raw": "METAR WSSS 212100Z 28004KT 200V310 9999 FEW018 FEW020CB BKN150 27/24 Q1010 NOSIG",
      "metar_wdir": 280,
      "metar_wspd": 4,
      "metar_oat": 27,
      "metar_qnh": 1010,
      "hourly_oat": [
        25,
        25,
        24,
        24,
        25,
        25,
        28,
        28,
        28,
        28,
        27,
        27,
        28,
        28,
        27,
        27,
        26,
        26,
        26,
        26,
        26,
        26,
        26,
        26,
        24
      ]
    },
    "CGK": {
      "icao": "WIII",
      "issued": "2026-06-21T17:00:00.000Z",
      "raw": "TAF WIII 211700Z 2118/2300 20005KT 3000 BR SCT020 BECMG 2201/2203 04015KT 9000 NSW",
      "groups": [
        {
          "text": "TAF WIII 211700Z 2118/2300 20005KT 3000 BR SCT020",
          "offset_h": -3,
          "wdir": 200,
          "wspd": 5
        },
        {
          "text": "BECMG 2201/2203 04015KT 9000 NSW",
          "offset_h": 4,
          "wdir": 40,
          "wspd": 15
        }
      ],
      "metar_raw": "METAR WIII 212030Z 19004KT 4000 HZ SCT020 26/25 Q1011 NOSIG",
      "metar_wdir": 190,
      "metar_wspd": 4,
      "metar_oat": 26,
      "metar_qnh": 1011,
      "hourly_oat": [
        24,
        24,
        24,
        25,
        27,
        29,
        30,
        31,
        31,
        30,
        30,
        28,
        26,
        26,
        26,
        26,
        26,
        26,
        26,
        25,
        25,
        25,
        24,
        24,
        24
      ]
    },
    "PVG": {
      "icao": "ZSPD",
      "issued": "2026-06-21T15:08:00.000Z",
      "raw": "TAF ZSPD 211508Z 2118/2224 12004MPS 6000 BKN011 TX25/2206Z TN21/2121Z TN22/2221Z BECMG 2201/2202 06005MPS TEMPO 2201/2205 TSRA SCT030CB TEMPO 2207/2211 -TSRA SCT030CB",
      "groups": [
        {
          "text": "TAF ZSPD 211508Z 2118/2224 12004MPS 6000 BKN011 TX25/2206Z TN21/2121Z TN22/2221Z",
          "offset_h": -3,
          "wdir": null,
          "wspd": null
        },
        {
          "text": "BECMG 2201/2202 06005MPS",
          "offset_h": 4,
          "wdir": null,
          "wspd": null
        },
        {
          "text": "TEMPO 2201/2205 TSRA SCT030CB",
          "offset_h": 4,
          "wdir": null,
          "wspd": null
        },
        {
          "text": "TEMPO 2207/2211 -TSRA SCT030CB",
          "offset_h": 10,
          "wdir": null,
          "wspd": null
        }
      ],
      "metar_raw": "METAR ZSPD 212030Z 11005MPS 9999 BKN009 OVC033 23/23 Q1005 NOSIG",
      "metar_wdir": null,
      "metar_wspd": null,
      "metar_oat": 23,
      "metar_qnh": 1005,
      "hourly_oat": [
        23,
        24,
        24,
        24,
        25,
        24,
        24,
        25,
        25,
        25,
        24,
        25,
        25,
        25,
        26,
        25,
        25,
        25,
        24,
        23,
        23,
        23,
        23,
        22,
        22
      ]
    },
    "DLC": {
      "icao": "ZYTL",
      "issued": "2026-06-21T15:08:00.000Z",
      "raw": "TAF ZYTL 211508Z 2118/2218 29004MPS 5000 BR FEW040 TX26/2206Z TN18/2121Z",
      "groups": [
        {
          "text": "TAF ZYTL 211508Z 2118/2218 29004MPS 5000 BR FEW040 TX26/2206Z TN18/2121Z",
          "offset_h": -3,
          "wdir": null,
          "wspd": null
        }
      ],
      "metar_raw": "METAR ZYTL 212030Z 27002MPS CAVOK 15/12 Q1009 NOSIG",
      "metar_wdir": null,
      "metar_wspd": null,
      "metar_oat": 15,
      "metar_qnh": 1009,
      "hourly_oat": [
        20,
        21,
        24,
        26,
        27,
        28,
        29,
        30,
        30,
        29,
        29,
        28,
        27,
        26,
        25,
        23,
        23,
        22,
        20,
        20,
        19,
        19,
        19,
        19,
        19
      ]
    },
    "SHA": {
      "icao": "ZSSS",
      "issued": "2026-06-21T15:07:00.000Z",
      "raw": "TAF ZSSS 211507Z 2118/2224 12004MPS 6000 BKN015 TX26/2206Z TN22/2121Z TN23/2221Z TEMPO 2200/2204 TSRA BKN008 SCT030CB BECMG 2201/2202 06004MPS TEMPO 2206/2210 -TSRA BKN008 SCT030CB",
      "groups": [
        {
          "text": "TAF ZSSS 211507Z 2118/2224 12004MPS 6000 BKN015 TX26/2206Z TN22/2121Z TN23/2221Z",
          "offset_h": -3,
          "wdir": null,
          "wspd": null
        },
        {
          "text": "TEMPO 2200/2204 TSRA BKN008 SCT030CB",
          "offset_h": 3,
          "wdir": null,
          "wspd": null
        },
        {
          "text": "BECMG 2201/2202 06004MPS",
          "offset_h": 4,
          "wdir": null,
          "wspd": null
        },
        {
          "text": "TEMPO 2206/2210 -TSRA BKN008 SCT030CB",
          "offset_h": 9,
          "wdir": null,
          "wspd": null
        }
      ],
      "metar_raw": "METAR ZSSS 212030Z 08003MPS 6000 -RA BKN009 23/22 Q1006 NOSIG",
      "metar_wdir": null,
      "metar_wspd": null,
      "metar_oat": 23,
      "metar_qnh": 1006,
      "hourly_oat": [
        23,
        23,
        24,
        25,
        26,
        26,
        26,
        26,
        26,
        26,
        27,
        27,
        26,
        26,
        26,
        26,
        25,
        24,
        23,
        23,
        23,
        23,
        22,
        22,
        22
      ]
    },
    "PEK": {
      "icao": "ZBAA",
      "issued": "2026-06-21T15:02:00.000Z",
      "raw": "TAF ZBAA 211502Z 2118/2224 16004MPS CAVOK TX32/2206Z TN17/2121Z TN18/2221Z BECMG 2208/2209 -TSRA FEW040CB BKN040 BECMG 2210/2211 NSW NSC TEMPO 2212/2216 2800 -SHRA FEW040CB BKN040",
      "groups": [
        {
          "text": "TAF ZBAA 211502Z 2118/2224 16004MPS CAVOK TX32/2206Z TN17/2121Z TN18/2221Z",
          "offset_h": -3,
          "wdir": null,
          "wspd": null
        },
        {
          "text": "BECMG 2208/2209 -TSRA FEW040CB BKN040",
          "offset_h": 11,
          "wdir": null,
          "wspd": null
        },
        {
          "text": "BECMG 2210/2211 NSW NSC",
          "offset_h": 13,
          "wdir": null,
          "wspd": null
        },
        {
          "text": "TEMPO 2212/2216 2800 -SHRA FEW040CB BKN040",
          "offset_h": 15,
          "wdir": null,
          "wspd": null
        }
      ],
      "metar_raw": "METAR ZBAA 212030Z VRB01MPS CAVOK 18/14 Q1008 NOSIG",
      "metar_wdir": null,
      "metar_wspd": null,
      "metar_oat": 18,
      "metar_qnh": 1008,
      "hourly_oat": [
        18,
        19,
        20,
        22,
        24,
        26,
        28,
        29,
        30,
        31,
        31,
        30,
        30,
        29,
        27,
        26,
        24,
        22,
        21,
        21,
        20,
        19,
        19,
        18,
        18
      ]
    },
    "CAN": {
      "icao": "ZGGG",
      "issued": "2026-06-21T15:01:00.000Z",
      "raw": "TAF ZGGG 211501Z 2118/2224 19004MPS 8000 SCT040 TX37/2207Z TN28/2122Z TN29/2222Z",
      "groups": [
        {
          "text": "TAF ZGGG 211501Z 2118/2224 19004MPS 8000 SCT040 TX37/2207Z TN28/2122Z TN29/2222Z",
          "offset_h": -3,
          "wdir": null,
          "wspd": null
        }
      ],
      "metar_raw": "METAR ZGGG 212030Z 12002MPS 090V180 9999 SCT026 29/26 Q1007 NOSIG",
      "metar_wdir": null,
      "metar_wspd": null,
      "metar_oat": 29,
      "metar_qnh": 1007,
      "hourly_oat": [
        27,
        26,
        28,
        29,
        30,
        31,
        32,
        33,
        34,
        34,
        34,
        34,
        34,
        33,
        32,
        30,
        30,
        29,
        28,
        28,
        27,
        27,
        27,
        27,
        27
      ]
    }
  }
}