{
  "updated": "2026-07-08T15:08:13Z",
  "tafs": {
    "LAX": {
      "icao": "KLAX",
      "issued": "2026-07-08T14:56:00.000Z",
      "raw": "TAF KLAX 081456Z 0815/0918 VRB03KT P6SM SKC FM081700 25012KT P6SM SKC FM090300 25006KT P6SM SKC FM090900 VRB03KT P6SM SKC FM091700 25012KT P6SM SKC",
      "groups": [
        {
          "text": "TAF KLAX 081456Z 0815/0918 VRB03KT P6SM SKC",
          "offset_h": 0,
          "wdir": "VRB",
          "wspd": 3
        },
        {
          "text": "FM081700 25012KT P6SM SKC",
          "offset_h": 2,
          "wdir": 250,
          "wspd": 12
        },
        {
          "text": "FM090300 25006KT P6SM SKC",
          "offset_h": 12,
          "wdir": 250,
          "wspd": 6
        },
        {
          "text": "FM090900 VRB03KT P6SM SKC",
          "offset_h": 18,
          "wdir": "VRB",
          "wspd": 3
        },
        {
          "text": "FM091700 25012KT P6SM SKC",
          "offset_h": 26,
          "wdir": 250,
          "wspd": 12
        }
      ],
      "metar_raw": "METAR KLAX 081453Z VRB03KT 10SM FEW180 20/16 A2996 RMK AO2 SLP145 T02000156 51008",
      "metar_wdir": "VRB",
      "metar_wspd": 3,
      "metar_oat": 20,
      "metar_qnh": 1015,
      "hourly_oat": [
        21,
        23,
        26,
        24,
        24,
        24,
        24,
        24,
        24,
        23,
        23,
        22,
        20,
        19,
        18,
        17,
        17,
        16,
        16,
        16,
        17,
        16,
        16,
        18,
        19
      ]
    },
    "HNL": {
      "icao": "PHNL",
      "issued": "2026-07-08T14:52:00.000Z",
      "raw": "TAF PHNL 081452Z 0815/0918 05009KT P6SM SCT025 SCT040 FM082000 06018G26KT P6SM FEW025 SCT040 FM090500 05014G22KT P6SM SCT025 SCT040 FM091200 06011KT P6SM VCSH FEW025 BKN040",
      "groups": [
        {
          "text": "TAF PHNL 081452Z 0815/0918 05009KT P6SM SCT025 SCT040",
          "offset_h": 0,
          "wdir": 50,
          "wspd": 9
        },
        {
          "text": "FM082000 06018G26KT P6SM FEW025 SCT040",
          "offset_h": 5,
          "wdir": 60,
          "wspd": 18
        },
        {
          "text": "FM090500 05014G22KT P6SM SCT025 SCT040",
          "offset_h": 14,
          "wdir": 50,
          "wspd": 14
        },
        {
          "text": "FM091200 06011KT P6SM VCSH FEW025 BKN040",
          "offset_h": 21,
          "wdir": 60,
          "wspd": 11
        }
      ],
      "metar_raw": "METAR PHNL 081453Z 05013KT 10SM FEW024 FEW065 25/19 A3002 RMK AO2 SLP167 VCSH NE T02500194 53002 $",
      "metar_wdir": 50,
      "metar_wspd": 13,
      "metar_oat": 25,
      "metar_qnh": 1017,
      "hourly_oat": [
        23,
        23,
        24,
        26,
        27,
        28,
        29,
        30,
        30,
        29,
        28,
        28,
        27,
        26,
        25,
        24,
        24,
        24,
        24,
        24,
        24,
        23,
        23,
        24,
        24
      ]
    },
    "SAN": {
      "icao": "KSAN",
      "issued": "2026-07-08T14:31:00.000Z",
      "raw": "TAF KSAN 081431Z 0815/0918 VRB05KT P6SM BKN015 FM081600 VRB05KT P6SM FEW015 FM081800 27011KT P6SM SKC FM090200 VRB04KT P6SM FEW010 FM090800 VRB03KT P6SM BKN010 FM091600 VRB04KT P6SM FEW015",
      "groups": [
        {
          "text": "TAF KSAN 081431Z 0815/0918 VRB05KT P6SM BKN015",
          "offset_h": 0,
          "wdir": "VRB",
          "wspd": 5
        },
        {
          "text": "FM081600 VRB05KT P6SM FEW015",
          "offset_h": 1,
          "wdir": "VRB",
          "wspd": 5
        },
        {
          "text": "FM081800 27011KT P6SM SKC",
          "offset_h": 3,
          "wdir": 270,
          "wspd": 11
        },
        {
          "text": "FM090200 VRB04KT P6SM FEW010",
          "offset_h": 11,
          "wdir": "VRB",
          "wspd": 4
        },
        {
          "text": "FM090800 VRB03KT P6SM BKN010",
          "offset_h": 17,
          "wdir": "VRB",
          "wspd": 3
        },
        {
          "text": "FM091600 VRB04KT P6SM FEW015",
          "offset_h": 25,
          "wdir": "VRB",
          "wspd": 4
        }
      ],
      "metar_raw": "METAR KSAN 081451Z 00000KT 10SM BKN015 20/16 A2999 RMK AO2 SLP155 T02000161 53010 $",
      "metar_wdir": 0,
      "metar_wspd": 0,
      "metar_oat": 20,
      "metar_qnh": 1016,
      "hourly_oat": [
        20,
        20,
        21,
        22,
        24,
        24,
        23,
        23,
        22,
        22,
        21,
        20,
        19,
        19,
        18,
        18,
        18,
        18,
        18,
        17,
        17,
        17,
        17,
        17,
        17
      ]
    },
    "HKG": {
      "icao": "VHHH",
      "issued": "2026-07-08T14:00:00.000Z",
      "raw": "TAF VHHH 081400Z 0815/0921 18010KT 9999 FEW010 SCT025 TX32/0906Z TN27/0822Z TEMPO 0820/0823 3000 SHRA FEW008CB SCT020 TEMPO 0823/0903 20015G25KT 2000 TSRA SHRA FEW008CB SCT015",
      "groups": [
        {
          "text": "TAF VHHH 081400Z 0815/0921 18010KT 9999 FEW010 SCT025 TX32/0906Z TN27/0822Z",
          "offset_h": 0,
          "wdir": 180,
          "wspd": 10
        },
        {
          "text": "TEMPO 0820/0823 3000 SHRA FEW008CB SCT020",
          "offset_h": 5,
          "wdir": null,
          "wspd": null
        },
        {
          "text": "TEMPO 0823/0903 20015G25KT 2000 TSRA SHRA FEW008CB SCT015",
          "offset_h": 8,
          "wdir": 200,
          "wspd": 15
        }
      ],
      "metar_raw": "METAR VHHH 081500Z 16010KT 140V220 9999 FEW012 SCT025 30/25 Q1006 NOSIG",
      "metar_wdir": 160,
      "metar_wspd": 10,
      "metar_oat": 30,
      "metar_qnh": 1006,
      "hourly_oat": [
        28,
        28,
        29,
        28,
        27,
        27,
        27,
        27,
        27,
        27,
        27,
        28,
        28,
        28,
        29,
        30,
        29,
        29,
        29,
        29,
        28,
        28,
        28,
        28,
        28
      ]
    },
    "DLC": {
      "icao": "ZYTL",
      "issued": "2026-07-08T13:12:00.000Z",
      "raw": "TAF AMD ZYTL 081312Z 0812/0912 16004MPS 5000 BR FEW030 TX30/0906Z TN21/0821Z TEMPO 0900/0903 2000 -TSRA BR SCT006 BKN010 FEW030CB",
      "groups": [
        {
          "text": "TAF AMD ZYTL 081312Z 0812/0912 16004MPS 5000 BR FEW030 TX30/0906Z TN21/0821Z",
          "offset_h": -3,
          "wdir": null,
          "wspd": null
        },
        {
          "text": "TEMPO 0900/0903 2000 -TSRA BR SCT006 BKN010 FEW030CB",
          "offset_h": 9,
          "wdir": null,
          "wspd": null
        }
      ],
      "metar_raw": "METAR ZYTL 081500Z 13002MPS 070V200 7000 NSC 25/22 Q1003 NOSIG",
      "metar_wdir": null,
      "metar_wspd": null,
      "metar_oat": 25,
      "metar_qnh": 1003,
      "hourly_oat": [
        24,
        25,
        24,
        23,
        21,
        21,
        21,
        22,
        22,
        22,
        23,
        25,
        26,
        27,
        27,
        27,
        26,
        26,
        27,
        26,
        25,
        24,
        24,
        25,
        25
      ]
    },
    "SIN": {
      "icao": "WSSS",
      "issued": "2026-07-08T12:10:00.000Z",
      "raw": "TAF AMD WSSS 081210Z 0812/0918 13008KT 9999 FEW015 SCT020 TEMPO 0812/0814 3000 TSRA FEW012CB BKN015 TEMPO 0902/0905 3000 TSRA FEW012CB BKN015",
      "groups": [
        {
          "text": "TAF AMD WSSS 081210Z 0812/0918 13008KT 9999 FEW015 SCT020",
          "offset_h": -3,
          "wdir": 130,
          "wspd": 8
        },
        {
          "text": "TEMPO 0812/0814 3000 TSRA FEW012CB BKN015",
          "offset_h": -3,
          "wdir": null,
          "wspd": null
        },
        {
          "text": "TEMPO 0902/0905 3000 TSRA FEW012CB BKN015",
          "offset_h": 11,
          "wdir": null,
          "wspd": null
        }
      ],
      "metar_raw": "METAR WSSS 081500Z VRB02KT 7000 FEW016 SCT050 BKN160 26/25 Q1012 NOSIG",
      "metar_wdir": "VRB",
      "metar_wspd": 2,
      "metar_oat": 26,
      "metar_qnh": 1012,
      "hourly_oat": [
        28,
        28,
        28,
        28,
        27,
        27,
        27,
        27,
        27,
        27,
        27,
        28,
        28,
        29,
        29,
        28,
        29,
        29,
        29,
        29,
        26,
        26,
        26,
        26,
        26
      ]
    },
    "KIX": {
      "icao": "RJBB",
      "issued": "2026-07-08T11:05:00.000Z",
      "raw": "TAF RJBB 081105Z 0812/0918 20006KT 9999 FEW020 SCT040 BECMG 0818/0820 07004KT BECMG 0900/0903 24012KT BECMG 0915/0918 11004KT",
      "groups": [
        {
          "text": "TAF RJBB 081105Z 0812/0918 20006KT 9999 FEW020 SCT040",
          "offset_h": -3,
          "wdir": 200,
          "wspd": 6
        },
        {
          "text": "BECMG 0818/0820 07004KT",
          "offset_h": 3,
          "wdir": 70,
          "wspd": 4
        },
        {
          "text": "BECMG 0900/0903 24012KT",
          "offset_h": 9,
          "wdir": 240,
          "wspd": 12
        },
        {
          "text": "BECMG 0915/0918 11004KT",
          "offset_h": 24,
          "wdir": 110,
          "wspd": 4
        }
      ],
      "metar_raw": "METAR RJBB 081500Z AUTO VRB02KT 9999 BKN037 26/20 Q1013 NOSIG",
      "metar_wdir": "VRB",
      "metar_wspd": 2,
      "metar_oat": 26,
      "metar_qnh": 1013,
      "hourly_oat": [
        25,
        25,
        24,
        24,
        24,
        24,
        24,
        24,
        24,
        24,
        24,
        24,
        25,
        25,
        25,
        25,
        26,
        26,
        26,
        26,
        25,
        25,
        25,
        25,
        25
      ]
    },
    "HND": {
      "icao": "RJTT",
      "issued": "2026-07-08T11:05:00.000Z",
      "raw": "TAF RJTT 081105Z 0812/0918 18006KT 9999 FEW015 SCT030",
      "groups": [
        {
          "text": "TAF RJTT 081105Z 0812/0918 18006KT 9999 FEW015 SCT030",
          "offset_h": -3,
          "wdir": 180,
          "wspd": 6
        }
      ],
      "metar_raw": "METAR RJTT 081500Z 19008KT 150V240 9999 FEW018 24/21 Q1015 NOSIG",
      "metar_wdir": 190,
      "metar_wspd": 8,
      "metar_oat": 24,
      "metar_qnh": 1015,
      "hourly_oat": [
        23,
        23,
        23,
        23,
        22,
        22,
        23,
        23,
        24,
        25,
        26,
        27,
        28,
        28,
        28,
        28,
        28,
        27,
        26,
        25,
        24,
        24,
        24,
        23,
        23
      ]
    },
    "ITM": {
      "icao": "RJOO",
      "issued": "2026-07-08T11:05:00.000Z",
      "raw": "TAF RJOO 081105Z 0812/0918 02004KT 9999 FEW015 SCT030 BECMG 0820/0822 10006KT BECMG 0906/0909 24008KT",
      "groups": [
        {
          "text": "TAF RJOO 081105Z 0812/0918 02004KT 9999 FEW015 SCT030",
          "offset_h": -3,
          "wdir": 20,
          "wspd": 4
        },
        {
          "text": "BECMG 0820/0822 10006KT",
          "offset_h": 5,
          "wdir": 100,
          "wspd": 6
        },
        {
          "text": "BECMG 0906/0909 24008KT",
          "offset_h": 15,
          "wdir": 240,
          "wspd": 8
        }
      ],
      "metar_raw": "METAR RJOO 081500Z AUTO VRB01KT 9999 FEW046 BKN047 25/21 Q1013",
      "metar_wdir": "VRB",
      "metar_wspd": 1,
      "metar_oat": 25,
      "metar_qnh": 1013,
      "hourly_oat": [
        24,
        24,
        24,
        23,
        23,
        23,
        23,
        24,
        25,
        26,
        28,
        29,
        30,
        30,
        31,
        30,
        29,
        28,
        27,
        26,
        26,
        25,
        25,
        25,
        24
      ]
    },
    "OKA": {
      "icao": "ROAH",
      "issued": "2026-07-08T11:05:00.000Z",
      "raw": "TAF ROAH 081105Z 0812/0918 06014KT 9999 FEW015 SCT025 TEMPO 0909/0918 08022G32KT",
      "groups": [
        {
          "text": "TAF ROAH 081105Z 0812/0918 06014KT 9999 FEW015 SCT025",
          "offset_h": -3,
          "wdir": 60,
          "wspd": 14
        },
        {
          "text": "TEMPO 0909/0918 08022G32KT",
          "offset_h": 18,
          "wdir": 80,
          "wspd": 22
        }
      ],
      "metar_raw": "METAR ROAH 081500Z AUTO 06013KT 9999 BKN042 29/25 Q1007",
      "metar_wdir": 60,
      "metar_wspd": 13,
      "metar_oat": 29,
      "metar_qnh": 1007,
      "hourly_oat": [
        28,
        28,
        28,
        28,
        28,
        28,
        28,
        29,
        30,
        31,
        31,
        32,
        33,
        33,
        32,
        32,
        32,
        31,
        30,
        30,
        29,
        29,
        29,
        29,
        29
      ]
    },
    "NGO": {
      "icao": "RJGG",
      "issued": "2026-07-08T11:05:00.000Z",
      "raw": "TAF RJGG 081105Z 0812/0918 14006KT 9999 FEW020 BKN040 BECMG 0819/0821 02004KT BECMG 0900/0903 23008KT BECMG 0903/0906 14014KT",
      "groups": [
        {
          "text": "TAF RJGG 081105Z 0812/0918 14006KT 9999 FEW020 BKN040",
          "offset_h": -3,
          "wdir": 140,
          "wspd": 6
        },
        {
          "text": "BECMG 0819/0821 02004KT",
          "offset_h": 4,
          "wdir": 20,
          "wspd": 4
        },
        {
          "text": "BECMG 0900/0903 23008KT",
          "offset_h": 9,
          "wdir": 230,
          "wspd": 8
        },
        {
          "text": "BECMG 0903/0906 14014KT",
          "offset_h": 12,
          "wdir": 140,
          "wspd": 14
        }
      ],
      "metar_raw": "METAR RJGG 081500Z AUTO 15008KT 9999 NCD 23/22 Q1014 NOSIG",
      "metar_wdir": 150,
      "metar_wspd": 8,
      "metar_oat": 23,
      "metar_qnh": 1014,
      "hourly_oat": [
        23,
        23,
        23,
        23,
        23,
        23,
        22,
        22,
        23,
        23,
        23,
        23,
        24,
        24,
        25,
        26,
        26,
        25,
        25,
        24,
        24,
        24,
        23,
        23,
        23
      ]
    },
    "FUK": {
      "icao": "RJFF",
      "issued": "2026-07-08T11:05:00.000Z",
      "raw": "TAF RJFF 081105Z 0812/0918 14004KT 9999 FEW040 BECMG 0900/0903 31012KT BECMG 0912/0915 16004KT",
      "groups": [
        {
          "text": "TAF RJFF 081105Z 0812/0918 14004KT 9999 FEW040",
          "offset_h": -3,
          "wdir": 140,
          "wspd": 4
        },
        {
          "text": "BECMG 0900/0903 31012KT",
          "offset_h": 9,
          "wdir": 310,
          "wspd": 12
        },
        {
          "text": "BECMG 0912/0915 16004KT",
          "offset_h": 21,
          "wdir": 160,
          "wspd": 4
        }
      ],
      "metar_raw": "METAR RJFF 081500Z AUTO 31004KT 9999 BKN037 OVC042 29/25 Q1011 NOSIG",
      "metar_wdir": 310,
      "metar_wspd": 4,
      "metar_oat": 29,
      "metar_qnh": 1011,
      "hourly_oat": [
        26,
        26,
        26,
        26,
        25,
        25,
        25,
        26,
        27,
        29,
        29,
        29,
        29,
        29,
        29,
        30,
        29,
        28,
        27,
        26,
        26,
        26,
        26,
        25,
        25
      ]
    },
    "CTS": {
      "icao": "RJCC",
      "issued": "2026-07-08T11:05:00.000Z",
      "raw": "TAF RJCC 081105Z 0812/0918 16010KT 6000 FEW001 BKN012 TEMPO 0812/0815 1500 BR FEW001 BKN003 TEMPO 0815/0822 0700 -SHRA FG VV001 TEMPO 0822/0906 4000 -SHRA BR FEW003 BKN005 TEMPO 0906/0912 2000 -SHRA BR FEW002 BKN004 TEMPO 0912/0918 1500 SHRA BR FEW001 BKN003",
      "groups": [
        {
          "text": "TAF RJCC 081105Z 0812/0918 16010KT 6000 FEW001 BKN012",
          "offset_h": -3,
          "wdir": 160,
          "wspd": 10
        },
        {
          "text": "TEMPO 0812/0815 1500 BR FEW001 BKN003",
          "offset_h": -3,
          "wdir": null,
          "wspd": null
        },
        {
          "text": "TEMPO 0815/0822 0700 -SHRA FG VV001",
          "offset_h": 0,
          "wdir": null,
          "wspd": null
        },
        {
          "text": "TEMPO 0822/0906 4000 -SHRA BR FEW003 BKN005",
          "offset_h": 7,
          "wdir": null,
          "wspd": null
        },
        {
          "text": "TEMPO 0906/0912 2000 -SHRA BR FEW002 BKN004",
          "offset_h": 15,
          "wdir": null,
          "wspd": null
        },
        {
          "text": "TEMPO 0912/0918 1500 SHRA BR FEW001 BKN003",
          "offset_h": 21,
          "wdir": null,
          "wspd": null
        }
      ],
      "metar_raw": "METAR RJCC 081500Z 16008KT 2000 -DZ BR SCT001 BKN002 18/18 Q1014",
      "metar_wdir": 160,
      "metar_wspd": 8,
      "metar_oat": 18,
      "metar_qnh": 1014,
      "hourly_oat": [
        18,
        17,
        17,
        18,
        18,
        18,
        19,
        19,
        19,
        19,
        20,
        21,
        20,
        21,
        21,
        21,
        21,
        20,
        19,
        18,
        18,
        18,
        18,
        18,
        18
      ]
    },
    "NRT": {
      "icao": "RJAA",
      "issued": "2026-07-08T11:05:00.000Z",
      "raw": "TAF RJAA 081105Z 0812/0918 14004KT 9999 FEW030",
      "groups": [
        {
          "text": "TAF RJAA 081105Z 0812/0918 14004KT 9999 FEW030",
          "offset_h": -3,
          "wdir": 140,
          "wspd": 4
        }
      ],
      "metar_raw": "METAR RJAA 081500Z AUTO 15001KT 9999 NCD 21/20 Q1015 NOSIG",
      "metar_wdir": 150,
      "metar_wspd": 1,
      "metar_oat": 21,
      "metar_qnh": 1015,
      "hourly_oat": [
        22,
        21,
        21,
        21,
        21,
        21,
        22,
        23,
        24,
        25,
        26,
        27,
        28,
        28,
        28,
        28,
        27,
        26,
        25,
        24,
        23,
        22,
        22,
        22,
        21
      ]
    },
    "TSA": {
      "icao": "RCSS",
      "issued": "2026-07-08T11:00:00.000Z",
      "raw": "TAF RCSS 081100Z 0812/0912 09005KT 9999 FEW015 BECMG 0900/0902 08010KT BECMG 0906/0908 09015KT",
      "groups": [
        {
          "text": "TAF RCSS 081100Z 0812/0912 09005KT 9999 FEW015",
          "offset_h": -3,
          "wdir": 90,
          "wspd": 5
        },
        {
          "text": "BECMG 0900/0902 08010KT",
          "offset_h": 9,
          "wdir": 80,
          "wspd": 10
        },
        {
          "text": "BECMG 0906/0908 09015KT",
          "offset_h": 15,
          "wdir": 90,
          "wspd": 15
        }
      ],
      "metar_raw": "METAR RCSS 081430Z 10006KT 9999 FEW025 28/26 Q1008 NOSIG RMK A2977",
      "metar_wdir": 100,
      "metar_wspd": 6,
      "metar_oat": 28,
      "metar_qnh": 1008,
      "hourly_oat": [
        26,
        26,
        25,
        24,
        24,
        24,
        24,
        24,
        25,
        28,
        30,
        32,
        33,
        34,
        33,
        33,
        32,
        31,
        30,
        28,
        28,
        27,
        27,
        27,
        27
      ]
    },
    "TPE": {
      "icao": "RCTP",
      "issued": "2026-07-08T11:00:00.000Z",
      "raw": "TAF RCTP 081100Z 0812/0918 22005KT 9999 FEW015 BECMG 0900/0902 02010KT BECMG 0906/0908 03015KT TEMPO 0910/0916 04020KT",
      "groups": [
        {
          "text": "TAF RCTP 081100Z 0812/0918 22005KT 9999 FEW015",
          "offset_h": -3,
          "wdir": 220,
          "wspd": 5
        },
        {
          "text": "BECMG 0900/0902 02010KT",
          "offset_h": 9,
          "wdir": 20,
          "wspd": 10
        },
        {
          "text": "BECMG 0906/0908 03015KT",
          "offset_h": 15,
          "wdir": 30,
          "wspd": 15
        },
        {
          "text": "TEMPO 0910/0916 04020KT",
          "offset_h": 19,
          "wdir": 40,
          "wspd": 20
        }
      ],
      "metar_raw": "METAR RCTP 081500Z VRB02KT 9999 FEW015 29/26 Q1007 NOSIG RMK A2976",
      "metar_wdir": "VRB",
      "metar_wspd": 2,
      "metar_oat": 29,
      "metar_qnh": 1007,
      "hourly_oat": [
        28,
        28,
        27,
        27,
        26,
        25,
        25,
        25,
        26,
        28,
        30,
        30,
        30,
        30,
        30,
        31,
        31,
        30,
        30,
        29,
        28,
        28,
        27,
        27,
        27
      ]
    },
    "GMP": {
      "icao": "RKSS",
      "issued": "2026-07-08T11:00:00.000Z",
      "raw": "TAF RKSS 081100Z 0812/0918 21006KT 9999 BKN030 TN24/0820Z TX28/0905Z BECMG 0818/0820 18006KT 6000 -RA FEW010 BKN020 OVC070 BECMG 0901/0903 21007KT 4000 RA SCT008CB BKN020 OVC060 BECMG 0906/0908 6000 -RA FEW010 BKN025 OVC070 BECMG 0909/0911 18006KT NSW BECMG 0913/0915 -RA",
      "groups": [
        {
          "text": "TAF RKSS 081100Z 0812/0918 21006KT 9999 BKN030 TN24/0820Z TX28/0905Z",
          "offset_h": -3,
          "wdir": 210,
          "wspd": 6
        },
        {
          "text": "BECMG 0818/0820 18006KT 6000 -RA FEW010 BKN020 OVC070",
          "offset_h": 3,
          "wdir": 180,
          "wspd": 6
        },
        {
          "text": "BECMG 0901/0903 21007KT 4000 RA SCT008CB BKN020 OVC060",
          "offset_h": 10,
          "wdir": 210,
          "wspd": 7
        },
        {
          "text": "BECMG 0906/0908 6000 -RA FEW010 BKN025 OVC070",
          "offset_h": 15,
          "wdir": null,
          "wspd": null
        },
        {
          "text": "BECMG 0909/0911 18006KT NSW",
          "offset_h": 18,
          "wdir": 180,
          "wspd": 6
        },
        {
          "text": "BECMG 0913/0915 -RA",
          "offset_h": 22,
          "wdir": null,
          "wspd": null
        }
      ],
      "metar_raw": "METAR RKSS 081500Z 28001KT 9999 SCT017 BKN050 25/25 Q1007 NOSIG",
      "metar_wdir": 280,
      "metar_wspd": 1,
      "metar_oat": 25,
      "metar_qnh": 1007,
      "hourly_oat": [
        23,
        24,
        24,
        24,
        24,
        24,
        24,
        24,
        25,
        25,
        26,
        26,
        26,
        26,
        26,
        25,
        26,
        26,
        25,
        25,
        25,
        24,
        24,
        24,
        24
      ]
    },
    "CGK": {
      "icao": "WIII",
      "issued": "2026-07-08T11:00:00.000Z",
      "raw": "TAF WIII 081100Z 0812/0918 04010KT 9000 FEW020 BECMG 0813/0815 VRB03KT 5000 HZ",
      "groups": [
        {
          "text": "TAF WIII 081100Z 0812/0918 04010KT 9000 FEW020",
          "offset_h": -3,
          "wdir": 40,
          "wspd": 10
        },
        {
          "text": "BECMG 0813/0815 VRB03KT 5000 HZ",
          "offset_h": -2,
          "wdir": "VRB",
          "wspd": 3
        }
      ],
      "metar_raw": "METAR WIII 081500Z 06003KT 3500 HZ SCT020 27/23 Q1012 NOSIG",
      "metar_wdir": 60,
      "metar_wspd": 3,
      "metar_oat": 27,
      "metar_qnh": 1012,
      "hourly_oat": [
        28,
        27,
        27,
        26,
        26,
        25,
        25,
        24,
        24,
        24,
        27,
        29,
        31,
        32,
        33,
        33,
        32,
        32,
        30,
        30,
        28,
        28,
        28,
        27,
        27
      ]
    },
    "BKK": {
      "icao": "VTBS",
      "issued": "2026-07-08T11:00:00.000Z",
      "raw": "TAF VTBS 081100Z 0812/0918 21008KT 9999 FEW020 TEMPO 0812/0816 VRB15KT 4000 TSRA FEW018CB SCT030 BKN100 BECMG 0816/0818 27008KT",
      "groups": [
        {
          "text": "TAF VTBS 081100Z 0812/0918 21008KT 9999 FEW020",
          "offset_h": -3,
          "wdir": 210,
          "wspd": 8
        },
        {
          "text": "TEMPO 0812/0816 VRB15KT 4000 TSRA FEW018CB SCT030 BKN100",
          "offset_h": -3,
          "wdir": "VRB",
          "wspd": 15
        },
        {
          "text": "BECMG 0816/0818 27008KT",
          "offset_h": 1,
          "wdir": 270,
          "wspd": 8
        }
      ],
      "metar_raw": "METAR VTBS 081500Z VRB01KT 9999 -RA FEW020 26/24 Q1009 NOSIG",
      "metar_wdir": "VRB",
      "metar_wspd": 1,
      "metar_oat": 26,
      "metar_qnh": 1009,
      "hourly_oat": [
        28,
        28,
        27,
        27,
        26,
        26,
        26,
        26,
        26,
        28,
        29,
        30,
        31,
        32,
        32,
        33,
        33,
        32,
        32,
        32,
        31,
        30,
        30,
        29,
        28
      ]
    },
    "KUL": {
      "icao": "WMKK",
      "issued": "2026-07-08T11:00:00.000Z",
      "raw": "TAF WMKK 081100Z 0812/0918 VRB03KT 9999 FEW030",
      "groups": [
        {
          "text": "TAF WMKK 081100Z 0812/0918 VRB03KT 9999 FEW030",
          "offset_h": -3,
          "wdir": "VRB",
          "wspd": 3
        }
      ],
      "metar_raw": "METAR WMKK 081430Z 00000KT 9999 FEW030 27/24 Q1011 NOSIG",
      "metar_wdir": 0,
      "metar_wspd": 0,
      "metar_oat": 27,
      "metar_qnh": 1011,
      "hourly_oat": [
        26,
        26,
        25,
        25,
        25,
        25,
        25,
        25,
        25,
        26,
        27,
        28,
        29,
        29,
        30,
        30,
        30,
        30,
        30,
        29,
        28,
        27,
        27,
        26,
        26
      ]
    },
    "HAN": {
      "icao": "VVNB",
      "issued": "2026-07-08T11:00:00.000Z",
      "raw": "TAF VVNB 081100Z 0812/0912 08006KT 9999 FEW030 TEMPO 0815/0818 4000 TSRA SCT012 FEW027CB TEMPO 0909/0912 4000 TSRA SCT012 FEW027CB",
      "groups": [
        {
          "text": "TAF VVNB 081100Z 0812/0912 08006KT 9999 FEW030",
          "offset_h": -3,
          "wdir": 80,
          "wspd": 6
        },
        {
          "text": "TEMPO 0815/0818 4000 TSRA SCT012 FEW027CB",
          "offset_h": 0,
          "wdir": null,
          "wspd": null
        },
        {
          "text": "TEMPO 0909/0912 4000 TSRA SCT012 FEW027CB",
          "offset_h": 18,
          "wdir": null,
          "wspd": null
        }
      ],
      "metar_raw": "METAR VVNB 081500Z 05005KT 010V070 CAVOK 27/26 Q1003 NOSIG",
      "metar_wdir": 50,
      "metar_wspd": 5,
      "metar_oat": 27,
      "metar_qnh": 1003,
      "hourly_oat": [
        26,
        26,
        26,
        26,
        25,
        25,
        25,
        25,
        25,
        26,
        26,
        26,
        28,
        29,
        29,
        30,
        30,
        30,
        30,
        30,
        29,
        28,
        27,
        27,
        26
      ]
    },
    "SGN": {
      "icao": "VVTS",
      "issued": "2026-07-08T11:00:00.000Z",
      "raw": "TAF VVTS 081100Z 0812/0918 22010KT 9999 SCT017 TEMPO 0905/0908 25016G30KT 3000 TSRA BKN013 FEW015CB",
      "groups": [
        {
          "text": "TAF VVTS 081100Z 0812/0918 22010KT 9999 SCT017",
          "offset_h": -3,
          "wdir": 220,
          "wspd": 10
        },
        {
          "text": "TEMPO 0905/0908 25016G30KT 3000 TSRA BKN013 FEW015CB",
          "offset_h": 14,
          "wdir": 250,
          "wspd": 16
        }
      ],
      "metar_raw": "METAR VVTS 081500Z 24011KT CAVOK 28/25 Q1010 NOSIG",
      "metar_wdir": 240,
      "metar_wspd": 11,
      "metar_oat": 28,
      "metar_qnh": 1010,
      "hourly_oat": [
        26,
        25,
        25,
        25,
        25,
        25,
        25,
        25,
        25,
        26,
        28,
        29,
        30,
        31,
        32,
        31,
        28,
        29,
        29,
        29,
        26,
        26,
        26,
        26,
        26
      ]
    },
    "PEK": {
      "icao": "ZBAA",
      "issued": "2026-07-08T09:23:00.000Z",
      "raw": "TAF AMD ZBAA 080923Z 0812/0918 18004MPS CAVOK TX33/0907Z TN22/0821Z TN24/0918Z TEMPO 0818/0821 -TSRA FEW040CB BKN040 TEMPO 0911/0914 -TSRA FEW040CB BKN040",
      "groups": [
        {
          "text": "TAF AMD ZBAA 080923Z 0812/0918 18004MPS CAVOK TX33/0907Z TN22/0821Z TN24/0918Z",
          "offset_h": -3,
          "wdir": null,
          "wspd": null
        },
        {
          "text": "TEMPO 0818/0821 -TSRA FEW040CB BKN040",
          "offset_h": 3,
          "wdir": null,
          "wspd": null
        },
        {
          "text": "TEMPO 0911/0914 -TSRA FEW040CB BKN040",
          "offset_h": 20,
          "wdir": null,
          "wspd": null
        }
      ],
      "metar_raw": "METAR ZBAA 081500Z VRB01MPS CAVOK 27/25 Q1000 NOSIG",
      "metar_wdir": null,
      "metar_wspd": null,
      "metar_oat": 27,
      "metar_qnh": 1000,
      "hourly_oat": [
        24,
        24,
        24,
        24,
        23,
        23,
        23,
        24,
        25,
        27,
        29,
        30,
        32,
        32,
        33,
        34,
        28,
        28,
        28,
        27,
        27,
        26,
        25,
        25,
        25
      ]
    },
    "PVG": {
      "icao": "ZSPD",
      "issued": "2026-07-08T09:08:00.000Z",
      "raw": "TAF ZSPD 080908Z 0812/0918 17004MPS 8000 SCT030 TX35/0906Z TN28/0821Z TN27/0918Z",
      "groups": [
        {
          "text": "TAF ZSPD 080908Z 0812/0918 17004MPS 8000 SCT030 TX35/0906Z TN28/0821Z TN27/0918Z",
          "offset_h": -3,
          "wdir": null,
          "wspd": null
        }
      ],
      "metar_raw": "METAR ZSPD 081500Z 17003MPS CAVOK 29/26 Q1006 NOSIG",
      "metar_wdir": null,
      "metar_wspd": null,
      "metar_oat": 29,
      "metar_qnh": 1006,
      "hourly_oat": [
        28,
        28,
        28,
        27,
        27,
        25,
        25,
        26,
        26,
        28,
        29,
        30,
        31,
        31,
        30,
        30,
        30,
        29,
        28,
        28,
        27,
        27,
        27,
        27,
        26
      ]
    },
    "SHA": {
      "icao": "ZSSS",
      "issued": "2026-07-08T09:07:00.000Z",
      "raw": "TAF ZSSS 080907Z 0812/0918 18004MPS 8000 SCT030 TX35/0906Z TN28/0821Z TN28/0918Z TEMPO 0818/0822 TSRA BKN013 SCT030CB",
      "groups": [
        {
          "text": "TAF ZSSS 080907Z 0812/0918 18004MPS 8000 SCT030 TX35/0906Z TN28/0821Z TN28/0918Z",
          "offset_h": -3,
          "wdir": null,
          "wspd": null
        },
        {
          "text": "TEMPO 0818/0822 TSRA BKN013 SCT030CB",
          "offset_h": 3,
          "wdir": null,
          "wspd": null
        }
      ],
      "metar_raw": "METAR ZSSS 081500Z 20003MPS CAVOK 31/26 Q1006 NOSIG",
      "metar_wdir": null,
      "metar_wspd": null,
      "metar_oat": 31,
      "metar_qnh": 1006,
      "hourly_oat": [
        29,
        29,
        28,
        28,
        28,
        27,
        27,
        26,
        27,
        28,
        29,
        29,
        29,
        29,
        30,
        30,
        30,
        30,
        29,
        29,
        28,
        27,
        27,
        27,
        26
      ]
    },
    "CAN": {
      "icao": "ZGGG",
      "issued": "2026-07-08T09:02:00.000Z",
      "raw": "TAF ZGGG 080902Z 0812/0918 15003MPS 8000 BKN040 TX28/0812Z TX32/0907Z TN25/0822Z TEMPO 0821/0901 SHRA FEW026CB BKN033 TEMPO 0905/0909 TSRA FEW026CB BKN033",
      "groups": [
        {
          "text": "TAF ZGGG 080902Z 0812/0918 15003MPS 8000 BKN040 TX28/0812Z TX32/0907Z TN25/0822Z",
          "offset_h": -3,
          "wdir": null,
          "wspd": null
        },
        {
          "text": "TEMPO 0821/0901 SHRA FEW026CB BKN033",
          "offset_h": 6,
          "wdir": null,
          "wspd": null
        },
        {
          "text": "TEMPO 0905/0909 TSRA FEW026CB BKN033",
          "offset_h": 14,
          "wdir": null,
          "wspd": null
        }
      ],
      "metar_raw": "METAR ZGGG 081500Z 07002MPS 9999 BKN050 27/25 Q1006 NOSIG",
      "metar_wdir": null,
      "metar_wspd": null,
      "metar_oat": 27,
      "metar_qnh": 1006,
      "hourly_oat": [
        27,
        26,
        26,
        26,
        26,
        25,
        25,
        25,
        26,
        27,
        29,
        30,
        29,
        32,
        29,
        31,
        30,
        30,
        30,
        30,
        29,
        28,
        28,
        27,
        27
      ]
    }
  }
}