{
  "updated": "2026-06-18T17:54:38Z",
  "tafs": {
    "LAX": {
      "icao": "KLAX",
      "issued": "2026-06-18T17:39:00.000Z",
      "raw": "TAF KLAX 181739Z 1818/1924 24010KT P6SM SCT015 OVC022 FM182030 25011KT P6SM SCT025 FM190100 24008KT P6SM OVC015 FM191200 23004KT P6SM OVC020 FM191800 24011KT P6SM BKN022 FM192000 25009KT P6SM SCT025",
      "groups": [
        {
          "text": "TAF KLAX 181739Z 1818/1924 24010KT P6SM SCT015 OVC022",
          "offset_h": 1,
          "wdir": 240,
          "wspd": 10
        },
        {
          "text": "FM182030 25011KT P6SM SCT025",
          "offset_h": 3,
          "wdir": 250,
          "wspd": 11
        },
        {
          "text": "FM190100 24008KT P6SM OVC015",
          "offset_h": 8,
          "wdir": 240,
          "wspd": 8
        },
        {
          "text": "FM191200 23004KT P6SM OVC020",
          "offset_h": 19,
          "wdir": 230,
          "wspd": 4
        },
        {
          "text": "FM191800 24011KT P6SM BKN022",
          "offset_h": 25,
          "wdir": 240,
          "wspd": 11
        },
        {
          "text": "FM192000 25009KT P6SM SCT025",
          "offset_h": 27,
          "wdir": 250,
          "wspd": 9
        }
      ],
      "metar_raw": "METAR KLAX 181653Z 24007KT 10SM FEW009 SCT016 OVC022 19/14 A2998 RMK AO2 SLP151 SCT V BKN T01890139 $",
      "metar_wdir": 240,
      "metar_wspd": 7,
      "metar_oat": 19,
      "metar_qnh": 1015,
      "hourly_oat": [
        19,
        19,
        19,
        20,
        20,
        21,
        20,
        20,
        18,
        18,
        17,
        17,
        17,
        16,
        15,
        15,
        15,
        15,
        16,
        16,
        16,
        17,
        17,
        17,
        18
      ]
    },
    "SAN": {
      "icao": "KSAN",
      "issued": "2026-06-18T17:33:00.000Z",
      "raw": "TAF KSAN 181733Z 1818/1924 VRB04KT P6SM OVC020 FM182100 29010KT P6SM BKN020 TEMPO 1821/1901 SCT020 FM190100 31007KT P6SM BKN022 FM190500 VRB04KT P6SM OVC020 FM192000 29010KT P6SM SCT020",
      "groups": [
        {
          "text": "TAF KSAN 181733Z 1818/1924 VRB04KT P6SM OVC020",
          "offset_h": 1,
          "wdir": "VRB",
          "wspd": 4
        },
        {
          "text": "FM182100 29010KT P6SM BKN020",
          "offset_h": 4,
          "wdir": 290,
          "wspd": 10
        },
        {
          "text": "TEMPO 1821/1901 SCT020",
          "offset_h": 4,
          "wdir": null,
          "wspd": null
        },
        {
          "text": "FM190100 31007KT P6SM BKN022",
          "offset_h": 8,
          "wdir": 310,
          "wspd": 7
        },
        {
          "text": "FM190500 VRB04KT P6SM OVC020",
          "offset_h": 12,
          "wdir": "VRB",
          "wspd": 4
        },
        {
          "text": "FM192000 29010KT P6SM SCT020",
          "offset_h": 27,
          "wdir": 290,
          "wspd": 10
        }
      ],
      "metar_raw": "METAR KSAN 181751Z 19004KT 10SM FEW014 OVC023 18/14 A3000 RMK AO2 SLP159 T01830144 10189 20172 50004 $",
      "metar_wdir": 190,
      "metar_wspd": 4,
      "metar_oat": 18,
      "metar_qnh": 1016,
      "hourly_oat": [
        19,
        21,
        21,
        22,
        22,
        22,
        22,
        21,
        20,
        20,
        18,
        18,
        18,
        18,
        18,
        17,
        18,
        18,
        17,
        17,
        17,
        17,
        17,
        18,
        20
      ]
    },
    "HNL": {
      "icao": "PHNL",
      "issued": "2026-06-18T17:30:00.000Z",
      "raw": "TAF PHNL 181730Z 1818/1924 08004KT P6SM FEW025 FEW040 FM182000 16008KT P6SM SCT025 SCT040 FM190000 22007KT P6SM VCSH SCT025 BKN040 FM190400 VRB05KT P6SM SCT025 BKN060 FM190900 34005KT P6SM FEW025 SCT060 FM192000 12008KT P6SM SCT025 SCT040",
      "groups": [
        {
          "text": "TAF PHNL 181730Z 1818/1924 08004KT P6SM FEW025 FEW040",
          "offset_h": 1,
          "wdir": 80,
          "wspd": 4
        },
        {
          "text": "FM182000 16008KT P6SM SCT025 SCT040",
          "offset_h": 3,
          "wdir": 160,
          "wspd": 8
        },
        {
          "text": "FM190000 22007KT P6SM VCSH SCT025 BKN040",
          "offset_h": 7,
          "wdir": 220,
          "wspd": 7
        },
        {
          "text": "FM190400 VRB05KT P6SM SCT025 BKN060",
          "offset_h": 11,
          "wdir": "VRB",
          "wspd": 5
        },
        {
          "text": "FM190900 34005KT P6SM FEW025 SCT060",
          "offset_h": 16,
          "wdir": 340,
          "wspd": 5
        },
        {
          "text": "FM192000 12008KT P6SM SCT025 SCT040",
          "offset_h": 27,
          "wdir": 120,
          "wspd": 8
        }
      ],
      "metar_raw": "METAR PHNL 181653Z 00000KT 10SM FEW025 FEW040 26/21 A3001 RMK AO2 SLP163 T02560211 $",
      "metar_wdir": 0,
      "metar_wspd": 0,
      "metar_oat": 26,
      "metar_qnh": 1016,
      "hourly_oat": [
        24,
        26,
        28,
        29,
        30,
        30,
        30,
        30,
        30,
        29,
        28,
        27,
        26,
        26,
        25,
        25,
        24,
        24,
        24,
        24,
        23,
        23,
        23,
        23,
        25
      ]
    },
    "NGO": {
      "icao": "RJGG",
      "issued": "2026-06-18T17:05:00.000Z",
      "raw": "TAF RJGG 181705Z 1818/2000 29004KT 9999 FEW030 BECMG 1900/1902 25006KT BECMG 1903/1905 19010KT BECMG 1909/1912 13008KT BECMG 1915/1918 30004KT TEMPO 1918/2000 3000 -RA BR FEW003 BKN005",
      "groups": [
        {
          "text": "TAF RJGG 181705Z 1818/2000 29004KT 9999 FEW030",
          "offset_h": 1,
          "wdir": 290,
          "wspd": 4
        },
        {
          "text": "BECMG 1900/1902 25006KT",
          "offset_h": 7,
          "wdir": 250,
          "wspd": 6
        },
        {
          "text": "BECMG 1903/1905 19010KT",
          "offset_h": 10,
          "wdir": 190,
          "wspd": 10
        },
        {
          "text": "BECMG 1909/1912 13008KT",
          "offset_h": 16,
          "wdir": 130,
          "wspd": 8
        },
        {
          "text": "BECMG 1915/1918 30004KT",
          "offset_h": 22,
          "wdir": 300,
          "wspd": 4
        },
        {
          "text": "TEMPO 1918/2000 3000 -RA BR FEW003 BKN005",
          "offset_h": 25,
          "wdir": null,
          "wspd": null
        }
      ],
      "metar_raw": "METAR RJGG 181730Z AUTO VRB02KT 9999 NCD 23/21 Q1009 NOSIG",
      "metar_wdir": "VRB",
      "metar_wspd": 2,
      "metar_oat": 23,
      "metar_qnh": 1009,
      "hourly_oat": [
        22,
        22,
        22,
        22,
        22,
        22,
        22,
        22,
        22,
        23,
        23,
        24,
        24,
        24,
        24,
        24,
        24,
        23,
        22,
        22,
        22,
        22,
        22,
        22,
        22
      ]
    },
    "NRT": {
      "icao": "RJAA",
      "issued": "2026-06-18T17:05:00.000Z",
      "raw": "TAF RJAA 181705Z 1818/2000 01004KT 9000 FEW005 SCT008 BKN012 TEMPO 1818/1821 3000 BR FEW001 BKN003 TEMPO 1821/1900 FEW002 BKN005 BECMG 1822/1900 13010KT TEMPO 1906/1912 FEW002 BKN005 TEMPO 1912/1921 2000 BR FEW001 BKN003 TEMPO 1921/2000 FEW001 BKN003",
      "groups": [
        {
          "text": "TAF RJAA 181705Z 1818/2000 01004KT 9000 FEW005 SCT008 BKN012",
          "offset_h": 1,
          "wdir": 10,
          "wspd": 4
        },
        {
          "text": "TEMPO 1818/1821 3000 BR FEW001 BKN003",
          "offset_h": 1,
          "wdir": null,
          "wspd": null
        },
        {
          "text": "TEMPO 1821/1900 FEW002 BKN005",
          "offset_h": 4,
          "wdir": null,
          "wspd": null
        },
        {
          "text": "BECMG 1822/1900 13010KT",
          "offset_h": 5,
          "wdir": 130,
          "wspd": 10
        },
        {
          "text": "TEMPO 1906/1912 FEW002 BKN005",
          "offset_h": 13,
          "wdir": null,
          "wspd": null
        },
        {
          "text": "TEMPO 1912/1921 2000 BR FEW001 BKN003",
          "offset_h": 19,
          "wdir": null,
          "wspd": null
        },
        {
          "text": "TEMPO 1921/2000 FEW001 BKN003",
          "offset_h": 28,
          "wdir": null,
          "wspd": null
        }
      ],
      "metar_raw": "METAR RJAA 181730Z AUTO 00000KT 9999 SCT070 //////CB 19/18 Q1010 TEMPO 3000 BR BKN003",
      "metar_wdir": 0,
      "metar_wspd": 0,
      "metar_oat": 19,
      "metar_qnh": 1010,
      "hourly_oat": [
        19,
        19,
        19,
        19,
        19,
        20,
        20,
        21,
        23,
        24,
        25,
        25,
        25,
        24,
        24,
        23,
        23,
        22,
        22,
        22,
        22,
        22,
        21,
        21,
        21
      ]
    },
    "KIX": {
      "icao": "RJBB",
      "issued": "2026-06-18T17:05:00.000Z",
      "raw": "TAF RJBB 181705Z 1818/2000 06004KT 9999 FEW030 BECMG 1901/1903 23009KT BECMG 1912/1915 08006KT TEMPO 1915/1918 4000 -RA BR TEMPO 1918/2000 3000 SHRA BR FEW005 BKN008 BKN020",
      "groups": [
        {
          "text": "TAF RJBB 181705Z 1818/2000 06004KT 9999 FEW030",
          "offset_h": 1,
          "wdir": 60,
          "wspd": 4
        },
        {
          "text": "BECMG 1901/1903 23009KT",
          "offset_h": 8,
          "wdir": 230,
          "wspd": 9
        },
        {
          "text": "BECMG 1912/1915 08006KT",
          "offset_h": 19,
          "wdir": 80,
          "wspd": 6
        },
        {
          "text": "TEMPO 1915/1918 4000 -RA BR",
          "offset_h": 22,
          "wdir": null,
          "wspd": null
        },
        {
          "text": "TEMPO 1918/2000 3000 SHRA BR FEW005 BKN008 BKN020",
          "offset_h": 25,
          "wdir": null,
          "wspd": null
        }
      ],
      "metar_raw": "METAR RJBB 181730Z AUTO 12004KT 9999 OVC020 24/21 Q1010 NOSIG",
      "metar_wdir": 120,
      "metar_wspd": 4,
      "metar_oat": 24,
      "metar_qnh": 1010,
      "hourly_oat": [
        22,
        22,
        22,
        22,
        22,
        22,
        22,
        22,
        22,
        22,
        22,
        22,
        23,
        23,
        24,
        24,
        24,
        23,
        23,
        23,
        23,
        23,
        23,
        23,
        23
      ]
    },
    "HND": {
      "icao": "RJTT",
      "issued": "2026-06-18T17:05:00.000Z",
      "raw": "TAF RJTT 181705Z 1818/2000 12006KT 9999 FEW012 BKN020 TEMPO 1818/1821 FEW006 BKN008 BECMG 1904/1906 18012KT BECMG 1915/1918 09006KT",
      "groups": [
        {
          "text": "TAF RJTT 181705Z 1818/2000 12006KT 9999 FEW012 BKN020",
          "offset_h": 1,
          "wdir": 120,
          "wspd": 6
        },
        {
          "text": "TEMPO 1818/1821 FEW006 BKN008",
          "offset_h": 1,
          "wdir": null,
          "wspd": null
        },
        {
          "text": "BECMG 1904/1906 18012KT",
          "offset_h": 11,
          "wdir": 180,
          "wspd": 12
        },
        {
          "text": "BECMG 1915/1918 09006KT",
          "offset_h": 22,
          "wdir": 90,
          "wspd": 6
        }
      ],
      "metar_raw": "METAR RJTT 181730Z 09005KT 9999 FEW010 BKN060 21/20 Q1010 NOSIG",
      "metar_wdir": 90,
      "metar_wspd": 5,
      "metar_oat": 21,
      "metar_qnh": 1010,
      "hourly_oat": [
        21,
        20,
        20,
        20,
        21,
        21,
        22,
        23,
        24,
        24,
        25,
        26,
        26,
        25,
        25,
        25,
        24,
        24,
        23,
        23,
        23,
        22,
        22,
        22,
        22
      ]
    },
    "ITM": {
      "icao": "RJOO",
      "issued": "2026-06-18T17:05:00.000Z",
      "raw": "TAF RJOO 181705Z 1818/2000 33005KT 9999 FEW030 BECMG 1823/1901 20006KT TEMPO 1918/1921 4000 -RA BR TEMPO 1921/2000 3000 SHRA BR FEW005 BKN008 BKN015",
      "groups": [
        {
          "text": "TAF RJOO 181705Z 1818/2000 33005KT 9999 FEW030",
          "offset_h": 1,
          "wdir": 330,
          "wspd": 5
        },
        {
          "text": "BECMG 1823/1901 20006KT",
          "offset_h": 6,
          "wdir": 200,
          "wspd": 6
        },
        {
          "text": "TEMPO 1918/1921 4000 -RA BR",
          "offset_h": 25,
          "wdir": null,
          "wspd": null
        },
        {
          "text": "TEMPO 1921/2000 3000 SHRA BR FEW005 BKN008 BKN015",
          "offset_h": 28,
          "wdir": null,
          "wspd": null
        }
      ],
      "metar_raw": "METAR RJOO 181700Z AUTO 31006KT 9999 NCD 22/19 Q1010",
      "metar_wdir": 310,
      "metar_wspd": 6,
      "metar_oat": 22,
      "metar_qnh": 1010,
      "hourly_oat": [
        22,
        21,
        21,
        21,
        21,
        22,
        24,
        25,
        27,
        29,
        30,
        31,
        30,
        31,
        29,
        28,
        27,
        26,
        26,
        25,
        25,
        24,
        24,
        23,
        23
      ]
    },
    "FUK": {
      "icao": "RJFF",
      "issued": "2026-06-18T17:05:00.000Z",
      "raw": "TAF RJFF 181705Z 1818/2000 15010KT 8000 -SHRA FEW008 SCT012 BKN015 TEMPO 1900/1902 4000 SHRA BR BKN005 BKN013 BECMG 1901/1903 31008KT BECMG 1906/1909 15010KT TEMPO 1906/1915 3000 TSRA BR BKN005 FEW015CB BKN025",
      "groups": [
        {
          "text": "TAF RJFF 181705Z 1818/2000 15010KT 8000 -SHRA FEW008 SCT012 BKN015",
          "offset_h": 1,
          "wdir": 150,
          "wspd": 10
        },
        {
          "text": "TEMPO 1900/1902 4000 SHRA BR BKN005 BKN013",
          "offset_h": 7,
          "wdir": null,
          "wspd": null
        },
        {
          "text": "BECMG 1901/1903 31008KT",
          "offset_h": 8,
          "wdir": 310,
          "wspd": 8
        },
        {
          "text": "BECMG 1906/1909 15010KT",
          "offset_h": 13,
          "wdir": 150,
          "wspd": 10
        },
        {
          "text": "TEMPO 1906/1915 3000 TSRA BR BKN005 FEW015CB BKN025",
          "offset_h": 13,
          "wdir": null,
          "wspd": null
        }
      ],
      "metar_raw": "METAR RJFF 181730Z AUTO 14004KT 9999 FEW041 SCT060 BKN240 26/23 Q1009 NOSIG",
      "metar_wdir": 140,
      "metar_wspd": 4,
      "metar_oat": 26,
      "metar_qnh": 1009,
      "hourly_oat": [
        24,
        24,
        23,
        23,
        23,
        24,
        24,
        24,
        25,
        25,
        25,
        25,
        25,
        25,
        26,
        25,
        24,
        24,
        24,
        24,
        24,
        24,
        25,
        25,
        25
      ]
    },
    "CTS": {
      "icao": "RJCC",
      "issued": "2026-06-18T17:05:00.000Z",
      "raw": "TAF RJCC 181705Z 1818/2000 16009KT 7000 FEW003 BKN012 TEMPO 1818/1822 1500 -SHRA BR FEW001 BKN003 TEMPO 1822/1900 3000 -SHRA BR FEW003 BKN005 TEMPO 1900/1909 FEW003 BKN006 TEMPO 1909/1912 3000 -SHRA BR FEW003 BKN005 TEMPO 1912/1921 1500 -SHRA BR FEW001 BKN003 TEMPO 1921/2000 3000 BR FEW003 BKN005",
      "groups": [
        {
          "text": "TAF RJCC 181705Z 1818/2000 16009KT 7000 FEW003 BKN012",
          "offset_h": 1,
          "wdir": 160,
          "wspd": 9
        },
        {
          "text": "TEMPO 1818/1822 1500 -SHRA BR FEW001 BKN003",
          "offset_h": 1,
          "wdir": null,
          "wspd": null
        },
        {
          "text": "TEMPO 1822/1900 3000 -SHRA BR FEW003 BKN005",
          "offset_h": 5,
          "wdir": null,
          "wspd": null
        },
        {
          "text": "TEMPO 1900/1909 FEW003 BKN006",
          "offset_h": 7,
          "wdir": null,
          "wspd": null
        },
        {
          "text": "TEMPO 1909/1912 3000 -SHRA BR FEW003 BKN005",
          "offset_h": 16,
          "wdir": null,
          "wspd": null
        },
        {
          "text": "TEMPO 1912/1921 1500 -SHRA BR FEW001 BKN003",
          "offset_h": 19,
          "wdir": null,
          "wspd": null
        },
        {
          "text": "TEMPO 1921/2000 3000 BR FEW003 BKN005",
          "offset_h": 28,
          "wdir": null,
          "wspd": null
        }
      ],
      "metar_raw": "METAR RJCC 181730Z 18006KT 9999 FEW001 SCT003 BKN004 17/17 Q1011",
      "metar_wdir": 180,
      "metar_wspd": 6,
      "metar_oat": 17,
      "metar_qnh": 1011,
      "hourly_oat": [
        16,
        16,
        16,
        17,
        17,
        18,
        19,
        19,
        19,
        19,
        19,
        19,
        18,
        18,
        18,
        17,
        17,
        16,
        16,
        16,
        16,
        16,
        16,
        15,
        15
      ]
    },
    "OKA": {
      "icao": "ROAH",
      "issued": "2026-06-18T17:05:00.000Z",
      "raw": "TAF ROAH 181705Z 1818/2000 18010KT 3000 BR FEW001 BKN003 TEMPO 1818/1900 0600 FG VV000 BECMG 1900/1902 9999 NSW FEW003 BKN008 BECMG 1902/1904 FEW005 SCT010 TEMPO 1912/2000 FEW003 BKN005",
      "groups": [
        {
          "text": "TAF ROAH 181705Z 1818/2000 18010KT 3000 BR FEW001 BKN003",
          "offset_h": 1,
          "wdir": 180,
          "wspd": 10
        },
        {
          "text": "TEMPO 1818/1900 0600 FG VV000",
          "offset_h": 1,
          "wdir": null,
          "wspd": null
        },
        {
          "text": "BECMG 1900/1902 9999 NSW FEW003 BKN008",
          "offset_h": 7,
          "wdir": null,
          "wspd": null
        },
        {
          "text": "BECMG 1902/1904 FEW005 SCT010",
          "offset_h": 9,
          "wdir": null,
          "wspd": null
        },
        {
          "text": "TEMPO 1912/2000 FEW003 BKN005",
          "offset_h": 19,
          "wdir": null,
          "wspd": null
        }
      ],
      "metar_raw": "METAR ROAH 181730Z AUTO 19007KT 0200 R18L/1400VP2000D R18R/0600V1100D FG OVC001 26/26 Q1013",
      "metar_wdir": 190,
      "metar_wspd": 7,
      "metar_oat": 26,
      "metar_qnh": 1013,
      "hourly_oat": [
        26,
        26,
        26,
        26,
        26,
        26,
        27,
        28,
        28,
        28,
        29,
        29,
        29,
        28,
        28,
        28,
        27,
        26,
        26,
        26,
        26,
        26,
        26,
        26,
        26
      ]
    },
    "BKK": {
      "icao": "VTBS",
      "issued": "2026-06-18T17:00:00.000Z",
      "raw": "TAF VTBS 181700Z 1818/1924 23008KT 9999 FEW020 TEMPO 1908/1912 VRB15KT 3000 TSRA FEW018CB SCT025 BKN080",
      "groups": [
        {
          "text": "TAF VTBS 181700Z 1818/1924 23008KT 9999 FEW020",
          "offset_h": 1,
          "wdir": 230,
          "wspd": 8
        },
        {
          "text": "TEMPO 1908/1912 VRB15KT 3000 TSRA FEW018CB SCT025 BKN080",
          "offset_h": 15,
          "wdir": "VRB",
          "wspd": 15
        }
      ],
      "metar_raw": "METAR VTBS 181730Z 12004KT 090V180 9999 FEW020 28/23 Q1010 NOSIG",
      "metar_wdir": 120,
      "metar_wspd": 4,
      "metar_oat": 28,
      "metar_qnh": 1010,
      "hourly_oat": [
        28,
        27,
        27,
        27,
        27,
        27,
        26,
        28,
        29,
        31,
        32,
        33,
        33,
        34,
        34,
        32,
        32,
        30,
        30,
        28,
        28,
        28,
        27,
        27,
        27
      ]
    },
    "TSA": {
      "icao": "RCSS",
      "issued": "2026-06-18T17:00:00.000Z",
      "raw": "TAF RCSS 181700Z 1818/1918 09005KT 9999 FEW010 BKN032 TEMPO 1900/1906 27005KT TEMPO 1906/1910 27005KT 3000 RA FEW010 BKN014 FEW020CB",
      "groups": [
        {
          "text": "TAF RCSS 181700Z 1818/1918 09005KT 9999 FEW010 BKN032",
          "offset_h": 1,
          "wdir": 90,
          "wspd": 5
        },
        {
          "text": "TEMPO 1900/1906 27005KT",
          "offset_h": 7,
          "wdir": 270,
          "wspd": 5
        },
        {
          "text": "TEMPO 1906/1910 27005KT 3000 RA FEW010 BKN014 FEW020CB",
          "offset_h": 13,
          "wdir": 270,
          "wspd": 5
        }
      ],
      "metar_raw": "METAR RCSS 181700Z VRB01KT 9999 FEW020 BKN180 25/25 Q1011 NOSIG RMK A2986",
      "metar_wdir": "VRB",
      "metar_wspd": 1,
      "metar_oat": 25,
      "metar_qnh": 1011,
      "hourly_oat": [
        25,
        25,
        24,
        24,
        24,
        24,
        26,
        28,
        30,
        31,
        32,
        33,
        33,
        33,
        33,
        33,
        32,
        31,
        29,
        28,
        28,
        27,
        27,
        26,
        25
      ]
    },
    "TPE": {
      "icao": "RCTP",
      "issued": "2026-06-18T17:00:00.000Z",
      "raw": "TAF RCTP 181700Z 1818/1924 18005KT 9999 FEW010 BKN032 TEMPO 1818/1824 12005KT BECMG 1900/1902 24011KT TEMPO 1902/1908 24020KT TEMPO 1908/1914 24016KT TEMPO 1914/1918 21005KT",
      "groups": [
        {
          "text": "TAF RCTP 181700Z 1818/1924 18005KT 9999 FEW010 BKN032",
          "offset_h": 1,
          "wdir": 180,
          "wspd": 5
        },
        {
          "text": "TEMPO 1818/1824 12005KT",
          "offset_h": 1,
          "wdir": 120,
          "wspd": 5
        },
        {
          "text": "BECMG 1900/1902 24011KT",
          "offset_h": 7,
          "wdir": 240,
          "wspd": 11
        },
        {
          "text": "TEMPO 1902/1908 24020KT",
          "offset_h": 9,
          "wdir": 240,
          "wspd": 20
        },
        {
          "text": "TEMPO 1908/1914 24016KT",
          "offset_h": 15,
          "wdir": 240,
          "wspd": 16
        },
        {
          "text": "TEMPO 1914/1918 21005KT",
          "offset_h": 21,
          "wdir": 210,
          "wspd": 5
        }
      ],
      "metar_raw": "METAR RCTP 181730Z 16006KT 9999 FEW015 SCT180 27/25 Q1010 NOSIG RMK A2984",
      "metar_wdir": 160,
      "metar_wspd": 6,
      "metar_oat": 27,
      "metar_qnh": 1010,
      "hourly_oat": [
        25,
        25,
        24,
        24,
        24,
        25,
        26,
        28,
        29,
        30,
        30,
        30,
        30,
        30,
        30,
        29,
        28,
        28,
        28,
        27,
        27,
        26,
        26,
        26,
        26
      ]
    },
    "CGK": {
      "icao": "WIII",
      "issued": "2026-06-18T17:00:00.000Z",
      "raw": "TAF WIII 181700Z 1818/2000 13005KT 7000 SCT020 BECMG 1901/1903 05012KT",
      "groups": [
        {
          "text": "TAF WIII 181700Z 1818/2000 13005KT 7000 SCT020",
          "offset_h": 1,
          "wdir": 130,
          "wspd": 5
        },
        {
          "text": "BECMG 1901/1903 05012KT",
          "offset_h": 8,
          "wdir": 50,
          "wspd": 12
        }
      ],
      "metar_raw": "METAR WIII 181730Z 12003KT 5000 HZ FEW020 27/24 Q1011 NOSIG",
      "metar_wdir": 120,
      "metar_wspd": 3,
      "metar_oat": 27,
      "metar_qnh": 1011,
      "hourly_oat": [
        26,
        25,
        25,
        24,
        24,
        24,
        24,
        24,
        27,
        29,
        32,
        33,
        34,
        33,
        33,
        32,
        31,
        30,
        29,
        29,
        29,
        28,
        28,
        27,
        27
      ]
    },
    "KUL": {
      "icao": "WMKK",
      "issued": "2026-06-18T17:00:00.000Z",
      "raw": "TAF WMKK 181700Z 1818/2000 VRB03KT 9999 FEW030 TEMPO 1908/1912 5000 TSRA FEW017CB",
      "groups": [
        {
          "text": "TAF WMKK 181700Z 1818/2000 VRB03KT 9999 FEW030",
          "offset_h": 1,
          "wdir": "VRB",
          "wspd": 3
        },
        {
          "text": "TEMPO 1908/1912 5000 TSRA FEW017CB",
          "offset_h": 15,
          "wdir": null,
          "wspd": null
        }
      ],
      "metar_raw": "METAR WMKK 181730Z VRB03KT 9999 FEW030 27/24 Q1009 NOSIG",
      "metar_wdir": "VRB",
      "metar_wspd": 3,
      "metar_oat": 27,
      "metar_qnh": 1009,
      "hourly_oat": [
        25,
        25,
        24,
        24,
        24,
        24,
        24,
        25,
        26,
        28,
        29,
        29,
        30,
        30,
        29,
        28,
        27,
        26,
        24,
        24,
        24,
        24,
        24,
        24,
        24
      ]
    },
    "HKG": {
      "icao": "VHHH",
      "issued": "2026-06-18T17:00:00.000Z",
      "raw": "TAF VHHH 181700Z 1818/1924 18015KT 9999 FEW010 SCT025 TX32/1906Z TN28/1822Z TN28/1922Z TEMPO 1821/1903 4000 SHRA FEW010CB SCT020",
      "groups": [
        {
          "text": "TAF VHHH 181700Z 1818/1924 18015KT 9999 FEW010 SCT025 TX32/1906Z TN28/1822Z TN28/1922Z",
          "offset_h": 1,
          "wdir": 180,
          "wspd": 15
        },
        {
          "text": "TEMPO 1821/1903 4000 SHRA FEW010CB SCT020",
          "offset_h": 4,
          "wdir": null,
          "wspd": null
        }
      ],
      "metar_raw": "METAR VHHH 181730Z 20014KT 9999 FEW008 SCT020 29/24 Q1007 NOSIG",
      "metar_wdir": 200,
      "metar_wspd": 14,
      "metar_oat": 29,
      "metar_qnh": 1007,
      "hourly_oat": [
        28,
        27,
        27,
        26,
        27,
        27,
        28,
        28,
        28,
        29,
        30,
        30,
        30,
        29,
        30,
        29,
        29,
        29,
        29,
        29,
        29,
        29,
        29,
        28,
        28
      ]
    },
    "HAN": {
      "icao": "VVNB",
      "issued": "2026-06-18T17:00:00.000Z",
      "raw": "TAF VVNB 181700Z 1818/1918 17005KT 9999 FEW030",
      "groups": [
        {
          "text": "TAF VVNB 181700Z 1818/1918 17005KT 9999 FEW030",
          "offset_h": 1,
          "wdir": 170,
          "wspd": 5
        }
      ],
      "metar_raw": "METAR VVNB 181730Z 13004KT 090V160 CAVOK 31/25 Q1003 NOSIG",
      "metar_wdir": 130,
      "metar_wspd": 4,
      "metar_oat": 31,
      "metar_qnh": 1003,
      "hourly_oat": [
        30,
        29,
        29,
        29,
        28,
        28,
        28,
        29,
        30,
        32,
        33,
        34,
        35,
        35,
        35,
        34,
        34,
        33,
        32,
        31,
        30,
        30,
        30,
        30,
        29
      ]
    },
    "SGN": {
      "icao": "VVTS",
      "issued": "2026-06-18T17:00:00.000Z",
      "raw": "TAF VVTS 181700Z 1818/1924 VRB03KT 9999 SCT017 BECMG 1821/1822 4000 BR BECMG 1900/1901 25010KT 9999 NSW TEMPO 1908/1912 25015G28KT 3000 TSRA SCT013 SCT015CB",
      "groups": [
        {
          "text": "TAF VVTS 181700Z 1818/1924 VRB03KT 9999 SCT017",
          "offset_h": 1,
          "wdir": "VRB",
          "wspd": 3
        },
        {
          "text": "BECMG 1821/1822 4000 BR",
          "offset_h": 4,
          "wdir": null,
          "wspd": null
        },
        {
          "text": "BECMG 1900/1901 25010KT 9999 NSW",
          "offset_h": 7,
          "wdir": 250,
          "wspd": 10
        },
        {
          "text": "TEMPO 1908/1912 25015G28KT 3000 TSRA SCT013 SCT015CB",
          "offset_h": 15,
          "wdir": 250,
          "wspd": 15
        }
      ],
      "metar_raw": "METAR VVTS 181730Z 12004KT 070V170 CAVOK 26/25 Q1010 NOSIG",
      "metar_wdir": 120,
      "metar_wspd": 4,
      "metar_oat": 26,
      "metar_qnh": 1010,
      "hourly_oat": [
        26,
        25,
        25,
        25,
        25,
        25,
        25,
        25,
        27,
        29,
        30,
        31,
        32,
        32,
        33,
        33,
        32,
        30,
        28,
        27,
        27,
        27,
        26,
        25,
        25
      ]
    },
    "GMP": {
      "icao": "RKSS",
      "issued": "2026-06-18T17:00:00.000Z",
      "raw": "TAF RKSS 181700Z 1818/1924 13005KT CAVOK TN21/1820Z TX32/1905Z TN22/1920Z BECMG 1900/1902 27006KT 9999 SCT040 TEMPO 1906/1909 6000 -SHRA FEW010 BKN030 OVC080 BECMG 1912/1914 09006KT 6000 -RA FEW010 BKN025 OVC070 BECMG 1920/1922 06010G25KT 4000 RA",
      "groups": [
        {
          "text": "TAF RKSS 181700Z 1818/1924 13005KT CAVOK TN21/1820Z TX32/1905Z TN22/1920Z",
          "offset_h": 1,
          "wdir": 130,
          "wspd": 5
        },
        {
          "text": "BECMG 1900/1902 27006KT 9999 SCT040",
          "offset_h": 7,
          "wdir": 270,
          "wspd": 6
        },
        {
          "text": "TEMPO 1906/1909 6000 -SHRA FEW010 BKN030 OVC080",
          "offset_h": 13,
          "wdir": null,
          "wspd": null
        },
        {
          "text": "BECMG 1912/1914 09006KT 6000 -RA FEW010 BKN025 OVC070",
          "offset_h": 19,
          "wdir": 90,
          "wspd": 6
        },
        {
          "text": "BECMG 1920/1922 06010G25KT 4000 RA",
          "offset_h": 27,
          "wdir": 60,
          "wspd": 10
        }
      ],
      "metar_raw": "METAR RKSS 181700Z 34002KT CAVOK 21/20 Q1009 NOSIG",
      "metar_wdir": 340,
      "metar_wspd": 2,
      "metar_oat": 21,
      "metar_qnh": 1009,
      "hourly_oat": [
        20,
        20,
        20,
        20,
        20,
        21,
        22,
        24,
        26,
        27,
        28,
        28,
        28,
        28,
        27,
        26,
        26,
        25,
        24,
        24,
        24,
        23,
        23,
        22,
        22
      ]
    },
    "SIN": {
      "icao": "WSSS",
      "issued": "2026-06-18T17:00:00.000Z",
      "raw": "TAF WSSS 181700Z 1818/2000 12007KT 9999 FEW015 SCT020 TEMPO 1906/1909 3000 TSRA FEW012CB BKN015",
      "groups": [
        {
          "text": "TAF WSSS 181700Z 1818/2000 12007KT 9999 FEW015 SCT020",
          "offset_h": 1,
          "wdir": 120,
          "wspd": 7
        },
        {
          "text": "TEMPO 1906/1909 3000 TSRA FEW012CB BKN015",
          "offset_h": 13,
          "wdir": null,
          "wspd": null
        }
      ],
      "metar_raw": "METAR WSSS 181730Z 15006KT 9999 FEW014 BKN300 28/25 Q1010 NOSIG",
      "metar_wdir": 150,
      "metar_wspd": 6,
      "metar_oat": 28,
      "metar_qnh": 1010,
      "hourly_oat": [
        28,
        28,
        28,
        27,
        27,
        27,
        27,
        27,
        26,
        28,
        30,
        30,
        30,
        31,
        30,
        30,
        30,
        30,
        27,
        26,
        25,
        25,
        24,
        24,
        24
      ]
    },
    "SHA": {
      "icao": "ZSSS",
      "issued": "2026-06-18T15:18:00.000Z",
      "raw": "TAF ZSSS 181518Z 1818/1924 15004MPS 6000 BKN015 TX31/1906Z TN24/1821Z TN24/1921Z TEMPO 1821/1901 TSRA SCT030CB SCT040 TEMPO 1906/1909 TSRA SCT030CB BKN033 BECMG 1910/1911 21008G14MPS TEMPO 1914/1918 2800 +TSRA BKN030CB BKN033 BECMG 1920/1921 28004MPS",
      "groups": [
        {
          "text": "TAF ZSSS 181518Z 1818/1924 15004MPS 6000 BKN015 TX31/1906Z TN24/1821Z TN24/1921Z",
          "offset_h": 1,
          "wdir": null,
          "wspd": null
        },
        {
          "text": "TEMPO 1821/1901 TSRA SCT030CB SCT040",
          "offset_h": 4,
          "wdir": null,
          "wspd": null
        },
        {
          "text": "TEMPO 1906/1909 TSRA SCT030CB BKN033",
          "offset_h": 13,
          "wdir": null,
          "wspd": null
        },
        {
          "text": "BECMG 1910/1911 21008G14MPS",
          "offset_h": 17,
          "wdir": null,
          "wspd": null
        },
        {
          "text": "TEMPO 1914/1918 2800 +TSRA BKN030CB BKN033",
          "offset_h": 21,
          "wdir": null,
          "wspd": null
        },
        {
          "text": "BECMG 1920/1921 28004MPS",
          "offset_h": 27,
          "wdir": null,
          "wspd": null
        }
      ],
      "metar_raw": "METAR ZSSS 181730Z 12002MPS 090V150 9999 BKN009 25/23 Q1006 NOSIG",
      "metar_wdir": null,
      "metar_wspd": null,
      "metar_oat": 25,
      "metar_qnh": 1006,
      "hourly_oat": [
        23,
        24,
        24,
        24,
        24,
        24,
        25,
        26,
        27,
        29,
        31,
        32,
        31,
        31,
        28,
        26,
        26,
        26,
        26,
        26,
        26,
        26,
        26,
        26,
        26
      ]
    },
    "PVG": {
      "icao": "ZSPD",
      "issued": "2026-06-18T15:18:00.000Z",
      "raw": "TAF ZSPD 181518Z 1818/1924 15004MPS 5000 BR BKN015 TX30/1906Z TN24/1821Z TN25/1921Z TEMPO 1822/1902 TSRA BKN015 SCT030CB TEMPO 1907/1910 TSRA BKN020 SCT030CB BECMG 1911/1912 21008G14MPS TEMPO 1915/1918 2500 +TSRA BKN015 BKN030CB BECMG 1918/1919 28004MPS",
      "groups": [
        {
          "text": "TAF ZSPD 181518Z 1818/1924 15004MPS 5000 BR BKN015 TX30/1906Z TN24/1821Z TN25/1921Z",
          "offset_h": 1,
          "wdir": null,
          "wspd": null
        },
        {
          "text": "TEMPO 1822/1902 TSRA BKN015 SCT030CB",
          "offset_h": 5,
          "wdir": null,
          "wspd": null
        },
        {
          "text": "TEMPO 1907/1910 TSRA BKN020 SCT030CB",
          "offset_h": 14,
          "wdir": null,
          "wspd": null
        },
        {
          "text": "BECMG 1911/1912 21008G14MPS",
          "offset_h": 18,
          "wdir": null,
          "wspd": null
        },
        {
          "text": "TEMPO 1915/1918 2500 +TSRA BKN015 BKN030CB",
          "offset_h": 22,
          "wdir": null,
          "wspd": null
        },
        {
          "text": "BECMG 1918/1919 28004MPS",
          "offset_h": 25,
          "wdir": null,
          "wspd": null
        }
      ],
      "metar_raw": "METAR ZSPD 181730Z 12004MPS 090V180 7000 BKN004 24/24 Q1006 NOSIG",
      "metar_wdir": null,
      "metar_wspd": null,
      "metar_oat": 24,
      "metar_qnh": 1006,
      "hourly_oat": [
        24,
        24,
        24,
        24,
        24,
        24,
        25,
        26,
        26,
        29,
        30,
        31,
        32,
        30,
        29,
        28,
        26,
        26,
        25,
        25,
        25,
        26,
        26,
        26,
        26
      ]
    },
    "PEK": {
      "icao": "ZBAA",
      "issued": "2026-06-18T15:07:00.000Z",
      "raw": "TAF ZBAA 181507Z 1818/1924 10004MPS 3500 BR NSC TX29/1907Z TN22/1821Z TN21/1921Z TEMPO 1821/1824 FEW040CB BKN040 TEMPO 1908/1912 -TSRA FEW040CB BKN040",
      "groups": [
        {
          "text": "TAF ZBAA 181507Z 1818/1924 10004MPS 3500 BR NSC TX29/1907Z TN22/1821Z TN21/1921Z",
          "offset_h": 1,
          "wdir": null,
          "wspd": null
        },
        {
          "text": "TEMPO 1821/1824 FEW040CB BKN040",
          "offset_h": 4,
          "wdir": null,
          "wspd": null
        },
        {
          "text": "TEMPO 1908/1912 -TSRA FEW040CB BKN040",
          "offset_h": 15,
          "wdir": null,
          "wspd": null
        }
      ],
      "metar_raw": "METAR ZBAA 181730Z 00000MPS 5000 BR NSC 25/23 Q1004 NOSIG",
      "metar_wdir": null,
      "metar_wspd": null,
      "metar_oat": 25,
      "metar_qnh": 1004,
      "hourly_oat": [
        23,
        22,
        22,
        22,
        22,
        22,
        22,
        24,
        24,
        25,
        25,
        25,
        26,
        26,
        24,
        23,
        22,
        21,
        22,
        20,
        21,
        20,
        20,
        21,
        21
      ]
    },
    "DLC": {
      "icao": "ZYTL",
      "issued": "2026-06-18T15:03:00.000Z",
      "raw": "TAF ZYTL 181503Z 1818/1918 12004MPS 5000 BR FEW040 TX26/1906Z TN19/1821Z TEMPO 1903/1906 2000 -SHRA BR BKN010 BKN026",
      "groups": [
        {
          "text": "TAF ZYTL 181503Z 1818/1918 12004MPS 5000 BR FEW040 TX26/1906Z TN19/1821Z",
          "offset_h": 1,
          "wdir": null,
          "wspd": null
        },
        {
          "text": "TEMPO 1903/1906 2000 -SHRA BR BKN010 BKN026",
          "offset_h": 10,
          "wdir": null,
          "wspd": null
        }
      ],
      "metar_raw": "METAR ZYTL 181730Z 08003MPS CAVOK 21/20 Q1007 NOSIG",
      "metar_wdir": null,
      "metar_wspd": null,
      "metar_oat": 21,
      "metar_qnh": 1007,
      "hourly_oat": [
        21,
        21,
        21,
        21,
        21,
        22,
        23,
        25,
        26,
        25,
        26,
        25,
        24,
        24,
        24,
        24,
        23,
        23,
        22,
        22,
        21,
        21,
        21,
        21,
        21
      ]
    },
    "CAN": {
      "icao": "ZGGG",
      "issued": "2026-06-18T15:01:00.000Z",
      "raw": "TAF ZGGG 181501Z 1818/1924 17004MPS 8000 BKN033 TX32/1907Z TN25/1822Z TN25/1922Z TEMPO 1818/1822 SHRA FEW026CB BKN033",
      "groups": [
        {
          "text": "TAF ZGGG 181501Z 1818/1924 17004MPS 8000 BKN033 TX32/1907Z TN25/1822Z TN25/1922Z",
          "offset_h": 1,
          "wdir": null,
          "wspd": null
        },
        {
          "text": "TEMPO 1818/1822 SHRA FEW026CB BKN033",
          "offset_h": 1,
          "wdir": null,
          "wspd": null
        }
      ],
      "metar_raw": "METAR ZGGG 181730Z 07002MPS 9999 -SHRA SCT013 OVC023 26/25 Q1007 NOSIG",
      "metar_wdir": null,
      "metar_wspd": null,
      "metar_oat": 26,
      "metar_qnh": 1007,
      "hourly_oat": [
        26,
        25,
        25,
        25,
        25,
        25,
        26,
        27,
        29,
        30,
        30,
        31,
        32,
        29,
        30,
        30,
        30,
        30,
        29,
        28,
        28,
        28,
        28,
        27,
        27
      ]
    }
  }
}