{
  "updated": "2026-06-17T23:20:30Z",
  "tafs": {
    "SAN": {
      "icao": "KSAN",
      "issued": "2026-06-17T23:20:00.000Z",
      "raw": "TAF KSAN 172320Z 1800/1906 30010KT P6SM SCT025 TEMPO 1800/1802 BKN025 FM180200 30008KT P6SM BKN022 FM180400 VRB04KT P6SM OVC018 FM181800 29010KT P6SM FEW018 FM190100 31007KT P6SM BKN022",
      "groups": [
        {
          "text": "TAF KSAN 172320Z 1800/1906 30010KT P6SM SCT025",
          "offset_h": 1,
          "wdir": 300,
          "wspd": 10
        },
        {
          "text": "TEMPO 1800/1802 BKN025",
          "offset_h": 1,
          "wdir": null,
          "wspd": null
        },
        {
          "text": "FM180200 30008KT P6SM BKN022",
          "offset_h": 3,
          "wdir": 300,
          "wspd": 8
        },
        {
          "text": "FM180400 VRB04KT P6SM OVC018",
          "offset_h": 5,
          "wdir": "VRB",
          "wspd": 4
        },
        {
          "text": "FM181800 29010KT P6SM FEW018",
          "offset_h": 19,
          "wdir": 290,
          "wspd": 10
        },
        {
          "text": "FM190100 31007KT P6SM BKN022",
          "offset_h": 26,
          "wdir": 310,
          "wspd": 7
        }
      ],
      "metar_raw": "METAR KSAN 172251Z 30010KT 10SM FEW025 22/14 A2996 RMK AO2 SLP144 T02170144",
      "metar_wdir": 300,
      "metar_wspd": 10,
      "metar_oat": 22,
      "metar_qnh": 1015,
      "hourly_oat": [
        21,
        20,
        20,
        19,
        18,
        18,
        18,
        18,
        18,
        18,
        18,
        18,
        18,
        18,
        18,
        18,
        18,
        19,
        20,
        20,
        22,
        21,
        22,
        21,
        21
      ]
    },
    "GMP": {
      "icao": "RKSS",
      "issued": "2026-06-17T23:00:00.000Z",
      "raw": "TAF RKSS 172300Z 1800/1906 28007KT CAVOK TX32/1805Z TN21/1820Z TX32/1905Z BECMG 1812/1814 19005KT 6000 NSC BECMG 1900/1902 27006KT 9999 SCT040 TEMPO 1905/1906 -SHRA FEW010 BKN025 OVC070",
      "groups": [
        {
          "text": "TAF RKSS 172300Z 1800/1906 28007KT CAVOK TX32/1805Z TN21/1820Z TX32/1905Z",
          "offset_h": 1,
          "wdir": 280,
          "wspd": 7
        },
        {
          "text": "BECMG 1812/1814 19005KT 6000 NSC",
          "offset_h": 13,
          "wdir": 190,
          "wspd": 5
        },
        {
          "text": "BECMG 1900/1902 27006KT 9999 SCT040",
          "offset_h": 25,
          "wdir": 270,
          "wspd": 6
        },
        {
          "text": "TEMPO 1905/1906 -SHRA FEW010 BKN025 OVC070",
          "offset_h": 30,
          "wdir": null,
          "wspd": null
        }
      ],
      "metar_raw": "METAR RKSS 172300Z 25003KT 200V310 CAVOK 27/17 Q1009 NOSIG",
      "metar_wdir": 250,
      "metar_wspd": 3,
      "metar_oat": 27,
      "metar_qnh": 1009,
      "hourly_oat": [
        21,
        23,
        24,
        26,
        28,
        29,
        29,
        29,
        28,
        27,
        26,
        25,
        23,
        22,
        22,
        22,
        21,
        20,
        20,
        20,
        20,
        19,
        19,
        20,
        22
      ]
    },
    "CGK": {
      "icao": "WIII",
      "issued": "2026-06-17T23:00:00.000Z",
      "raw": "TAF WIII 172300Z 1800/1906 12005KT 5000 HZ SCT020 BECMG 1801/1803 06012KT BECMG 1803/1805 8000 NSW",
      "groups": [
        {
          "text": "TAF WIII 172300Z 1800/1906 12005KT 5000 HZ SCT020",
          "offset_h": 1,
          "wdir": 120,
          "wspd": 5
        },
        {
          "text": "BECMG 1801/1803 06012KT",
          "offset_h": 2,
          "wdir": 60,
          "wspd": 12
        },
        {
          "text": "BECMG 1803/1805 8000 NSW",
          "offset_h": 4,
          "wdir": null,
          "wspd": null
        }
      ],
      "metar_raw": "METAR WIII 172300Z 12004KT 4500 HZ FEW020 26/24 Q1012 NOSIG",
      "metar_wdir": 120,
      "metar_wspd": 4,
      "metar_oat": 26,
      "metar_qnh": 1012,
      "hourly_oat": [
        24,
        26,
        28,
        30,
        31,
        32,
        33,
        33,
        32,
        32,
        31,
        30,
        29,
        28,
        28,
        28,
        27,
        27,
        26,
        26,
        25,
        25,
        24,
        24,
        24
      ]
    },
    "HKG": {
      "icao": "VHHH",
      "issued": "2026-06-17T23:00:00.000Z",
      "raw": "TAF VHHH 172300Z 1800/1906 18010KT 9999 FEW010 SCT025 TX31/1806Z TX32/1906Z TN27/1822Z TEMPO 1800/1804 24025G35KT 2000 TSRA SHRA FEW008CB SCT015 TEMPO 1804/1806 3500 SHRA FEW010CB SCT020 TEMPO 1821/1824 4000 SHRA FEW010CB SCT020",
      "groups": [
        {
          "text": "TAF VHHH 172300Z 1800/1906 18010KT 9999 FEW010 SCT025 TX31/1806Z TX32/1906Z TN27/1822Z",
          "offset_h": 1,
          "wdir": 180,
          "wspd": 10
        },
        {
          "text": "TEMPO 1800/1804 24025G35KT 2000 TSRA SHRA FEW008CB SCT015",
          "offset_h": 1,
          "wdir": 240,
          "wspd": 25
        },
        {
          "text": "TEMPO 1804/1806 3500 SHRA FEW010CB SCT020",
          "offset_h": 5,
          "wdir": null,
          "wspd": null
        },
        {
          "text": "TEMPO 1821/1824 4000 SHRA FEW010CB SCT020",
          "offset_h": 22,
          "wdir": null,
          "wspd": null
        }
      ],
      "metar_raw": "METAR VHHH 172300Z 21014KT 9999 -SHRA FEW006 FEW010CB SCT018 29/26 Q1008 WS R25C TEMPO 24025G35KT 3000 TSRA SHRA FEW008CB SCT015",
      "metar_wdir": 210,
      "metar_wspd": 14,
      "metar_oat": 29,
      "metar_qnh": 1008,
      "hourly_oat": [
        25,
        26,
        27,
        27,
        27,
        27,
        28,
        28,
        28,
        28,
        27,
        26,
        26,
        27,
        28,
        28,
        27,
        27,
        27,
        27,
        28,
        27,
        27,
        27,
        27
      ]
    },
    "TPE": {
      "icao": "RCTP",
      "issued": "2026-06-17T23:00:00.000Z",
      "raw": "TAF RCTP 172300Z 1800/1906 24005KT 9999 FEW010 BKN032 TEMPO 1800/1804 17005KT TEMPO 1804/1810 27012KT FEW010 BKN018 FEW025CB TEMPO 1818/1824 17005KT TEMPO 1900/1906 27012KT",
      "groups": [
        {
          "text": "TAF RCTP 172300Z 1800/1906 24005KT 9999 FEW010 BKN032",
          "offset_h": 1,
          "wdir": 240,
          "wspd": 5
        },
        {
          "text": "TEMPO 1800/1804 17005KT",
          "offset_h": 1,
          "wdir": 170,
          "wspd": 5
        },
        {
          "text": "TEMPO 1804/1810 27012KT FEW010 BKN018 FEW025CB",
          "offset_h": 5,
          "wdir": 270,
          "wspd": 12
        },
        {
          "text": "TEMPO 1818/1824 17005KT",
          "offset_h": 19,
          "wdir": 170,
          "wspd": 5
        },
        {
          "text": "TEMPO 1900/1906 27012KT",
          "offset_h": 25,
          "wdir": 270,
          "wspd": 12
        }
      ],
      "metar_raw": "METAR RCTP 172300Z 16004KT 110V190 9999 FEW015 BKN200 29/25 Q1011 NOSIG RMK A2987",
      "metar_wdir": 160,
      "metar_wspd": 4,
      "metar_oat": 29,
      "metar_qnh": 1011,
      "hourly_oat": [
        27,
        28,
        30,
        30,
        30,
        30,
        30,
        30,
        30,
        29,
        28,
        28,
        27,
        27,
        27,
        27,
        26,
        26,
        25,
        25,
        25,
        24,
        24,
        25,
        26
      ]
    },
    "TSA": {
      "icao": "RCSS",
      "issued": "2026-06-17T23:00:00.000Z",
      "raw": "TAF RCSS 172300Z 1800/1824 09005KT 9999 FEW010 BKN032 TEMPO 1800/1805 30005KT TEMPO 1805/1806 12008KT 3200 TSRA FEW008 BKN015 FEW025CB TEMPO 1809/1812 5000 SHRA FEW008 BKN020 FEW025CB",
      "groups": [
        {
          "text": "TAF RCSS 172300Z 1800/1824 09005KT 9999 FEW010 BKN032",
          "offset_h": 1,
          "wdir": 90,
          "wspd": 5
        },
        {
          "text": "TEMPO 1800/1805 30005KT",
          "offset_h": 1,
          "wdir": 300,
          "wspd": 5
        },
        {
          "text": "TEMPO 1805/1806 12008KT 3200 TSRA FEW008 BKN015 FEW025CB",
          "offset_h": 6,
          "wdir": 120,
          "wspd": 8
        },
        {
          "text": "TEMPO 1809/1812 5000 SHRA FEW008 BKN020 FEW025CB",
          "offset_h": 10,
          "wdir": null,
          "wspd": null
        }
      ],
      "metar_raw": "METAR RCSS 172300Z 09004KT 9999 FEW025 SCT100 BKN150 28/25 Q1011 NOSIG RMK A2988",
      "metar_wdir": 90,
      "metar_wspd": 4,
      "metar_oat": 28,
      "metar_qnh": 1011,
      "hourly_oat": [
        26,
        28,
        31,
        32,
        32,
        32,
        30,
        30,
        30,
        30,
        29,
        28,
        28,
        27,
        27,
        26,
        26,
        26,
        25,
        24,
        24,
        24,
        24,
        24,
        26
      ]
    },
    "SIN": {
      "icao": "WSSS",
      "issued": "2026-06-17T22:00:00.000Z",
      "raw": "TAF AMD WSSS 172200Z 1722/1900 14008KT 9999 FEW015 SCT020 TEMPO 1723/1802 3000 TSRA FEW012CB BKN015",
      "groups": [
        {
          "text": "TAF AMD WSSS 172200Z 1722/1900 14008KT 9999 FEW015 SCT020",
          "offset_h": -1,
          "wdir": 140,
          "wspd": 8
        },
        {
          "text": "TEMPO 1723/1802 3000 TSRA FEW012CB BKN015",
          "offset_h": 0,
          "wdir": null,
          "wspd": null
        }
      ],
      "metar_raw": "METAR WSSS 172300Z VRB01KT 9999 FEW016 FEW018TCU BKN300 26/25 Q1012 NOSIG",
      "metar_wdir": "VRB",
      "metar_wspd": 1,
      "metar_oat": 26,
      "metar_qnh": 1012,
      "hourly_oat": [
        26,
        26,
        27,
        28,
        29,
        30,
        30,
        31,
        31,
        31,
        31,
        30,
        29,
        29,
        29,
        29,
        28,
        28,
        28,
        28,
        28,
        28,
        28,
        27,
        27
      ]
    },
    "LAX": {
      "icao": "KLAX",
      "issued": "2026-06-17T21:36:00.000Z",
      "raw": "TAF KLAX 172136Z 1722/1824 24008KT P6SM BKN015 FM180000 25011KT P6SM OVC012 FM180200 25008KT P6SM OVC007 FM181800 24008KT P6SM BKN015",
      "groups": [
        {
          "text": "TAF KLAX 172136Z 1722/1824 24008KT P6SM BKN015",
          "offset_h": -1,
          "wdir": 240,
          "wspd": 8
        },
        {
          "text": "FM180000 25011KT P6SM OVC012",
          "offset_h": 1,
          "wdir": 250,
          "wspd": 11
        },
        {
          "text": "FM180200 25008KT P6SM OVC007",
          "offset_h": 3,
          "wdir": 250,
          "wspd": 8
        },
        {
          "text": "FM181800 24008KT P6SM BKN015",
          "offset_h": 19,
          "wdir": 240,
          "wspd": 8
        }
      ],
      "metar_raw": "METAR KLAX 172253Z 25012KT 10SM SCT017 21/14 A2993 RMK AO2 SLP133 T02060139 $",
      "metar_wdir": 250,
      "metar_wspd": 12,
      "metar_oat": 21,
      "metar_qnh": 1014,
      "hourly_oat": [
        20,
        20,
        19,
        18,
        18,
        17,
        17,
        17,
        17,
        18,
        18,
        18,
        18,
        17,
        17,
        17,
        18,
        18,
        19,
        20,
        20,
        20,
        20,
        19,
        19
      ]
    },
    "PEK": {
      "icao": "ZBAA",
      "issued": "2026-06-17T21:11:00.000Z",
      "raw": "TAF ZBAA 172111Z 1800/1906 16004MPS 6000 NSC TX31/1807Z TX27/1906Z TN22/1821Z BECMG 1810/1811 2800 -SHRA BR TEMPO 1811/1816 FEW040CB",
      "groups": [
        {
          "text": "TAF ZBAA 172111Z 1800/1906 16004MPS 6000 NSC TX31/1807Z TX27/1906Z TN22/1821Z",
          "offset_h": 1,
          "wdir": null,
          "wspd": null
        },
        {
          "text": "BECMG 1810/1811 2800 -SHRA BR",
          "offset_h": 11,
          "wdir": null,
          "wspd": null
        },
        {
          "text": "TEMPO 1811/1816 FEW040CB",
          "offset_h": 12,
          "wdir": null,
          "wspd": null
        }
      ],
      "metar_raw": "METAR ZBAA 172300Z VRB01MPS 3200 BR NSC 24/22 Q1008 BECMG TL2340 2800",
      "metar_wdir": null,
      "metar_wspd": null,
      "metar_oat": 24,
      "metar_qnh": 1008,
      "hourly_oat": [
        22,
        24,
        26,
        28,
        29,
        29,
        29,
        30,
        30,
        30,
        30,
        29,
        28,
        27,
        26,
        25,
        25,
        24,
        24,
        23,
        23,
        23,
        22,
        23,
        24
      ]
    },
    "CAN": {
      "icao": "ZGGG",
      "issued": "2026-06-17T21:06:00.000Z",
      "raw": "TAF ZGGG 172106Z 1800/1906 16004MPS 8000 BKN033 TX30/1807Z TX31/1906Z TN25/1822Z TEMPO 1800/1803 TSRA FEW026CB BKN033 TEMPO 1803/1807 2000 +TSRA SCT015 SCT026CB BKN033",
      "groups": [
        {
          "text": "TAF ZGGG 172106Z 1800/1906 16004MPS 8000 BKN033 TX30/1807Z TX31/1906Z TN25/1822Z",
          "offset_h": 1,
          "wdir": null,
          "wspd": null
        },
        {
          "text": "TEMPO 1800/1803 TSRA FEW026CB BKN033",
          "offset_h": 1,
          "wdir": null,
          "wspd": null
        },
        {
          "text": "TEMPO 1803/1807 2000 +TSRA SCT015 SCT026CB BKN033",
          "offset_h": 4,
          "wdir": null,
          "wspd": null
        }
      ],
      "metar_raw": "METAR ZGGG 172300Z 12002MPS 100V160 9999 SCT020 OVC033 27/26 Q1008 BECMG AT2340 SHRA FEW026CB BKN033",
      "metar_wdir": null,
      "metar_wspd": null,
      "metar_oat": 27,
      "metar_qnh": 1008,
      "hourly_oat": [
        24,
        24,
        24,
        24,
        24,
        26,
        29,
        27,
        28,
        28,
        27,
        27,
        26,
        25,
        25,
        24,
        25,
        25,
        25,
        25,
        25,
        25,
        25,
        25,
        26
      ]
    },
    "DLC": {
      "icao": "ZYTL",
      "issued": "2026-06-17T21:05:00.000Z",
      "raw": "TAF ZYTL 172105Z 1800/1824 13004MPS 5000 BR SCT030 TX26/1806Z TN19/1821Z TEMPO 1800/1802 2500",
      "groups": [
        {
          "text": "TAF ZYTL 172105Z 1800/1824 13004MPS 5000 BR SCT030 TX26/1806Z TN19/1821Z",
          "offset_h": 1,
          "wdir": null,
          "wspd": null
        },
        {
          "text": "TEMPO 1800/1802 2500",
          "offset_h": 1,
          "wdir": null,
          "wspd": null
        }
      ],
      "metar_raw": "METAR ZYTL 172300Z 10002MPS 060V150 2800 BR NSC 22/19 Q1009 BECMG TL2330 3000",
      "metar_wdir": null,
      "metar_wspd": null,
      "metar_oat": 22,
      "metar_qnh": 1009,
      "hourly_oat": [
        25,
        27,
        28,
        28,
        29,
        29,
        29,
        28,
        28,
        28,
        26,
        25,
        23,
        23,
        22,
        22,
        22,
        22,
        22,
        22,
        22,
        22,
        22,
        22,
        24
      ]
    },
    "PVG": {
      "icao": "ZSPD",
      "issued": "2026-06-17T21:05:00.000Z",
      "raw": "TAF ZSPD 172105Z 1800/1906 07004MPS 5000 BR BKN020 TX30/1806Z TX29/1906Z TN23/1821Z BECMG 1811/1812 13004MPS",
      "groups": [
        {
          "text": "TAF ZSPD 172105Z 1800/1906 07004MPS 5000 BR BKN020 TX30/1806Z TX29/1906Z TN23/1821Z",
          "offset_h": 1,
          "wdir": null,
          "wspd": null
        },
        {
          "text": "BECMG 1811/1812 13004MPS",
          "offset_h": 12,
          "wdir": null,
          "wspd": null
        }
      ],
      "metar_raw": "METAR ZSPD 172300Z 05004MPS 010V070 6000 BKN006 24/24 Q1009 BECMG TL0040 BKN010",
      "metar_wdir": null,
      "metar_wspd": null,
      "metar_oat": 24,
      "metar_qnh": 1009,
      "hourly_oat": [
        25,
        26,
        26,
        27,
        27,
        27,
        27,
        27,
        26,
        26,
        25,
        25,
        24,
        24,
        24,
        25,
        25,
        25,
        24,
        24,
        24,
        24,
        24,
        25,
        25
      ]
    },
    "SHA": {
      "icao": "ZSSS",
      "issued": "2026-06-17T21:05:00.000Z",
      "raw": "TAF ZSSS 172105Z 1800/1906 12004MPS 6000 BKN020 TX31/1806Z TX30/1906Z TN24/1821Z",
      "groups": [
        {
          "text": "TAF ZSSS 172105Z 1800/1906 12004MPS 6000 BKN020 TX31/1806Z TX30/1906Z TN24/1821Z",
          "offset_h": 1,
          "wdir": null,
          "wspd": null
        }
      ],
      "metar_raw": "METAR ZSSS 172300Z 06002MPS 020V080 7000 FEW012 26/22 Q1009 NOSIG",
      "metar_wdir": null,
      "metar_wspd": null,
      "metar_oat": 26,
      "metar_qnh": 1009,
      "hourly_oat": [
        25,
        26,
        28,
        29,
        30,
        30,
        31,
        30,
        30,
        29,
        29,
        28,
        27,
        26,
        25,
        25,
        25,
        25,
        25,
        24,
        24,
        24,
        24,
        24,
        25
      ]
    },
    "OKA": {
      "icao": "ROAH",
      "issued": "2026-06-17T21:03:00.000Z",
      "raw": "TAF AMD ROAH 172103Z 1721/1900 19010KT 3000 BR SCT001 BKN003 TEMPO 1721/1802 0600 FG VV001 BECMG 1802/1803 9999 NSW FEW005 BKN010 TEMPO 1803/1804 4000 BR FEW001 BKN003 TEMPO 1804/1806 FEW003 BKN005 TEMPO 1812/1900 FEW003 BKN005",
      "groups": [
        {
          "text": "TAF AMD ROAH 172103Z 1721/1900 19010KT 3000 BR SCT001 BKN003",
          "offset_h": -2,
          "wdir": 190,
          "wspd": 10
        },
        {
          "text": "TEMPO 1721/1802 0600 FG VV001",
          "offset_h": -2,
          "wdir": null,
          "wspd": null
        },
        {
          "text": "BECMG 1802/1803 9999 NSW FEW005 BKN010",
          "offset_h": 3,
          "wdir": null,
          "wspd": null
        },
        {
          "text": "TEMPO 1803/1804 4000 BR FEW001 BKN003",
          "offset_h": 4,
          "wdir": null,
          "wspd": null
        },
        {
          "text": "TEMPO 1804/1806 FEW003 BKN005",
          "offset_h": 5,
          "wdir": null,
          "wspd": null
        },
        {
          "text": "TEMPO 1812/1900 FEW003 BKN005",
          "offset_h": 13,
          "wdir": null,
          "wspd": null
        }
      ],
      "metar_raw": "METAR ROAH 172300Z 18007KT 8000 SCT003 BKN005 BKN/// 26/26 Q1014",
      "metar_wdir": 180,
      "metar_wspd": 7,
      "metar_oat": 26,
      "metar_qnh": 1014,
      "hourly_oat": [
        27,
        28,
        28,
        28,
        29,
        29,
        28,
        28,
        28,
        28,
        27,
        27,
        26,
        26,
        26,
        26,
        26,
        26,
        26,
        26,
        26,
        26,
        26,
        26,
        27
      ]
    },
    "HNL": {
      "icao": "PHNL",
      "issued": "2026-06-17T20:59:00.000Z",
      "raw": "TAF PHNL 172059Z 1721/1824 10010KT P6SM FEW025 SCT040 FM180800 34005KT P6SM VCSH SCT020 SCT040 FM182000 16008KT P6SM VCSH SCT025 SCT040",
      "groups": [
        {
          "text": "TAF PHNL 172059Z 1721/1824 10010KT P6SM FEW025 SCT040",
          "offset_h": -2,
          "wdir": 100,
          "wspd": 10
        },
        {
          "text": "FM180800 34005KT P6SM VCSH SCT020 SCT040",
          "offset_h": 9,
          "wdir": 340,
          "wspd": 5
        },
        {
          "text": "FM182000 16008KT P6SM VCSH SCT025 SCT040",
          "offset_h": 21,
          "wdir": 160,
          "wspd": 8
        }
      ],
      "metar_raw": "METAR PHNL 172253Z 08014G22KT 10SM FEW025 SCT041 31/19 A2996 RMK AO2 SLP145 T03110194 $",
      "metar_wdir": 80,
      "metar_wspd": 14,
      "metar_oat": 31,
      "metar_qnh": 1015,
      "hourly_oat": [
        31,
        31,
        30,
        29,
        28,
        27,
        26,
        25,
        24,
        24,
        24,
        24,
        24,
        23,
        24,
        24,
        23,
        23,
        24,
        27,
        29,
        30,
        29,
        29,
        30
      ]
    },
    "CTS": {
      "icao": "RJCC",
      "issued": "2026-06-17T20:45:00.000Z",
      "raw": "TAF AMD RJCC 172045Z 1720/1900 17010KT 9999 FEW005 TEMPO 1809/1812 3000 BR FEW002 BKN005 TEMPO 1812/1900 1500 -SHRA BR FEW001 BKN003",
      "groups": [
        {
          "text": "TAF AMD RJCC 172045Z 1720/1900 17010KT 9999 FEW005",
          "offset_h": -3,
          "wdir": 170,
          "wspd": 10
        },
        {
          "text": "TEMPO 1809/1812 3000 BR FEW002 BKN005",
          "offset_h": 10,
          "wdir": null,
          "wspd": null
        },
        {
          "text": "TEMPO 1812/1900 1500 -SHRA BR FEW001 BKN003",
          "offset_h": 13,
          "wdir": null,
          "wspd": null
        }
      ],
      "metar_raw": "METAR RJCC 172300Z 16007KT 9999 FEW015 BKN/// 21/16 Q1013",
      "metar_wdir": 160,
      "metar_wspd": 7,
      "metar_oat": 21,
      "metar_qnh": 1013,
      "hourly_oat": [
        18,
        19,
        20,
        20,
        20,
        20,
        20,
        20,
        20,
        19,
        19,
        18,
        18,
        18,
        18,
        18,
        18,
        17,
        17,
        17,
        17,
        18,
        18,
        18,
        18
      ]
    },
    "NGO": {
      "icao": "RJGG",
      "issued": "2026-06-17T19:26:00.000Z",
      "raw": "TAF AMD RJGG 171926Z 1719/1900 34010KT 9999 FEW020 SCT030 TEMPO 1719/1722 3000 -SHRA BR FEW003 BKN005 BECMG 1723/1801 21010KT BECMG 1812/1815 11006KT",
      "groups": [
        {
          "text": "TAF AMD RJGG 171926Z 1719/1900 34010KT 9999 FEW020 SCT030",
          "offset_h": -4,
          "wdir": 340,
          "wspd": 10
        },
        {
          "text": "TEMPO 1719/1722 3000 -SHRA BR FEW003 BKN005",
          "offset_h": -4,
          "wdir": null,
          "wspd": null
        },
        {
          "text": "BECMG 1723/1801 21010KT",
          "offset_h": 0,
          "wdir": 210,
          "wspd": 10
        },
        {
          "text": "BECMG 1812/1815 11006KT",
          "offset_h": 13,
          "wdir": 110,
          "wspd": 6
        }
      ],
      "metar_raw": "METAR RJGG 172300Z 32006KT 9999 FEW020 BKN030 BKN/// 24/20 Q1010 NOSIG",
      "metar_wdir": 320,
      "metar_wspd": 6,
      "metar_oat": 24,
      "metar_qnh": 1010,
      "hourly_oat": [
        21,
        22,
        22,
        22,
        22,
        23,
        24,
        24,
        24,
        24,
        24,
        23,
        23,
        23,
        23,
        22,
        22,
        22,
        22,
        22,
        22,
        22,
        22,
        22,
        22
      ]
    },
    "FUK": {
      "icao": "RJFF",
      "issued": "2026-06-17T17:05:00.000Z",
      "raw": "TAF RJFF 171705Z 1718/1900 14004KT 9999 FEW015 BECMG 1801/1803 32008KT TEMPO 1812/1900 BKN008 BKN013",
      "groups": [
        {
          "text": "TAF RJFF 171705Z 1718/1900 14004KT 9999 FEW015",
          "offset_h": -5,
          "wdir": 140,
          "wspd": 4
        },
        {
          "text": "BECMG 1801/1803 32008KT",
          "offset_h": 2,
          "wdir": 320,
          "wspd": 8
        },
        {
          "text": "TEMPO 1812/1900 BKN008 BKN013",
          "offset_h": 13,
          "wdir": null,
          "wspd": null
        }
      ],
      "metar_raw": "METAR RJFF 172300Z 16013KT 9999 VCSH FEW015 SCT035 BKN040 25/21 Q1010 BECMG 31004KT",
      "metar_wdir": 160,
      "metar_wspd": 13,
      "metar_oat": 25,
      "metar_qnh": 1010,
      "hourly_oat": [
        24,
        26,
        27,
        28,
        28,
        26,
        25,
        26,
        26,
        26,
        25,
        25,
        24,
        24,
        24,
        24,
        23,
        23,
        23,
        23,
        23,
        22,
        23,
        23,
        23
      ]
    },
    "ITM": {
      "icao": "RJOO",
      "issued": "2026-06-17T17:05:00.000Z",
      "raw": "TAF RJOO 171705Z 1718/1900 35004KT 9999 FEW030 BECMG 1800/1802 21006KT BECMG 1806/1809 33006KT BECMG 1821/1900 10004KT",
      "groups": [
        {
          "text": "TAF RJOO 171705Z 1718/1900 35004KT 9999 FEW030",
          "offset_h": -5,
          "wdir": 350,
          "wspd": 4
        },
        {
          "text": "BECMG 1800/1802 21006KT",
          "offset_h": 1,
          "wdir": 210,
          "wspd": 6
        },
        {
          "text": "BECMG 1806/1809 33006KT",
          "offset_h": 7,
          "wdir": 330,
          "wspd": 6
        },
        {
          "text": "BECMG 1821/1900 10004KT",
          "offset_h": 22,
          "wdir": 100,
          "wspd": 4
        }
      ],
      "metar_raw": "METAR RJOO 172300Z VRB03KT 9999 FEW015 SCT030 BKN/// 24/19 Q1011",
      "metar_wdir": "VRB",
      "metar_wspd": 3,
      "metar_oat": 24,
      "metar_qnh": 1011,
      "hourly_oat": [
        22,
        24,
        25,
        26,
        27,
        26,
        27,
        27,
        27,
        28,
        26,
        25,
        24,
        24,
        23,
        23,
        22,
        22,
        22,
        22,
        21,
        21,
        22,
        23,
        24
      ]
    },
    "HND": {
      "icao": "RJTT",
      "issued": "2026-06-17T17:05:00.000Z",
      "raw": "TAF RJTT 171705Z 1718/1900 07008KT 6000 -SHRA FEW008 BKN015 BECMG 1718/1720 05012KT TEMPO 1718/1722 3000 SHRA BR FEW005 BKN008 TEMPO 1722/1802 4000 -SHRA BR FEW005 BKN008 BECMG 1809/1812 07006KT",
      "groups": [
        {
          "text": "TAF RJTT 171705Z 1718/1900 07008KT 6000 -SHRA FEW008 BKN015",
          "offset_h": -5,
          "wdir": 70,
          "wspd": 8
        },
        {
          "text": "BECMG 1718/1720 05012KT",
          "offset_h": -5,
          "wdir": 50,
          "wspd": 12
        },
        {
          "text": "TEMPO 1718/1722 3000 SHRA BR FEW005 BKN008",
          "offset_h": -5,
          "wdir": null,
          "wspd": null
        },
        {
          "text": "TEMPO 1722/1802 4000 -SHRA BR FEW005 BKN008",
          "offset_h": -1,
          "wdir": null,
          "wspd": null
        },
        {
          "text": "BECMG 1809/1812 07006KT",
          "offset_h": 10,
          "wdir": 70,
          "wspd": 6
        }
      ],
      "metar_raw": "METAR RJTT 172300Z 01012KT 9999 -RA FEW005 BKN011 BKN020 21/20 Q1012 TEMPO FEW005 BKN008",
      "metar_wdir": 10,
      "metar_wspd": 12,
      "metar_oat": 21,
      "metar_qnh": 1012,
      "hourly_oat": [
        21,
        21,
        21,
        22,
        23,
        23,
        22,
        22,
        22,
        22,
        22,
        22,
        21,
        21,
        21,
        20,
        20,
        20,
        20,
        20,
        20,
        20,
        21,
        21,
        22
      ]
    },
    "KIX": {
      "icao": "RJBB",
      "issued": "2026-06-17T17:05:00.000Z",
      "raw": "TAF RJBB 171705Z 1718/1900 03010KT 9999 FEW020 SCT040 BECMG 1722/1800 30004KT BECMG 1806/1809 22012KT BECMG 1812/1815 06004KT",
      "groups": [
        {
          "text": "TAF RJBB 171705Z 1718/1900 03010KT 9999 FEW020 SCT040",
          "offset_h": -5,
          "wdir": 30,
          "wspd": 10
        },
        {
          "text": "BECMG 1722/1800 30004KT",
          "offset_h": -1,
          "wdir": 300,
          "wspd": 4
        },
        {
          "text": "BECMG 1806/1809 22012KT",
          "offset_h": 7,
          "wdir": 220,
          "wspd": 12
        },
        {
          "text": "BECMG 1812/1815 06004KT",
          "offset_h": 13,
          "wdir": 60,
          "wspd": 4
        }
      ],
      "metar_raw": "METAR RJBB 172300Z 03006KT 9999 FEW020 BKN/// 23/20 Q1011 NOSIG",
      "metar_wdir": 30,
      "metar_wspd": 6,
      "metar_oat": 23,
      "metar_qnh": 1011,
      "hourly_oat": [
        21,
        21,
        22,
        22,
        22,
        22,
        23,
        23,
        24,
        24,
        24,
        24,
        23,
        23,
        23,
        23,
        22,
        22,
        22,
        22,
        22,
        22,
        22,
        22,
        22
      ]
    },
    "NRT": {
      "icao": "RJAA",
      "issued": "2026-06-17T17:05:00.000Z",
      "raw": "TAF RJAA 171705Z 1718/1900 09006KT 6000 -SHRA FEW005 BKN012 TEMPO 1718/1800 2000 SHRA BR FEW001 SCT002 BKN003 BECMG 1721/1723 02014KT TEMPO 1800/1804 4000 -SHRA BR FEW001 SCT002 BKN005 TEMPO 1804/1809 FEW003 BKN008 BECMG 1815/1818 03004KT",
      "groups": [
        {
          "text": "TAF RJAA 171705Z 1718/1900 09006KT 6000 -SHRA FEW005 BKN012",
          "offset_h": -5,
          "wdir": 90,
          "wspd": 6
        },
        {
          "text": "TEMPO 1718/1800 2000 SHRA BR FEW001 SCT002 BKN003",
          "offset_h": -5,
          "wdir": null,
          "wspd": null
        },
        {
          "text": "BECMG 1721/1723 02014KT",
          "offset_h": -2,
          "wdir": 20,
          "wspd": 14
        },
        {
          "text": "TEMPO 1800/1804 4000 -SHRA BR FEW001 SCT002 BKN005",
          "offset_h": 1,
          "wdir": null,
          "wspd": null
        },
        {
          "text": "TEMPO 1804/1809 FEW003 BKN008",
          "offset_h": 5,
          "wdir": null,
          "wspd": null
        },
        {
          "text": "BECMG 1815/1818 03004KT",
          "offset_h": 16,
          "wdir": 30,
          "wspd": 4
        }
      ],
      "metar_raw": "METAR RJAA 172300Z 06007KT 8000 -SHRA FEW002 BKN005 21/20 Q1012 TEMPO 3000 SHRA BR BECMG 05008KT",
      "metar_wdir": 60,
      "metar_wspd": 7,
      "metar_oat": 21,
      "metar_qnh": 1012,
      "hourly_oat": [
        20,
        20,
        20,
        20,
        21,
        21,
        20,
        20,
        20,
        20,
        20,
        20,
        19,
        19,
        19,
        18,
        18,
        18,
        18,
        18,
        18,
        18,
        18,
        18,
        21
      ]
    },
    "KUL": {
      "icao": "WMKK",
      "issued": "2026-06-17T17:00:00.000Z",
      "raw": "TAF WMKK 171700Z 1718/1900 VRB03KT 9999 FEW030 TEMPO 1722/1802 5000 TSRA FEW017CB SCT020",
      "groups": [
        {
          "text": "TAF WMKK 171700Z 1718/1900 VRB03KT 9999 FEW030",
          "offset_h": -5,
          "wdir": "VRB",
          "wspd": 3
        },
        {
          "text": "TEMPO 1722/1802 5000 TSRA FEW017CB SCT020",
          "offset_h": -1,
          "wdir": null,
          "wspd": null
        }
      ],
      "metar_raw": "METAR WMKK 172300Z 00000KT 9999 FEW030 26/25 Q1010 NOSIG",
      "metar_wdir": 0,
      "metar_wspd": 0,
      "metar_oat": 26,
      "metar_qnh": 1010,
      "hourly_oat": [
        25,
        25,
        26,
        27,
        29,
        30,
        30,
        31,
        31,
        31,
        30,
        29,
        28,
        27,
        27,
        27,
        26,
        26,
        26,
        26,
        26,
        25,
        25,
        25,
        24
      ]
    },
    "SGN": {
      "icao": "VVTS",
      "issued": "2026-06-17T17:00:00.000Z",
      "raw": "TAF VVTS 171700Z 1718/1824 24010KT 9999 SCT017 SCT040 TEMPO 1805/1807 5000 TSRA BKN015 FEW017CB BKN040 TEMPO 1807/1811 24018G30KT 2500 +TSRA BKN013 SCT017CB BKN040",
      "groups": [
        {
          "text": "TAF VVTS 171700Z 1718/1824 24010KT 9999 SCT017 SCT040",
          "offset_h": -5,
          "wdir": 240,
          "wspd": 10
        },
        {
          "text": "TEMPO 1805/1807 5000 TSRA BKN015 FEW017CB BKN040",
          "offset_h": 6,
          "wdir": null,
          "wspd": null
        },
        {
          "text": "TEMPO 1807/1811 24018G30KT 2500 +TSRA BKN013 SCT017CB BKN040",
          "offset_h": 8,
          "wdir": 240,
          "wspd": 18
        }
      ],
      "metar_raw": "METAR VVTS 172300Z 04004KT CAVOK 26/24 Q1010 NOSIG",
      "metar_wdir": 40,
      "metar_wspd": 4,
      "metar_oat": 26,
      "metar_qnh": 1010,
      "hourly_oat": [
        26,
        27,
        28,
        29,
        31,
        32,
        33,
        33,
        33,
        31,
        27,
        26,
        26,
        26,
        26,
        26,
        26,
        26,
        25,
        25,
        25,
        25,
        25,
        25,
        25
      ]
    },
    "BKK": {
      "icao": "VTBS",
      "issued": "2026-06-17T17:00:00.000Z",
      "raw": "TAF VTBS 171700Z 1718/1824 23008KT 9999 FEW020 TEMPO 1809/1814 VRB15KT 4000 TSRA FEW018CB SCT020 BKN080",
      "groups": [
        {
          "text": "TAF VTBS 171700Z 1718/1824 23008KT 9999 FEW020",
          "offset_h": -5,
          "wdir": 230,
          "wspd": 8
        },
        {
          "text": "TEMPO 1809/1814 VRB15KT 4000 TSRA FEW018CB SCT020 BKN080",
          "offset_h": 10,
          "wdir": "VRB",
          "wspd": 15
        }
      ],
      "metar_raw": "METAR VTBS 172300Z 02003KT 9999 FEW020 27/27 Q1010 NOSIG",
      "metar_wdir": 20,
      "metar_wspd": 3,
      "metar_oat": 27,
      "metar_qnh": 1010,
      "hourly_oat": [
        28,
        28,
        29,
        31,
        32,
        33,
        34,
        33,
        30,
        31,
        31,
        31,
        30,
        29,
        29,
        28,
        28,
        28,
        27,
        27,
        27,
        27,
        26,
        26,
        26
      ]
    },
    "HAN": {
      "icao": "VVNB",
      "issued": "2026-06-17T17:00:00.000Z",
      "raw": "TAF VVNB 171700Z 1718/1818 08006KT 6000 FEW030",
      "groups": [
        {
          "text": "TAF VVNB 171700Z 1718/1818 08006KT 6000 FEW030",
          "offset_h": -5,
          "wdir": 80,
          "wspd": 6
        }
      ],
      "metar_raw": "METAR VVNB 172300Z 06005KT CAVOK 29/27 Q1003 NOSIG",
      "metar_wdir": 60,
      "metar_wspd": 5,
      "metar_oat": 29,
      "metar_qnh": 1003,
      "hourly_oat": [
        27,
        28,
        30,
        31,
        32,
        34,
        34,
        34,
        31,
        31,
        32,
        32,
        31,
        31,
        30,
        30,
        30,
        30,
        29,
        29,
        29,
        29,
        29,
        28,
        29
      ]
    }
  }
}