{
  "updated": "2026-07-13T17:05:05Z",
  "tafs": {
    "HKG": {
      "icao": "VHHH",
      "issued": "2026-07-13T17:00:00.000Z",
      "raw": "TAF VHHH 131700Z 1318/1424 10010KT 9999 FEW015 SCT025 TX31/1406Z TN27/1322Z TN27/1422Z TEMPO 1318/1322 09015G25KT 2000 TSRA SHRA FEW010CB SCT020 TEMPO 1322/1406 12020G30KT 1500 TSRA +SHRA FEW008CB SCT015 TEMPO 1406/1412 18022G32KT 2000 +SHRA FEW010CB SCT020 TEMPO 1412/1421 20015G25KT 3000 SHRA FEW010CB SCT020 TEMPO 1421/1424 20015G25KT 2000 TSRA SHRA FEW008CB SCT020",
      "groups": [
        {
          "text": "TAF VHHH 131700Z 1318/1424 10010KT 9999 FEW015 SCT025 TX31/1406Z TN27/1322Z TN27/1422Z",
          "offset_h": 1,
          "wdir": 100,
          "wspd": 10
        },
        {
          "text": "TEMPO 1318/1322 09015G25KT 2000 TSRA SHRA FEW010CB SCT020",
          "offset_h": 1,
          "wdir": 90,
          "wspd": 15
        },
        {
          "text": "TEMPO 1322/1406 12020G30KT 1500 TSRA +SHRA FEW008CB SCT015",
          "offset_h": 5,
          "wdir": 120,
          "wspd": 20
        },
        {
          "text": "TEMPO 1406/1412 18022G32KT 2000 +SHRA FEW010CB SCT020",
          "offset_h": 13,
          "wdir": 180,
          "wspd": 22
        },
        {
          "text": "TEMPO 1412/1421 20015G25KT 3000 SHRA FEW010CB SCT020",
          "offset_h": 19,
          "wdir": 200,
          "wspd": 15
        },
        {
          "text": "TEMPO 1421/1424 20015G25KT 2000 TSRA SHRA FEW008CB SCT020",
          "offset_h": 28,
          "wdir": 200,
          "wspd": 15
        }
      ],
      "metar_raw": "METAR VHHH 131700Z 10008KT 9999 FEW015 SCT025 30/25 Q1003 TEMPO 3500 SHRA FEW010CB SCT020",
      "metar_wdir": 100,
      "metar_wspd": 8,
      "metar_oat": 30,
      "metar_qnh": 1003,
      "hourly_oat": [
        26,
        26,
        26,
        26,
        26,
        26,
        27,
        27,
        27,
        27,
        27,
        27,
        27,
        28,
        28,
        28,
        28,
        28,
        28,
        28,
        27,
        27,
        27,
        27,
        26
      ]
    },
    "TPE": {
      "icao": "RCTP",
      "issued": "2026-07-13T17:00:00.000Z",
      "raw": "TAF RCTP 131700Z 1318/1424 17005KT 9999 FEW015 BKN032 TEMPO 1318/1324 11005KT BECMG 1400/1402 36005KT TEMPO 1404/1410 29010KT 5000 SHRA FEW010 FEW015CB BKN020 BECMG 1410/1412 16005KT",
      "groups": [
        {
          "text": "TAF RCTP 131700Z 1318/1424 17005KT 9999 FEW015 BKN032",
          "offset_h": 1,
          "wdir": 170,
          "wspd": 5
        },
        {
          "text": "TEMPO 1318/1324 11005KT",
          "offset_h": 1,
          "wdir": 110,
          "wspd": 5
        },
        {
          "text": "BECMG 1400/1402 36005KT",
          "offset_h": 7,
          "wdir": 360,
          "wspd": 5
        },
        {
          "text": "TEMPO 1404/1410 29010KT 5000 SHRA FEW010 FEW015CB BKN020",
          "offset_h": 11,
          "wdir": 290,
          "wspd": 10
        },
        {
          "text": "BECMG 1410/1412 16005KT",
          "offset_h": 17,
          "wdir": 160,
          "wspd": 5
        }
      ],
      "metar_raw": "METAR RCTP 131630Z 14004KT 110V200 9999 FEW020 BKN050 28/26 Q1007 NOSIG RMK A2976",
      "metar_wdir": 140,
      "metar_wspd": 4,
      "metar_oat": 28,
      "metar_qnh": 1007,
      "hourly_oat": [
        26,
        26,
        26,
        26,
        26,
        27,
        28,
        29,
        30,
        31,
        30,
        30,
        30,
        29,
        30,
        28,
        28,
        28,
        28,
        28,
        27,
        27,
        27,
        26,
        26
      ]
    },
    "TSA": {
      "icao": "RCSS",
      "issued": "2026-07-13T17:00:00.000Z",
      "raw": "TAF RCSS 131700Z 1318/1418 29005KT 9999 FEW015 BKN032 TEMPO 1318/1324 09005KT TEMPO 1404/1410 10010KT 4000 SHRA FEW010 FEW015CB BKN017",
      "groups": [
        {
          "text": "TAF RCSS 131700Z 1318/1418 29005KT 9999 FEW015 BKN032",
          "offset_h": 1,
          "wdir": 290,
          "wspd": 5
        },
        {
          "text": "TEMPO 1318/1324 09005KT",
          "offset_h": 1,
          "wdir": 90,
          "wspd": 5
        },
        {
          "text": "TEMPO 1404/1410 10010KT 4000 SHRA FEW010 FEW015CB BKN017",
          "offset_h": 11,
          "wdir": 100,
          "wspd": 10
        }
      ],
      "metar_raw": "METAR RCSS 131600Z VRB02KT 9999 FEW018 BKN030 BKN050 28/27 Q1008 NOSIG RMK A2977",
      "metar_wdir": "VRB",
      "metar_wspd": 2,
      "metar_oat": 28,
      "metar_qnh": 1008,
      "hourly_oat": [
        27,
        27,
        26,
        26,
        26,
        26,
        28,
        30,
        31,
        33,
        34,
        34,
        33,
        31,
        30,
        29,
        28,
        28,
        28,
        27,
        27,
        27,
        27,
        27,
        27
      ]
    },
    "DLC": {
      "icao": "ZYTL",
      "issued": "2026-07-13T15:09:00.000Z",
      "raw": "TAF ZYTL 131509Z 1318/1418 13006G12MPS 4000 -SHRA BR BKN004 BKN026 TX29/1406Z TN23/1321Z TEMPO 1318/1321 1400 SHRA BR BKN004 BKN026 FEW033CB BECMG 1400/1401 2500 BR BECMG 1401/1402 33006G13MPS 3000 SCT010 SCT026 BECMG 1411/1412 26004MPS",
      "groups": [
        {
          "text": "TAF ZYTL 131509Z 1318/1418 13006G12MPS 4000 -SHRA BR BKN004 BKN026 TX29/1406Z TN23/1321Z",
          "offset_h": 1,
          "wdir": null,
          "wspd": null
        },
        {
          "text": "TEMPO 1318/1321 1400 SHRA BR BKN004 BKN026 FEW033CB",
          "offset_h": 1,
          "wdir": null,
          "wspd": null
        },
        {
          "text": "BECMG 1400/1401 2500 BR",
          "offset_h": 7,
          "wdir": null,
          "wspd": null
        },
        {
          "text": "BECMG 1401/1402 33006G13MPS 3000 SCT010 SCT026",
          "offset_h": 8,
          "wdir": null,
          "wspd": null
        },
        {
          "text": "BECMG 1411/1412 26004MPS",
          "offset_h": 18,
          "wdir": null,
          "wspd": null
        }
      ],
      "metar_raw": "METAR ZYTL 131630Z 14005MPS 5000 -SHRA BR BKN004 OVC023 24/24 Q1000 NOSIG",
      "metar_wdir": null,
      "metar_wspd": null,
      "metar_oat": 24,
      "metar_qnh": 1000,
      "hourly_oat": [
        24,
        24,
        24,
        24,
        24,
        24,
        24,
        25,
        25,
        26,
        26,
        27,
        27,
        27,
        27,
        28,
        27,
        27,
        26,
        26,
        25,
        25,
        25,
        25,
        25
      ]
    },
    "CAN": {
      "icao": "ZGGG",
      "issued": "2026-07-13T15:07:00.000Z",
      "raw": "TAF ZGGG 131507Z 1318/1424 15004MPS 8000 BKN030 TX32/1407Z TN28/1322Z TN28/1422Z TEMPO 1318/1323 4000 +SHRA FEW026CB BKN030 TEMPO 1404/1407 1500 +TSRA SCT026CB BKN033 TEMPO 1407/1413 3000 +SHRA FEW026CB BKN030 TEMPO 1422/1424 4000 +SHRA FEW026CB BKN030",
      "groups": [
        {
          "text": "TAF ZGGG 131507Z 1318/1424 15004MPS 8000 BKN030 TX32/1407Z TN28/1322Z TN28/1422Z",
          "offset_h": 1,
          "wdir": null,
          "wspd": null
        },
        {
          "text": "TEMPO 1318/1323 4000 +SHRA FEW026CB BKN030",
          "offset_h": 1,
          "wdir": null,
          "wspd": null
        },
        {
          "text": "TEMPO 1404/1407 1500 +TSRA SCT026CB BKN033",
          "offset_h": 11,
          "wdir": null,
          "wspd": null
        },
        {
          "text": "TEMPO 1407/1413 3000 +SHRA FEW026CB BKN030",
          "offset_h": 14,
          "wdir": null,
          "wspd": null
        },
        {
          "text": "TEMPO 1422/1424 4000 +SHRA FEW026CB BKN030",
          "offset_h": 29,
          "wdir": null,
          "wspd": null
        }
      ],
      "metar_raw": "SPECI ZGGG 131648Z 10004MPS 9999 -TSRA FEW026CB BKN040 27/26 Q1003 RESHRA BECMG AT1730 TSRA",
      "metar_wdir": null,
      "metar_wspd": null,
      "metar_oat": 27,
      "metar_qnh": 1003,
      "hourly_oat": [
        28,
        27,
        27,
        26,
        26,
        26,
        26,
        26,
        28,
        29,
        29,
        31,
        32,
        31,
        28,
        27,
        28,
        27,
        26,
        26,
        26,
        26,
        26,
        26,
        26
      ]
    },
    "PVG": {
      "icao": "ZSPD",
      "issued": "2026-07-13T15:03:00.000Z",
      "raw": "TAF ZSPD 131503Z 1318/1424 18009G15MPS 8000 BKN020 TX35/1406Z TN28/1321Z TN29/1421Z BECMG 1321/1322 17006MPS",
      "groups": [
        {
          "text": "TAF ZSPD 131503Z 1318/1424 18009G15MPS 8000 BKN020 TX35/1406Z TN28/1321Z TN29/1421Z",
          "offset_h": 1,
          "wdir": null,
          "wspd": null
        },
        {
          "text": "BECMG 1321/1322 17006MPS",
          "offset_h": 4,
          "wdir": null,
          "wspd": null
        }
      ],
      "metar_raw": "METAR ZSPD 131630Z 18008MPS CAVOK 29/25 Q1003 NOSIG",
      "metar_wdir": null,
      "metar_wspd": null,
      "metar_oat": 29,
      "metar_qnh": 1003,
      "hourly_oat": [
        28,
        28,
        28,
        28,
        28,
        28,
        29,
        30,
        31,
        32,
        33,
        34,
        34,
        34,
        34,
        34,
        33,
        31,
        30,
        30,
        30,
        30,
        29,
        29,
        28
      ]
    },
    "SHA": {
      "icao": "ZSSS",
      "issued": "2026-07-13T15:03:00.000Z",
      "raw": "TAF ZSSS 131503Z 1318/1424 17005MPS 8000 BKN020 TX36/1406Z TN28/1321Z TN29/1421Z",
      "groups": [
        {
          "text": "TAF ZSSS 131503Z 1318/1424 17005MPS 8000 BKN020 TX36/1406Z TN28/1321Z TN29/1421Z",
          "offset_h": 1,
          "wdir": null,
          "wspd": null
        }
      ],
      "metar_raw": "METAR ZSSS 131630Z 19006MPS CAVOK 30/25 Q1003 NOSIG",
      "metar_wdir": null,
      "metar_wspd": null,
      "metar_oat": 30,
      "metar_qnh": 1003,
      "hourly_oat": [
        28,
        28,
        28,
        27,
        27,
        28,
        29,
        30,
        31,
        32,
        34,
        34,
        35,
        35,
        36,
        35,
        34,
        33,
        31,
        31,
        31,
        30,
        30,
        30,
        29
      ]
    },
    "PEK": {
      "icao": "ZBAA",
      "issued": "2026-07-13T15:01:00.000Z",
      "raw": "TAF ZBAA 131501Z 1318/1424 04004MPS CAVOK TX35/1407Z TN25/1321Z TN24/1421Z",
      "groups": [
        {
          "text": "TAF ZBAA 131501Z 1318/1424 04004MPS CAVOK TX35/1407Z TN25/1321Z TN24/1421Z",
          "offset_h": 1,
          "wdir": null,
          "wspd": null
        }
      ],
      "metar_raw": "METAR ZBAA 131630Z 14001MPS CAVOK 26/25 Q1001 NOSIG",
      "metar_wdir": null,
      "metar_wspd": null,
      "metar_oat": 26,
      "metar_qnh": 1001,
      "hourly_oat": [
        25,
        24,
        24,
        24,
        24,
        24,
        25,
        26,
        27,
        29,
        31,
        31,
        32,
        33,
        33,
        33,
        33,
        31,
        30,
        28,
        28,
        28,
        27,
        26,
        25
      ]
    },
    "HNL": {
      "icao": "PHNL",
      "issued": "2026-07-13T14:57:00.000Z",
      "raw": "TAF PHNL 131457Z 1315/1418 06010KT P6SM FEW025 SCT040 FM132000 06015G25KT P6SM FEW025 SCT040 FM140600 05010KT P6SM FEW025 SCT040",
      "groups": [
        {
          "text": "TAF PHNL 131457Z 1315/1418 06010KT P6SM FEW025 SCT040",
          "offset_h": -2,
          "wdir": 60,
          "wspd": 10
        },
        {
          "text": "FM132000 06015G25KT P6SM FEW025 SCT040",
          "offset_h": 3,
          "wdir": 60,
          "wspd": 15
        },
        {
          "text": "FM140600 05010KT P6SM FEW025 SCT040",
          "offset_h": 13,
          "wdir": 50,
          "wspd": 10
        }
      ],
      "metar_raw": "METAR PHNL 131653Z 05006KT 10SM FEW025 SCT035 SCT055 24/19 A3002 RMK AO2 RAE07 SLP166 P0000 T02440194 $",
      "metar_wdir": 50,
      "metar_wspd": 6,
      "metar_oat": 24,
      "metar_qnh": 1017,
      "hourly_oat": [
        24,
        25,
        27,
        28,
        28,
        29,
        30,
        30,
        29,
        29,
        28,
        26,
        25,
        24,
        23,
        23,
        23,
        23,
        23,
        22,
        22,
        22,
        22,
        22,
        24
      ]
    },
    "SAN": {
      "icao": "KSAN",
      "issued": "2026-07-13T14:30:00.000Z",
      "raw": "TAF KSAN 131430Z 1315/1418 VRB04KT P6SM BKN011 TEMPO 1315/1317 SCT011 FM131700 VRB04KT P6SM SCT012 SCT150 FM131900 29009KT P6SM SCT150 FM140300 VRB04KT P6SM SCT013 SCT150 FM140600 VRB03KT P6SM BKN013 BKN150 FM141000 VRB03KT P6SM OVC011 FM141600 22005KT P6SM SCT015",
      "groups": [
        {
          "text": "TAF KSAN 131430Z 1315/1418 VRB04KT P6SM BKN011",
          "offset_h": -2,
          "wdir": "VRB",
          "wspd": 4
        },
        {
          "text": "TEMPO 1315/1317 SCT011",
          "offset_h": -2,
          "wdir": null,
          "wspd": null
        },
        {
          "text": "FM131700 VRB04KT P6SM SCT012 SCT150",
          "offset_h": 0,
          "wdir": "VRB",
          "wspd": 4
        },
        {
          "text": "FM131900 29009KT P6SM SCT150",
          "offset_h": 2,
          "wdir": 290,
          "wspd": 9
        },
        {
          "text": "FM140300 VRB04KT P6SM SCT013 SCT150",
          "offset_h": 10,
          "wdir": "VRB",
          "wspd": 4
        },
        {
          "text": "FM140600 VRB03KT P6SM BKN013 BKN150",
          "offset_h": 13,
          "wdir": "VRB",
          "wspd": 3
        },
        {
          "text": "FM141000 VRB03KT P6SM OVC011",
          "offset_h": 17,
          "wdir": "VRB",
          "wspd": 3
        },
        {
          "text": "FM141600 22005KT P6SM SCT015",
          "offset_h": 23,
          "wdir": 220,
          "wspd": 5
        }
      ],
      "metar_raw": "METAR KSAN 131651Z 29005KT 10SM BKN015 BKN150 22/18 A2999 RMK AO2 SLP154 T02220183 $",
      "metar_wdir": 290,
      "metar_wspd": 5,
      "metar_oat": 22,
      "metar_qnh": 1016,
      "hourly_oat": [
        23,
        25,
        26,
        26,
        25,
        24,
        24,
        24,
        22,
        21,
        20,
        20,
        20,
        20,
        19,
        19,
        19,
        19,
        20,
        20,
        20,
        20,
        20,
        20,
        23
      ]
    },
    "GMP": {
      "icao": "RKSS",
      "issued": "2026-07-13T14:30:00.000Z",
      "raw": "TAF AMD RKSS 131430Z 1315/1418 32005KT 9999 SCT035 TN27/1320Z TX31/1405Z TEMPO 1315/1317 6000 -SHRA FEW010 BKN025 OVC080 BECMG 1316/1318 17006KT BECMG 1402/1404 18016G35KT 6000 -RA BECMG 1408/1410 3500 RA BECMG 1412/1414 21016G35KT 6000 -RA",
      "groups": [
        {
          "text": "TAF AMD RKSS 131430Z 1315/1418 32005KT 9999 SCT035 TN27/1320Z TX31/1405Z",
          "offset_h": -2,
          "wdir": 320,
          "wspd": 5
        },
        {
          "text": "TEMPO 1315/1317 6000 -SHRA FEW010 BKN025 OVC080",
          "offset_h": -2,
          "wdir": null,
          "wspd": null
        },
        {
          "text": "BECMG 1316/1318 17006KT",
          "offset_h": -1,
          "wdir": 170,
          "wspd": 6
        },
        {
          "text": "BECMG 1402/1404 18016G35KT 6000 -RA",
          "offset_h": 9,
          "wdir": 180,
          "wspd": 16
        },
        {
          "text": "BECMG 1408/1410 3500 RA",
          "offset_h": 15,
          "wdir": null,
          "wspd": null
        },
        {
          "text": "BECMG 1412/1414 21016G35KT 6000 -RA",
          "offset_h": 19,
          "wdir": 210,
          "wspd": 16
        }
      ],
      "metar_raw": "METAR RKSS 131700Z 15008KT 9999 BKN040 29/26 Q1007 NOSIG",
      "metar_wdir": 150,
      "metar_wspd": 8,
      "metar_oat": 29,
      "metar_qnh": 1007,
      "hourly_oat": [
        26,
        26,
        26,
        26,
        25,
        26,
        27,
        28,
        29,
        30,
        30,
        30,
        30,
        28,
        28,
        28,
        27,
        26,
        26,
        26,
        26,
        25,
        25,
        25,
        25
      ]
    },
    "LAX": {
      "icao": "KLAX",
      "issued": "2026-07-13T14:16:00.000Z",
      "raw": "TAF KLAX 131416Z 1314/1418 VRB03KT P6SM SCT020 BKN150 FM131700 26006KT P6SM BKN250 FM132100 26012KT P6SM BKN250 FM140300 26006KT P6SM BKN250 FM140600 VRB03KT P6SM BKN010 FM141500 VRB03KT P6SM BKN010",
      "groups": [
        {
          "text": "TAF KLAX 131416Z 1314/1418 VRB03KT P6SM SCT020 BKN150",
          "offset_h": -3,
          "wdir": "VRB",
          "wspd": 3
        },
        {
          "text": "FM131700 26006KT P6SM BKN250",
          "offset_h": 0,
          "wdir": 260,
          "wspd": 6
        },
        {
          "text": "FM132100 26012KT P6SM BKN250",
          "offset_h": 4,
          "wdir": 260,
          "wspd": 12
        },
        {
          "text": "FM140300 26006KT P6SM BKN250",
          "offset_h": 10,
          "wdir": 260,
          "wspd": 6
        },
        {
          "text": "FM140600 VRB03KT P6SM BKN010",
          "offset_h": 13,
          "wdir": "VRB",
          "wspd": 3
        },
        {
          "text": "FM141500 VRB03KT P6SM BKN010",
          "offset_h": 22,
          "wdir": "VRB",
          "wspd": 3
        }
      ],
      "metar_raw": "METAR KLAX 131653Z VRB05KT 9SM FEW019 SCT100 SCT160 BKN250 22/18 A2998 RMK AO2 SLP149 T02220178 $",
      "metar_wdir": "VRB",
      "metar_wspd": 5,
      "metar_oat": 22,
      "metar_qnh": 1015,
      "hourly_oat": [
        23,
        25,
        25,
        25,
        24,
        23,
        22,
        21,
        20,
        20,
        19,
        19,
        19,
        19,
        19,
        19,
        19,
        19,
        18,
        18,
        18,
        19,
        20,
        23,
        23
      ]
    },
    "HND": {
      "icao": "RJTT",
      "issued": "2026-07-13T11:05:00.000Z",
      "raw": "TAF RJTT 131105Z 1312/1418 21004KT 9999 FEW020",
      "groups": [
        {
          "text": "TAF RJTT 131105Z 1312/1418 21004KT 9999 FEW020",
          "offset_h": -5,
          "wdir": 210,
          "wspd": 4
        }
      ],
      "metar_raw": "METAR RJTT 131630Z 17006KT 120V210 CAVOK 26/24 Q1007 NOSIG",
      "metar_wdir": 170,
      "metar_wspd": 6,
      "metar_oat": 26,
      "metar_qnh": 1007,
      "hourly_oat": [
        25,
        25,
        24,
        24,
        25,
        26,
        27,
        28,
        29,
        30,
        31,
        31,
        31,
        31,
        30,
        29,
        28,
        27,
        26,
        26,
        26,
        26,
        25,
        25,
        25
      ]
    },
    "KIX": {
      "icao": "RJBB",
      "issued": "2026-07-13T11:05:00.000Z",
      "raw": "TAF RJBB 131105Z 1312/1418 10004KT 9999 FEW030 BECMG 1400/1403 22006KT",
      "groups": [
        {
          "text": "TAF RJBB 131105Z 1312/1418 10004KT 9999 FEW030",
          "offset_h": -5,
          "wdir": 100,
          "wspd": 4
        },
        {
          "text": "BECMG 1400/1403 22006KT",
          "offset_h": 7,
          "wdir": 220,
          "wspd": 6
        }
      ],
      "metar_raw": "METAR RJBB 131630Z AUTO VRB01KT 9999 NCD 26/25 Q1009 NOSIG",
      "metar_wdir": "VRB",
      "metar_wspd": 1,
      "metar_oat": 26,
      "metar_qnh": 1009,
      "hourly_oat": [
        27,
        27,
        26,
        26,
        26,
        26,
        26,
        26,
        26,
        26,
        26,
        27,
        28,
        28,
        28,
        29,
        29,
        28,
        28,
        28,
        27,
        27,
        27,
        27,
        26
      ]
    },
    "NGO": {
      "icao": "RJGG",
      "issued": "2026-07-13T11:05:00.000Z",
      "raw": "TAF RJGG 131105Z 1312/1418 32012KT 9999 FEW030",
      "groups": [
        {
          "text": "TAF RJGG 131105Z 1312/1418 32012KT 9999 FEW030",
          "offset_h": -5,
          "wdir": 320,
          "wspd": 12
        }
      ],
      "metar_raw": "METAR RJGG 131630Z AUTO 32014KT 9999 NSC 26/23 Q1008 NOSIG",
      "metar_wdir": 320,
      "metar_wspd": 14,
      "metar_oat": 26,
      "metar_qnh": 1008,
      "hourly_oat": [
        27,
        27,
        27,
        26,
        26,
        26,
        27,
        27,
        27,
        28,
        29,
        30,
        30,
        30,
        30,
        30,
        29,
        29,
        28,
        28,
        28,
        27,
        27,
        27,
        27
      ]
    },
    "CTS": {
      "icao": "RJCC",
      "issued": "2026-07-13T11:05:00.000Z",
      "raw": "TAF RJCC 131105Z 1312/1418 32003KT 9999 FEW005 BKN012 TEMPO 1312/1314 FEW005 BKN008 TEMPO 1314/1319 FEW002 BKN004 BECMG 1319/1321 17012KT TEMPO 1319/1322 2000 BR FEW001 BKN003 TEMPO 1322/1406 FEW002 SCT003 BKN006 TEMPO 1406/1418 2000 -SHRA BR FEW002 BKN003",
      "groups": [
        {
          "text": "TAF RJCC 131105Z 1312/1418 32003KT 9999 FEW005 BKN012",
          "offset_h": -5,
          "wdir": 320,
          "wspd": 3
        },
        {
          "text": "TEMPO 1312/1314 FEW005 BKN008",
          "offset_h": -5,
          "wdir": null,
          "wspd": null
        },
        {
          "text": "TEMPO 1314/1319 FEW002 BKN004",
          "offset_h": -3,
          "wdir": null,
          "wspd": null
        },
        {
          "text": "BECMG 1319/1321 17012KT",
          "offset_h": 2,
          "wdir": 170,
          "wspd": 12
        },
        {
          "text": "TEMPO 1319/1322 2000 BR FEW001 BKN003",
          "offset_h": 2,
          "wdir": null,
          "wspd": null
        },
        {
          "text": "TEMPO 1322/1406 FEW002 SCT003 BKN006",
          "offset_h": 5,
          "wdir": null,
          "wspd": null
        },
        {
          "text": "TEMPO 1406/1418 2000 -SHRA BR FEW002 BKN003",
          "offset_h": 13,
          "wdir": null,
          "wspd": null
        }
      ],
      "metar_raw": "METAR RJCC 131630Z 36002KT 9999 FEW005 SCT010 BKN025 22/21 Q1005",
      "metar_wdir": 360,
      "metar_wspd": 2,
      "metar_oat": 22,
      "metar_qnh": 1005,
      "hourly_oat": [
        20,
        20,
        20,
        21,
        21,
        22,
        22,
        22,
        22,
        22,
        24,
        24,
        24,
        24,
        22,
        23,
        22,
        21,
        21,
        20,
        20,
        20,
        21,
        20,
        20
      ]
    },
    "NRT": {
      "icao": "RJAA",
      "issued": "2026-07-13T11:05:00.000Z",
      "raw": "TAF RJAA 131105Z 1312/1418 31004KT 9999 FEW030 BECMG 1403/1406 14010KT",
      "groups": [
        {
          "text": "TAF RJAA 131105Z 1312/1418 31004KT 9999 FEW030",
          "offset_h": -5,
          "wdir": 310,
          "wspd": 4
        },
        {
          "text": "BECMG 1403/1406 14010KT",
          "offset_h": 10,
          "wdir": 140,
          "wspd": 10
        }
      ],
      "metar_raw": "METAR RJAA 131630Z AUTO 24003KT 9999 NCD 25/23 Q1007 NOSIG",
      "metar_wdir": 240,
      "metar_wspd": 3,
      "metar_oat": 25,
      "metar_qnh": 1007,
      "hourly_oat": [
        24,
        23,
        23,
        23,
        24,
        26,
        27,
        29,
        30,
        31,
        32,
        32,
        32,
        30,
        30,
        29,
        28,
        28,
        27,
        26,
        26,
        25,
        25,
        24,
        24
      ]
    },
    "OKA": {
      "icao": "ROAH",
      "issued": "2026-07-13T11:05:00.000Z",
      "raw": "TAF ROAH 131105Z 1312/1418 17012KT 9999 FEW008 SCT012 TEMPO 1315/1400 FEW005 BKN008",
      "groups": [
        {
          "text": "TAF ROAH 131105Z 1312/1418 17012KT 9999 FEW008 SCT012",
          "offset_h": -5,
          "wdir": 170,
          "wspd": 12
        },
        {
          "text": "TEMPO 1315/1400 FEW005 BKN008",
          "offset_h": -2,
          "wdir": null,
          "wspd": null
        }
      ],
      "metar_raw": "METAR ROAH 131630Z AUTO 17011KT 9999 NCD 27/25 Q1012",
      "metar_wdir": 170,
      "metar_wspd": 11,
      "metar_oat": 27,
      "metar_qnh": 1012,
      "hourly_oat": [
        26,
        26,
        26,
        26,
        26,
        27,
        27,
        28,
        29,
        29,
        29,
        29,
        29,
        29,
        29,
        28,
        28,
        27,
        27,
        27,
        27,
        26,
        27,
        27,
        27
      ]
    },
    "ITM": {
      "icao": "RJOO",
      "issued": "2026-07-13T11:05:00.000Z",
      "raw": "TAF RJOO 131105Z 1312/1418 32006KT 9999 FEW030 BECMG 1322/1400 22006KT",
      "groups": [
        {
          "text": "TAF RJOO 131105Z 1312/1418 32006KT 9999 FEW030",
          "offset_h": -5,
          "wdir": 320,
          "wspd": 6
        },
        {
          "text": "BECMG 1322/1400 22006KT",
          "offset_h": 5,
          "wdir": 220,
          "wspd": 6
        }
      ],
      "metar_raw": "METAR RJOO 131600Z AUTO 31004KT 280V350 //// // ////// ///// Q////",
      "metar_wdir": 310,
      "metar_wspd": 4,
      "metar_oat": 26,
      "metar_qnh": 1010,
      "hourly_oat": [
        26,
        25,
        25,
        25,
        25,
        26,
        28,
        29,
        31,
        31,
        31,
        32,
        32,
        32,
        32,
        32,
        32,
        31,
        30,
        29,
        28,
        27,
        27,
        26,
        26
      ]
    },
    "FUK": {
      "icao": "RJFF",
      "issued": "2026-07-13T11:05:00.000Z",
      "raw": "TAF RJFF 131105Z 1312/1418 15008KT CAVOK",
      "groups": [
        {
          "text": "TAF RJFF 131105Z 1312/1418 15008KT CAVOK",
          "offset_h": -5,
          "wdir": 150,
          "wspd": 8
        }
      ],
      "metar_raw": "METAR RJFF 131630Z AUTO 17009KT 9999 NCD 28/24 Q1011 NOSIG",
      "metar_wdir": 170,
      "metar_wspd": 9,
      "metar_oat": 28,
      "metar_qnh": 1011,
      "hourly_oat": [
        26,
        26,
        26,
        26,
        26,
        27,
        28,
        30,
        31,
        32,
        32,
        32,
        33,
        33,
        33,
        32,
        31,
        30,
        29,
        28,
        28,
        28,
        28,
        27,
        27
      ]
    },
    "SGN": {
      "icao": "VVTS",
      "issued": "2026-07-13T11:00:00.000Z",
      "raw": "TAF VVTS 131100Z 1312/1418 25008KT 9999 SCT017 SCT040 TEMPO 1405/1409 24015G28KT 3000 TSRA SCT015 SCT017CB BKN040 TEMPO 1409/1411 5000 SHRA SCT015 FEW017CB BKN040",
      "groups": [
        {
          "text": "TAF VVTS 131100Z 1312/1418 25008KT 9999 SCT017 SCT040",
          "offset_h": -5,
          "wdir": 250,
          "wspd": 8
        },
        {
          "text": "TEMPO 1405/1409 24015G28KT 3000 TSRA SCT015 SCT017CB BKN040",
          "offset_h": 12,
          "wdir": 240,
          "wspd": 15
        },
        {
          "text": "TEMPO 1409/1411 5000 SHRA SCT015 FEW017CB BKN040",
          "offset_h": 16,
          "wdir": null,
          "wspd": null
        }
      ],
      "metar_raw": "METAR VVTS 131630Z 21009KT 9999 SCT012 27/25 Q1010 NOSIG",
      "metar_wdir": 210,
      "metar_wspd": 9,
      "metar_oat": 27,
      "metar_qnh": 1010,
      "hourly_oat": [
        25,
        25,
        25,
        25,
        25,
        25,
        25,
        26,
        28,
        29,
        30,
        31,
        32,
        30,
        27,
        27,
        28,
        28,
        28,
        26,
        26,
        26,
        26,
        26,
        26
      ]
    },
    "BKK": {
      "icao": "VTBS",
      "issued": "2026-07-13T11:00:00.000Z",
      "raw": "TAF VTBS 131100Z 1312/1418 22008KT 9999 FEW020 TEMPO 1410/1414 VRB15KT 4000 TSRA FEW018CB SCT030 BKN100",
      "groups": [
        {
          "text": "TAF VTBS 131100Z 1312/1418 22008KT 9999 FEW020",
          "offset_h": -5,
          "wdir": 220,
          "wspd": 8
        },
        {
          "text": "TEMPO 1410/1414 VRB15KT 4000 TSRA FEW018CB SCT030 BKN100",
          "offset_h": 17,
          "wdir": "VRB",
          "wspd": 15
        }
      ],
      "metar_raw": "METAR VTBS 131630Z 22006KT 9999 FEW020 29/23 Q1008 NOSIG",
      "metar_wdir": 220,
      "metar_wspd": 6,
      "metar_oat": 29,
      "metar_qnh": 1008,
      "hourly_oat": [
        26,
        26,
        26,
        26,
        26,
        26,
        26,
        27,
        28,
        29,
        30,
        31,
        31,
        29,
        31,
        29,
        28,
        29,
        29,
        28,
        28,
        28,
        28,
        27,
        26
      ]
    },
    "CGK": {
      "icao": "WIII",
      "issued": "2026-07-13T11:00:00.000Z",
      "raw": "TAF WIII 131100Z 1312/1418 05011KT 8000 FEW020 BECMG 1314/1316 12005KT 5000 HZ BECMG 1401/1403 05012KT 8000 NSW",
      "groups": [
        {
          "text": "TAF WIII 131100Z 1312/1418 05011KT 8000 FEW020",
          "offset_h": -5,
          "wdir": 50,
          "wspd": 11
        },
        {
          "text": "BECMG 1314/1316 12005KT 5000 HZ",
          "offset_h": -3,
          "wdir": 120,
          "wspd": 5
        },
        {
          "text": "BECMG 1401/1403 05012KT 8000 NSW",
          "offset_h": 8,
          "wdir": 50,
          "wspd": 12
        }
      ],
      "metar_raw": "METAR WIII 131630Z 10008KT 9000 SCT020 27/23 Q1012 NOSIG",
      "metar_wdir": 100,
      "metar_wspd": 8,
      "metar_oat": 27,
      "metar_qnh": 1012,
      "hourly_oat": [
        26,
        26,
        26,
        25,
        25,
        24,
        24,
        25,
        28,
        30,
        32,
        33,
        34,
        34,
        33,
        32,
        31,
        30,
        29,
        29,
        28,
        28,
        27,
        27,
        26
      ]
    },
    "SIN": {
      "icao": "WSSS",
      "issued": "2026-07-13T11:00:00.000Z",
      "raw": "TAF WSSS 131100Z 1312/1418 15008KT 9999 FEW015 SCT020",
      "groups": [
        {
          "text": "TAF WSSS 131100Z 1312/1418 15008KT 9999 FEW015 SCT020",
          "offset_h": -5,
          "wdir": 150,
          "wspd": 8
        }
      ],
      "metar_raw": "METAR WSSS 131700Z 14007KT 9999 FEW018 BKN300 29/24 Q1010 NOSIG",
      "metar_wdir": 140,
      "metar_wspd": 7,
      "metar_oat": 29,
      "metar_qnh": 1010,
      "hourly_oat": [
        28,
        28,
        28,
        28,
        28,
        28,
        27,
        28,
        28,
        30,
        31,
        31,
        32,
        31,
        30,
        30,
        30,
        30,
        30,
        29,
        29,
        29,
        29,
        29,
        29
      ]
    },
    "KUL": {
      "icao": "WMKK",
      "issued": "2026-07-13T11:00:00.000Z",
      "raw": "TAF WMKK 131100Z 1312/1418 VRB03KT 9999 FEW030",
      "groups": [
        {
          "text": "TAF WMKK 131100Z 1312/1418 VRB03KT 9999 FEW030",
          "offset_h": -5,
          "wdir": "VRB",
          "wspd": 3
        }
      ],
      "metar_raw": "METAR WMKK 131630Z 13003KT 070V200 9000 FEW030 29/25 Q1009 NOSIG",
      "metar_wdir": 130,
      "metar_wspd": 3,
      "metar_oat": 29,
      "metar_qnh": 1009,
      "hourly_oat": [
        27,
        27,
        26,
        26,
        26,
        26,
        26,
        26,
        27,
        28,
        29,
        30,
        31,
        31,
        31,
        29,
        29,
        28,
        28,
        27,
        27,
        27,
        27,
        26,
        26
      ]
    },
    "HAN": {
      "icao": "VVNB",
      "issued": "2026-07-13T11:00:00.000Z",
      "raw": "TAF VVNB 131100Z 1312/1412 12006KT 9999 FEW025 TEMPO 1314/1318 3500 SHRA SCT012 FEW025TCU TEMPO 1408/1412 3000 TSRA SCT010 FEW027CB",
      "groups": [
        {
          "text": "TAF VVNB 131100Z 1312/1412 12006KT 9999 FEW025",
          "offset_h": -5,
          "wdir": 120,
          "wspd": 6
        },
        {
          "text": "TEMPO 1314/1318 3500 SHRA SCT012 FEW025TCU",
          "offset_h": -3,
          "wdir": null,
          "wspd": null
        },
        {
          "text": "TEMPO 1408/1412 3000 TSRA SCT010 FEW027CB",
          "offset_h": 15,
          "wdir": null,
          "wspd": null
        }
      ],
      "metar_raw": "METAR VVNB 131630Z 14007KT 120V180 CAVOK 30/27 Q1003 NOSIG",
      "metar_wdir": 140,
      "metar_wspd": 7,
      "metar_oat": 30,
      "metar_qnh": 1003,
      "hourly_oat": [
        28,
        27,
        27,
        26,
        26,
        26,
        26,
        28,
        29,
        31,
        32,
        32,
        33,
        34,
        34,
        34,
        34,
        33,
        32,
        30,
        30,
        29,
        29,
        29,
        28
      ]
    }
  }
}