{
  "updated": "2026-07-16T04:49:49Z",
  "tafs": {
    "LAX": {
      "icao": "KLAX",
      "issued": "2026-07-16T03:40:00.000Z",
      "raw": "TAF KLAX 160340Z 1604/1706 26006KT P6SM SKC FM160900 11005KT P6SM SCT008 FM161800 24006KT P6SM FEW010 FM162000 26012KT P6SM SKC FM170300 26005KT P6SM SCT250",
      "groups": [
        {
          "text": "TAF KLAX 160340Z 1604/1706 26006KT P6SM SKC",
          "offset_h": 0,
          "wdir": 260,
          "wspd": 6
        },
        {
          "text": "FM160900 11005KT P6SM SCT008",
          "offset_h": 5,
          "wdir": 110,
          "wspd": 5
        },
        {
          "text": "FM161800 24006KT P6SM FEW010",
          "offset_h": 14,
          "wdir": 240,
          "wspd": 6
        },
        {
          "text": "FM162000 26012KT P6SM SKC",
          "offset_h": 16,
          "wdir": 260,
          "wspd": 12
        },
        {
          "text": "FM170300 26005KT P6SM SCT250",
          "offset_h": 23,
          "wdir": 260,
          "wspd": 5
        }
      ],
      "metar_raw": "METAR KLAX 160353Z VRB05KT 10SM FEW010 FEW250 22/19 A2979 RMK AO2 SLP084 T02220194 $",
      "metar_wdir": "VRB",
      "metar_wspd": 5,
      "metar_oat": 22,
      "metar_qnh": 1009,
      "hourly_oat": [
        21,
        21,
        21,
        20,
        19,
        20,
        20,
        19,
        18,
        18,
        20,
        22,
        27,
        30,
        30,
        29,
        27,
        26,
        25,
        24,
        22,
        22,
        22,
        22,
        21
      ]
    },
    "PVG": {
      "icao": "ZSPD",
      "issued": "2026-07-16T03:05:00.000Z",
      "raw": "TAF ZSPD 160305Z 1606/1712 18004MPS 8000 SCT030 TX39/1606Z TX38/1706Z TN29/1621Z TEMPO 1606/1610 TSRA BKN011 FEW030CB TEMPO 1706/1710 TSRA BKN011 FEW030CB",
      "groups": [
        {
          "text": "TAF ZSPD 160305Z 1606/1712 18004MPS 8000 SCT030 TX39/1606Z TX38/1706Z TN29/1621Z",
          "offset_h": 2,
          "wdir": null,
          "wspd": null
        },
        {
          "text": "TEMPO 1606/1610 TSRA BKN011 FEW030CB",
          "offset_h": 2,
          "wdir": null,
          "wspd": null
        },
        {
          "text": "TEMPO 1706/1710 TSRA BKN011 FEW030CB",
          "offset_h": 26,
          "wdir": null,
          "wspd": null
        }
      ],
      "metar_raw": "METAR ZSPD 160430Z 03006MPS CAVOK 36/25 Q1003 NOSIG",
      "metar_wdir": null,
      "metar_wspd": null,
      "metar_oat": 36,
      "metar_qnh": 1003,
      "hourly_oat": [
        37,
        36,
        35,
        35,
        34,
        33,
        33,
        32,
        31,
        31,
        30,
        30,
        30,
        30,
        30,
        29,
        29,
        29,
        30,
        31,
        33,
        35,
        36,
        37,
        37
      ]
    },
    "SHA": {
      "icao": "ZSSS",
      "issued": "2026-07-16T03:04:00.000Z",
      "raw": "TAF ZSSS 160304Z 1606/1712 18004MPS 8000 SCT030 TX39/1606Z TX38/1706Z TN29/1621Z TEMPO 1606/1610 TSRA BKN011 FEW030CB TEMPO 1706/1710 TSRA BKN011 FEW030CB",
      "groups": [
        {
          "text": "TAF ZSSS 160304Z 1606/1712 18004MPS 8000 SCT030 TX39/1606Z TX38/1706Z TN29/1621Z",
          "offset_h": 2,
          "wdir": null,
          "wspd": null
        },
        {
          "text": "TEMPO 1606/1610 TSRA BKN011 FEW030CB",
          "offset_h": 2,
          "wdir": null,
          "wspd": null
        },
        {
          "text": "TEMPO 1706/1710 TSRA BKN011 FEW030CB",
          "offset_h": 26,
          "wdir": null,
          "wspd": null
        }
      ],
      "metar_raw": "METAR ZSSS 160430Z 32005MPS CAVOK 36/25 Q1003 NOSIG",
      "metar_wdir": null,
      "metar_wspd": null,
      "metar_oat": 36,
      "metar_qnh": 1003,
      "hourly_oat": [
        38,
        38,
        38,
        38,
        37,
        36,
        36,
        36,
        36,
        34,
        33,
        32,
        32,
        32,
        31,
        31,
        31,
        31,
        31,
        32,
        34,
        36,
        37,
        38,
        39
      ]
    },
    "CAN": {
      "icao": "ZGGG",
      "issued": "2026-07-16T03:04:00.000Z",
      "raw": "TAF ZGGG 160304Z 1606/1712 15003MPS 8000 BKN033 TX32/1607Z TX33/1707Z TN26/1622Z TEMPO 1606/1609 TSRA FEW026CB BKN033 TEMPO 1611/1614 TSRA FEW026CB BKN033 TEMPO 1621/1701 SHRA FEW026CB BKN040 TEMPO 1704/1708 TSRA SCT026CB BKN033",
      "groups": [
        {
          "text": "TAF ZGGG 160304Z 1606/1712 15003MPS 8000 BKN033 TX32/1607Z TX33/1707Z TN26/1622Z",
          "offset_h": 2,
          "wdir": null,
          "wspd": null
        },
        {
          "text": "TEMPO 1606/1609 TSRA FEW026CB BKN033",
          "offset_h": 2,
          "wdir": null,
          "wspd": null
        },
        {
          "text": "TEMPO 1611/1614 TSRA FEW026CB BKN033",
          "offset_h": 7,
          "wdir": null,
          "wspd": null
        },
        {
          "text": "TEMPO 1621/1701 SHRA FEW026CB BKN040",
          "offset_h": 17,
          "wdir": null,
          "wspd": null
        },
        {
          "text": "TEMPO 1704/1708 TSRA SCT026CB BKN033",
          "offset_h": 24,
          "wdir": null,
          "wspd": null
        }
      ],
      "metar_raw": "METAR ZGGG 160430Z 18003MPS 9999 -SHRA SCT018 OVC030 30/27 Q1006 NOSIG",
      "metar_wdir": null,
      "metar_wspd": null,
      "metar_oat": 30,
      "metar_qnh": 1006,
      "hourly_oat": [
        30,
        31,
        32,
        27,
        27,
        29,
        30,
        29,
        28,
        28,
        28,
        27,
        27,
        26,
        26,
        25,
        25,
        24,
        24,
        25,
        26,
        27,
        29,
        30,
        31
      ]
    },
    "DLC": {
      "icao": "ZYTL",
      "issued": "2026-07-16T03:03:00.000Z",
      "raw": "TAF ZYTL 160303Z 1606/1706 20004MPS 5000 BR FEW020 TX31/1606Z TN24/1620Z",
      "groups": [
        {
          "text": "TAF ZYTL 160303Z 1606/1706 20004MPS 5000 BR FEW020 TX31/1606Z TN24/1620Z",
          "offset_h": 2,
          "wdir": null,
          "wspd": null
        }
      ],
      "metar_raw": "METAR ZYTL 160430Z VRB01MPS 6000 FEW020 30/25 Q1003 NOSIG",
      "metar_wdir": null,
      "metar_wspd": null,
      "metar_oat": 30,
      "metar_qnh": 1003,
      "hourly_oat": [
        29,
        29,
        29,
        28,
        29,
        29,
        28,
        27,
        25,
        25,
        24,
        24,
        24,
        24,
        24,
        24,
        23,
        23,
        23,
        24,
        24,
        25,
        26,
        27,
        27
      ]
    },
    "HNL": {
      "icao": "PHNL",
      "issued": "2026-07-16T03:03:00.000Z",
      "raw": "TAF PHNL 160303Z 1603/1706 10011KT P6SM FEW025 SCT040 FM160600 VRB06KT P6SM FEW025 FEW040 FM162000 07014G22KT P6SM FEW025 SCT040 FM170500 06010KT P6SM FEW025 FEW040",
      "groups": [
        {
          "text": "TAF PHNL 160303Z 1603/1706 10011KT P6SM FEW025 SCT040",
          "offset_h": -1,
          "wdir": 100,
          "wspd": 11
        },
        {
          "text": "FM160600 VRB06KT P6SM FEW025 FEW040",
          "offset_h": 2,
          "wdir": "VRB",
          "wspd": 6
        },
        {
          "text": "FM162000 07014G22KT P6SM FEW025 SCT040",
          "offset_h": 16,
          "wdir": 70,
          "wspd": 14
        },
        {
          "text": "FM170500 06010KT P6SM FEW025 FEW040",
          "offset_h": 25,
          "wdir": 60,
          "wspd": 10
        }
      ],
      "metar_raw": "METAR PHNL 160353Z 05009KT 10SM FEW025 FEW040 29/19 A2990 RMK AO2 SLP124 T02890194 $",
      "metar_wdir": 50,
      "metar_wspd": 9,
      "metar_oat": 29,
      "metar_qnh": 1013,
      "hourly_oat": [
        26,
        25,
        24,
        24,
        24,
        24,
        24,
        24,
        24,
        24,
        23,
        23,
        23,
        24,
        26,
        27,
        28,
        29,
        30,
        30,
        30,
        29,
        28,
        28,
        26
      ]
    },
    "PEK": {
      "icao": "ZBAA",
      "issued": "2026-07-16T03:01:00.000Z",
      "raw": "TAF ZBAA 160301Z 1606/1712 18004MPS CAVOK TX35/1606Z TX36/1706Z TN24/1621Z",
      "groups": [
        {
          "text": "TAF ZBAA 160301Z 1606/1712 18004MPS CAVOK TX35/1606Z TX36/1706Z TN24/1621Z",
          "offset_h": 2,
          "wdir": null,
          "wspd": null
        }
      ],
      "metar_raw": "METAR ZBAA 160430Z 02003MPS CAVOK 33/20 Q1002 NOSIG",
      "metar_wdir": null,
      "metar_wspd": null,
      "metar_oat": 33,
      "metar_qnh": 1002,
      "hourly_oat": [
        30,
        31,
        32,
        32,
        32,
        31,
        30,
        29,
        28,
        28,
        27,
        27,
        25,
        24,
        24,
        24,
        23,
        23,
        24,
        24,
        25,
        28,
        29,
        30,
        31
      ]
    },
    "SAN": {
      "icao": "KSAN",
      "issued": "2026-07-16T02:40:00.000Z",
      "raw": "TAF KSAN 160240Z 1603/1706 26005KT P6SM FEW007 FEW200 FM160900 19004KT P6SM BKN007 FM161600 20011G20KT P6SM FEW010 SCT150 FM170000 20007KT P6SM FEW012 FEW200",
      "groups": [
        {
          "text": "TAF KSAN 160240Z 1603/1706 26005KT P6SM FEW007 FEW200",
          "offset_h": -1,
          "wdir": 260,
          "wspd": 5
        },
        {
          "text": "FM160900 19004KT P6SM BKN007",
          "offset_h": 5,
          "wdir": 190,
          "wspd": 4
        },
        {
          "text": "FM161600 20011G20KT P6SM FEW010 SCT150",
          "offset_h": 12,
          "wdir": 200,
          "wspd": 11
        },
        {
          "text": "FM170000 20007KT P6SM FEW012 FEW200",
          "offset_h": 20,
          "wdir": 200,
          "wspd": 7
        }
      ],
      "metar_raw": "METAR KSAN 160351Z 21005KT 10SM FEW010 FEW200 23/19 A2983 RMK AO2 SLP100 T02280189 $",
      "metar_wdir": 210,
      "metar_wspd": 5,
      "metar_oat": 23,
      "metar_qnh": 1010,
      "hourly_oat": [
        22,
        21,
        20,
        20,
        20,
        20,
        19,
        19,
        19,
        19,
        20,
        20,
        21,
        22,
        24,
        24,
        26,
        26,
        25,
        24,
        24,
        22,
        21,
        20,
        20
      ]
    },
    "OKA": {
      "icao": "ROAH",
      "issued": "2026-07-16T02:34:00.000Z",
      "raw": "TAF AMD ROAH 160234Z 1602/1706 24010KT 9999 FEW008 BKN012 TEMPO 1602/1605 FEW005 BKN008 TEMPO 1612/1615 FEW005 BKN008 TEMPO 1615/1621 FEW003 BKN005 TEMPO 1621/1703 FEW005 BKN008",
      "groups": [
        {
          "text": "TAF AMD ROAH 160234Z 1602/1706 24010KT 9999 FEW008 BKN012",
          "offset_h": -2,
          "wdir": 240,
          "wspd": 10
        },
        {
          "text": "TEMPO 1602/1605 FEW005 BKN008",
          "offset_h": -2,
          "wdir": null,
          "wspd": null
        },
        {
          "text": "TEMPO 1612/1615 FEW005 BKN008",
          "offset_h": 8,
          "wdir": null,
          "wspd": null
        },
        {
          "text": "TEMPO 1615/1621 FEW003 BKN005",
          "offset_h": 11,
          "wdir": null,
          "wspd": null
        },
        {
          "text": "TEMPO 1621/1703 FEW005 BKN008",
          "offset_h": 17,
          "wdir": null,
          "wspd": null
        }
      ],
      "metar_raw": "METAR ROAH 160430Z 24009KT 9999 FEW007 BKN009 BKN/// 30/28 Q1008",
      "metar_wdir": 240,
      "metar_wspd": 9,
      "metar_oat": 30,
      "metar_qnh": 1008,
      "hourly_oat": [
        30,
        30,
        30,
        30,
        29,
        28,
        28,
        28,
        28,
        28,
        28,
        28,
        27,
        27,
        27,
        27,
        27,
        27,
        28,
        28,
        29,
        29,
        30,
        30,
        30
      ]
    },
    "HKG": {
      "icao": "VHHH",
      "issued": "2026-07-16T02:00:00.000Z",
      "raw": "TAF VHHH 160200Z 1603/1709 18010KT 9999 FEW010 SCT030 TX30/1606Z TX31/1706Z TN26/1622Z TEMPO 1603/1608 VRB15G30KT 2000 TSRA +SHRA FEW008CB SCT015 TEMPO 1608/1611 3000 SHRA FEW010CB SCT020 TEMPO 1617/1623 3000 SHRA FEW010CB SCT020 PROB30 TEMPO 1623/1705 24015G25KT 2500 TSRA SHRA FEW008CB SCT015",
      "groups": [
        {
          "text": "TAF VHHH 160200Z 1603/1709 18010KT 9999 FEW010 SCT030 TX30/1606Z TX31/1706Z TN26/1622Z",
          "offset_h": -1,
          "wdir": 180,
          "wspd": 10
        },
        {
          "text": "TEMPO 1603/1608 VRB15G30KT 2000 TSRA +SHRA FEW008CB SCT015",
          "offset_h": -1,
          "wdir": "VRB",
          "wspd": 15
        },
        {
          "text": "TEMPO 1608/1611 3000 SHRA FEW010CB SCT020",
          "offset_h": 4,
          "wdir": null,
          "wspd": null
        },
        {
          "text": "TEMPO 1617/1623 3000 SHRA FEW010CB SCT020",
          "offset_h": 13,
          "wdir": null,
          "wspd": null
        },
        {
          "text": "PROB30",
          "offset_h": 0,
          "wdir": null,
          "wspd": null
        },
        {
          "text": "TEMPO 1623/1705 24015G25KT 2500 TSRA SHRA FEW008CB SCT015",
          "offset_h": 19,
          "wdir": 240,
          "wspd": 15
        }
      ],
      "metar_raw": "SPECI VHHH 160434Z 31004KT 260V330 3800 +SHRA FEW008 FEW015CB SCT022 27/25 Q1007 TEMPO VRB15G30KT 2500 TSRA SHRA FEW008CB SCT015",
      "metar_wdir": 310,
      "metar_wspd": 4,
      "metar_oat": 27,
      "metar_qnh": 1007,
      "hourly_oat": [
        27,
        28,
        29,
        30,
        30,
        30,
        29,
        28,
        28,
        28,
        28,
        28,
        28,
        28,
        27,
        26,
        26,
        26,
        26,
        27,
        26,
        27,
        27,
        27,
        28
      ]
    },
    "NRT": {
      "icao": "RJAA",
      "issued": "2026-07-15T23:05:00.000Z",
      "raw": "TAF RJAA 152305Z 1600/1706 13010KT 9999 FEW020 BKN040 TEMPO 1615/1621 3000 BR FEW005 BKN008",
      "groups": [
        {
          "text": "TAF RJAA 152305Z 1600/1706 13010KT 9999 FEW020 BKN040",
          "offset_h": -4,
          "wdir": 130,
          "wspd": 10
        },
        {
          "text": "TEMPO 1615/1621 3000 BR FEW005 BKN008",
          "offset_h": 11,
          "wdir": null,
          "wspd": null
        }
      ],
      "metar_raw": "METAR RJAA 160430Z 10006KT 060V150 8000 FEW015 SCT020 BKN100 31/26 Q1000 NOSIG",
      "metar_wdir": 100,
      "metar_wspd": 6,
      "metar_oat": 31,
      "metar_qnh": 1000,
      "hourly_oat": [
        32,
        32,
        32,
        31,
        31,
        30,
        29,
        28,
        28,
        27,
        27,
        26,
        26,
        26,
        26,
        26,
        26,
        26,
        27,
        28,
        29,
        29,
        29,
        29,
        29
      ]
    },
    "FUK": {
      "icao": "RJFF",
      "issued": "2026-07-15T23:05:00.000Z",
      "raw": "TAF RJFF 152305Z 1600/1706 26008KT 9999 -SHRA FEW008 BKN020 BECMG 1615/1618 10004KT BECMG 1700/1703 32008KT TEMPO 1703/1706 TS BKN008 BKN025 FEW030CB",
      "groups": [
        {
          "text": "TAF RJFF 152305Z 1600/1706 26008KT 9999 -SHRA FEW008 BKN020",
          "offset_h": -4,
          "wdir": 260,
          "wspd": 8
        },
        {
          "text": "BECMG 1615/1618 10004KT",
          "offset_h": 11,
          "wdir": 100,
          "wspd": 4
        },
        {
          "text": "BECMG 1700/1703 32008KT",
          "offset_h": 20,
          "wdir": 320,
          "wspd": 8
        },
        {
          "text": "TEMPO 1703/1706 TS BKN008 BKN025 FEW030CB",
          "offset_h": 23,
          "wdir": null,
          "wspd": null
        }
      ],
      "metar_raw": "METAR RJFF 160430Z 30014KT 9999 FEW015 SCT030 BKN/// 33/27 Q1002 NOSIG",
      "metar_wdir": 300,
      "metar_wspd": 14,
      "metar_oat": 33,
      "metar_qnh": 1002,
      "hourly_oat": [
        30,
        29,
        29,
        28,
        28,
        28,
        27,
        27,
        27,
        27,
        26,
        26,
        26,
        26,
        26,
        26,
        26,
        26,
        26,
        27,
        29,
        30,
        30,
        30,
        30
      ]
    },
    "CTS": {
      "icao": "RJCC",
      "issued": "2026-07-15T23:05:00.000Z",
      "raw": "TAF RJCC 152305Z 1600/1706 01008KT 9999 FEW020 SCT030 BECMG 1602/1604 17012KT TEMPO 1612/1618 FEW002 BKN004 TEMPO 1618/1700 0700 FG VV001 TEMPO 1700/1703 2000 BR FEW002 BKN004 TEMPO 1703/1706 FEW004 BKN007",
      "groups": [
        {
          "text": "TAF RJCC 152305Z 1600/1706 01008KT 9999 FEW020 SCT030",
          "offset_h": -4,
          "wdir": 10,
          "wspd": 8
        },
        {
          "text": "BECMG 1602/1604 17012KT",
          "offset_h": -2,
          "wdir": 170,
          "wspd": 12
        },
        {
          "text": "TEMPO 1612/1618 FEW002 BKN004",
          "offset_h": 8,
          "wdir": null,
          "wspd": null
        },
        {
          "text": "TEMPO 1618/1700 0700 FG VV001",
          "offset_h": 14,
          "wdir": null,
          "wspd": null
        },
        {
          "text": "TEMPO 1700/1703 2000 BR FEW002 BKN004",
          "offset_h": 20,
          "wdir": null,
          "wspd": null
        },
        {
          "text": "TEMPO 1703/1706 FEW004 BKN007",
          "offset_h": 23,
          "wdir": null,
          "wspd": null
        }
      ],
      "metar_raw": "METAR RJCC 160430Z 17008KT 130V200 9999 FEW015 SCT040 29/24 Q0998",
      "metar_wdir": 170,
      "metar_wspd": 8,
      "metar_oat": 29,
      "metar_qnh": 998,
      "hourly_oat": [
        29,
        29,
        29,
        29,
        28,
        27,
        24,
        22,
        21,
        21,
        20,
        20,
        20,
        20,
        20,
        20,
        20,
        20,
        21,
        23,
        24,
        25,
        24,
        24,
        24
      ]
    },
    "KIX": {
      "icao": "RJBB",
      "issued": "2026-07-15T23:05:00.000Z",
      "raw": "TAF RJBB 152305Z 1600/1706 22006KT 9999 FEW030 BECMG 1610/1612 05008KT BECMG 1703/1706 25006KT",
      "groups": [
        {
          "text": "TAF RJBB 152305Z 1600/1706 22006KT 9999 FEW030",
          "offset_h": -4,
          "wdir": 220,
          "wspd": 6
        },
        {
          "text": "BECMG 1610/1612 05008KT",
          "offset_h": 6,
          "wdir": 50,
          "wspd": 8
        },
        {
          "text": "BECMG 1703/1706 25006KT",
          "offset_h": 23,
          "wdir": 250,
          "wspd": 6
        }
      ],
      "metar_raw": "METAR RJBB 160430Z 24006KT 9999 FEW030 BKN/// 33/25 Q1001 NOSIG",
      "metar_wdir": 240,
      "metar_wspd": 6,
      "metar_oat": 33,
      "metar_qnh": 1001,
      "hourly_oat": [
        28,
        29,
        29,
        29,
        28,
        28,
        28,
        28,
        28,
        28,
        28,
        28,
        28,
        27,
        27,
        27,
        26,
        26,
        26,
        26,
        27,
        27,
        27,
        27,
        27
      ]
    },
    "HND": {
      "icao": "RJTT",
      "issued": "2026-07-15T23:05:00.000Z",
      "raw": "TAF RJTT 152305Z 1600/1706 12004KT 9999 FEW005 BKN012 BECMG 1605/1607 18014KT TEMPO 1607/1611 TS FEW025CB FEW030 BKN050",
      "groups": [
        {
          "text": "TAF RJTT 152305Z 1600/1706 12004KT 9999 FEW005 BKN012",
          "offset_h": -4,
          "wdir": 120,
          "wspd": 4
        },
        {
          "text": "BECMG 1605/1607 18014KT",
          "offset_h": 1,
          "wdir": 180,
          "wspd": 14
        },
        {
          "text": "TEMPO 1607/1611 TS FEW025CB FEW030 BKN050",
          "offset_h": 3,
          "wdir": null,
          "wspd": null
        }
      ],
      "metar_raw": "METAR RJTT 160430Z 12004KT 080V140 9999 FEW030 BKN/// 31/26 Q1000 NOSIG",
      "metar_wdir": 120,
      "metar_wspd": 4,
      "metar_oat": 31,
      "metar_qnh": 1000,
      "hourly_oat": [
        32,
        32,
        31,
        30,
        30,
        28,
        27,
        27,
        27,
        27,
        26,
        26,
        26,
        26,
        26,
        26,
        26,
        26,
        26,
        27,
        28,
        29,
        29,
        29,
        29
      ]
    },
    "ITM": {
      "icao": "RJOO",
      "issued": "2026-07-15T23:05:00.000Z",
      "raw": "TAF RJOO 152305Z 1600/1706 21008KT 9999 FEW030 BECMG 1607/1609 35006KT",
      "groups": [
        {
          "text": "TAF RJOO 152305Z 1600/1706 21008KT 9999 FEW030",
          "offset_h": -4,
          "wdir": 210,
          "wspd": 8
        },
        {
          "text": "BECMG 1607/1609 35006KT",
          "offset_h": 3,
          "wdir": 350,
          "wspd": 6
        }
      ],
      "metar_raw": "METAR RJOO 160400Z 22007KT 160V290 9999 FEW030 BKN/// 34/24 Q1000",
      "metar_wdir": 220,
      "metar_wspd": 7,
      "metar_oat": 34,
      "metar_qnh": 1000,
      "hourly_oat": [
        32,
        32,
        32,
        32,
        32,
        32,
        30,
        29,
        28,
        27,
        27,
        26,
        26,
        25,
        25,
        25,
        24,
        24,
        25,
        26,
        28,
        30,
        31,
        32,
        33
      ]
    },
    "NGO": {
      "icao": "RJGG",
      "issued": "2026-07-15T23:05:00.000Z",
      "raw": "TAF RJGG 152305Z 1600/1706 27006KT 9999 FEW030 BECMG 1600/1602 25004KT BECMG 1609/1611 28008KT BECMG 1621/1700 23004KT",
      "groups": [
        {
          "text": "TAF RJGG 152305Z 1600/1706 27006KT 9999 FEW030",
          "offset_h": -4,
          "wdir": 270,
          "wspd": 6
        },
        {
          "text": "BECMG 1600/1602 25004KT",
          "offset_h": -4,
          "wdir": 250,
          "wspd": 4
        },
        {
          "text": "BECMG 1609/1611 28008KT",
          "offset_h": 5,
          "wdir": 280,
          "wspd": 8
        },
        {
          "text": "BECMG 1621/1700 23004KT",
          "offset_h": 17,
          "wdir": 230,
          "wspd": 4
        }
      ],
      "metar_raw": "METAR RJGG 160430Z 22004KT 9999 FEW020 BKN/// 32/26 Q0999 NOSIG",
      "metar_wdir": 220,
      "metar_wspd": 4,
      "metar_oat": 32,
      "metar_qnh": 999,
      "hourly_oat": [
        29,
        29,
        29,
        29,
        29,
        28,
        28,
        29,
        28,
        28,
        28,
        27,
        27,
        27,
        27,
        26,
        26,
        26,
        26,
        26,
        27,
        27,
        27,
        27,
        27
      ]
    },
    "KUL": {
      "icao": "WMKK",
      "issued": "2026-07-15T23:00:00.000Z",
      "raw": "TAF WMKK 152300Z 1600/1706 11005KT 9999 FEW018",
      "groups": [
        {
          "text": "TAF WMKK 152300Z 1600/1706 11005KT 9999 FEW018",
          "offset_h": -4,
          "wdir": 110,
          "wspd": 5
        }
      ],
      "metar_raw": "METAR WMKK 160430Z VRB05KT 9999 FEW017CB SCT018 34/25 Q1011 NOSIG",
      "metar_wdir": "VRB",
      "metar_wspd": 5,
      "metar_oat": 34,
      "metar_qnh": 1011,
      "hourly_oat": [
        31,
        32,
        32,
        31,
        30,
        30,
        30,
        29,
        28,
        27,
        26,
        26,
        26,
        26,
        26,
        26,
        25,
        25,
        25,
        25,
        26,
        27,
        28,
        29,
        30
      ]
    },
    "CGK": {
      "icao": "WIII",
      "issued": "2026-07-15T23:00:00.000Z",
      "raw": "TAF WIII 152300Z 1600/1706 16005KT 4000 HZ FEW020 BECMG 1601/1603 06012KT 8000 NSW BECMG 1616/1618 15005KT 5000 HZ",
      "groups": [
        {
          "text": "TAF WIII 152300Z 1600/1706 16005KT 4000 HZ FEW020",
          "offset_h": -4,
          "wdir": 160,
          "wspd": 5
        },
        {
          "text": "BECMG 1601/1603 06012KT 8000 NSW",
          "offset_h": -3,
          "wdir": 60,
          "wspd": 12
        },
        {
          "text": "BECMG 1616/1618 15005KT 5000 HZ",
          "offset_h": 12,
          "wdir": 150,
          "wspd": 5
        }
      ],
      "metar_raw": "METAR WIII 160430Z 06014KT 5000 HZ FEW020 33/23 Q1013 NOSIG",
      "metar_wdir": 60,
      "metar_wspd": 14,
      "metar_oat": 33,
      "metar_qnh": 1013,
      "hourly_oat": [
        33,
        34,
        34,
        34,
        33,
        31,
        30,
        29,
        29,
        28,
        28,
        28,
        27,
        27,
        26,
        26,
        25,
        25,
        25,
        24,
        25,
        28,
        30,
        32,
        33
      ]
    },
    "GMP": {
      "icao": "RKSS",
      "issued": "2026-07-15T23:00:00.000Z",
      "raw": "TAF RKSS 152300Z 1600/1706 16005KT 6000 NSC TX33/1605Z TN23/1619Z TX32/1706Z BECMG 1601/1603 28007KT 9999 BECMG 1611/1613 06005KT 6000 BECMG 1701/1703 27007KT",
      "groups": [
        {
          "text": "TAF RKSS 152300Z 1600/1706 16005KT 6000 NSC TX33/1605Z TN23/1619Z TX32/1706Z",
          "offset_h": -4,
          "wdir": 160,
          "wspd": 5
        },
        {
          "text": "BECMG 1601/1603 28007KT 9999",
          "offset_h": -3,
          "wdir": 280,
          "wspd": 7
        },
        {
          "text": "BECMG 1611/1613 06005KT 6000",
          "offset_h": 7,
          "wdir": 60,
          "wspd": 5
        },
        {
          "text": "BECMG 1701/1703 27007KT",
          "offset_h": 21,
          "wdir": 270,
          "wspd": 7
        }
      ],
      "metar_raw": "METAR RKSS 160400Z 27007KT 230V300 9000 BKN025 BKN200 30/25 Q1004 NOSIG",
      "metar_wdir": 270,
      "metar_wspd": 7,
      "metar_oat": 30,
      "metar_qnh": 1004,
      "hourly_oat": [
        30,
        28,
        28,
        28,
        27,
        26,
        25,
        24,
        24,
        23,
        23,
        23,
        22,
        22,
        22,
        22,
        21,
        22,
        22,
        22,
        23,
        25,
        26,
        26,
        27
      ]
    },
    "TPE": {
      "icao": "RCTP",
      "issued": "2026-07-15T23:00:00.000Z",
      "raw": "TAF RCTP 152300Z 1600/1706 24010KT 9999 FEW010 BKN032 TEMPO 1600/1604 19005KT TEMPO 1604/1610 28015KT TEMPO 1612/1618 18005KT TEMPO 1618/1624 15005KT",
      "groups": [
        {
          "text": "TAF RCTP 152300Z 1600/1706 24010KT 9999 FEW010 BKN032",
          "offset_h": -4,
          "wdir": 240,
          "wspd": 10
        },
        {
          "text": "TEMPO 1600/1604 19005KT",
          "offset_h": -4,
          "wdir": 190,
          "wspd": 5
        },
        {
          "text": "TEMPO 1604/1610 28015KT",
          "offset_h": 0,
          "wdir": 280,
          "wspd": 15
        },
        {
          "text": "TEMPO 1612/1618 18005KT",
          "offset_h": 8,
          "wdir": 180,
          "wspd": 5
        },
        {
          "text": "TEMPO 1618/1624 15005KT",
          "offset_h": 14,
          "wdir": 150,
          "wspd": 5
        }
      ],
      "metar_raw": "METAR RCTP 160430Z 24018KT 9999 FEW020 SCT200 33/26 Q1007 WS R23R NOSIG RMK A2976",
      "metar_wdir": 240,
      "metar_wspd": 18,
      "metar_oat": 33,
      "metar_qnh": 1007,
      "hourly_oat": [
        31,
        31,
        30,
        30,
        30,
        29,
        28,
        28,
        28,
        28,
        27,
        27,
        27,
        27,
        26,
        26,
        27,
        27,
        27,
        28,
        28,
        29,
        30,
        30,
        30
      ]
    },
    "TSA": {
      "icao": "RCSS",
      "issued": "2026-07-15T23:00:00.000Z",
      "raw": "TAF RCSS 152300Z 1600/1624 09005KT 9999 FEW010 BKN032 TEMPO 1600/1606 30005KT TEMPO 1606/1611 4000 SHRA FEW010 BKN020 TEMPO 1618/1624 VRB05KT",
      "groups": [
        {
          "text": "TAF RCSS 152300Z 1600/1624 09005KT 9999 FEW010 BKN032",
          "offset_h": -4,
          "wdir": 90,
          "wspd": 5
        },
        {
          "text": "TEMPO 1600/1606 30005KT",
          "offset_h": -4,
          "wdir": 300,
          "wspd": 5
        },
        {
          "text": "TEMPO 1606/1611 4000 SHRA FEW010 BKN020",
          "offset_h": 2,
          "wdir": null,
          "wspd": null
        },
        {
          "text": "TEMPO 1618/1624 VRB05KT",
          "offset_h": 14,
          "wdir": "VRB",
          "wspd": 5
        }
      ],
      "metar_raw": "METAR RCSS 160430Z 28009KT 240V320 9999 FEW020 BKN045 35/26 Q1007 NOSIG RMK 28009KT/R10 A2974",
      "metar_wdir": 280,
      "metar_wspd": 9,
      "metar_oat": 35,
      "metar_qnh": 1007,
      "hourly_oat": [
        33,
        33,
        32,
        31,
        30,
        30,
        30,
        28,
        28,
        28,
        28,
        27,
        26,
        26,
        26,
        26,
        26,
        25,
        26,
        27,
        29,
        30,
        31,
        32,
        32
      ]
    },
    "BKK": {
      "icao": "VTBS",
      "issued": "2026-07-15T23:00:00.000Z",
      "raw": "TAF VTBS 152300Z 1600/1706 22008KT 9999 FEW020 TEMPO 1609/1614 VRB15KT 4000 TSRA FEW018CB SCT020 BKN080",
      "groups": [
        {
          "text": "TAF VTBS 152300Z 1600/1706 22008KT 9999 FEW020",
          "offset_h": -4,
          "wdir": 220,
          "wspd": 8
        },
        {
          "text": "TEMPO 1609/1614 VRB15KT 4000 TSRA FEW018CB SCT020 BKN080",
          "offset_h": 5,
          "wdir": "VRB",
          "wspd": 15
        }
      ],
      "metar_raw": "METAR VTBS 160430Z 22009KT 190V250 9999 FEW020 SCT040 33/22 Q1010 NOSIG",
      "metar_wdir": 220,
      "metar_wspd": 9,
      "metar_oat": 33,
      "metar_qnh": 1010,
      "hourly_oat": [
        31,
        30,
        30,
        30,
        29,
        28,
        28,
        28,
        28,
        28,
        28,
        28,
        28,
        28,
        27,
        27,
        27,
        27,
        27,
        27,
        28,
        29,
        30,
        31,
        30
      ]
    },
    "SGN": {
      "icao": "VVTS",
      "issued": "2026-07-15T23:00:00.000Z",
      "raw": "TAF VVTS 152300Z 1600/1706 26008KT 9999 SCT017 TEMPO 1606/1609 26015G26KT 2000 +TSRA SCT013 SCT015CB TEMPO 1609/1612 5000 SHRA SCT015 FEW017CB",
      "groups": [
        {
          "text": "TAF VVTS 152300Z 1600/1706 26008KT 9999 SCT017",
          "offset_h": -4,
          "wdir": 260,
          "wspd": 8
        },
        {
          "text": "TEMPO 1606/1609 26015G26KT 2000 +TSRA SCT013 SCT015CB",
          "offset_h": 2,
          "wdir": 260,
          "wspd": 15
        },
        {
          "text": "TEMPO 1609/1612 5000 SHRA SCT015 FEW017CB",
          "offset_h": 5,
          "wdir": null,
          "wspd": null
        }
      ],
      "metar_raw": "METAR VVTS 160430Z 24007KT 200V280 9999 SCT037 33/25 Q1011 NOSIG",
      "metar_wdir": 240,
      "metar_wspd": 7,
      "metar_oat": 33,
      "metar_qnh": 1011,
      "hourly_oat": [
        31,
        32,
        32,
        32,
        27,
        26,
        26,
        26,
        26,
        26,
        26,
        26,
        26,
        25,
        25,
        25,
        25,
        25,
        25,
        25,
        26,
        27,
        29,
        30,
        31
      ]
    },
    "HAN": {
      "icao": "VVNB",
      "issued": "2026-07-15T23:00:00.000Z",
      "raw": "TAF VVNB 152300Z 1600/1624 09005KT 9999 FEW025 PROB40 TEMPO 1601/1604 3500 TSRA SCT015 FEW027CB TEMPO 1609/1612 3000 TSRA SCT012 FEW027CB",
      "groups": [
        {
          "text": "TAF VVNB 152300Z 1600/1624 09005KT 9999 FEW025",
          "offset_h": -4,
          "wdir": 90,
          "wspd": 5
        },
        {
          "text": "PROB40",
          "offset_h": 0,
          "wdir": null,
          "wspd": null
        },
        {
          "text": "TEMPO 1601/1604 3500 TSRA SCT015 FEW027CB",
          "offset_h": -3,
          "wdir": null,
          "wspd": null
        },
        {
          "text": "TEMPO 1609/1612 3000 TSRA SCT012 FEW027CB",
          "offset_h": 5,
          "wdir": null,
          "wspd": null
        }
      ],
      "metar_raw": "METAR VVNB 160430Z VRB01KT 9999 FEW014 BKN046 BKN059 28/26 Q1003 NOSIG",
      "metar_wdir": "VRB",
      "metar_wspd": 1,
      "metar_oat": 28,
      "metar_qnh": 1003,
      "hourly_oat": [
        29,
        30,
        31,
        32,
        32,
        32,
        33,
        32,
        30,
        30,
        30,
        30,
        29,
        30,
        29,
        29,
        29,
        29,
        28,
        28,
        29,
        31,
        32,
        32,
        33
      ]
    },
    "SIN": {
      "icao": "WSSS",
      "issued": "2026-07-15T23:00:00.000Z",
      "raw": "TAF WSSS 152300Z 1600/1706 14008KT 9999 FEW015 SCT020",
      "groups": [
        {
          "text": "TAF WSSS 152300Z 1600/1706 14008KT 9999 FEW015 SCT020",
          "offset_h": -4,
          "wdir": 140,
          "wspd": 8
        }
      ],
      "metar_raw": "METAR WSSS 160430Z 15010KT 100V180 9999 FEW018 FEW020TCU BKN300 32/25 Q1012 NOSIG",
      "metar_wdir": 150,
      "metar_wspd": 10,
      "metar_oat": 32,
      "metar_qnh": 1012,
      "hourly_oat": [
        32,
        32,
        31,
        31,
        30,
        30,
        30,
        29,
        28,
        28,
        28,
        28,
        28,
        28,
        28,
        27,
        28,
        28,
        26,
        26,
        27,
        28,
        28,
        28,
        26
      ]
    }
  }
}