{
  "updated": "2026-07-01T19:28:41Z",
  "tafs": {
    "LAX": {
      "icao": "KLAX",
      "issued": "2026-07-01T19:12:00.000Z",
      "raw": "TAF KLAX 011912Z 0119/0224 24007KT P6SM BKN018 BKN035 FM012100 26012KT P6SM SCT035 FM020300 28006KT P6SM SKC FM020500 VRB03KT P6SM OVC012 FM021800 25006KT P6SM BKN020 FM022000 26012KT P6SM FEW025",
      "groups": [
        {
          "text": "TAF KLAX 011912Z 0119/0224 24007KT P6SM BKN018 BKN035",
          "offset_h": 0,
          "wdir": 240,
          "wspd": 7
        },
        {
          "text": "FM012100 26012KT P6SM SCT035",
          "offset_h": 2,
          "wdir": 260,
          "wspd": 12
        },
        {
          "text": "FM020300 28006KT P6SM SKC",
          "offset_h": 8,
          "wdir": 280,
          "wspd": 6
        },
        {
          "text": "FM020500 VRB03KT P6SM OVC012",
          "offset_h": 10,
          "wdir": "VRB",
          "wspd": 3
        },
        {
          "text": "FM021800 25006KT P6SM BKN020",
          "offset_h": 23,
          "wdir": 250,
          "wspd": 6
        },
        {
          "text": "FM022000 26012KT P6SM FEW025",
          "offset_h": 25,
          "wdir": 260,
          "wspd": 12
        }
      ],
      "metar_raw": "METAR KLAX 011853Z 24007KT 10SM FEW014 BKN019 OVC038 20/14 A2996 RMK AO2 SLP143 BKN V SCT T02000144 $",
      "metar_wdir": 240,
      "metar_wspd": 7,
      "metar_oat": 20,
      "metar_qnh": 1015,
      "hourly_oat": [
        20,
        19,
        20,
        20,
        20,
        20,
        19,
        18,
        18,
        17,
        17,
        17,
        17,
        16,
        17,
        17,
        16,
        16,
        16,
        16,
        17,
        18,
        18,
        20,
        20
      ]
    },
    "NGO": {
      "icao": "RJGG",
      "issued": "2026-07-01T18:24:00.000Z",
      "raw": "TAF AMD RJGG 011824Z 0118/0300 15008KT 8000 -SHRA FEW005 BKN012 TEMPO 0118/0123 FEW002 BKN005 TEMPO 0201/0203 4000 SHRA BR BECMG 0204/0206 30018KT",
      "groups": [
        {
          "text": "TAF AMD RJGG 011824Z 0118/0300 15008KT 8000 -SHRA FEW005 BKN012",
          "offset_h": -1,
          "wdir": 150,
          "wspd": 8
        },
        {
          "text": "TEMPO 0118/0123 FEW002 BKN005",
          "offset_h": -1,
          "wdir": null,
          "wspd": null
        },
        {
          "text": "TEMPO 0201/0203 4000 SHRA BR",
          "offset_h": 6,
          "wdir": null,
          "wspd": null
        },
        {
          "text": "BECMG 0204/0206 30018KT",
          "offset_h": 9,
          "wdir": 300,
          "wspd": 18
        }
      ],
      "metar_raw": "METAR RJGG 011900Z AUTO 13008KT 9999 -RA SCT003 BKN005 OVC007 //////TCU 22/22 Q1006 BECMG FEW002 SCT005 BKN008",
      "metar_wdir": 130,
      "metar_wspd": 8,
      "metar_oat": 22,
      "metar_qnh": 1006,
      "hourly_oat": [
        23,
        23,
        24,
        24,
        24,
        24,
        24,
        24,
        25,
        25,
        25,
        26,
        26,
        26,
        25,
        25,
        24,
        24,
        24,
        24,
        24,
        23,
        23,
        23,
        23
      ]
    },
    "SAN": {
      "icao": "KSAN",
      "issued": "2026-07-01T17:37:00.000Z",
      "raw": "TAF KSAN 011737Z 0118/0224 VRB04KT P6SM OVC028 FM011830 27010KT P6SM SCT030 FM020300 VRB03KT P6SM OVC022 FM021900 29011KT P6SM SCT026",
      "groups": [
        {
          "text": "TAF KSAN 011737Z 0118/0224 VRB04KT P6SM OVC028",
          "offset_h": -1,
          "wdir": "VRB",
          "wspd": 4
        },
        {
          "text": "FM011830 27010KT P6SM SCT030",
          "offset_h": -1,
          "wdir": 270,
          "wspd": 10
        },
        {
          "text": "FM020300 VRB03KT P6SM OVC022",
          "offset_h": 8,
          "wdir": "VRB",
          "wspd": 3
        },
        {
          "text": "FM021900 29011KT P6SM SCT026",
          "offset_h": 24,
          "wdir": 290,
          "wspd": 11
        }
      ],
      "metar_raw": "METAR KSAN 011851Z 29008KT 10SM BKN023 21/14 A2997 RMK AO2 SLP147 T02060144",
      "metar_wdir": 290,
      "metar_wspd": 8,
      "metar_oat": 21,
      "metar_qnh": 1015,
      "hourly_oat": [
        21,
        21,
        22,
        22,
        21,
        21,
        20,
        20,
        19,
        18,
        18,
        18,
        18,
        18,
        17,
        17,
        17,
        17,
        17,
        17,
        18,
        18,
        19,
        20,
        21
      ]
    },
    "HNL": {
      "icao": "PHNL",
      "issued": "2026-07-01T17:32:00.000Z",
      "raw": "TAF PHNL 011732Z 0118/0224 07009KT P6SM VCSH FEW020 SCT040 FM012000 06016G26KT P6SM VCSH FEW025 SCT040 FM020600 06012KT P6SM FEW025 FEW045 FM022000 06015G23KT P6SM FEW025 SCT040",
      "groups": [
        {
          "text": "TAF PHNL 011732Z 0118/0224 07009KT P6SM VCSH FEW020 SCT040",
          "offset_h": -1,
          "wdir": 70,
          "wspd": 9
        },
        {
          "text": "FM012000 06016G26KT P6SM VCSH FEW025 SCT040",
          "offset_h": 1,
          "wdir": 60,
          "wspd": 16
        },
        {
          "text": "FM020600 06012KT P6SM FEW025 FEW045",
          "offset_h": 11,
          "wdir": 60,
          "wspd": 12
        },
        {
          "text": "FM022000 06015G23KT P6SM FEW025 SCT040",
          "offset_h": 25,
          "wdir": 60,
          "wspd": 15
        }
      ],
      "metar_raw": "METAR PHNL 011853Z 06010G19KT 10SM FEW023 SCT042 BKN055 28/22 A3004 RMK AO2 SLP170 T02780217 $",
      "metar_wdir": 60,
      "metar_wspd": 10,
      "metar_oat": 28,
      "metar_qnh": 1017,
      "hourly_oat": [
        26,
        28,
        29,
        29,
        29,
        29,
        29,
        28,
        27,
        26,
        25,
        24,
        24,
        24,
        24,
        24,
        23,
        23,
        23,
        23,
        23,
        23,
        24,
        26,
        27
      ]
    },
    "ITM": {
      "icao": "RJOO",
      "issued": "2026-07-01T17:05:00.000Z",
      "raw": "TAF RJOO 011705Z 0118/0300 24005KT 7000 -SHRA FEW008 SCT015 BKN030 TEMPO 0118/0122 2000 TSRA BR FEW003 SCT005 BKN008 FEW015CB TEMPO 0122/0200 3000 SHRA BR FEW003 BKN008 BKN015 BECMG 0206/0209 32010KT",
      "groups": [
        {
          "text": "TAF RJOO 011705Z 0118/0300 24005KT 7000 -SHRA FEW008 SCT015 BKN030",
          "offset_h": -1,
          "wdir": 240,
          "wspd": 5
        },
        {
          "text": "TEMPO 0118/0122 2000 TSRA BR FEW003 SCT005 BKN008 FEW015CB",
          "offset_h": -1,
          "wdir": null,
          "wspd": null
        },
        {
          "text": "TEMPO 0122/0200 3000 SHRA BR FEW003 BKN008 BKN015",
          "offset_h": 3,
          "wdir": null,
          "wspd": null
        },
        {
          "text": "BECMG 0206/0209 32010KT",
          "offset_h": 11,
          "wdir": 320,
          "wspd": 10
        }
      ],
      "metar_raw": "METAR RJOO 011900Z AUTO 26008KT 230V300 1400 R32L/2000N +RA BR FEW005 SCT007 BKN010 //////TCU 25/24 Q1004",
      "metar_wdir": 260,
      "metar_wspd": 8,
      "metar_oat": 25,
      "metar_qnh": 1004,
      "hourly_oat": [
        24,
        24,
        24,
        24,
        25,
        25,
        25,
        26,
        29,
        28,
        28,
        29,
        25,
        26,
        25,
        24,
        23,
        23,
        22,
        22,
        22,
        22,
        21,
        21,
        20
      ]
    },
    "OKA": {
      "icao": "ROAH",
      "issued": "2026-07-01T17:05:00.000Z",
      "raw": "TAF ROAH 011705Z 0118/0300 21008KT 9999 FEW010 SCT012 TEMPO 0118/0121 FEW005 BKN008 TEMPO 0215/0218 FEW005 BKN008",
      "groups": [
        {
          "text": "TAF ROAH 011705Z 0118/0300 21008KT 9999 FEW010 SCT012",
          "offset_h": -1,
          "wdir": 210,
          "wspd": 8
        },
        {
          "text": "TEMPO 0118/0121 FEW005 BKN008",
          "offset_h": -1,
          "wdir": null,
          "wspd": null
        },
        {
          "text": "TEMPO 0215/0218 FEW005 BKN008",
          "offset_h": 20,
          "wdir": null,
          "wspd": null
        }
      ],
      "metar_raw": "METAR ROAH 011900Z AUTO 19005KT 9999 FEW015 27/27 Q1012",
      "metar_wdir": 190,
      "metar_wspd": 5,
      "metar_oat": 27,
      "metar_qnh": 1012,
      "hourly_oat": [
        27,
        27,
        27,
        28,
        28,
        29,
        29,
        30,
        30,
        30,
        30,
        30,
        30,
        29,
        29,
        28,
        27,
        27,
        27,
        27,
        27,
        27,
        27,
        27,
        27
      ]
    },
    "NRT": {
      "icao": "RJAA",
      "issued": "2026-07-01T17:05:00.000Z",
      "raw": "TAF RJAA 011705Z 0118/0300 09010KT 6000 -SHRA FEW005 BKN012 TEMPO 0118/0201 1500 +SHRA BR FEW001 BKN003 BECMG 0123/0201 02006KT TEMPO 0201/0221 FEW001 BKN003 TEMPO 0221/0300 FEW005 BKN008",
      "groups": [
        {
          "text": "TAF RJAA 011705Z 0118/0300 09010KT 6000 -SHRA FEW005 BKN012",
          "offset_h": -1,
          "wdir": 90,
          "wspd": 10
        },
        {
          "text": "TEMPO 0118/0201 1500 +SHRA BR FEW001 BKN003",
          "offset_h": -1,
          "wdir": null,
          "wspd": null
        },
        {
          "text": "BECMG 0123/0201 02006KT",
          "offset_h": 4,
          "wdir": 20,
          "wspd": 6
        },
        {
          "text": "TEMPO 0201/0221 FEW001 BKN003",
          "offset_h": 6,
          "wdir": null,
          "wspd": null
        },
        {
          "text": "TEMPO 0221/0300 FEW005 BKN008",
          "offset_h": 26,
          "wdir": null,
          "wspd": null
        }
      ],
      "metar_raw": "METAR RJAA 011900Z AUTO 12005KT 2500 RA BR FEW001 SCT009 BKN022 22/22 Q1009 TEMPO FEW003 BKN005",
      "metar_wdir": 120,
      "metar_wspd": 5,
      "metar_oat": 22,
      "metar_qnh": 1009,
      "hourly_oat": [
        22,
        22,
        22,
        21,
        21,
        21,
        21,
        21,
        22,
        22,
        22,
        22,
        21,
        21,
        20,
        20,
        20,
        20,
        20,
        20,
        20,
        20,
        20,
        20,
        20
      ]
    },
    "KIX": {
      "icao": "RJBB",
      "issued": "2026-07-01T17:05:00.000Z",
      "raw": "TAF RJBB 011705Z 0118/0300 20024KT 7000 -SHRA FEW005 SCT010 BKN020 TEMPO 0118/0122 20025G36KT 3000 TSRA BR FEW003 SCT005 BKN008 FEW015CB TEMPO 0122/0200 3000 SHRA BR FEW003 SCT005 BKN008 BECMG 0200/0202 26012KT BECMG 0212/0215 34010KT",
      "groups": [
        {
          "text": "TAF RJBB 011705Z 0118/0300 20024KT 7000 -SHRA FEW005 SCT010 BKN020",
          "offset_h": -1,
          "wdir": 200,
          "wspd": 24
        },
        {
          "text": "TEMPO 0118/0122 20025G36KT 3000 TSRA BR FEW003 SCT005 BKN008 FEW015CB",
          "offset_h": -1,
          "wdir": 200,
          "wspd": 25
        },
        {
          "text": "TEMPO 0122/0200 3000 SHRA BR FEW003 SCT005 BKN008",
          "offset_h": 3,
          "wdir": null,
          "wspd": null
        },
        {
          "text": "BECMG 0200/0202 26012KT",
          "offset_h": 5,
          "wdir": 260,
          "wspd": 12
        },
        {
          "text": "BECMG 0212/0215 34010KT",
          "offset_h": 17,
          "wdir": 340,
          "wspd": 10
        }
      ],
      "metar_raw": "METAR RJBB 011900Z AUTO 22023KT 3500 -RA BR OVC010 //////TCU 25/24 Q1005 TEMPO 22025G35KT FEW003 BKN008 BKN015",
      "metar_wdir": 220,
      "metar_wspd": 23,
      "metar_oat": 25,
      "metar_qnh": 1005,
      "hourly_oat": [
        25,
        25,
        25,
        25,
        25,
        26,
        25,
        24,
        25,
        26,
        26,
        26,
        26,
        25,
        25,
        25,
        24,
        24,
        24,
        24,
        24,
        23,
        23,
        23,
        23
      ]
    },
    "HND": {
      "icao": "RJTT",
      "issued": "2026-07-01T17:05:00.000Z",
      "raw": "TAF RJTT 011705Z 0118/0300 14010KT 6000 -SHRA FEW005 BKN012 TEMPO 0118/0120 3500 SHRA BR FEW003 BKN005 TEMPO 0120/0123 2000 +SHRA BR FEW003 BKN005 BECMG 0121/0123 36010KT TEMPO 0123/0201 3500 SHRA BR FEW003 BKN005 TEMPO 0201/0209 4000 -SHRA BR FEW005 BKN008",
      "groups": [
        {
          "text": "TAF RJTT 011705Z 0118/0300 14010KT 6000 -SHRA FEW005 BKN012",
          "offset_h": -1,
          "wdir": 140,
          "wspd": 10
        },
        {
          "text": "TEMPO 0118/0120 3500 SHRA BR FEW003 BKN005",
          "offset_h": -1,
          "wdir": null,
          "wspd": null
        },
        {
          "text": "TEMPO 0120/0123 2000 +SHRA BR FEW003 BKN005",
          "offset_h": 1,
          "wdir": null,
          "wspd": null
        },
        {
          "text": "BECMG 0121/0123 36010KT",
          "offset_h": 2,
          "wdir": 360,
          "wspd": 10
        },
        {
          "text": "TEMPO 0123/0201 3500 SHRA BR FEW003 BKN005",
          "offset_h": 4,
          "wdir": null,
          "wspd": null
        },
        {
          "text": "TEMPO 0201/0209 4000 -SHRA BR FEW005 BKN008",
          "offset_h": 6,
          "wdir": null,
          "wspd": null
        }
      ],
      "metar_raw": "METAR RJTT 011900Z 15008KT 7000 -SHRA FEW008 BKN015 BKN035 21/20 Q1009 TEMPO 4000 SHRA BR FEW005 BKN008",
      "metar_wdir": 150,
      "metar_wspd": 8,
      "metar_oat": 21,
      "metar_qnh": 1009,
      "hourly_oat": [
        22,
        22,
        22,
        22,
        23,
        23,
        23,
        23,
        23,
        23,
        23,
        23,
        22,
        22,
        22,
        22,
        22,
        22,
        21,
        21,
        21,
        21,
        21,
        21,
        21
      ]
    },
    "CTS": {
      "icao": "RJCC",
      "issued": "2026-07-01T17:05:00.000Z",
      "raw": "TAF RJCC 011705Z 0118/0300 19012KT 9999 FEW005 BKN015 TEMPO 0118/0121 1500 BR FEW001 BKN003 TEMPO 0121/0123 FEW003 BKN008 TEMPO 0206/0218 FEW003 BKN008",
      "groups": [
        {
          "text": "TAF RJCC 011705Z 0118/0300 19012KT 9999 FEW005 BKN015",
          "offset_h": -1,
          "wdir": 190,
          "wspd": 12
        },
        {
          "text": "TEMPO 0118/0121 1500 BR FEW001 BKN003",
          "offset_h": -1,
          "wdir": null,
          "wspd": null
        },
        {
          "text": "TEMPO 0121/0123 FEW003 BKN008",
          "offset_h": 2,
          "wdir": null,
          "wspd": null
        },
        {
          "text": "TEMPO 0206/0218 FEW003 BKN008",
          "offset_h": 11,
          "wdir": null,
          "wspd": null
        }
      ],
      "metar_raw": "METAR RJCC 011900Z 17003KT 3000 BR FEW001 BKN003 16/16 Q1012",
      "metar_wdir": 170,
      "metar_wspd": 3,
      "metar_oat": 16,
      "metar_qnh": 1012,
      "hourly_oat": [
        15,
        16,
        17,
        17,
        17,
        17,
        18,
        18,
        18,
        19,
        19,
        19,
        18,
        17,
        16,
        16,
        16,
        15,
        15,
        15,
        15,
        16,
        15,
        15,
        15
      ]
    },
    "FUK": {
      "icao": "RJFF",
      "issued": "2026-07-01T17:05:00.000Z",
      "raw": "TAF RJFF 011705Z 0118/0300 31006KT 9999 FEW012 SCT020 BKN030 TEMPO 0118/0119 2000 SHRA BR BKN005 BKN008 TEMPO 0119/0121 BKN005 BKN007 BECMG 0212/0215 11004KT",
      "groups": [
        {
          "text": "TAF RJFF 011705Z 0118/0300 31006KT 9999 FEW012 SCT020 BKN030",
          "offset_h": -1,
          "wdir": 310,
          "wspd": 6
        },
        {
          "text": "TEMPO 0118/0119 2000 SHRA BR BKN005 BKN008",
          "offset_h": -1,
          "wdir": null,
          "wspd": null
        },
        {
          "text": "TEMPO 0119/0121 BKN005 BKN007",
          "offset_h": 0,
          "wdir": null,
          "wspd": null
        },
        {
          "text": "BECMG 0212/0215 11004KT",
          "offset_h": 17,
          "wdir": 110,
          "wspd": 4
        }
      ],
      "metar_raw": "METAR RJFF 011900Z AUTO 33006KT 4700 -RA BR SCT004 SCT007 BKN009 22/21 Q1007 BECMG 8000 -SHRA TEMPO BKN005 BKN007",
      "metar_wdir": 330,
      "metar_wspd": 6,
      "metar_oat": 22,
      "metar_qnh": 1007,
      "hourly_oat": [
        22,
        22,
        22,
        22,
        23,
        23,
        23,
        24,
        24,
        24,
        24,
        25,
        24,
        24,
        24,
        23,
        23,
        22,
        22,
        22,
        21,
        21,
        21,
        21,
        20
      ]
    },
    "BKK": {
      "icao": "VTBS",
      "issued": "2026-07-01T17:00:00.000Z",
      "raw": "TAF VTBS 011700Z 0118/0224 29005KT 9999 FEW020 BECMG 0202/0204 22008KT TEMPO 0210/0216 VRB10G25KT 4000 TSRA FEW018CB SCT030 BKN100 BECMG 0218/0220 28005KT",
      "groups": [
        {
          "text": "TAF VTBS 011700Z 0118/0224 29005KT 9999 FEW020",
          "offset_h": -1,
          "wdir": 290,
          "wspd": 5
        },
        {
          "text": "BECMG 0202/0204 22008KT",
          "offset_h": 7,
          "wdir": 220,
          "wspd": 8
        },
        {
          "text": "TEMPO 0210/0216 VRB10G25KT 4000 TSRA FEW018CB SCT030 BKN100",
          "offset_h": 15,
          "wdir": "VRB",
          "wspd": 10
        },
        {
          "text": "BECMG 0218/0220 28005KT",
          "offset_h": 23,
          "wdir": 280,
          "wspd": 5
        }
      ],
      "metar_raw": "METAR VTBS 011900Z 36005KT 9999 FEW020 28/24 Q1007 NOSIG",
      "metar_wdir": 360,
      "metar_wspd": 5,
      "metar_oat": 28,
      "metar_qnh": 1007,
      "hourly_oat": [
        26,
        26,
        26,
        26,
        26,
        27,
        28,
        30,
        31,
        32,
        32,
        31,
        31,
        31,
        31,
        30,
        27,
        27,
        26,
        26,
        26,
        27,
        27,
        27,
        26
      ]
    },
    "SGN": {
      "icao": "VVTS",
      "issued": "2026-07-01T17:00:00.000Z",
      "raw": "TAF VVTS 011700Z 0118/0224 25010KT 9999 SCT017 TEMPO 0205/0208 25016G28KT 4000 SHRA SCT015 FEW017CB",
      "groups": [
        {
          "text": "TAF VVTS 011700Z 0118/0224 25010KT 9999 SCT017",
          "offset_h": -1,
          "wdir": 250,
          "wspd": 10
        },
        {
          "text": "TEMPO 0205/0208 25016G28KT 4000 SHRA SCT015 FEW017CB",
          "offset_h": 10,
          "wdir": 250,
          "wspd": 16
        }
      ],
      "metar_raw": "METAR VVTS 011900Z 26008KT 9999 FEW013 27/25 Q1007 NOSIG",
      "metar_wdir": 260,
      "metar_wspd": 8,
      "metar_oat": 27,
      "metar_qnh": 1007,
      "hourly_oat": [
        26,
        26,
        26,
        26,
        26,
        27,
        28,
        29,
        30,
        30,
        30,
        27,
        26,
        27,
        27,
        27,
        27,
        26,
        26,
        26,
        26,
        26,
        26,
        26,
        26
      ]
    },
    "HAN": {
      "icao": "VVNB",
      "issued": "2026-07-01T17:00:00.000Z",
      "raw": "TAF VVNB 011700Z 0118/0218 09005KT 9999 FEW020 TEMPO 0118/0123 4000 TSRA SCT015 FEW027CB TEMPO 0200/0203 2500 +TSRA BKN010 FEW027CB TEMPO 0208/0212 3500 TSRA SCT012 FEW027CB",
      "groups": [
        {
          "text": "TAF VVNB 011700Z 0118/0218 09005KT 9999 FEW020",
          "offset_h": -1,
          "wdir": 90,
          "wspd": 5
        },
        {
          "text": "TEMPO 0118/0123 4000 TSRA SCT015 FEW027CB",
          "offset_h": -1,
          "wdir": null,
          "wspd": null
        },
        {
          "text": "TEMPO 0200/0203 2500 +TSRA BKN010 FEW027CB",
          "offset_h": 5,
          "wdir": null,
          "wspd": null
        },
        {
          "text": "TEMPO 0208/0212 3500 TSRA SCT012 FEW027CB",
          "offset_h": 13,
          "wdir": null,
          "wspd": null
        }
      ],
      "metar_raw": "METAR VVNB 011900Z 04005KT 9999 FEW030TCU SCT043 28/26 Q1006 NOSIG",
      "metar_wdir": 40,
      "metar_wspd": 5,
      "metar_oat": 28,
      "metar_qnh": 1006,
      "hourly_oat": [
        25,
        25,
        25,
        25,
        25,
        26,
        27,
        29,
        29,
        30,
        30,
        32,
        31,
        32,
        32,
        31,
        30,
        29,
        29,
        28,
        28,
        28,
        27,
        27,
        25
      ]
    },
    "KUL": {
      "icao": "WMKK",
      "issued": "2026-07-01T17:00:00.000Z",
      "raw": "TAF WMKK 011700Z 0118/0300 VRB03KT 9999 FEW030",
      "groups": [
        {
          "text": "TAF WMKK 011700Z 0118/0300 VRB03KT 9999 FEW030",
          "offset_h": -1,
          "wdir": "VRB",
          "wspd": 3
        }
      ],
      "metar_raw": "METAR WMKK 011900Z VRB02KT 9999 FEW017CB 26/25 Q1008 NOSIG",
      "metar_wdir": "VRB",
      "metar_wspd": 2,
      "metar_oat": 26,
      "metar_qnh": 1008,
      "hourly_oat": [
        25,
        25,
        24,
        24,
        24,
        24,
        26,
        28,
        29,
        30,
        31,
        30,
        30,
        30,
        29,
        29,
        28,
        27,
        27,
        26,
        26,
        26,
        26,
        26,
        25
      ]
    },
    "CGK": {
      "icao": "WIII",
      "issued": "2026-07-01T17:00:00.000Z",
      "raw": "TAF WIII 011700Z 0118/0300 15003KT 4000 HZ SCT020 BECMG 0201/0203 03010KT 8000 NSW",
      "groups": [
        {
          "text": "TAF WIII 011700Z 0118/0300 15003KT 4000 HZ SCT020",
          "offset_h": -1,
          "wdir": 150,
          "wspd": 3
        },
        {
          "text": "BECMG 0201/0203 03010KT 8000 NSW",
          "offset_h": 6,
          "wdir": 30,
          "wspd": 10
        }
      ],
      "metar_raw": "METAR WIII 011900Z VRB02KT 3000 HZ FEW020 26/24 Q1010 NOSIG",
      "metar_wdir": "VRB",
      "metar_wspd": 2,
      "metar_oat": 26,
      "metar_qnh": 1010,
      "hourly_oat": [
        26,
        26,
        25,
        25,
        25,
        25,
        28,
        29,
        31,
        32,
        32,
        32,
        32,
        30,
        30,
        29,
        28,
        28,
        27,
        27,
        27,
        26,
        26,
        26,
        25
      ]
    },
    "SIN": {
      "icao": "WSSS",
      "issued": "2026-07-01T17:00:00.000Z",
      "raw": "TAF WSSS 011700Z 0118/0300 20007KT 9999 FEW015 SCT020 TEMPO 0121/0200 24015G25KT 3000 TSRA FEW012CB BKN015",
      "groups": [
        {
          "text": "TAF WSSS 011700Z 0118/0300 20007KT 9999 FEW015 SCT020",
          "offset_h": -1,
          "wdir": 200,
          "wspd": 7
        },
        {
          "text": "TEMPO 0121/0200 24015G25KT 3000 TSRA FEW012CB BKN015",
          "offset_h": 2,
          "wdir": 240,
          "wspd": 15
        }
      ],
      "metar_raw": "METAR WSSS 011900Z 12004KT 9999 FEW018 SCT170 28/24 Q1009 TEMPO FM2030 24015G25KT 3000 TSRA",
      "metar_wdir": 120,
      "metar_wspd": 4,
      "metar_oat": 28,
      "metar_qnh": 1009,
      "hourly_oat": [
        26,
        26,
        26,
        26,
        26,
        26,
        28,
        28,
        29,
        28,
        30,
        30,
        28,
        27,
        28,
        28,
        28,
        27,
        28,
        27,
        27,
        27,
        27,
        27,
        27
      ]
    },
    "TSA": {
      "icao": "RCSS",
      "issued": "2026-07-01T17:00:00.000Z",
      "raw": "TAF RCSS 011700Z 0118/0218 09005KT 9999 FEW015 TEMPO 0204/0210 VRB05KT FEW015 BKN025 BECMG 0210/0212 29005KT",
      "groups": [
        {
          "text": "TAF RCSS 011700Z 0118/0218 09005KT 9999 FEW015",
          "offset_h": -1,
          "wdir": 90,
          "wspd": 5
        },
        {
          "text": "TEMPO 0204/0210 VRB05KT FEW015 BKN025",
          "offset_h": 9,
          "wdir": "VRB",
          "wspd": 5
        },
        {
          "text": "BECMG 0210/0212 29005KT",
          "offset_h": 15,
          "wdir": 290,
          "wspd": 5
        }
      ],
      "metar_raw": "METAR RCSS 011900Z VRB02KT 9999 FEW015 SCT100 27/25 Q1010 NOSIG RMK A2984",
      "metar_wdir": "VRB",
      "metar_wspd": 2,
      "metar_oat": 27,
      "metar_qnh": 1010,
      "hourly_oat": [
        26,
        25,
        25,
        25,
        27,
        29,
        31,
        33,
        34,
        34,
        34,
        34,
        33,
        32,
        31,
        30,
        28,
        28,
        28,
        27,
        27,
        26,
        26,
        26,
        26
      ]
    },
    "TPE": {
      "icao": "RCTP",
      "issued": "2026-07-01T17:00:00.000Z",
      "raw": "TAF RCTP 011700Z 0118/0224 18005KT 9999 FEW015 BECMG 0200/0202 33007KT BECMG 0211/0213 15005KT",
      "groups": [
        {
          "text": "TAF RCTP 011700Z 0118/0224 18005KT 9999 FEW015",
          "offset_h": -1,
          "wdir": 180,
          "wspd": 5
        },
        {
          "text": "BECMG 0200/0202 33007KT",
          "offset_h": 5,
          "wdir": 330,
          "wspd": 7
        },
        {
          "text": "BECMG 0211/0213 15005KT",
          "offset_h": 16,
          "wdir": 150,
          "wspd": 5
        }
      ],
      "metar_raw": "METAR RCTP 011900Z 24002KT 9999 FEW012 BKN100 27/26 Q1010 NOSIG RMK A2984",
      "metar_wdir": 240,
      "metar_wspd": 2,
      "metar_oat": 27,
      "metar_qnh": 1010,
      "hourly_oat": [
        26,
        26,
        25,
        26,
        28,
        29,
        30,
        30,
        30,
        30,
        30,
        30,
        30,
        30,
        29,
        28,
        28,
        27,
        27,
        27,
        27,
        26,
        26,
        26,
        26
      ]
    },
    "HKG": {
      "icao": "VHHH",
      "issued": "2026-07-01T17:00:00.000Z",
      "raw": "TAF VHHH 011700Z 0118/0224 12010KT 9999 FEW015 SCT030 TX34/0206Z TN28/0122Z TN28/0222Z TEMPO 0118/0122 3500 SHRA FEW010CB SCT020 TEMPO 0218/0224 12015G25KT 3000 SHRA FEW008CB SCT020",
      "groups": [
        {
          "text": "TAF VHHH 011700Z 0118/0224 12010KT 9999 FEW015 SCT030 TX34/0206Z TN28/0122Z TN28/0222Z",
          "offset_h": -1,
          "wdir": 120,
          "wspd": 10
        },
        {
          "text": "TEMPO 0118/0122 3500 SHRA FEW010CB SCT020",
          "offset_h": -1,
          "wdir": null,
          "wspd": null
        },
        {
          "text": "TEMPO 0218/0224 12015G25KT 3000 SHRA FEW008CB SCT020",
          "offset_h": 23,
          "wdir": 120,
          "wspd": 15
        }
      ],
      "metar_raw": "METAR VHHH 011900Z 09009KT 9999 FEW018 SCT035 30/26 Q1007 NOSIG",
      "metar_wdir": 90,
      "metar_wspd": 9,
      "metar_oat": 30,
      "metar_qnh": 1007,
      "hourly_oat": [
        28,
        28,
        28,
        28,
        28,
        29,
        30,
        30,
        30,
        31,
        31,
        31,
        30,
        30,
        30,
        30,
        29,
        28,
        28,
        28,
        28,
        27,
        27,
        27,
        27
      ]
    },
    "GMP": {
      "icao": "RKSS",
      "issued": "2026-07-01T17:00:00.000Z",
      "raw": "TAF RKSS 011700Z 0118/0224 16005KT 6000 SCT040 TN22/0119Z TX31/0205Z TN22/0220Z BECMG 0201/0203 25007KT 9999 TEMPO 0205/0207 28007KT 6000 -SHRA FEW010CB BKN025 OVC070 BECMG 0211/0213 18005KT 6000 SCT010 BECMG 0218/0220 4000 BR SCT010 BKN025 BECMG 0221/0223 6000 NSW",
      "groups": [
        {
          "text": "TAF RKSS 011700Z 0118/0224 16005KT 6000 SCT040 TN22/0119Z TX31/0205Z TN22/0220Z",
          "offset_h": -1,
          "wdir": 160,
          "wspd": 5
        },
        {
          "text": "BECMG 0201/0203 25007KT 9999",
          "offset_h": 6,
          "wdir": 250,
          "wspd": 7
        },
        {
          "text": "TEMPO 0205/0207 28007KT 6000 -SHRA FEW010CB BKN025 OVC070",
          "offset_h": 10,
          "wdir": 280,
          "wspd": 7
        },
        {
          "text": "BECMG 0211/0213 18005KT 6000 SCT010",
          "offset_h": 16,
          "wdir": 180,
          "wspd": 5
        },
        {
          "text": "BECMG 0218/0220 4000 BR SCT010 BKN025",
          "offset_h": 23,
          "wdir": null,
          "wspd": null
        },
        {
          "text": "BECMG 0221/0223 6000 NSW",
          "offset_h": 26,
          "wdir": null,
          "wspd": null
        }
      ],
      "metar_raw": "METAR RKSS 011900Z 29002KT CAVOK 22/22 Q1008 NOSIG",
      "metar_wdir": 290,
      "metar_wspd": 2,
      "metar_oat": 22,
      "metar_qnh": 1008,
      "hourly_oat": [
        21,
        21,
        21,
        21,
        22,
        23,
        24,
        25,
        26,
        27,
        26,
        26,
        26,
        26,
        25,
        24,
        23,
        23,
        22,
        22,
        21,
        21,
        21,
        21,
        20
      ]
    },
    "DLC": {
      "icao": "ZYTL",
      "issued": "2026-07-01T15:05:00.000Z",
      "raw": "TAF ZYTL 011505Z 0118/0218 16004MPS 5000 BR SCT011 BKN026 TX27/0206Z TN20/0121Z",
      "groups": [
        {
          "text": "TAF ZYTL 011505Z 0118/0218 16004MPS 5000 BR SCT011 BKN026 TX27/0206Z TN20/0121Z",
          "offset_h": -1,
          "wdir": null,
          "wspd": null
        }
      ],
      "metar_raw": "METAR ZYTL 011900Z 16002MPS 140V200 9999 SCT033 21/19 Q1008 NOSIG",
      "metar_wdir": null,
      "metar_wspd": null,
      "metar_oat": 21,
      "metar_qnh": 1008,
      "hourly_oat": [
        20,
        20,
        20,
        21,
        23,
        24,
        25,
        26,
        28,
        28,
        27,
        28,
        28,
        28,
        29,
        27,
        25,
        23,
        23,
        22,
        22,
        23,
        23,
        23,
        22
      ]
    },
    "PVG": {
      "icao": "ZSPD",
      "issued": "2026-07-01T15:02:00.000Z",
      "raw": "TAF ZSPD 011502Z 0118/0224 19004MPS 6000 BKN015 TX28/0206Z TN23/0121Z TN24/0221Z",
      "groups": [
        {
          "text": "TAF ZSPD 011502Z 0118/0224 19004MPS 6000 BKN015 TX28/0206Z TN23/0121Z TN24/0221Z",
          "offset_h": -1,
          "wdir": null,
          "wspd": null
        }
      ],
      "metar_raw": "METAR ZSPD 011900Z 00000MPS 7000 NSC 24/24 Q1009 NOSIG",
      "metar_wdir": null,
      "metar_wspd": null,
      "metar_oat": 24,
      "metar_qnh": 1009,
      "hourly_oat": [
        23,
        23,
        23,
        23,
        24,
        26,
        27,
        28,
        26,
        26,
        27,
        27,
        26,
        26,
        26,
        25,
        25,
        25,
        24,
        24,
        24,
        24,
        25,
        24,
        24
      ]
    },
    "SHA": {
      "icao": "ZSSS",
      "issued": "2026-07-01T15:02:00.000Z",
      "raw": "TAF ZSSS 011502Z 0118/0224 19004MPS 6000 BKN020 TX29/0206Z TN23/0121Z TN24/0221Z",
      "groups": [
        {
          "text": "TAF ZSSS 011502Z 0118/0224 19004MPS 6000 BKN020 TX29/0206Z TN23/0121Z TN24/0221Z",
          "offset_h": -1,
          "wdir": null,
          "wspd": null
        }
      ],
      "metar_raw": "METAR ZSSS 011900Z 19002MPS 5000 BR NSC 23/22 Q1009 NOSIG",
      "metar_wdir": null,
      "metar_wspd": null,
      "metar_oat": 23,
      "metar_qnh": 1009,
      "hourly_oat": [
        23,
        23,
        23,
        23,
        24,
        25,
        26,
        27,
        27,
        27,
        27,
        27,
        28,
        28,
        25,
        24,
        24,
        24,
        25,
        25,
        25,
        25,
        25,
        24,
        24
      ]
    },
    "CAN": {
      "icao": "ZGGG",
      "issued": "2026-07-01T15:01:00.000Z",
      "raw": "TAF ZGGG 011501Z 0118/0224 10003MPS 8000 SCT040 TX32/0207Z TN26/0122Z TN25/0222Z TEMPO 0205/0209 TSRA SCT026CB BKN033",
      "groups": [
        {
          "text": "TAF ZGGG 011501Z 0118/0224 10003MPS 8000 SCT040 TX32/0207Z TN26/0122Z TN25/0222Z",
          "offset_h": -1,
          "wdir": null,
          "wspd": null
        },
        {
          "text": "TEMPO 0205/0209 TSRA SCT026CB BKN033",
          "offset_h": 10,
          "wdir": null,
          "wspd": null
        }
      ],
      "metar_raw": "METAR ZGGG 011900Z 04002MPS CAVOK 27/26 Q1008 NOSIG",
      "metar_wdir": null,
      "metar_wspd": null,
      "metar_oat": 27,
      "metar_qnh": 1008,
      "hourly_oat": [
        26,
        26,
        26,
        26,
        27,
        28,
        30,
        31,
        32,
        33,
        34,
        31,
        32,
        32,
        30,
        31,
        30,
        29,
        29,
        28,
        28,
        28,
        27,
        27,
        26
      ]
    },
    "PEK": {
      "icao": "ZBAA",
      "issued": "2026-07-01T15:00:00.000Z",
      "raw": "TAF ZBAA 011500Z 0118/0224 15004MPS 5000 BR NSC TX34/0207Z TN21/0121Z TN23/0221Z",
      "groups": [
        {
          "text": "TAF ZBAA 011500Z 0118/0224 15004MPS 5000 BR NSC TX34/0207Z TN21/0121Z TN23/0221Z",
          "offset_h": -1,
          "wdir": null,
          "wspd": null
        }
      ],
      "metar_raw": "METAR ZBAA 011900Z 07002MPS 030V160 CAVOK 25/23 Q1006 NOSIG",
      "metar_wdir": null,
      "metar_wspd": null,
      "metar_oat": 25,
      "metar_qnh": 1006,
      "hourly_oat": [
        22,
        21,
        21,
        22,
        23,
        24,
        26,
        27,
        28,
        30,
        31,
        32,
        33,
        33,
        33,
        33,
        31,
        30,
        29,
        27,
        26,
        26,
        25,
        25,
        24
      ]
    }
  }
}