{
  "updated": "2026-07-09T17:46:16Z",
  "tafs": {
    "SAN": {
      "icao": "KSAN",
      "issued": "2026-07-09T17:33:00.000Z",
      "raw": "TAF KSAN 091733Z 0918/1024 21007KT P6SM BKN012 FM091900 21009KT P6SM FEW015 FM100100 VRB04KT P6SM SCT012 FM100300 18004KT P6SM BKN010 TEMPO 1010/1014 BKN008 FM101900 20010KT P6SM FEW015",
      "groups": [
        {
          "text": "TAF KSAN 091733Z 0918/1024 21007KT P6SM BKN012",
          "offset_h": 1,
          "wdir": 210,
          "wspd": 7
        },
        {
          "text": "FM091900 21009KT P6SM FEW015",
          "offset_h": 2,
          "wdir": 210,
          "wspd": 9
        },
        {
          "text": "FM100100 VRB04KT P6SM SCT012",
          "offset_h": 8,
          "wdir": "VRB",
          "wspd": 4
        },
        {
          "text": "FM100300 18004KT P6SM BKN010",
          "offset_h": 10,
          "wdir": 180,
          "wspd": 4
        },
        {
          "text": "TEMPO 1010/1014 BKN008",
          "offset_h": 17,
          "wdir": null,
          "wspd": null
        },
        {
          "text": "FM101900 20010KT P6SM FEW015",
          "offset_h": 26,
          "wdir": 200,
          "wspd": 10
        }
      ],
      "metar_raw": "METAR KSAN 091651Z 21004KT 8SM OVC012 20/17 A2993 RMK AO2 SLP134 T02000167",
      "metar_wdir": 210,
      "metar_wspd": 4,
      "metar_oat": 20,
      "metar_qnh": 1014,
      "hourly_oat": [
        21,
        23,
        24,
        25,
        24,
        24,
        22,
        21,
        20,
        19,
        19,
        18,
        18,
        18,
        18,
        18,
        18,
        18,
        18,
        18,
        18,
        17,
        18,
        18,
        19
      ]
    },
    "LAX": {
      "icao": "KLAX",
      "issued": "2026-07-09T17:30:00.000Z",
      "raw": "TAF KLAX 091730Z 0918/1024 25010KT P6SM FEW009 SCT015 TEMPO 0918/0920 FEW009 BKN010 FM100700 25005KT P6SM BKN008 FM101100 10005KT P6SM OVC008 FM101600 25008KT P6SM SCT008",
      "groups": [
        {
          "text": "TAF KLAX 091730Z 0918/1024 25010KT P6SM FEW009 SCT015",
          "offset_h": 1,
          "wdir": 250,
          "wspd": 10
        },
        {
          "text": "TEMPO 0918/0920 FEW009 BKN010",
          "offset_h": 1,
          "wdir": null,
          "wspd": null
        },
        {
          "text": "FM100700 25005KT P6SM BKN008",
          "offset_h": 14,
          "wdir": 250,
          "wspd": 5
        },
        {
          "text": "FM101100 10005KT P6SM OVC008",
          "offset_h": 18,
          "wdir": 100,
          "wspd": 5
        },
        {
          "text": "FM101600 25008KT P6SM SCT008",
          "offset_h": 23,
          "wdir": 250,
          "wspd": 8
        }
      ],
      "metar_raw": "SPECI KLAX 091719Z 28009KT 7SM FEW009 BKN012 22/17 A2991 RMK AO2 BKN V SCT T02170167 $",
      "metar_wdir": 280,
      "metar_wspd": 9,
      "metar_oat": 22,
      "metar_qnh": 1013,
      "hourly_oat": [
        23,
        24,
        25,
        24,
        23,
        22,
        22,
        20,
        19,
        18,
        18,
        18,
        18,
        18,
        18,
        18,
        18,
        17,
        18,
        17,
        17,
        18,
        18,
        20,
        22
      ]
    },
    "HNL": {
      "icao": "PHNL",
      "issued": "2026-07-09T17:20:00.000Z",
      "raw": "TAF PHNL 091720Z 0918/1024 07008KT P6SM VCSH FEW025 SCT035 FM092000 06015G25KT P6SM FEW025 SCT040 FM100600 06012KT P6SM FEW025 SCT040 FM102000 06015G25KT P6SM FEW025 SCT040",
      "groups": [
        {
          "text": "TAF PHNL 091720Z 0918/1024 07008KT P6SM VCSH FEW025 SCT035",
          "offset_h": 1,
          "wdir": 70,
          "wspd": 8
        },
        {
          "text": "FM092000 06015G25KT P6SM FEW025 SCT040",
          "offset_h": 3,
          "wdir": 60,
          "wspd": 15
        },
        {
          "text": "FM100600 06012KT P6SM FEW025 SCT040",
          "offset_h": 13,
          "wdir": 60,
          "wspd": 12
        },
        {
          "text": "FM102000 06015G25KT P6SM FEW025 SCT040",
          "offset_h": 27,
          "wdir": 60,
          "wspd": 15
        }
      ],
      "metar_raw": "METAR PHNL 091653Z 06008KT 10SM FEW028 26/20 A3008 RMK AO2 SLP186 T02610200 $",
      "metar_wdir": 60,
      "metar_wspd": 8,
      "metar_oat": 26,
      "metar_qnh": 1019,
      "hourly_oat": [
        24,
        26,
        27,
        28,
        29,
        29,
        29,
        29,
        28,
        28,
        27,
        26,
        24,
        24,
        24,
        23,
        23,
        23,
        23,
        23,
        23,
        23,
        23,
        23,
        24
      ]
    },
    "OKA": {
      "icao": "ROAH",
      "issued": "2026-07-09T17:12:00.000Z",
      "raw": "TAF ROAH 091712Z 0918/1100 08022KT 9999 FEW010 BKN015 TEMPO 0918/0923 08028G38KT BECMG 0923/1001 10028KT TEMPO 0923/1006 10030G45KT TEMPO 1006/1012 10035G50KT 4000 SHRA BR FEW005 BKN008 FEW015CB TEMPO 1012/1100 10035G50KT",
      "groups": [
        {
          "text": "TAF ROAH 091712Z 0918/1100 08022KT 9999 FEW010 BKN015",
          "offset_h": 1,
          "wdir": 80,
          "wspd": 22
        },
        {
          "text": "TEMPO 0918/0923 08028G38KT",
          "offset_h": 1,
          "wdir": 80,
          "wspd": 28
        },
        {
          "text": "BECMG 0923/1001 10028KT",
          "offset_h": 6,
          "wdir": 100,
          "wspd": 28
        },
        {
          "text": "TEMPO 0923/1006 10030G45KT",
          "offset_h": 6,
          "wdir": 100,
          "wspd": 30
        },
        {
          "text": "TEMPO 1006/1012 10035G50KT 4000 SHRA BR FEW005 BKN008 FEW015CB",
          "offset_h": 13,
          "wdir": 100,
          "wspd": 35
        },
        {
          "text": "TEMPO 1012/1100 10035G50KT",
          "offset_h": 19,
          "wdir": 100,
          "wspd": 35
        }
      ],
      "metar_raw": "METAR ROAH 091730Z AUTO 07020KT 9999 FEW021 SCT024 BKN030 30/26 Q1001",
      "metar_wdir": 70,
      "metar_wspd": 20,
      "metar_oat": 30,
      "metar_qnh": 1001,
      "hourly_oat": [
        29,
        29,
        29,
        29,
        27,
        28,
        28,
        29,
        28,
        29,
        28,
        28,
        29,
        29,
        28,
        28,
        27,
        27,
        28,
        28,
        28,
        28,
        28,
        28,
        28
      ]
    },
    "KIX": {
      "icao": "RJBB",
      "issued": "2026-07-09T17:09:00.000Z",
      "raw": "TAF RJBB 091709Z 0918/1100 06004KT 9999 FEW020 BECMG 1000/1002 30006KT BECMG 1003/1005 23013KT BECMG 1018/1021 03005KT",
      "groups": [
        {
          "text": "TAF RJBB 091709Z 0918/1100 06004KT 9999 FEW020",
          "offset_h": 1,
          "wdir": 60,
          "wspd": 4
        },
        {
          "text": "BECMG 1000/1002 30006KT",
          "offset_h": 7,
          "wdir": 300,
          "wspd": 6
        },
        {
          "text": "BECMG 1003/1005 23013KT",
          "offset_h": 10,
          "wdir": 230,
          "wspd": 13
        },
        {
          "text": "BECMG 1018/1021 03005KT",
          "offset_h": 25,
          "wdir": 30,
          "wspd": 5
        }
      ],
      "metar_raw": "METAR RJBB 091730Z AUTO 13003KT 9999 SCT038 BKN040 25/20 Q1015 NOSIG",
      "metar_wdir": 130,
      "metar_wspd": 3,
      "metar_oat": 25,
      "metar_qnh": 1015,
      "hourly_oat": [
        25,
        24,
        24,
        24,
        24,
        24,
        24,
        24,
        24,
        25,
        25,
        25,
        26,
        26,
        26,
        26,
        26,
        26,
        26,
        26,
        26,
        25,
        25,
        25,
        25
      ]
    },
    "ITM": {
      "icao": "RJOO",
      "issued": "2026-07-09T17:09:00.000Z",
      "raw": "TAF RJOO 091709Z 0918/1100 32005KT 9999 FEW020 BECMG 0921/0923 08005KT BECMG 1006/1009 24007KT BECMG 1021/1100 06004KT",
      "groups": [
        {
          "text": "TAF RJOO 091709Z 0918/1100 32005KT 9999 FEW020",
          "offset_h": 1,
          "wdir": 320,
          "wspd": 5
        },
        {
          "text": "BECMG 0921/0923 08005KT",
          "offset_h": 4,
          "wdir": 80,
          "wspd": 5
        },
        {
          "text": "BECMG 1006/1009 24007KT",
          "offset_h": 13,
          "wdir": 240,
          "wspd": 7
        },
        {
          "text": "BECMG 1021/1100 06004KT",
          "offset_h": 28,
          "wdir": 60,
          "wspd": 4
        }
      ],
      "metar_raw": "METAR RJOO 091700Z AUTO 24003KT 190V290 9999 BKN042 26/21 Q1015",
      "metar_wdir": 240,
      "metar_wspd": 3,
      "metar_oat": 26,
      "metar_qnh": 1015,
      "hourly_oat": [
        23,
        23,
        23,
        22,
        23,
        24,
        25,
        27,
        28,
        29,
        30,
        30,
        30,
        30,
        29,
        28,
        27,
        26,
        26,
        26,
        26,
        25,
        25,
        25,
        24
      ]
    },
    "NGO": {
      "icao": "RJGG",
      "issued": "2026-07-09T17:05:00.000Z",
      "raw": "TAF RJGG 091705Z 0918/1100 11005KT 9999 FEW030 BECMG 0919/0921 34004KT BECMG 0923/1001 20010KT BECMG 1009/1012 13008KT",
      "groups": [
        {
          "text": "TAF RJGG 091705Z 0918/1100 11005KT 9999 FEW030",
          "offset_h": 1,
          "wdir": 110,
          "wspd": 5
        },
        {
          "text": "BECMG 0919/0921 34004KT",
          "offset_h": 2,
          "wdir": 340,
          "wspd": 4
        },
        {
          "text": "BECMG 0923/1001 20010KT",
          "offset_h": 6,
          "wdir": 200,
          "wspd": 10
        },
        {
          "text": "BECMG 1009/1012 13008KT",
          "offset_h": 16,
          "wdir": 130,
          "wspd": 8
        }
      ],
      "metar_raw": "METAR RJGG 091730Z AUTO 12007G18KT 090V220 9999 NCD 24/22 Q1015 NOSIG",
      "metar_wdir": 120,
      "metar_wspd": 7,
      "metar_oat": 24,
      "metar_qnh": 1015,
      "hourly_oat": [
        23,
        23,
        23,
        23,
        23,
        23,
        24,
        24,
        23,
        24,
        24,
        26,
        26,
        26,
        26,
        26,
        25,
        25,
        24,
        24,
        24,
        24,
        23,
        23,
        23
      ]
    },
    "FUK": {
      "icao": "RJFF",
      "issued": "2026-07-09T17:05:00.000Z",
      "raw": "TAF RJFF 091705Z 0918/1100 15008KT 9999 FEW025 BECMG 1002/1004 32011KT TEMPO 1006/1009 -TSRA BKN020 FEW025CB BECMG 1009/1012 14008KT",
      "groups": [
        {
          "text": "TAF RJFF 091705Z 0918/1100 15008KT 9999 FEW025",
          "offset_h": 1,
          "wdir": 150,
          "wspd": 8
        },
        {
          "text": "BECMG 1002/1004 32011KT",
          "offset_h": 9,
          "wdir": 320,
          "wspd": 11
        },
        {
          "text": "TEMPO 1006/1009 -TSRA BKN020 FEW025CB",
          "offset_h": 13,
          "wdir": null,
          "wspd": null
        },
        {
          "text": "BECMG 1009/1012 14008KT",
          "offset_h": 16,
          "wdir": 140,
          "wspd": 8
        }
      ],
      "metar_raw": "METAR RJFF 091730Z AUTO 14006KT 090V160 9999 NCD 27/23 Q1011 NOSIG",
      "metar_wdir": 140,
      "metar_wspd": 6,
      "metar_oat": 27,
      "metar_qnh": 1011,
      "hourly_oat": [
        25,
        25,
        24,
        24,
        24,
        25,
        27,
        29,
        31,
        32,
        33,
        33,
        32,
        32,
        32,
        32,
        32,
        31,
        30,
        29,
        28,
        28,
        28,
        27,
        27
      ]
    },
    "CTS": {
      "icao": "RJCC",
      "issued": "2026-07-09T17:05:00.000Z",
      "raw": "TAF RJCC 091705Z 0918/1100 17012KT 6000 -SHRA FEW005 BKN012 TEMPO 0918/1003 2000 SHRA BR FEW001 BKN003 TEMPO 1003/1009 FEW002 BKN005 TEMPO 1009/1012 3000 BR FEW001 BKN003 TEMPO 1012/1100 1500 -SHRA BR FEW001 BKN003",
      "groups": [
        {
          "text": "TAF RJCC 091705Z 0918/1100 17012KT 6000 -SHRA FEW005 BKN012",
          "offset_h": 1,
          "wdir": 170,
          "wspd": 12
        },
        {
          "text": "TEMPO 0918/1003 2000 SHRA BR FEW001 BKN003",
          "offset_h": 1,
          "wdir": null,
          "wspd": null
        },
        {
          "text": "TEMPO 1003/1009 FEW002 BKN005",
          "offset_h": 10,
          "wdir": null,
          "wspd": null
        },
        {
          "text": "TEMPO 1009/1012 3000 BR FEW001 BKN003",
          "offset_h": 16,
          "wdir": null,
          "wspd": null
        },
        {
          "text": "TEMPO 1012/1100 1500 -SHRA BR FEW001 BKN003",
          "offset_h": 19,
          "wdir": null,
          "wspd": null
        }
      ],
      "metar_raw": "METAR RJCC 091730Z 18009KT 4000 -DZ BR FEW001 SCT002 BKN003 19/18 Q1013",
      "metar_wdir": 180,
      "metar_wspd": 9,
      "metar_oat": 19,
      "metar_qnh": 1013,
      "hourly_oat": [
        18,
        18,
        18,
        18,
        19,
        19,
        20,
        20,
        20,
        21,
        22,
        21,
        22,
        21,
        22,
        22,
        22,
        21,
        20,
        20,
        20,
        20,
        20,
        20,
        20
      ]
    },
    "NRT": {
      "icao": "RJAA",
      "issued": "2026-07-09T17:05:00.000Z",
      "raw": "TAF RJAA 091705Z 0918/1100 14006KT 9999 FEW030 TEMPO 1015/1021 4000 BR FEW003 BKN008",
      "groups": [
        {
          "text": "TAF RJAA 091705Z 0918/1100 14006KT 9999 FEW030",
          "offset_h": 1,
          "wdir": 140,
          "wspd": 6
        },
        {
          "text": "TEMPO 1015/1021 4000 BR FEW003 BKN008",
          "offset_h": 22,
          "wdir": null,
          "wspd": null
        }
      ],
      "metar_raw": "METAR RJAA 091730Z AUTO 18003KT 9999 NCD 22/21 Q1015 NOSIG",
      "metar_wdir": 180,
      "metar_wspd": 3,
      "metar_oat": 22,
      "metar_qnh": 1015,
      "hourly_oat": [
        22,
        21,
        21,
        21,
        22,
        24,
        26,
        27,
        28,
        29,
        29,
        29,
        28,
        28,
        27,
        26,
        26,
        25,
        24,
        24,
        23,
        23,
        22,
        22,
        21
      ]
    },
    "HND": {
      "icao": "RJTT",
      "issued": "2026-07-09T17:05:00.000Z",
      "raw": "TAF RJTT 091705Z 0918/1100 18008KT 9999 FEW010 BECMG 1004/1006 19018KT",
      "groups": [
        {
          "text": "TAF RJTT 091705Z 0918/1100 18008KT 9999 FEW010",
          "offset_h": 1,
          "wdir": 180,
          "wspd": 8
        },
        {
          "text": "BECMG 1004/1006 19018KT",
          "offset_h": 11,
          "wdir": 190,
          "wspd": 18
        }
      ],
      "metar_raw": "METAR RJTT 091730Z 19009KT 9999 FEW009 25/22 Q1015 NOSIG",
      "metar_wdir": 190,
      "metar_wspd": 9,
      "metar_oat": 25,
      "metar_qnh": 1015,
      "hourly_oat": [
        24,
        23,
        23,
        23,
        24,
        24,
        26,
        27,
        27,
        28,
        29,
        29,
        29,
        28,
        27,
        26,
        26,
        25,
        24,
        24,
        24,
        24,
        24,
        24,
        24
      ]
    },
    "KUL": {
      "icao": "WMKK",
      "issued": "2026-07-09T17:00:00.000Z",
      "raw": "TAF WMKK 091700Z 0918/1100 VRB03KT 9999 FEW030 PROB30 TEMPO 0919/0922 5000 TSRA FEW010 FEW017CB",
      "groups": [
        {
          "text": "TAF WMKK 091700Z 0918/1100 VRB03KT 9999 FEW030",
          "offset_h": 1,
          "wdir": "VRB",
          "wspd": 3
        },
        {
          "text": "PROB30",
          "offset_h": 0,
          "wdir": null,
          "wspd": null
        },
        {
          "text": "TEMPO 0919/0922 5000 TSRA FEW010 FEW017CB",
          "offset_h": 2,
          "wdir": null,
          "wspd": null
        }
      ],
      "metar_raw": "METAR WMKK 091730Z VRB05KT 9999 FEW017CB 28/25 Q1011 TEMPO 7000 -TSRA",
      "metar_wdir": "VRB",
      "metar_wspd": 5,
      "metar_oat": 28,
      "metar_qnh": 1011,
      "hourly_oat": [
        26,
        26,
        26,
        25,
        25,
        25,
        25,
        25,
        27,
        28,
        29,
        30,
        30,
        30,
        31,
        31,
        30,
        30,
        29,
        27,
        26,
        26,
        26,
        26,
        25
      ]
    },
    "BKK": {
      "icao": "VTBS",
      "issued": "2026-07-09T17:00:00.000Z",
      "raw": "TAF VTBS 091700Z 0918/1024 24008KT 9999 FEW020",
      "groups": [
        {
          "text": "TAF VTBS 091700Z 0918/1024 24008KT 9999 FEW020",
          "offset_h": 1,
          "wdir": 240,
          "wspd": 8
        }
      ],
      "metar_raw": "METAR VTBS 091730Z 24008KT 9999 FEW020 30/20 Q1009 NOSIG",
      "metar_wdir": 240,
      "metar_wspd": 8,
      "metar_oat": 30,
      "metar_qnh": 1009,
      "hourly_oat": [
        28,
        27,
        27,
        27,
        26,
        27,
        27,
        28,
        29,
        30,
        30,
        31,
        32,
        33,
        33,
        33,
        33,
        32,
        31,
        31,
        31,
        30,
        29,
        29,
        28
      ]
    },
    "HAN": {
      "icao": "VVNB",
      "issued": "2026-07-09T17:00:00.000Z",
      "raw": "TAF VVNB 091700Z 0918/1018 32005KT 9000 SCT020 BKN035 TEMPO 0918/0922 3500 SHRA BKN008 FEW027TCU TEMPO 1006/1010 3000 +TSRA BKN007 FEW027CB",
      "groups": [
        {
          "text": "TAF VVNB 091700Z 0918/1018 32005KT 9000 SCT020 BKN035",
          "offset_h": 1,
          "wdir": 320,
          "wspd": 5
        },
        {
          "text": "TEMPO 0918/0922 3500 SHRA BKN008 FEW027TCU",
          "offset_h": 1,
          "wdir": null,
          "wspd": null
        },
        {
          "text": "TEMPO 1006/1010 3000 +TSRA BKN007 FEW027CB",
          "offset_h": 13,
          "wdir": null,
          "wspd": null
        }
      ],
      "metar_raw": "METAR VVNB 091730Z 18004KT 140V210 9000 BKN023 BKN053 27/26 Q1001 NOSIG",
      "metar_wdir": 180,
      "metar_wspd": 4,
      "metar_oat": 27,
      "metar_qnh": 1001,
      "hourly_oat": [
        26,
        26,
        26,
        26,
        26,
        25,
        26,
        26,
        28,
        29,
        30,
        31,
        31,
        32,
        32,
        32,
        32,
        31,
        28,
        28,
        28,
        27,
        27,
        27,
        27
      ]
    },
    "SGN": {
      "icao": "VVTS",
      "issued": "2026-07-09T17:00:00.000Z",
      "raw": "TAF VVTS 091700Z 0918/1024 26010KT 9999 SCT017 TEMPO 1005/1010 26018G28KT 4000 TSRA BKN015 FEW017CB",
      "groups": [
        {
          "text": "TAF VVTS 091700Z 0918/1024 26010KT 9999 SCT017",
          "offset_h": 1,
          "wdir": 260,
          "wspd": 10
        },
        {
          "text": "TEMPO 1005/1010 26018G28KT 4000 TSRA BKN015 FEW017CB",
          "offset_h": 12,
          "wdir": 260,
          "wspd": 18
        }
      ],
      "metar_raw": "METAR VVTS 091730Z 24010KT CAVOK 28/26 Q1009 NOSIG",
      "metar_wdir": 240,
      "metar_wspd": 10,
      "metar_oat": 28,
      "metar_qnh": 1009,
      "hourly_oat": [
        27,
        27,
        26,
        26,
        26,
        26,
        26,
        27,
        29,
        30,
        32,
        32,
        33,
        33,
        33,
        32,
        30,
        26,
        26,
        26,
        27,
        27,
        27,
        27,
        26
      ]
    },
    "SIN": {
      "icao": "WSSS",
      "issued": "2026-07-09T17:00:00.000Z",
      "raw": "TAF WSSS 091700Z 0918/1100 17008KT 9999 FEW015 SCT020",
      "groups": [
        {
          "text": "TAF WSSS 091700Z 0918/1100 17008KT 9999 FEW015 SCT020",
          "offset_h": 1,
          "wdir": 170,
          "wspd": 8
        }
      ],
      "metar_raw": "METAR WSSS 091730Z 18003KT 9999 FEW018 BKN300 26/23 Q1012 NOSIG",
      "metar_wdir": 180,
      "metar_wspd": 3,
      "metar_oat": 26,
      "metar_qnh": 1012,
      "hourly_oat": [
        28,
        27,
        27,
        27,
        27,
        27,
        28,
        28,
        29,
        29,
        30,
        31,
        31,
        31,
        31,
        31,
        31,
        30,
        30,
        29,
        29,
        29,
        28,
        28,
        28
      ]
    },
    "CGK": {
      "icao": "WIII",
      "issued": "2026-07-09T17:00:00.000Z",
      "raw": "TAF WIII 091700Z 0918/1100 12003KT 4000 HZ FEW020 BECMG 1001/1003 02012KT 8000 NSW",
      "groups": [
        {
          "text": "TAF WIII 091700Z 0918/1100 12003KT 4000 HZ FEW020",
          "offset_h": 1,
          "wdir": 120,
          "wspd": 3
        },
        {
          "text": "BECMG 1001/1003 02012KT 8000 NSW",
          "offset_h": 8,
          "wdir": 20,
          "wspd": 12
        }
      ],
      "metar_raw": "METAR WIII 091730Z 11006KT 7000 FEW020 26/21 Q1012 NOSIG",
      "metar_wdir": 110,
      "metar_wspd": 6,
      "metar_oat": 26,
      "metar_qnh": 1012,
      "hourly_oat": [
        25,
        24,
        24,
        23,
        22,
        22,
        22,
        23,
        26,
        29,
        31,
        32,
        33,
        34,
        33,
        32,
        31,
        30,
        29,
        28,
        28,
        27,
        27,
        26,
        25
      ]
    },
    "TSA": {
      "icao": "RCSS",
      "issued": "2026-07-09T17:00:00.000Z",
      "raw": "TAF RCSS 091700Z 0918/1018 09008KT 9999 FEW015 BKN032 TEMPO 0920/0924 VRB05KT 5000 RA FEW010 BKN020 TEMPO 1000/1006 5000 SHRA FEW010 FEW015CB BKN020 TEMPO 1006/1012 08012G22KT 4000 SHRA FEW010 FEW015CB BKN018 TEMPO 1012/1018 08015G25KT 3200 SHRA SCT008 FEW015CB BKN016",
      "groups": [
        {
          "text": "TAF RCSS 091700Z 0918/1018 09008KT 9999 FEW015 BKN032",
          "offset_h": 1,
          "wdir": 90,
          "wspd": 8
        },
        {
          "text": "TEMPO 0920/0924 VRB05KT 5000 RA FEW010 BKN020",
          "offset_h": 3,
          "wdir": "VRB",
          "wspd": 5
        },
        {
          "text": "TEMPO 1000/1006 5000 SHRA FEW010 FEW015CB BKN020",
          "offset_h": 7,
          "wdir": null,
          "wspd": null
        },
        {
          "text": "TEMPO 1006/1012 08012G22KT 4000 SHRA FEW010 FEW015CB BKN018",
          "offset_h": 13,
          "wdir": 80,
          "wspd": 12
        },
        {
          "text": "TEMPO 1012/1018 08015G25KT 3200 SHRA SCT008 FEW015CB BKN016",
          "offset_h": 19,
          "wdir": 80,
          "wspd": 15
        }
      ],
      "metar_raw": "METAR RCSS 091700Z 10008KT 9999 VCSH FEW013 SCT020 28/27 Q1004 NOSIG RMK QFF 1004.1HPA A2965",
      "metar_wdir": 100,
      "metar_wspd": 8,
      "metar_oat": 28,
      "metar_qnh": 1004,
      "hourly_oat": [
        26,
        26,
        26,
        26,
        26,
        26,
        27,
        27,
        28,
        28,
        28,
        27,
        26,
        26,
        28,
        27,
        26,
        26,
        26,
        26,
        26,
        26,
        26,
        26,
        26
      ]
    },
    "TPE": {
      "icao": "RCTP",
      "issued": "2026-07-09T17:00:00.000Z",
      "raw": "TAF RCTP 091700Z 0918/1024 06010KT 9999 FEW015 BKN032 TEMPO 1002/1008 05013G28KT 5000 RA FEW010 BKN020 BKN040 BECMG 1008/1010 04015G25KT 6000 FEW010 BKN020 BKN040 TEMPO 1010/1016 03020G30KT 4000 SHRA FEW010 FEW015CB BKN016 BKN030 BECMG 1016/1018 02022G38KT TEMPO 1016/1020 3000 SHRA SCT010 FEW012CB BKN014 TEMPO 1020/1024 36030G48KT 2000 SHRA SCT008 FEW010CB BKN012",
      "groups": [
        {
          "text": "TAF RCTP 091700Z 0918/1024 06010KT 9999 FEW015 BKN032",
          "offset_h": 1,
          "wdir": 60,
          "wspd": 10
        },
        {
          "text": "TEMPO 1002/1008 05013G28KT 5000 RA FEW010 BKN020 BKN040",
          "offset_h": 9,
          "wdir": 50,
          "wspd": 13
        },
        {
          "text": "BECMG 1008/1010 04015G25KT 6000 FEW010 BKN020 BKN040",
          "offset_h": 15,
          "wdir": 40,
          "wspd": 15
        },
        {
          "text": "TEMPO 1010/1016 03020G30KT 4000 SHRA FEW010 FEW015CB BKN016 BKN030",
          "offset_h": 17,
          "wdir": 30,
          "wspd": 20
        },
        {
          "text": "BECMG 1016/1018 02022G38KT",
          "offset_h": 23,
          "wdir": 20,
          "wspd": 22
        },
        {
          "text": "TEMPO 1016/1020 3000 SHRA SCT010 FEW012CB BKN014",
          "offset_h": 23,
          "wdir": null,
          "wspd": null
        },
        {
          "text": "TEMPO 1020/1024 36030G48KT 2000 SHRA SCT008 FEW010CB BKN012",
          "offset_h": 27,
          "wdir": 360,
          "wspd": 30
        }
      ],
      "metar_raw": "METAR RCTP 091730Z 06010KT 9999 FEW020 28/25 Q1003 NOSIG RMK A2964",
      "metar_wdir": 60,
      "metar_wspd": 10,
      "metar_oat": 28,
      "metar_qnh": 1003,
      "hourly_oat": [
        27,
        27,
        26,
        26,
        26,
        27,
        28,
        28,
        28,
        29,
        29,
        28,
        26,
        26,
        27,
        27,
        26,
        26,
        26,
        25,
        26,
        26,
        26,
        26,
        26
      ]
    },
    "HKG": {
      "icao": "VHHH",
      "issued": "2026-07-09T17:00:00.000Z",
      "raw": "TAF VHHH 091700Z 0918/1024 VRB05KT 9999 FEW015 TX33/1006Z TN28/0922Z TN29/1022Z BECMG 1001/1003 26010KT BECMG 1009/1011 18010KT TEMPO 1018/1024 VRB05KT",
      "groups": [
        {
          "text": "TAF VHHH 091700Z 0918/1024 VRB05KT 9999 FEW015 TX33/1006Z TN28/0922Z TN29/1022Z",
          "offset_h": 1,
          "wdir": "VRB",
          "wspd": 5
        },
        {
          "text": "BECMG 1001/1003 26010KT",
          "offset_h": 8,
          "wdir": 260,
          "wspd": 10
        },
        {
          "text": "BECMG 1009/1011 18010KT",
          "offset_h": 16,
          "wdir": 180,
          "wspd": 10
        },
        {
          "text": "TEMPO 1018/1024 VRB05KT",
          "offset_h": 25,
          "wdir": "VRB",
          "wspd": 5
        }
      ],
      "metar_raw": "METAR VHHH 091730Z VRB02KT 9999 FEW010 29/25 Q1003 NOSIG",
      "metar_wdir": "VRB",
      "metar_wspd": 2,
      "metar_oat": 29,
      "metar_qnh": 1003,
      "hourly_oat": [
        28,
        28,
        28,
        28,
        28,
        28,
        29,
        29,
        29,
        30,
        30,
        30,
        31,
        31,
        31,
        30,
        30,
        29,
        29,
        28,
        28,
        28,
        28,
        28,
        28
      ]
    },
    "GMP": {
      "icao": "RKSS",
      "issued": "2026-07-09T17:00:00.000Z",
      "raw": "TAF RKSS 091700Z 0918/1024 18007KT 6000 SCT010 BKN025 OVC080 TN23/0920Z TX30/1006Z TN25/1021Z TEMPO 0918/0919 -RA BECMG 0920/0922 -RA BECMG 1003/1005 24009KT 9999 NSW BKN030 BKN100 BECMG 1009/1011 18006KT 6000 SCT030 TEMPO 1016/1023 BKN020",
      "groups": [
        {
          "text": "TAF RKSS 091700Z 0918/1024 18007KT 6000 SCT010 BKN025 OVC080 TN23/0920Z TX30/1006Z TN25/1021Z",
          "offset_h": 1,
          "wdir": 180,
          "wspd": 7
        },
        {
          "text": "TEMPO 0918/0919 -RA",
          "offset_h": 1,
          "wdir": null,
          "wspd": null
        },
        {
          "text": "BECMG 0920/0922 -RA",
          "offset_h": 3,
          "wdir": null,
          "wspd": null
        },
        {
          "text": "BECMG 1003/1005 24009KT 9999 NSW BKN030 BKN100",
          "offset_h": 10,
          "wdir": 240,
          "wspd": 9
        },
        {
          "text": "BECMG 1009/1011 18006KT 6000 SCT030",
          "offset_h": 16,
          "wdir": 180,
          "wspd": 6
        },
        {
          "text": "TEMPO 1016/1023 BKN020",
          "offset_h": 23,
          "wdir": null,
          "wspd": null
        }
      ],
      "metar_raw": "METAR RKSS 091700Z 20011KT 160V220 9999 SCT010 BKN025 OVC070 25/25 Q1009 NOSIG",
      "metar_wdir": 200,
      "metar_wspd": 11,
      "metar_oat": 25,
      "metar_qnh": 1009,
      "hourly_oat": [
        24,
        24,
        24,
        24,
        24,
        24,
        24,
        24,
        25,
        26,
        27,
        27,
        27,
        26,
        26,
        25,
        25,
        25,
        25,
        25,
        24,
        24,
        24,
        24,
        24
      ]
    },
    "DLC": {
      "icao": "ZYTL",
      "issued": "2026-07-09T15:16:00.000Z",
      "raw": "TAF ZYTL 091516Z 0918/1018 15004G09MPS 5000 BR SCT012 BKN026 TX28/1006Z TN21/0920Z TEMPO 0922/0924 19008G15MPS 2000 TSRA BR BKN006 BKN026 SCT033CB",
      "groups": [
        {
          "text": "TAF ZYTL 091516Z 0918/1018 15004G09MPS 5000 BR SCT012 BKN026 TX28/1006Z TN21/0920Z",
          "offset_h": 1,
          "wdir": null,
          "wspd": null
        },
        {
          "text": "TEMPO 0922/0924 19008G15MPS 2000 TSRA BR BKN006 BKN026 SCT033CB",
          "offset_h": 5,
          "wdir": null,
          "wspd": null
        }
      ],
      "metar_raw": "METAR ZYTL 091730Z 13003MPS 7000 BKN004 BKN023 23/23 Q1003 NOSIG",
      "metar_wdir": null,
      "metar_wspd": null,
      "metar_oat": 23,
      "metar_qnh": 1003,
      "hourly_oat": [
        24,
        24,
        23,
        23,
        23,
        24,
        25,
        26,
        28,
        29,
        30,
        30,
        30,
        29,
        30,
        29,
        28,
        27,
        26,
        26,
        26,
        25,
        25,
        25,
        25
      ]
    },
    "SHA": {
      "icao": "ZSSS",
      "issued": "2026-07-09T15:05:00.000Z",
      "raw": "TAF ZSSS 091505Z 0918/1024 14004MPS 8000 BKN030 TX33/1006Z TN25/0921Z TN26/1021Z",
      "groups": [
        {
          "text": "TAF ZSSS 091505Z 0918/1024 14004MPS 8000 BKN030 TX33/1006Z TN25/0921Z TN26/1021Z",
          "offset_h": 1,
          "wdir": null,
          "wspd": null
        }
      ],
      "metar_raw": "METAR ZSSS 091730Z 16004MPS CAVOK 27/24 Q1006 NOSIG",
      "metar_wdir": null,
      "metar_wspd": null,
      "metar_oat": 27,
      "metar_qnh": 1006,
      "hourly_oat": [
        26,
        26,
        26,
        26,
        26,
        26,
        27,
        29,
        30,
        30,
        31,
        32,
        32,
        32,
        31,
        31,
        30,
        29,
        28,
        28,
        27,
        27,
        27,
        26,
        26
      ]
    },
    "PVG": {
      "icao": "ZSPD",
      "issued": "2026-07-09T15:05:00.000Z",
      "raw": "TAF ZSPD 091505Z 0918/1024 14004MPS 8000 BKN030 TX32/1006Z TN25/0921Z TN26/1021Z",
      "groups": [
        {
          "text": "TAF ZSPD 091505Z 0918/1024 14004MPS 8000 BKN030 TX32/1006Z TN25/0921Z TN26/1021Z",
          "offset_h": 1,
          "wdir": null,
          "wspd": null
        }
      ],
      "metar_raw": "METAR ZSPD 091730Z 17003MPS CAVOK 26/26 Q1006 NOSIG",
      "metar_wdir": null,
      "metar_wspd": null,
      "metar_oat": 26,
      "metar_qnh": 1006,
      "hourly_oat": [
        26,
        26,
        26,
        26,
        26,
        26,
        28,
        29,
        29,
        30,
        30,
        30,
        29,
        29,
        29,
        29,
        28,
        28,
        28,
        27,
        27,
        27,
        27,
        27,
        27
      ]
    },
    "PEK": {
      "icao": "ZBAA",
      "issued": "2026-07-09T15:02:00.000Z",
      "raw": "TAF ZBAA 091502Z 0918/1024 16004MPS 4000 BR NSC TX30/1006Z TN23/0921Z TN22/1021Z TEMPO 0923/1001 2800 -SHRA FEW040CB BKN040 TEMPO 1007/1012 TSRA FEW040CB BKN040 TEMPO 1012/1016 TSRA FEW040CB BKN040 BECMG 1015/1016 2800 -SHRA BR",
      "groups": [
        {
          "text": "TAF ZBAA 091502Z 0918/1024 16004MPS 4000 BR NSC TX30/1006Z TN23/0921Z TN22/1021Z",
          "offset_h": 1,
          "wdir": null,
          "wspd": null
        },
        {
          "text": "TEMPO 0923/1001 2800 -SHRA FEW040CB BKN040",
          "offset_h": 6,
          "wdir": null,
          "wspd": null
        },
        {
          "text": "TEMPO 1007/1012 TSRA FEW040CB BKN040",
          "offset_h": 14,
          "wdir": null,
          "wspd": null
        },
        {
          "text": "TEMPO 1012/1016 TSRA FEW040CB BKN040",
          "offset_h": 19,
          "wdir": null,
          "wspd": null
        },
        {
          "text": "BECMG 1015/1016 2800 -SHRA BR",
          "offset_h": 22,
          "wdir": null,
          "wspd": null
        }
      ],
      "metar_raw": "METAR ZBAA 091730Z VRB01MPS CAVOK 24/23 Q1000 NOSIG",
      "metar_wdir": null,
      "metar_wspd": null,
      "metar_oat": 24,
      "metar_qnh": 1000,
      "hourly_oat": [
        26,
        26,
        26,
        25,
        24,
        24,
        24,
        24,
        25,
        25,
        25,
        26,
        26,
        28,
        28,
        27,
        27,
        26,
        24,
        24,
        24,
        24,
        24,
        24,
        24
      ]
    },
    "CAN": {
      "icao": "ZGGG",
      "issued": "2026-07-09T15:01:00.000Z",
      "raw": "TAF ZGGG 091501Z 0918/1024 12003MPS 8000 BKN033 TX35/1007Z TN25/0922Z TN27/1022Z TEMPO 1008/1012 SHRA FEW026CB BKN030",
      "groups": [
        {
          "text": "TAF ZGGG 091501Z 0918/1024 12003MPS 8000 BKN033 TX35/1007Z TN25/0922Z TN27/1022Z",
          "offset_h": 1,
          "wdir": null,
          "wspd": null
        },
        {
          "text": "TEMPO 1008/1012 SHRA FEW026CB BKN030",
          "offset_h": 15,
          "wdir": null,
          "wspd": null
        }
      ],
      "metar_raw": "METAR ZGGG 091730Z 06002MPS 9999 BKN050 27/26 Q1004 NOSIG",
      "metar_wdir": null,
      "metar_wspd": null,
      "metar_oat": 27,
      "metar_qnh": 1004,
      "hourly_oat": [
        26,
        26,
        26,
        26,
        25,
        25,
        26,
        28,
        29,
        30,
        31,
        32,
        33,
        33,
        33,
        33,
        33,
        32,
        31,
        30,
        29,
        28,
        28,
        28,
        27
      ]
    }
  }
}