{
  "updated": "2026-05-31T14:57:35Z",
  "tafs": {
    "LAX": {
      "icao": "KLAX",
      "issued": "2026-05-31T14:38:00.000Z",
      "raw": "TAF KLAX 311438Z 3115/0118 12004KT P6SM FEW008 FM311530 15004KT P6SM BKN009 FM311700 25006KT P6SM SCT015 FM312100 26015KT P6SM SKC FM010300 26008KT P6SM SKC FM011100 12005KT P6SM BKN010 FM011700 26005KT P6SM SCT012",
      "groups": [
        {
          "text": "TAF KLAX 311438Z 3115/0118 12004KT P6SM FEW008",
          "offset_h": 1,
          "wdir": 120,
          "wspd": 4
        },
        {
          "text": "FM311530 15004KT P6SM BKN009",
          "offset_h": 1,
          "wdir": 150,
          "wspd": 4
        },
        {
          "text": "FM311700 25006KT P6SM SCT015",
          "offset_h": 3,
          "wdir": 250,
          "wspd": 6
        },
        {
          "text": "FM312100 26015KT P6SM SKC",
          "offset_h": 7,
          "wdir": 260,
          "wspd": 15
        },
        {
          "text": "FM010300 26008KT P6SM SKC",
          "offset_h": -11,
          "wdir": 260,
          "wspd": 8
        },
        {
          "text": "FM011100 12005KT P6SM BKN010",
          "offset_h": -3,
          "wdir": 120,
          "wspd": 5
        },
        {
          "text": "FM011700 26005KT P6SM SCT012",
          "offset_h": 3,
          "wdir": 260,
          "wspd": 5
        }
      ],
      "metar_raw": "METAR KLAX 311453Z 12006KT 5SM HZ SCT007 17/14 A2993 RMK AO2 SLP135 VIS SE 2 1/2 T01720144 53010 $",
      "metar_wdir": 120,
      "metar_wspd": 6,
      "metar_oat": 17,
      "metar_qnh": 1014,
      "hourly_oat": [
        16,
        18,
        20,
        23,
        21,
        21,
        21,
        21,
        21,
        20,
        20,
        20,
        19,
        17,
        16,
        15,
        14,
        14,
        13,
        13,
        15,
        14,
        15,
        14,
        14
      ]
    },
    "SAN": {
      "icao": "KSAN",
      "issued": "2026-05-31T14:36:00.000Z",
      "raw": "TAF KSAN 311436Z 3115/0118 VRB04KT P6SM OVC012 FM311630 VRB04KT P6SM SCT018 FM311900 27008KT P6SM SKC FM010500 VRB04KT P6SM BKN010 FM011700 VRB04KT P6SM SCT015",
      "groups": [
        {
          "text": "TAF KSAN 311436Z 3115/0118 VRB04KT P6SM OVC012",
          "offset_h": 1,
          "wdir": "VRB",
          "wspd": 4
        },
        {
          "text": "FM311630 VRB04KT P6SM SCT018",
          "offset_h": 2,
          "wdir": "VRB",
          "wspd": 4
        },
        {
          "text": "FM311900 27008KT P6SM SKC",
          "offset_h": 5,
          "wdir": 270,
          "wspd": 8
        },
        {
          "text": "FM010500 VRB04KT P6SM BKN010",
          "offset_h": -9,
          "wdir": "VRB",
          "wspd": 4
        },
        {
          "text": "FM011700 VRB04KT P6SM SCT015",
          "offset_h": 3,
          "wdir": "VRB",
          "wspd": 4
        }
      ],
      "metar_raw": "METAR KSAN 311451Z 20004KT 10SM OVC010 17/14 A2995 RMK AO2 SLP142 T01670139 53010 $",
      "metar_wdir": 200,
      "metar_wspd": 4,
      "metar_oat": 17,
      "metar_qnh": 1014,
      "hourly_oat": [
        17,
        18,
        19,
        20,
        21,
        22,
        23,
        24,
        23,
        22,
        20,
        20,
        19,
        18,
        17,
        16,
        16,
        16,
        16,
        16,
        16,
        16,
        15,
        15,
        15
      ]
    },
    "HKG": {
      "icao": "VHHH",
      "issued": "2026-05-31T14:00:00.000Z",
      "raw": "TAF VHHH 311400Z 3115/0121 14010KT 9999 FEW015 SCT025 TX33/0106Z TN27/3122Z TEMPO 3118/3121 VRB05KT TEMPO 3121/0102 VRB15G25KT 2500 TSRA SHRA FEW008CB SCT015 TEMPO 0103/0109 24010KT BECMG 0112/0114 20010KT",
      "groups": [
        {
          "text": "TAF VHHH 311400Z 3115/0121 14010KT 9999 FEW015 SCT025 TX33/0106Z TN27/3122Z",
          "offset_h": 1,
          "wdir": 140,
          "wspd": 10
        },
        {
          "text": "TEMPO 3118/3121 VRB05KT",
          "offset_h": 4,
          "wdir": "VRB",
          "wspd": 5
        },
        {
          "text": "TEMPO 3121/0102 VRB15G25KT 2500 TSRA SHRA FEW008CB SCT015",
          "offset_h": 7,
          "wdir": "VRB",
          "wspd": 15
        },
        {
          "text": "TEMPO 0103/0109 24010KT",
          "offset_h": -11,
          "wdir": 240,
          "wspd": 10
        },
        {
          "text": "BECMG 0112/0114 20010KT",
          "offset_h": -2,
          "wdir": 200,
          "wspd": 10
        }
      ],
      "metar_raw": "METAR VHHH 311430Z 13009KT 9999 FEW020 28/23 Q1010 NOSIG",
      "metar_wdir": 130,
      "metar_wspd": 9,
      "metar_oat": 28,
      "metar_qnh": 1010,
      "hourly_oat": [
        28,
        28,
        28,
        27,
        27,
        27,
        27,
        28,
        28,
        28,
        28,
        29,
        29,
        30,
        30,
        30,
        30,
        29,
        29,
        29,
        29,
        28,
        28,
        28,
        28
      ]
    },
    "CAN": {
      "icao": "ZGGG",
      "issued": "2026-05-31T12:51:00.000Z",
      "raw": "TAF AMD ZGGG 311251Z 3112/0118 19004MPS 8000 SCT040 TX31/3112Z TX35/0107Z TN26/3122Z TEMPO 3112/3114 4000 +TSRA SCT026CB BKN033 TEMPO 3121/0101 TSRA SCT026CB BKN033 TEMPO 0108/0112 TSRA FEW026CB BKN033",
      "groups": [
        {
          "text": "TAF AMD ZGGG 311251Z 3112/0118 19004MPS 8000 SCT040 TX31/3112Z TX35/0107Z TN26/3122Z",
          "offset_h": -2,
          "wdir": null,
          "wspd": null
        },
        {
          "text": "TEMPO 3112/3114 4000 +TSRA SCT026CB BKN033",
          "offset_h": -2,
          "wdir": null,
          "wspd": null
        },
        {
          "text": "TEMPO 3121/0101 TSRA SCT026CB BKN033",
          "offset_h": 7,
          "wdir": null,
          "wspd": null
        },
        {
          "text": "TEMPO 0108/0112 TSRA FEW026CB BKN033",
          "offset_h": -6,
          "wdir": null,
          "wspd": null
        }
      ],
      "metar_raw": "METAR ZGGG 311430Z 20001MPS 9999 FEW053 28/26 Q1009 NOSIG",
      "metar_wdir": null,
      "metar_wspd": null,
      "metar_oat": 28,
      "metar_qnh": 1009,
      "hourly_oat": [
        27,
        27,
        27,
        27,
        26,
        26,
        26,
        26,
        26,
        26,
        28,
        29,
        30,
        30,
        31,
        32,
        33,
        33,
        32,
        32,
        31,
        30,
        29,
        26,
        26
      ]
    },
    "OKA": {
      "icao": "ROAH",
      "issued": "2026-05-31T11:21:00.000Z",
      "raw": "TAF ROAH 311121Z 3112/0118 08024KT 9999 FEW008 BKN012 TEMPO 3112/3118 08028G38KT FEW006 BKN008 TEMPO 3118/0100 08030G40KT 3000 +SHRA BR FEW006 BKN008 SCT015CB BECMG 0100/0103 08035G45KT 3000 SHRA BR TEMPO 0100/0106 08040G55KT 1500 +SHRA BR FEW003 BKN005 SCT015CB BECMG 0106/0109 24040G50KT TEMPO 0106/0118 22050G65KT 1500 +SHRA BR FEW003 BKN005 SCT015CB",
      "groups": [
        {
          "text": "TAF ROAH 311121Z 3112/0118 08024KT 9999 FEW008 BKN012",
          "offset_h": -2,
          "wdir": 80,
          "wspd": 24
        },
        {
          "text": "TEMPO 3112/3118 08028G38KT FEW006 BKN008",
          "offset_h": -2,
          "wdir": 80,
          "wspd": 28
        },
        {
          "text": "TEMPO 3118/0100 08030G40KT 3000 +SHRA BR FEW006 BKN008 SCT015CB",
          "offset_h": 4,
          "wdir": 80,
          "wspd": 30
        },
        {
          "text": "BECMG 0100/0103 08035G45KT 3000 SHRA BR",
          "offset_h": -14,
          "wdir": 80,
          "wspd": 35
        },
        {
          "text": "TEMPO 0100/0106 08040G55KT 1500 +SHRA BR FEW003 BKN005 SCT015CB",
          "offset_h": -14,
          "wdir": 80,
          "wspd": 40
        },
        {
          "text": "BECMG 0106/0109 24040G50KT",
          "offset_h": -8,
          "wdir": 240,
          "wspd": 40
        },
        {
          "text": "TEMPO 0106/0118 22050G65KT 1500 +SHRA BR FEW003 BKN005 SCT015CB",
          "offset_h": -8,
          "wdir": 220,
          "wspd": 50
        }
      ],
      "metar_raw": "METAR ROAH 311430Z AUTO 07025KT 9999 FEW009 OVC020 27/26 Q1004",
      "metar_wdir": 70,
      "metar_wspd": 25,
      "metar_oat": 27,
      "metar_qnh": 1004,
      "hourly_oat": [
        26,
        26,
        26,
        25,
        26,
        26,
        25,
        25,
        25,
        25,
        25,
        25,
        25,
        25,
        25,
        25,
        25,
        25,
        25,
        25,
        25,
        25,
        25,
        25,
        25
      ]
    },
    "HNL": {
      "icao": "PHNL",
      "issued": "2026-05-31T11:20:00.000Z",
      "raw": "TAF PHNL 311120Z 3112/0118 VRB06KT P6SM FEW025 FEW040 FM312000 08010KT P6SM VCSH SCT025 BKN040 PROB30 3122/0102 P6SM -SHRA BKN035 FM010600 VRB06KT P6SM FEW025 FEW040",
      "groups": [
        {
          "text": "TAF PHNL 311120Z 3112/0118 VRB06KT P6SM FEW025 FEW040",
          "offset_h": -2,
          "wdir": "VRB",
          "wspd": 6
        },
        {
          "text": "FM312000 08010KT P6SM VCSH SCT025 BKN040",
          "offset_h": 6,
          "wdir": 80,
          "wspd": 10
        },
        {
          "text": "PROB30 3122/0102 P6SM -SHRA BKN035",
          "offset_h": 0,
          "wdir": null,
          "wspd": null
        },
        {
          "text": "FM010600 VRB06KT P6SM FEW025 FEW040",
          "offset_h": -8,
          "wdir": "VRB",
          "wspd": 6
        }
      ],
      "metar_raw": "METAR PHNL 311453Z 01004KT 10SM FEW023 FEW040 SCT080 BKN250 23/20 A2997 RMK AO2 SLP149 VCSH NE-E T02280200 55004 $",
      "metar_wdir": 10,
      "metar_wspd": 4,
      "metar_oat": 23,
      "metar_qnh": 1015,
      "hourly_oat": [
        21,
        21,
        21,
        22,
        24,
        26,
        27,
        27,
        27,
        28,
        28,
        28,
        27,
        26,
        25,
        24,
        22,
        22,
        22,
        22,
        22,
        21,
        21,
        21,
        21
      ]
    },
    "FUK": {
      "icao": "RJFF",
      "issued": "2026-05-31T11:05:00.000Z",
      "raw": "TAF RJFF 311105Z 3112/0118 14004KT CAVOK BECMG 0100/0103 30006KT BECMG 0109/0112 12008KT TEMPO 0109/0112 4000 SHRA BR",
      "groups": [
        {
          "text": "TAF RJFF 311105Z 3112/0118 14004KT CAVOK",
          "offset_h": -2,
          "wdir": 140,
          "wspd": 4
        },
        {
          "text": "BECMG 0100/0103 30006KT",
          "offset_h": -14,
          "wdir": 300,
          "wspd": 6
        },
        {
          "text": "BECMG 0109/0112 12008KT",
          "offset_h": -5,
          "wdir": 120,
          "wspd": 8
        },
        {
          "text": "TEMPO 0109/0112 4000 SHRA BR",
          "offset_h": -5,
          "wdir": null,
          "wspd": null
        }
      ],
      "metar_raw": "METAR RJFF 311430Z AUTO 08002KT 9999 NCD 23/16 Q1015 NOSIG",
      "metar_wdir": 80,
      "metar_wspd": 2,
      "metar_oat": 23,
      "metar_qnh": 1015,
      "hourly_oat": [
        21,
        21,
        20,
        20,
        20,
        20,
        20,
        20,
        21,
        23,
        26,
        27,
        28,
        27,
        28,
        27,
        26,
        24,
        25,
        25,
        24,
        23,
        23,
        23,
        23
      ]
    },
    "NGO": {
      "icao": "RJGG",
      "issued": "2026-05-31T11:05:00.000Z",
      "raw": "TAF RJGG 311105Z 3112/0118 13008KT 9999 FEW005 BKN015 BECMG 3115/3117 02006KT BECMG 0100/0103 16016KT",
      "groups": [
        {
          "text": "TAF RJGG 311105Z 3112/0118 13008KT 9999 FEW005 BKN015",
          "offset_h": -2,
          "wdir": 130,
          "wspd": 8
        },
        {
          "text": "BECMG 3115/3117 02006KT",
          "offset_h": 1,
          "wdir": 20,
          "wspd": 6
        },
        {
          "text": "BECMG 0100/0103 16016KT",
          "offset_h": -14,
          "wdir": 160,
          "wspd": 16
        }
      ],
      "metar_raw": "METAR RJGG 311430Z AUTO 10011KT 9999 NCD 21/17 Q1017 NOSIG",
      "metar_wdir": 100,
      "metar_wspd": 11,
      "metar_oat": 21,
      "metar_qnh": 1017,
      "hourly_oat": [
        22,
        22,
        21,
        21,
        20,
        20,
        19,
        19,
        19,
        20,
        21,
        21,
        21,
        22,
        23,
        24,
        24,
        23,
        23,
        22,
        22,
        22,
        22,
        22,
        22
      ]
    },
    "NRT": {
      "icao": "RJAA",
      "issued": "2026-05-31T11:05:00.000Z",
      "raw": "TAF RJAA 311105Z 3112/0118 14004KT 8000 FEW008 SCT015 TEMPO 3116/3118 4000 BR FEW003 BKN008 TEMPO 3118/3122 3000 BR FEW001 SCT002 BKN003 TEMPO 3122/0100 4000 BR FEW003 BKN008",
      "groups": [
        {
          "text": "TAF RJAA 311105Z 3112/0118 14004KT 8000 FEW008 SCT015",
          "offset_h": -2,
          "wdir": 140,
          "wspd": 4
        },
        {
          "text": "TEMPO 3116/3118 4000 BR FEW003 BKN008",
          "offset_h": 2,
          "wdir": null,
          "wspd": null
        },
        {
          "text": "TEMPO 3118/3122 3000 BR FEW001 SCT002 BKN003",
          "offset_h": 4,
          "wdir": null,
          "wspd": null
        },
        {
          "text": "TEMPO 3122/0100 4000 BR FEW003 BKN008",
          "offset_h": 8,
          "wdir": null,
          "wspd": null
        }
      ],
      "metar_raw": "METAR RJAA 311430Z AUTO 17001KT 9999 NCD 17/17 Q1017 NOSIG",
      "metar_wdir": 170,
      "metar_wspd": 1,
      "metar_oat": 17,
      "metar_qnh": 1017,
      "hourly_oat": [
        19,
        18,
        17,
        17,
        17,
        16,
        16,
        16,
        17,
        19,
        23,
        26,
        28,
        29,
        29,
        28,
        26,
        27,
        26,
        25,
        24,
        22,
        21,
        20,
        20
      ]
    },
    "KIX": {
      "icao": "RJBB",
      "issued": "2026-05-31T11:05:00.000Z",
      "raw": "TAF RJBB 311105Z 3112/0118 17008KT 9999 FEW030 BECMG 3118/3120 11006KT BECMG 0100/0103 24016KT TEMPO 0115/0118 4000 SHRA BR BECMG 0115/0118 09008KT",
      "groups": [
        {
          "text": "TAF RJBB 311105Z 3112/0118 17008KT 9999 FEW030",
          "offset_h": -2,
          "wdir": 170,
          "wspd": 8
        },
        {
          "text": "BECMG 3118/3120 11006KT",
          "offset_h": 4,
          "wdir": 110,
          "wspd": 6
        },
        {
          "text": "BECMG 0100/0103 24016KT",
          "offset_h": -14,
          "wdir": 240,
          "wspd": 16
        },
        {
          "text": "TEMPO 0115/0118 4000 SHRA BR",
          "offset_h": 1,
          "wdir": null,
          "wspd": null
        },
        {
          "text": "BECMG 0115/0118 09008KT",
          "offset_h": 1,
          "wdir": 90,
          "wspd": 8
        }
      ],
      "metar_raw": "METAR RJBB 311430Z AUTO 19013KT 9999 NCD 23/20 Q1017 NOSIG",
      "metar_wdir": 190,
      "metar_wspd": 13,
      "metar_oat": 23,
      "metar_qnh": 1017,
      "hourly_oat": [
        22,
        22,
        22,
        22,
        22,
        21,
        21,
        21,
        21,
        22,
        22,
        22,
        22,
        22,
        23,
        23,
        23,
        24,
        24,
        24,
        24,
        24,
        23,
        22,
        22
      ]
    },
    "HND": {
      "icao": "RJTT",
      "issued": "2026-05-31T11:05:00.000Z",
      "raw": "TAF RJTT 311105Z 3112/0118 19010KT 9999 FEW030 BECMG 3115/3117 35004KT BECMG 0100/0103 12006KT BECMG 0103/0106 18014KT",
      "groups": [
        {
          "text": "TAF RJTT 311105Z 3112/0118 19010KT 9999 FEW030",
          "offset_h": -2,
          "wdir": 190,
          "wspd": 10
        },
        {
          "text": "BECMG 3115/3117 35004KT",
          "offset_h": 1,
          "wdir": 350,
          "wspd": 4
        },
        {
          "text": "BECMG 0100/0103 12006KT",
          "offset_h": -14,
          "wdir": 120,
          "wspd": 6
        },
        {
          "text": "BECMG 0103/0106 18014KT",
          "offset_h": -11,
          "wdir": 180,
          "wspd": 14
        }
      ],
      "metar_raw": "METAR RJTT 311430Z 19007KT 140V230 CAVOK 22/19 Q1017 NOSIG",
      "metar_wdir": 190,
      "metar_wspd": 7,
      "metar_oat": 22,
      "metar_qnh": 1017,
      "hourly_oat": [
        21,
        20,
        20,
        19,
        19,
        18,
        18,
        18,
        19,
        21,
        22,
        23,
        24,
        26,
        27,
        27,
        26,
        25,
        24,
        23,
        22,
        22,
        22,
        22,
        22
      ]
    },
    "ITM": {
      "icao": "RJOO",
      "issued": "2026-05-31T11:05:00.000Z",
      "raw": "TAF RJOO 311105Z 3112/0118 28006KT 9999 FEW030 BECMG 3115/3117 09004KT BECMG 0103/0106 25010KT BECMG 0115/0118 07004KT",
      "groups": [
        {
          "text": "TAF RJOO 311105Z 3112/0118 28006KT 9999 FEW030",
          "offset_h": -2,
          "wdir": 280,
          "wspd": 6
        },
        {
          "text": "BECMG 3115/3117 09004KT",
          "offset_h": 1,
          "wdir": 90,
          "wspd": 4
        },
        {
          "text": "BECMG 0103/0106 25010KT",
          "offset_h": -11,
          "wdir": 250,
          "wspd": 10
        },
        {
          "text": "BECMG 0115/0118 07004KT",
          "offset_h": 1,
          "wdir": 70,
          "wspd": 4
        }
      ],
      "metar_raw": "METAR RJOO 311400Z AUTO 26005KT 220V300 9999 NCD 23/19 Q1017",
      "metar_wdir": 260,
      "metar_wspd": 5,
      "metar_oat": 23,
      "metar_qnh": 1017,
      "hourly_oat": [
        21,
        21,
        20,
        20,
        20,
        19,
        18,
        19,
        20,
        22,
        23,
        25,
        26,
        28,
        28,
        28,
        27,
        26,
        25,
        25,
        24,
        23,
        23,
        23,
        22
      ]
    },
    "CTS": {
      "icao": "RJCC",
      "issued": "2026-05-31T11:05:00.000Z",
      "raw": "TAF RJCC 311105Z 3112/0118 16006KT 9999 FEW020 BECMG 0100/0103 17018KT BECMG 0115/0118 17008KT",
      "groups": [
        {
          "text": "TAF RJCC 311105Z 3112/0118 16006KT 9999 FEW020",
          "offset_h": -2,
          "wdir": 160,
          "wspd": 6
        },
        {
          "text": "BECMG 0100/0103 17018KT",
          "offset_h": -14,
          "wdir": 170,
          "wspd": 18
        },
        {
          "text": "BECMG 0115/0118 17008KT",
          "offset_h": 1,
          "wdir": 170,
          "wspd": 8
        }
      ],
      "metar_raw": "METAR RJCC 311430Z 16004KT CAVOK 10/08 Q1015",
      "metar_wdir": 160,
      "metar_wspd": 4,
      "metar_oat": 10,
      "metar_qnh": 1015,
      "hourly_oat": [
        13,
        12,
        11,
        10,
        10,
        10,
        11,
        13,
        16,
        19,
        21,
        22,
        23,
        23,
        23,
        23,
        22,
        20,
        19,
        18,
        16,
        15,
        15,
        14,
        14
      ]
    },
    "SGN": {
      "icao": "VVTS",
      "issued": "2026-05-31T11:00:00.000Z",
      "raw": "TAF VVTS 311100Z 3112/0118 30008KT 9999 SCT017 TEMPO 3112/3117 5000 SHRA SCT015 FEW017CB TEMPO 0101/0103 5000 RA TEMPO 0110/0113 30015G25KT 3000 TSRA BKN015 SCT017CB",
      "groups": [
        {
          "text": "TAF VVTS 311100Z 3112/0118 30008KT 9999 SCT017",
          "offset_h": -2,
          "wdir": 300,
          "wspd": 8
        },
        {
          "text": "TEMPO 3112/3117 5000 SHRA SCT015 FEW017CB",
          "offset_h": -2,
          "wdir": null,
          "wspd": null
        },
        {
          "text": "TEMPO 0101/0103 5000 RA",
          "offset_h": -13,
          "wdir": null,
          "wspd": null
        },
        {
          "text": "TEMPO 0110/0113 30015G25KT 3000 TSRA BKN015 SCT017CB",
          "offset_h": -4,
          "wdir": 300,
          "wspd": 15
        }
      ],
      "metar_raw": "METAR VVTS 311430Z 31003KT 270V340 9999 SCT030 26/25 Q1010 NOSIG",
      "metar_wdir": 310,
      "metar_wspd": 3,
      "metar_oat": 26,
      "metar_qnh": 1010,
      "hourly_oat": [
        25,
        25,
        25,
        24,
        24,
        24,
        24,
        24,
        24,
        24,
        25,
        26,
        28,
        29,
        29,
        29,
        30,
        30,
        30,
        29,
        29,
        28,
        27,
        27,
        26
      ]
    },
    "CGK": {
      "icao": "WIII",
      "issued": "2026-05-31T11:00:00.000Z",
      "raw": "TAF WIII 311100Z 3112/0118 33010KT 5000 HZ SCT020 BECMG 3112/3114 20005KT BECMG 0101/0103 35010KT 7000 NSW",
      "groups": [
        {
          "text": "TAF WIII 311100Z 3112/0118 33010KT 5000 HZ SCT020",
          "offset_h": -2,
          "wdir": 330,
          "wspd": 10
        },
        {
          "text": "BECMG 3112/3114 20005KT",
          "offset_h": -2,
          "wdir": 200,
          "wspd": 5
        },
        {
          "text": "BECMG 0101/0103 35010KT 7000 NSW",
          "offset_h": -13,
          "wdir": 350,
          "wspd": 10
        }
      ],
      "metar_raw": "METAR WIII 311430Z 36002KT 3000 HZ FEW020 27/25 Q1011 NOSIG",
      "metar_wdir": 360,
      "metar_wspd": 2,
      "metar_oat": 27,
      "metar_qnh": 1011,
      "hourly_oat": [
        26,
        25,
        25,
        25,
        25,
        25,
        25,
        25,
        24,
        24,
        25,
        27,
        29,
        30,
        31,
        32,
        32,
        32,
        31,
        30,
        28,
        26,
        26,
        26,
        25
      ]
    },
    "HAN": {
      "icao": "VVNB",
      "issued": "2026-05-31T11:00:00.000Z",
      "raw": "TAF VVNB 311100Z 3112/0112 12005KT 9999 FEW030 PROB40 TEMPO 3113/3116 4000 TSRA SCT010 FEW027CB",
      "groups": [
        {
          "text": "TAF VVNB 311100Z 3112/0112 12005KT 9999 FEW030",
          "offset_h": -2,
          "wdir": 120,
          "wspd": 5
        },
        {
          "text": "PROB40",
          "offset_h": 0,
          "wdir": null,
          "wspd": null
        },
        {
          "text": "TEMPO 3113/3116 4000 TSRA SCT010 FEW027CB",
          "offset_h": -1,
          "wdir": null,
          "wspd": null
        }
      ],
      "metar_raw": "METAR VVNB 311430Z 15009KT 130V190 9000 NSC 31/26 Q1008 NOSIG",
      "metar_wdir": 150,
      "metar_wspd": 9,
      "metar_oat": 31,
      "metar_qnh": 1008,
      "hourly_oat": [
        29,
        28,
        28,
        27,
        27,
        26,
        26,
        26,
        26,
        26,
        28,
        29,
        31,
        32,
        33,
        33,
        34,
        34,
        34,
        34,
        33,
        32,
        30,
        30,
        29
      ]
    },
    "TSA": {
      "icao": "RCSS",
      "issued": "2026-05-31T11:00:00.000Z",
      "raw": "TAF RCSS 311100Z 3112/0112 09010KT 9999 FEW015 BECMG 3116/3118 30005KT FEW015 BKN032 TEMPO 3120/0102 VRB05KT 7000 -RA FEW010 BKN020 BKN040 TEMPO 0103/0109 27010KT 5000 SHRA FEW010 BKN017",
      "groups": [
        {
          "text": "TAF RCSS 311100Z 3112/0112 09010KT 9999 FEW015",
          "offset_h": -2,
          "wdir": 90,
          "wspd": 10
        },
        {
          "text": "BECMG 3116/3118 30005KT FEW015 BKN032",
          "offset_h": 2,
          "wdir": 300,
          "wspd": 5
        },
        {
          "text": "TEMPO 3120/0102 VRB05KT 7000 -RA FEW010 BKN020 BKN040",
          "offset_h": 6,
          "wdir": "VRB",
          "wspd": 5
        },
        {
          "text": "TEMPO 0103/0109 27010KT 5000 SHRA FEW010 BKN017",
          "offset_h": -11,
          "wdir": 270,
          "wspd": 10
        }
      ],
      "metar_raw": "METAR RCSS 311430Z 10004KT 070V130 9999 FEW018 24/20 Q1010 NOSIG RMK A2984",
      "metar_wdir": 100,
      "metar_wspd": 4,
      "metar_oat": 24,
      "metar_qnh": 1010,
      "hourly_oat": [
        24,
        24,
        23,
        23,
        23,
        23,
        23,
        23,
        24,
        24,
        25,
        25,
        25,
        27,
        27,
        28,
        28,
        29,
        28,
        27,
        27,
        26,
        25,
        25,
        24
      ]
    },
    "GMP": {
      "icao": "RKSS",
      "issued": "2026-05-31T11:00:00.000Z",
      "raw": "TAF RKSS 311100Z 3112/0118 27005KT CAVOK TN17/3120Z TX29/0106Z BECMG 3115/3117 18005KT 6000 NSC TEMPO 0102/0104 24006KT BECMG 0105/0107 28007KT CAVOK BECMG 0113/0115 06005KT 6000 NSC",
      "groups": [
        {
          "text": "TAF RKSS 311100Z 3112/0118 27005KT CAVOK TN17/3120Z TX29/0106Z",
          "offset_h": -2,
          "wdir": 270,
          "wspd": 5
        },
        {
          "text": "BECMG 3115/3117 18005KT 6000 NSC",
          "offset_h": 1,
          "wdir": 180,
          "wspd": 5
        },
        {
          "text": "TEMPO 0102/0104 24006KT",
          "offset_h": -12,
          "wdir": 240,
          "wspd": 6
        },
        {
          "text": "BECMG 0105/0107 28007KT CAVOK",
          "offset_h": -9,
          "wdir": 280,
          "wspd": 7
        },
        {
          "text": "BECMG 0113/0115 06005KT 6000 NSC",
          "offset_h": -1,
          "wdir": 60,
          "wspd": 5
        }
      ],
      "metar_raw": "METAR RKSS 311400Z 28002KT CAVOK 17/14 Q1014 NOSIG",
      "metar_wdir": 280,
      "metar_wspd": 2,
      "metar_oat": 17,
      "metar_qnh": 1014,
      "hourly_oat": [
        18,
        18,
        18,
        17,
        16,
        16,
        16,
        15,
        16,
        19,
        21,
        24,
        26,
        26,
        26,
        26,
        25,
        24,
        23,
        22,
        21,
        20,
        18,
        17,
        17
      ]
    },
    "BKK": {
      "icao": "VTBS",
      "issued": "2026-05-31T11:00:00.000Z",
      "raw": "TAF VTBS 311100Z 3112/0118 19008KT 9999 FEW020 TEMPO 3112/3116 VRB15G25KT 3000 TSRA FEW018CB SCT030 BKN100 BECMG 3118/3120 13005KT BECMG 0103/0105 21008KT TEMPO 0106/0112 VRB10G25KT 3000 TSRA FEW018CB SCT030 BKN100",
      "groups": [
        {
          "text": "TAF VTBS 311100Z 3112/0118 19008KT 9999 FEW020",
          "offset_h": -2,
          "wdir": 190,
          "wspd": 8
        },
        {
          "text": "TEMPO 3112/3116 VRB15G25KT 3000 TSRA FEW018CB SCT030 BKN100",
          "offset_h": -2,
          "wdir": "VRB",
          "wspd": 15
        },
        {
          "text": "BECMG 3118/3120 13005KT",
          "offset_h": 4,
          "wdir": 130,
          "wspd": 5
        },
        {
          "text": "BECMG 0103/0105 21008KT",
          "offset_h": -11,
          "wdir": 210,
          "wspd": 8
        },
        {
          "text": "TEMPO 0106/0112 VRB10G25KT 3000 TSRA FEW018CB SCT030 BKN100",
          "offset_h": -8,
          "wdir": "VRB",
          "wspd": 10
        }
      ],
      "metar_raw": "METAR VTBS 311430Z 15006KT 120V190 9999 FEW020 30/24 Q1010 NOSIG",
      "metar_wdir": 150,
      "metar_wspd": 6,
      "metar_oat": 30,
      "metar_qnh": 1010,
      "hourly_oat": [
        26,
        26,
        25,
        25,
        25,
        25,
        25,
        25,
        25,
        25,
        26,
        28,
        30,
        31,
        32,
        33,
        33,
        29,
        30,
        30,
        29,
        29,
        28,
        28,
        27
      ]
    },
    "KUL": {
      "icao": "WMKK",
      "issued": "2026-05-31T11:00:00.000Z",
      "raw": "TAF WMKK 311100Z 3112/0118 VRB03KT 9999 FEW030",
      "groups": [
        {
          "text": "TAF WMKK 311100Z 3112/0118 VRB03KT 9999 FEW030",
          "offset_h": -2,
          "wdir": "VRB",
          "wspd": 3
        }
      ],
      "metar_raw": "METAR WMKK 311430Z 32003KT 280V350 9000 FEW030 29/26 Q1010 NOSIG",
      "metar_wdir": 320,
      "metar_wspd": 3,
      "metar_oat": 29,
      "metar_qnh": 1010,
      "hourly_oat": [
        27,
        26,
        26,
        26,
        25,
        25,
        26,
        26,
        25,
        24,
        25,
        26,
        27,
        29,
        30,
        30,
        31,
        32,
        31,
        31,
        30,
        29,
        28,
        27,
        27
      ]
    },
    "SIN": {
      "icao": "WSSS",
      "issued": "2026-05-31T11:00:00.000Z",
      "raw": "TAF WSSS 311100Z 3112/0118 16005KT 9999 FEW015 SCT020",
      "groups": [
        {
          "text": "TAF WSSS 311100Z 3112/0118 16005KT 9999 FEW015 SCT020",
          "offset_h": -2,
          "wdir": 160,
          "wspd": 5
        }
      ],
      "metar_raw": "METAR WSSS 311430Z 10004KT 040V150 9999 FEW020 BKN280 29/25 Q1011 NOSIG",
      "metar_wdir": 100,
      "metar_wspd": 4,
      "metar_oat": 29,
      "metar_qnh": 1011,
      "hourly_oat": [
        28,
        28,
        28,
        28,
        28,
        27,
        28,
        28,
        28,
        28,
        29,
        30,
        28,
        30,
        31,
        32,
        31,
        31,
        31,
        31,
        30,
        30,
        30,
        29,
        29
      ]
    },
    "TPE": {
      "icao": "RCTP",
      "issued": "2026-05-31T11:00:00.000Z",
      "raw": "TAF RCTP 311100Z 3112/0118 05015KT 9999 FEW015 BECMG 3116/3118 01010KT FEW015 BKN032 TEMPO 3118/3124 03015KT 7000 -RA FEW010 BKN020 BKN040 TEMPO 0100/0106 5000 SHRA FEW010 BKN017",
      "groups": [
        {
          "text": "TAF RCTP 311100Z 3112/0118 05015KT 9999 FEW015",
          "offset_h": -2,
          "wdir": 50,
          "wspd": 15
        },
        {
          "text": "BECMG 3116/3118 01010KT FEW015 BKN032",
          "offset_h": 2,
          "wdir": 10,
          "wspd": 10
        },
        {
          "text": "TEMPO 3118/3124 03015KT 7000 -RA FEW010 BKN020 BKN040",
          "offset_h": 4,
          "wdir": 30,
          "wspd": 15
        },
        {
          "text": "TEMPO 0100/0106 5000 SHRA FEW010 BKN017",
          "offset_h": -14,
          "wdir": null,
          "wspd": null
        }
      ],
      "metar_raw": "METAR RCTP 311430Z 04012KT 9999 FEW015 SCT020 25/21 Q1010 NOSIG RMK A2984",
      "metar_wdir": 40,
      "metar_wspd": 12,
      "metar_oat": 25,
      "metar_qnh": 1010,
      "hourly_oat": [
        24,
        24,
        24,
        24,
        23,
        23,
        24,
        24,
        24,
        24,
        25,
        26,
        26,
        27,
        26,
        27,
        26,
        26,
        26,
        26,
        26,
        25,
        25,
        25,
        24
      ]
    },
    "DLC": {
      "icao": "ZYTL",
      "issued": "2026-05-31T09:21:00.000Z",
      "raw": "TAF ZYTL 310921Z 3112/0112 16004G10MPS 6000 FEW040 TX26/0106Z TN21/3121Z TEMPO 3117/3120 VRB06G12MPS 2800 -TSRA BR BKN008 BKN026 FEW033CB",
      "groups": [
        {
          "text": "TAF ZYTL 310921Z 3112/0112 16004G10MPS 6000 FEW040 TX26/0106Z TN21/3121Z",
          "offset_h": -2,
          "wdir": null,
          "wspd": null
        },
        {
          "text": "TEMPO 3117/3120 VRB06G12MPS 2800 -TSRA BR BKN008 BKN026 FEW033CB",
          "offset_h": 3,
          "wdir": null,
          "wspd": null
        }
      ],
      "metar_raw": "METAR ZYTL 311430Z 19007MPS CAVOK 24/09 Q1009 NOSIG",
      "metar_wdir": null,
      "metar_wspd": null,
      "metar_oat": 24,
      "metar_qnh": 1009,
      "hourly_oat": [
        21,
        21,
        21,
        21,
        20,
        21,
        21,
        21,
        21,
        22,
        23,
        25,
        27,
        28,
        29,
        28,
        28,
        28,
        28,
        27,
        25,
        23,
        22,
        22,
        21
      ]
    },
    "PVG": {
      "icao": "ZSPD",
      "issued": "2026-05-31T09:02:00.000Z",
      "raw": "TAF ZSPD 310902Z 3112/0118 11004MPS 8000 SCT030 TX24/3112Z TX29/0106Z TN20/3121Z",
      "groups": [
        {
          "text": "TAF ZSPD 310902Z 3112/0118 11004MPS 8000 SCT030 TX24/3112Z TX29/0106Z TN20/3121Z",
          "offset_h": -2,
          "wdir": null,
          "wspd": null
        }
      ],
      "metar_raw": "METAR ZSPD 311430Z 11004MPS CAVOK 22/18 Q1012 NOSIG",
      "metar_wdir": null,
      "metar_wspd": null,
      "metar_oat": 22,
      "metar_qnh": 1012,
      "hourly_oat": [
        21,
        21,
        20,
        20,
        20,
        20,
        20,
        20,
        22,
        23,
        24,
        25,
        26,
        26,
        27,
        27,
        26,
        26,
        25,
        25,
        24,
        23,
        23,
        23,
        23
      ]
    },
    "SHA": {
      "icao": "ZSSS",
      "issued": "2026-05-31T09:01:00.000Z",
      "raw": "TAF ZSSS 310901Z 3112/0118 11004MPS 8000 SCT030 TX26/3112Z TX31/0106Z TN21/3121Z",
      "groups": [
        {
          "text": "TAF ZSSS 310901Z 3112/0118 11004MPS 8000 SCT030 TX26/3112Z TX31/0106Z TN21/3121Z",
          "offset_h": -2,
          "wdir": null,
          "wspd": null
        }
      ],
      "metar_raw": "METAR ZSSS 311430Z 13004MPS CAVOK 23/14 Q1012 NOSIG",
      "metar_wdir": null,
      "metar_wspd": null,
      "metar_oat": 23,
      "metar_qnh": 1012,
      "hourly_oat": [
        23,
        22,
        21,
        21,
        20,
        20,
        20,
        20,
        21,
        22,
        25,
        27,
        29,
        30,
        32,
        33,
        34,
        33,
        32,
        31,
        28,
        27,
        26,
        25,
        24
      ]
    },
    "PEK": {
      "icao": "ZBAA",
      "issued": "2026-05-31T09:00:00.000Z",
      "raw": "TAF ZBAA 310900Z 3112/0118 19004MPS CAVOK TX35/0106Z TN19/3121Z TN24/0118Z",
      "groups": [
        {
          "text": "TAF ZBAA 310900Z 3112/0118 19004MPS CAVOK TX35/0106Z TN19/3121Z TN24/0118Z",
          "offset_h": -2,
          "wdir": null,
          "wspd": null
        }
      ],
      "metar_raw": "METAR ZBAA 311430Z 35002MPS 300V020 CAVOK 26/16 Q1006 NOSIG",
      "metar_wdir": null,
      "metar_wspd": null,
      "metar_oat": 26,
      "metar_qnh": 1006,
      "hourly_oat": [
        26,
        26,
        24,
        22,
        21,
        20,
        19,
        19,
        20,
        22,
        25,
        26,
        28,
        30,
        31,
        33,
        35,
        36,
        35,
        35,
        34,
        32,
        30,
        29,
        28
      ]
    }
  }
}