{
  "updated": "2026-07-18T06:52:21Z",
  "tafs": {
    "PEK": {
      "icao": "ZBAA",
      "issued": "2026-07-18T06:38:00.000Z",
      "raw": "TAF AMD ZBAA 180638Z 1806/1912 18004MPS CAVOK TX31/1806Z TX33/1906Z TN21/1821Z TEMPO 1808/1812 2800 -SHRA BR",
      "groups": [
        {
          "text": "TAF AMD ZBAA 180638Z 1806/1912 18004MPS CAVOK TX31/1806Z TX33/1906Z TN21/1821Z",
          "offset_h": 0,
          "wdir": null,
          "wspd": null
        },
        {
          "text": "TEMPO 1808/1812 2800 -SHRA BR",
          "offset_h": 2,
          "wdir": null,
          "wspd": null
        }
      ],
      "metar_raw": "METAR ZBAA 180630Z 18005MPS 9999 FEW016 30/21 Q1001 NOSIG",
      "metar_wdir": null,
      "metar_wspd": null,
      "metar_oat": 30,
      "metar_qnh": 1001,
      "hourly_oat": [
        29,
        29,
        29,
        29,
        28,
        28,
        26,
        26,
        26,
        25,
        25,
        24,
        21,
        21,
        21,
        21,
        22,
        22,
        23,
        25,
        26,
        26,
        27,
        28,
        28
      ]
    },
    "CAN": {
      "icao": "ZGGG",
      "issued": "2026-07-18T06:08:00.000Z",
      "raw": "TAF AMD ZGGG 180608Z 1806/1912 16003MPS 8000 BKN033 TX32/1807Z TX33/1907Z TN27/1822Z TEMPO 1806/1811 2000 +TSRA SCT026CB BKN033 TEMPO 1818/1822 SHRA FEW026CB BKN033 TEMPO 1908/1912 TSRA SCT026CB BKN033",
      "groups": [
        {
          "text": "TAF AMD ZGGG 180608Z 1806/1912 16003MPS 8000 BKN033 TX32/1807Z TX33/1907Z TN27/1822Z",
          "offset_h": 0,
          "wdir": null,
          "wspd": null
        },
        {
          "text": "TEMPO 1806/1811 2000 +TSRA SCT026CB BKN033",
          "offset_h": 0,
          "wdir": null,
          "wspd": null
        },
        {
          "text": "TEMPO 1818/1822 SHRA FEW026CB BKN033",
          "offset_h": 12,
          "wdir": null,
          "wspd": null
        },
        {
          "text": "TEMPO 1908/1912 TSRA SCT026CB BKN033",
          "offset_h": 26,
          "wdir": null,
          "wspd": null
        }
      ],
      "metar_raw": "METAR ZGGG 180630Z 15003MPS 120V180 8000 -TSRA FEW016 FEW020CB BKN033 25/25 Q1004 RESHRA BECMG AT0730 NSW",
      "metar_wdir": null,
      "metar_wspd": null,
      "metar_oat": 25,
      "metar_qnh": 1004,
      "hourly_oat": [
        33,
        32,
        31,
        29,
        27,
        27,
        27,
        27,
        26,
        26,
        26,
        26,
        26,
        26,
        26,
        25,
        25,
        26,
        27,
        28,
        30,
        30,
        31,
        31,
        32
      ]
    },
    "SAN": {
      "icao": "KSAN",
      "issued": "2026-07-18T05:58:00.000Z",
      "raw": "TAF KSAN 180558Z 1806/1912 VRB04KT P6SM BKN012 TEMPO 1806/1808 SCT015 BKN150 FM181700 24009KT P6SM FEW015 SCT150 FM190300 VRB04KT P6SM BKN012",
      "groups": [
        {
          "text": "TAF KSAN 180558Z 1806/1912 VRB04KT P6SM BKN012",
          "offset_h": 0,
          "wdir": "VRB",
          "wspd": 4
        },
        {
          "text": "TEMPO 1806/1808 SCT015 BKN150",
          "offset_h": 0,
          "wdir": null,
          "wspd": null
        },
        {
          "text": "FM181700 24009KT P6SM FEW015 SCT150",
          "offset_h": 11,
          "wdir": 240,
          "wspd": 9
        },
        {
          "text": "FM190300 VRB04KT P6SM BKN012",
          "offset_h": 21,
          "wdir": "VRB",
          "wspd": 4
        }
      ],
      "metar_raw": "METAR KSAN 180551Z VRB05KT 10SM BKN013 BKN160 22/18 A3000 RMK AO2 SLP158 T02170183 10239 20217 51013",
      "metar_wdir": "VRB",
      "metar_wspd": 5,
      "metar_oat": 22,
      "metar_qnh": 1016,
      "hourly_oat": [
        21,
        20,
        20,
        20,
        20,
        20,
        20,
        20,
        20,
        20,
        22,
        23,
        24,
        25,
        26,
        26,
        26,
        25,
        24,
        23,
        22,
        21,
        21,
        20,
        20
      ]
    },
    "HNL": {
      "icao": "PHNL",
      "issued": "2026-07-18T05:28:00.000Z",
      "raw": "TAF PHNL 180528Z 1806/1912 06014G20KT P6SM FEW025 FEW040 FM180800 06009KT P6SM FEW025 FEW040 FM182000 06017G26KT P6SM FEW025 SCT040 FM190500 06009KT P6SM FEW025 FEW040",
      "groups": [
        {
          "text": "TAF PHNL 180528Z 1806/1912 06014G20KT P6SM FEW025 FEW040",
          "offset_h": 0,
          "wdir": 60,
          "wspd": 14
        },
        {
          "text": "FM180800 06009KT P6SM FEW025 FEW040",
          "offset_h": 2,
          "wdir": 60,
          "wspd": 9
        },
        {
          "text": "FM182000 06017G26KT P6SM FEW025 SCT040",
          "offset_h": 14,
          "wdir": 60,
          "wspd": 17
        },
        {
          "text": "FM190500 06009KT P6SM FEW025 FEW040",
          "offset_h": 23,
          "wdir": 60,
          "wspd": 9
        }
      ],
      "metar_raw": "METAR PHNL 180553Z 06013KT 10SM FEW025 FEW045 27/21 A2998 RMK AO2 SLP150 T02720206 10317 20272 53007 $",
      "metar_wdir": 60,
      "metar_wspd": 13,
      "metar_oat": 27,
      "metar_qnh": 1015,
      "hourly_oat": [
        25,
        25,
        25,
        24,
        24,
        24,
        24,
        24,
        24,
        24,
        24,
        25,
        26,
        28,
        28,
        29,
        30,
        30,
        30,
        30,
        29,
        28,
        26,
        25,
        24
      ]
    },
    "LAX": {
      "icao": "KLAX",
      "issued": "2026-07-18T05:20:00.000Z",
      "raw": "TAF KLAX 180520Z 1806/1912 VRB03KT P6SM FEW012 FM180800 11007KT P6SM OVC012 FM181600 16005KT P6SM SCT015 FM181900 26012KT P6SM FEW025 FM190300 24006KT P6SM FEW015 SCT150 FM190600 VRB03KT P6SM FEW015 SCT150 FM190900 VRB03KT P6SM BKN015",
      "groups": [
        {
          "text": "TAF KLAX 180520Z 1806/1912 VRB03KT P6SM FEW012",
          "offset_h": 0,
          "wdir": "VRB",
          "wspd": 3
        },
        {
          "text": "FM180800 11007KT P6SM OVC012",
          "offset_h": 2,
          "wdir": 110,
          "wspd": 7
        },
        {
          "text": "FM181600 16005KT P6SM SCT015",
          "offset_h": 10,
          "wdir": 160,
          "wspd": 5
        },
        {
          "text": "FM181900 26012KT P6SM FEW025",
          "offset_h": 13,
          "wdir": 260,
          "wspd": 12
        },
        {
          "text": "FM190300 24006KT P6SM FEW015 SCT150",
          "offset_h": 21,
          "wdir": 240,
          "wspd": 6
        },
        {
          "text": "FM190600 VRB03KT P6SM FEW015 SCT150",
          "offset_h": 24,
          "wdir": "VRB",
          "wspd": 3
        },
        {
          "text": "FM190900 VRB03KT P6SM BKN015",
          "offset_h": 27,
          "wdir": "VRB",
          "wspd": 3
        }
      ],
      "metar_raw": "METAR KLAX 180553Z 22003KT 10SM FEW012 SCT110 BKN150 22/18 A2998 RMK AO2 SLP148 T02170183 10244 20211 51014 $",
      "metar_wdir": 220,
      "metar_wspd": 3,
      "metar_oat": 22,
      "metar_qnh": 1015,
      "hourly_oat": [
        19,
        19,
        18,
        18,
        18,
        18,
        18,
        19,
        20,
        22,
        23,
        25,
        27,
        26,
        26,
        26,
        25,
        24,
        24,
        22,
        21,
        20,
        20,
        20,
        19
      ]
    },
    "ITM": {
      "icao": "RJOO",
      "issued": "2026-07-18T05:05:00.000Z",
      "raw": "TAF RJOO 180505Z 1806/1912 24006KT 9999 FEW025 SCT045 BECMG 1821/1900 21006KT BECMG 1903/1906 24008KT",
      "groups": [
        {
          "text": "TAF RJOO 180505Z 1806/1912 24006KT 9999 FEW025 SCT045",
          "offset_h": 0,
          "wdir": 240,
          "wspd": 6
        },
        {
          "text": "BECMG 1821/1900 21006KT",
          "offset_h": 15,
          "wdir": 210,
          "wspd": 6
        },
        {
          "text": "BECMG 1903/1906 24008KT",
          "offset_h": 21,
          "wdir": 240,
          "wspd": 8
        }
      ],
      "metar_raw": "METAR RJOO 180600Z 25010KT 210V290 9999 FEW030 SCT/// 34/24 Q1003",
      "metar_wdir": 250,
      "metar_wspd": 10,
      "metar_oat": 34,
      "metar_qnh": 1003,
      "hourly_oat": [
        32,
        31,
        30,
        30,
        29,
        28,
        28,
        27,
        27,
        27,
        26,
        26,
        26,
        26,
        26,
        26,
        27,
        28,
        29,
        30,
        31,
        32,
        32,
        32,
        32
      ]
    },
    "OKA": {
      "icao": "ROAH",
      "issued": "2026-07-18T05:05:00.000Z",
      "raw": "TAF ROAH 180505Z 1806/1912 20008KT 9999 FEW008 SCT015 TEMPO 1812/1814 FEW005 BKN008 TEMPO 1814/1821 FEW003 BKN005 TEMPO 1821/1900 FEW005 BKN008",
      "groups": [
        {
          "text": "TAF ROAH 180505Z 1806/1912 20008KT 9999 FEW008 SCT015",
          "offset_h": 0,
          "wdir": 200,
          "wspd": 8
        },
        {
          "text": "TEMPO 1812/1814 FEW005 BKN008",
          "offset_h": 6,
          "wdir": null,
          "wspd": null
        },
        {
          "text": "TEMPO 1814/1821 FEW003 BKN005",
          "offset_h": 8,
          "wdir": null,
          "wspd": null
        },
        {
          "text": "TEMPO 1821/1900 FEW005 BKN008",
          "offset_h": 15,
          "wdir": null,
          "wspd": null
        }
      ],
      "metar_raw": "METAR ROAH 180630Z 20009KT 9999 FEW007 BKN010 30/28 Q1005",
      "metar_wdir": 200,
      "metar_wspd": 9,
      "metar_oat": 30,
      "metar_qnh": 1005,
      "hourly_oat": [
        30,
        30,
        30,
        29,
        28,
        28,
        28,
        28,
        28,
        28,
        27,
        27,
        27,
        27,
        27,
        27,
        28,
        29,
        30,
        31,
        31,
        31,
        31,
        30,
        30
      ]
    },
    "NGO": {
      "icao": "RJGG",
      "issued": "2026-07-18T05:05:00.000Z",
      "raw": "TAF RJGG 180505Z 1806/1912 14012KT 9999 FEW020 BKN040",
      "groups": [
        {
          "text": "TAF RJGG 180505Z 1806/1912 14012KT 9999 FEW020 BKN040",
          "offset_h": 0,
          "wdir": 140,
          "wspd": 12
        }
      ],
      "metar_raw": "METAR RJGG 180630Z 16015KT 9999 FEW020 SCT070 30/25 Q1005 NOSIG",
      "metar_wdir": 160,
      "metar_wspd": 15,
      "metar_oat": 30,
      "metar_qnh": 1005,
      "hourly_oat": [
        28,
        28,
        28,
        28,
        27,
        27,
        27,
        27,
        27,
        27,
        27,
        27,
        27,
        26,
        26,
        26,
        26,
        27,
        27,
        28,
        28,
        28,
        28,
        28,
        28
      ]
    },
    "FUK": {
      "icao": "RJFF",
      "issued": "2026-07-18T05:05:00.000Z",
      "raw": "TAF RJFF 180505Z 1806/1912 31006KT 9999 FEW040 BECMG 1808/1810 15010KT BECMG 1903/1906 34011KT",
      "groups": [
        {
          "text": "TAF RJFF 180505Z 1806/1912 31006KT 9999 FEW040",
          "offset_h": 0,
          "wdir": 310,
          "wspd": 6
        },
        {
          "text": "BECMG 1808/1810 15010KT",
          "offset_h": 2,
          "wdir": 150,
          "wspd": 10
        },
        {
          "text": "BECMG 1903/1906 34011KT",
          "offset_h": 21,
          "wdir": 340,
          "wspd": 11
        }
      ],
      "metar_raw": "METAR RJFF 180630Z 18014KT 150V210 9999 FEW025 SCT060 BKN/// 35/25 Q1001 BECMG 31006KT",
      "metar_wdir": 180,
      "metar_wspd": 14,
      "metar_oat": 35,
      "metar_qnh": 1001,
      "hourly_oat": [
        32,
        32,
        32,
        32,
        31,
        30,
        29,
        28,
        28,
        28,
        28,
        27,
        27,
        27,
        27,
        27,
        28,
        29,
        30,
        32,
        33,
        33,
        33,
        32,
        30
      ]
    },
    "CTS": {
      "icao": "RJCC",
      "issued": "2026-07-18T05:05:00.000Z",
      "raw": "TAF RJCC 180505Z 1806/1912 15014KT 8000 -SHRA FEW003 BKN012 TEMPO 1806/1809 1500 -SHRA BR FEW001 BKN003 TEMPO 1809/1811 2000 SHRA BR FEW001 BKN003 TEMPO 1811/1821 15022G32KT 2000 SHRA BR FEW001 BKN003 TEMPO 1821/1906 4000 -SHRA BR FEW003 BKN005 TEMPO 1906/1912 3000 -SHRA BR FEW001 BKN003",
      "groups": [
        {
          "text": "TAF RJCC 180505Z 1806/1912 15014KT 8000 -SHRA FEW003 BKN012",
          "offset_h": 0,
          "wdir": 150,
          "wspd": 14
        },
        {
          "text": "TEMPO 1806/1809 1500 -SHRA BR FEW001 BKN003",
          "offset_h": 0,
          "wdir": null,
          "wspd": null
        },
        {
          "text": "TEMPO 1809/1811 2000 SHRA BR FEW001 BKN003",
          "offset_h": 3,
          "wdir": null,
          "wspd": null
        },
        {
          "text": "TEMPO 1811/1821 15022G32KT 2000 SHRA BR FEW001 BKN003",
          "offset_h": 5,
          "wdir": 150,
          "wspd": 22
        },
        {
          "text": "TEMPO 1821/1906 4000 -SHRA BR FEW003 BKN005",
          "offset_h": 15,
          "wdir": null,
          "wspd": null
        },
        {
          "text": "TEMPO 1906/1912 3000 -SHRA BR FEW001 BKN003",
          "offset_h": 24,
          "wdir": null,
          "wspd": null
        }
      ],
      "metar_raw": "METAR RJCC 180630Z 16012KT 5000 -RA BR FEW001 SCT003 BKN004 22/22 Q1009",
      "metar_wdir": 160,
      "metar_wspd": 12,
      "metar_oat": 22,
      "metar_qnh": 1009,
      "hourly_oat": [
        22,
        21,
        21,
        21,
        20,
        20,
        20,
        20,
        20,
        20,
        20,
        20,
        20,
        20,
        20,
        20,
        20,
        20,
        21,
        21,
        21,
        21,
        21,
        21,
        21
      ]
    },
    "NRT": {
      "icao": "RJAA",
      "issued": "2026-07-18T05:05:00.000Z",
      "raw": "TAF RJAA 180505Z 1806/1912 14008KT 9999 FEW020 SCT040",
      "groups": [
        {
          "text": "TAF RJAA 180505Z 1806/1912 14008KT 9999 FEW020 SCT040",
          "offset_h": 0,
          "wdir": 140,
          "wspd": 8
        }
      ],
      "metar_raw": "METAR RJAA 180630Z 15010KT 9999 FEW020 SCT025 BKN050 27/23 Q1007 NOSIG",
      "metar_wdir": 150,
      "metar_wspd": 10,
      "metar_oat": 27,
      "metar_qnh": 1007,
      "hourly_oat": [
        27,
        26,
        26,
        26,
        25,
        25,
        24,
        24,
        24,
        23,
        23,
        23,
        23,
        23,
        23,
        24,
        25,
        27,
        28,
        29,
        29,
        29,
        29,
        29,
        29
      ]
    },
    "KIX": {
      "icao": "RJBB",
      "issued": "2026-07-18T05:05:00.000Z",
      "raw": "TAF RJBB 180505Z 1806/1912 20006KT 9999 FEW030 SCT050 BECMG 1815/1817 10004KT BECMG 1900/1903 24014KT",
      "groups": [
        {
          "text": "TAF RJBB 180505Z 1806/1912 20006KT 9999 FEW030 SCT050",
          "offset_h": 0,
          "wdir": 200,
          "wspd": 6
        },
        {
          "text": "BECMG 1815/1817 10004KT",
          "offset_h": 9,
          "wdir": 100,
          "wspd": 4
        },
        {
          "text": "BECMG 1900/1903 24014KT",
          "offset_h": 18,
          "wdir": 240,
          "wspd": 14
        }
      ],
      "metar_raw": "METAR RJBB 180630Z 22016KT 9999 VCSH FEW020 SCT/// 33/25 Q1003 NOSIG",
      "metar_wdir": 220,
      "metar_wspd": 16,
      "metar_oat": 33,
      "metar_qnh": 1003,
      "hourly_oat": [
        30,
        29,
        29,
        29,
        29,
        28,
        28,
        28,
        28,
        28,
        28,
        28,
        28,
        27,
        27,
        27,
        27,
        28,
        28,
        28,
        28,
        28,
        29,
        29,
        29
      ]
    },
    "HND": {
      "icao": "RJTT",
      "issued": "2026-07-18T05:05:00.000Z",
      "raw": "TAF RJTT 180505Z 1806/1912 11006KT 9999 FEW010 BKN040 BECMG 1807/1809 17010KT",
      "groups": [
        {
          "text": "TAF RJTT 180505Z 1806/1912 11006KT 9999 FEW010 BKN040",
          "offset_h": 0,
          "wdir": 110,
          "wspd": 6
        },
        {
          "text": "BECMG 1807/1809 17010KT",
          "offset_h": 1,
          "wdir": 170,
          "wspd": 10
        }
      ],
      "metar_raw": "METAR RJTT 180630Z 09008KT 9999 VCSH FEW008 SCT030 BKN060 27/25 Q1007 BECMG TL0730 18010KT",
      "metar_wdir": 90,
      "metar_wspd": 8,
      "metar_oat": 27,
      "metar_qnh": 1007,
      "hourly_oat": [
        28,
        28,
        28,
        28,
        27,
        26,
        26,
        26,
        25,
        25,
        25,
        25,
        25,
        25,
        25,
        25,
        26,
        27,
        28,
        29,
        29,
        30,
        30,
        30,
        29
      ]
    },
    "BKK": {
      "icao": "VTBS",
      "issued": "2026-07-18T05:00:00.000Z",
      "raw": "TAF VTBS 180500Z 1806/1912 24008KT 9999 FEW020",
      "groups": [
        {
          "text": "TAF VTBS 180500Z 1806/1912 24008KT 9999 FEW020",
          "offset_h": 0,
          "wdir": 240,
          "wspd": 8
        }
      ],
      "metar_raw": "METAR VTBS 180630Z 26010KT 230V300 9999 FEW020 35/20 Q1008 NOSIG",
      "metar_wdir": 260,
      "metar_wspd": 10,
      "metar_oat": 35,
      "metar_qnh": 1008,
      "hourly_oat": [
        32,
        32,
        33,
        32,
        31,
        30,
        29,
        28,
        28,
        28,
        28,
        28,
        28,
        27,
        26,
        26,
        25,
        25,
        26,
        28,
        29,
        31,
        32,
        33,
        33
      ]
    },
    "GMP": {
      "icao": "RKSS",
      "issued": "2026-07-18T05:00:00.000Z",
      "raw": "TAF RKSS 180500Z 1806/1912 11006KT 9999 FEW010 BKN028 TN24/1821Z TX30/1906Z TEMPO 1816/1818 6000 -RA BECMG 1819/1821 18005KT 4000 BR BECMG 1822/1824 24007KT 6000 NSW SCT040",
      "groups": [
        {
          "text": "TAF RKSS 180500Z 1806/1912 11006KT 9999 FEW010 BKN028 TN24/1821Z TX30/1906Z",
          "offset_h": 0,
          "wdir": 110,
          "wspd": 6
        },
        {
          "text": "TEMPO 1816/1818 6000 -RA",
          "offset_h": 10,
          "wdir": null,
          "wspd": null
        },
        {
          "text": "BECMG 1819/1821 18005KT 4000 BR",
          "offset_h": 13,
          "wdir": 180,
          "wspd": 5
        },
        {
          "text": "BECMG 1822/1824 24007KT 6000 NSW SCT040",
          "offset_h": 16,
          "wdir": 240,
          "wspd": 7
        }
      ],
      "metar_raw": "METAR RKSS 180600Z 23002KT 9999 SCT025 BKN070 28/24 Q0999 NOSIG",
      "metar_wdir": 230,
      "metar_wspd": 2,
      "metar_oat": 28,
      "metar_qnh": 999,
      "hourly_oat": [
        27,
        27,
        27,
        26,
        26,
        25,
        24,
        23,
        23,
        23,
        23,
        23,
        23,
        23,
        22,
        23,
        23,
        24,
        25,
        26,
        26,
        26,
        26,
        26,
        26
      ]
    },
    "CGK": {
      "icao": "WIII",
      "issued": "2026-07-18T05:00:00.000Z",
      "raw": "TAF WIII 180500Z 1806/1912 05015KT 7000 SCT020 BECMG 1812/1814 15007KT 4000 HZ",
      "groups": [
        {
          "text": "TAF WIII 180500Z 1806/1912 05015KT 7000 SCT020",
          "offset_h": 0,
          "wdir": 50,
          "wspd": 15
        },
        {
          "text": "BECMG 1812/1814 15007KT 4000 HZ",
          "offset_h": 6,
          "wdir": 150,
          "wspd": 7
        }
      ],
      "metar_raw": "METAR WIII 180630Z 04015KT 5000 HZ FEW020 32/23 Q1010 NOSIG",
      "metar_wdir": 40,
      "metar_wspd": 15,
      "metar_oat": 32,
      "metar_qnh": 1010,
      "hourly_oat": [
        33,
        32,
        32,
        31,
        30,
        29,
        28,
        28,
        27,
        27,
        26,
        26,
        25,
        25,
        25,
        24,
        24,
        24,
        25,
        27,
        29,
        31,
        32,
        33,
        33
      ]
    },
    "SGN": {
      "icao": "VVTS",
      "issued": "2026-07-18T05:00:00.000Z",
      "raw": "TAF VVTS 180500Z 1806/1912 26008KT 9999 SCT017 TEMPO 1808/1811 5000 TSRA SCT015 FEW017CB TEMPO 1907/1910 26015G25KT 3000 TSRA SCT015 SCT017CB",
      "groups": [
        {
          "text": "TAF VVTS 180500Z 1806/1912 26008KT 9999 SCT017",
          "offset_h": 0,
          "wdir": 260,
          "wspd": 8
        },
        {
          "text": "TEMPO 1808/1811 5000 TSRA SCT015 FEW017CB",
          "offset_h": 2,
          "wdir": null,
          "wspd": null
        },
        {
          "text": "TEMPO 1907/1910 26015G25KT 3000 TSRA SCT015 SCT017CB",
          "offset_h": 25,
          "wdir": 260,
          "wspd": 15
        }
      ],
      "metar_raw": "METAR VVTS 180630Z 25010KT 9999 SCT022 FEW025CB 34/26 Q1008 NOSIG",
      "metar_wdir": 250,
      "metar_wspd": 10,
      "metar_oat": 34,
      "metar_qnh": 1008,
      "hourly_oat": [
        32,
        28,
        28,
        28,
        28,
        28,
        27,
        27,
        26,
        26,
        26,
        26,
        26,
        26,
        25,
        25,
        25,
        25,
        26,
        28,
        30,
        31,
        32,
        33,
        33
      ]
    },
    "HAN": {
      "icao": "VVNB",
      "issued": "2026-07-18T05:00:00.000Z",
      "raw": "TAF VVNB 180500Z 1806/1906 30006KT 9999 FEW030 TEMPO 1811/1814 3500 TSRA SCT012 FEW027CB TEMPO 1820/1901 3000 TSRA SCT010 FEW027CB",
      "groups": [
        {
          "text": "TAF VVNB 180500Z 1806/1906 30006KT 9999 FEW030",
          "offset_h": 0,
          "wdir": 300,
          "wspd": 6
        },
        {
          "text": "TEMPO 1811/1814 3500 TSRA SCT012 FEW027CB",
          "offset_h": 5,
          "wdir": null,
          "wspd": null
        },
        {
          "text": "TEMPO 1820/1901 3000 TSRA SCT010 FEW027CB",
          "offset_h": 14,
          "wdir": null,
          "wspd": null
        }
      ],
      "metar_raw": "METAR VVNB 180630Z VRB05KT CAVOK 35/24 Q1000 NOSIG",
      "metar_wdir": "VRB",
      "metar_wspd": 5,
      "metar_oat": 35,
      "metar_qnh": 1000,
      "hourly_oat": [
        34,
        34,
        34,
        34,
        33,
        32,
        31,
        30,
        29,
        29,
        29,
        28,
        27,
        27,
        27,
        27,
        27,
        27,
        27,
        28,
        29,
        30,
        31,
        31,
        31
      ]
    },
    "KUL": {
      "icao": "WMKK",
      "issued": "2026-07-18T05:00:00.000Z",
      "raw": "TAF WMKK 180500Z 1806/1912 VRB03KT 9999 FEW018 PROB40 TEMPO 1806/1810 5000 TSRA FEW017CB SCT018",
      "groups": [
        {
          "text": "TAF WMKK 180500Z 1806/1912 VRB03KT 9999 FEW018",
          "offset_h": 0,
          "wdir": "VRB",
          "wspd": 3
        },
        {
          "text": "PROB40",
          "offset_h": 0,
          "wdir": null,
          "wspd": null
        },
        {
          "text": "TEMPO 1806/1810 5000 TSRA FEW017CB SCT018",
          "offset_h": 0,
          "wdir": null,
          "wspd": null
        }
      ],
      "metar_raw": "METAR WMKK 180630Z 25005KT 170V330 9000 FEW017CB SCT018 32/25 Q1009 NOSIG",
      "metar_wdir": 250,
      "metar_wspd": 5,
      "metar_oat": 32,
      "metar_qnh": 1009,
      "hourly_oat": [
        30,
        28,
        27,
        26,
        25,
        25,
        24,
        24,
        24,
        24,
        23,
        23,
        23,
        23,
        23,
        23,
        23,
        23,
        23,
        25,
        27,
        28,
        29,
        27,
        28
      ]
    },
    "SIN": {
      "icao": "WSSS",
      "issued": "2026-07-18T05:00:00.000Z",
      "raw": "TAF WSSS 180500Z 1806/1912 14009KT 9999 FEW015 SCT020",
      "groups": [
        {
          "text": "TAF WSSS 180500Z 1806/1912 14009KT 9999 FEW015 SCT020",
          "offset_h": 0,
          "wdir": 140,
          "wspd": 9
        }
      ],
      "metar_raw": "METAR WSSS 180630Z 13009KT 100V160 9999 FEW020TCU BKN300 32/24 Q1009 NOSIG",
      "metar_wdir": 130,
      "metar_wspd": 9,
      "metar_oat": 32,
      "metar_qnh": 1009,
      "hourly_oat": [
        31,
        30,
        29,
        29,
        28,
        28,
        27,
        26,
        26,
        25,
        25,
        25,
        25,
        25,
        25,
        25,
        25,
        25,
        26,
        28,
        29,
        30,
        31,
        32,
        32
      ]
    },
    "TSA": {
      "icao": "RCSS",
      "issued": "2026-07-18T05:00:00.000Z",
      "raw": "TAF RCSS 180500Z 1806/1906 27005KT 9999 FEW010 BKN032 TEMPO 1806/1812 26013KT 4000 SHRA FEW010 BKN017 FEW020CB TEMPO 1812/1818 09005KT",
      "groups": [
        {
          "text": "TAF RCSS 180500Z 1806/1906 27005KT 9999 FEW010 BKN032",
          "offset_h": 0,
          "wdir": 270,
          "wspd": 5
        },
        {
          "text": "TEMPO 1806/1812 26013KT 4000 SHRA FEW010 BKN017 FEW020CB",
          "offset_h": 0,
          "wdir": 260,
          "wspd": 13
        },
        {
          "text": "TEMPO 1812/1818 09005KT",
          "offset_h": 6,
          "wdir": 90,
          "wspd": 5
        }
      ],
      "metar_raw": "METAR RCSS 180630Z 26011KT 9999 FEW016 BKN032 BKN060 35/25 Q1004 NOSIG RMK 25010KT/R10 A2966",
      "metar_wdir": 260,
      "metar_wspd": 11,
      "metar_oat": 35,
      "metar_qnh": 1004,
      "hourly_oat": [
        33,
        33,
        32,
        31,
        30,
        29,
        29,
        28,
        28,
        27,
        27,
        26,
        26,
        26,
        25,
        25,
        25,
        27,
        29,
        31,
        33,
        34,
        32,
        30,
        30
      ]
    },
    "TPE": {
      "icao": "RCTP",
      "issued": "2026-07-18T05:00:00.000Z",
      "raw": "TAF RCTP 180500Z 1806/1912 24014KT 9999 FEW010 BKN032 TEMPO 1806/1812 24020KT TEMPO 1812/1818 24009KT TEMPO 1818/1824 24005KT TEMPO 1900/1906 25005KT",
      "groups": [
        {
          "text": "TAF RCTP 180500Z 1806/1912 24014KT 9999 FEW010 BKN032",
          "offset_h": 0,
          "wdir": 240,
          "wspd": 14
        },
        {
          "text": "TEMPO 1806/1812 24020KT",
          "offset_h": 0,
          "wdir": 240,
          "wspd": 20
        },
        {
          "text": "TEMPO 1812/1818 24009KT",
          "offset_h": 6,
          "wdir": 240,
          "wspd": 9
        },
        {
          "text": "TEMPO 1818/1824 24005KT",
          "offset_h": 12,
          "wdir": 240,
          "wspd": 5
        },
        {
          "text": "TEMPO 1900/1906 25005KT",
          "offset_h": 18,
          "wdir": 250,
          "wspd": 5
        }
      ],
      "metar_raw": "METAR RCTP 180630Z 25018KT 9999 FEW020 SCT200 34/25 Q1004 WS R23R NOSIG RMK A2967",
      "metar_wdir": 250,
      "metar_wspd": 18,
      "metar_oat": 34,
      "metar_qnh": 1004,
      "hourly_oat": [
        31,
        31,
        31,
        30,
        29,
        28,
        28,
        28,
        28,
        27,
        27,
        27,
        26,
        26,
        26,
        26,
        26,
        28,
        29,
        30,
        31,
        30,
        30,
        30,
        30
      ]
    },
    "HKG": {
      "icao": "VHHH",
      "issued": "2026-07-18T05:00:00.000Z",
      "raw": "TAF VHHH 180500Z 1806/1912 20010KT 9999 FEW010 SCT025 TX31/1806Z TX30/1906Z TN27/1822Z TEMPO 1806/1808 3000 SHRA FEW010CB SCT020 TEMPO 1821/1903 24015G25KT 2500 TSRA SHRA FEW008CB SCT015 TEMPO 1903/1906 3000 SHRA FEW010CB SCT020",
      "groups": [
        {
          "text": "TAF VHHH 180500Z 1806/1912 20010KT 9999 FEW010 SCT025 TX31/1806Z TX30/1906Z TN27/1822Z",
          "offset_h": 0,
          "wdir": 200,
          "wspd": 10
        },
        {
          "text": "TEMPO 1806/1808 3000 SHRA FEW010CB SCT020",
          "offset_h": 0,
          "wdir": null,
          "wspd": null
        },
        {
          "text": "TEMPO 1821/1903 24015G25KT 2500 TSRA SHRA FEW008CB SCT015",
          "offset_h": 15,
          "wdir": 240,
          "wspd": 15
        },
        {
          "text": "TEMPO 1903/1906 3000 SHRA FEW010CB SCT020",
          "offset_h": 21,
          "wdir": null,
          "wspd": null
        }
      ],
      "metar_raw": "METAR VHHH 180630Z 21008KT 9999 FEW012 FEW015CB SCT025 31/26 Q1004 NOSIG",
      "metar_wdir": 210,
      "metar_wspd": 8,
      "metar_oat": 31,
      "metar_qnh": 1004,
      "hourly_oat": [
        30,
        30,
        29,
        29,
        29,
        29,
        29,
        29,
        29,
        29,
        29,
        28,
        28,
        28,
        28,
        28,
        28,
        27,
        28,
        28,
        28,
        28,
        29,
        28,
        27
      ]
    },
    "DLC": {
      "icao": "ZYTL",
      "issued": "2026-07-18T03:17:00.000Z",
      "raw": "TAF ZYTL 180317Z 1806/1906 30004MPS 5000 BR FEW040 TX29/1806Z TN23/1820Z",
      "groups": [
        {
          "text": "TAF ZYTL 180317Z 1806/1906 30004MPS 5000 BR FEW040 TX29/1806Z TN23/1820Z",
          "offset_h": 0,
          "wdir": null,
          "wspd": null
        }
      ],
      "metar_raw": "METAR ZYTL 180630Z 32005MPS 290V350 CAVOK 30/19 Q1001 NOSIG",
      "metar_wdir": null,
      "metar_wspd": null,
      "metar_oat": 30,
      "metar_qnh": 1001,
      "hourly_oat": [
        28,
        28,
        27,
        27,
        26,
        25,
        24,
        24,
        24,
        24,
        24,
        24,
        24,
        23,
        23,
        23,
        24,
        24,
        25,
        26,
        27,
        28,
        28,
        28,
        29
      ]
    },
    "PVG": {
      "icao": "ZSPD",
      "issued": "2026-07-18T03:08:00.000Z",
      "raw": "TAF ZSPD 180308Z 1806/1912 28004MPS 8000 SCT030 TX37/1806Z TX33/1906Z TN28/1821Z TEMPO 1806/1810 TSRA BKN011 FEW030CB",
      "groups": [
        {
          "text": "TAF ZSPD 180308Z 1806/1912 28004MPS 8000 SCT030 TX37/1806Z TX33/1906Z TN28/1821Z",
          "offset_h": 0,
          "wdir": null,
          "wspd": null
        },
        {
          "text": "TEMPO 1806/1810 TSRA BKN011 FEW030CB",
          "offset_h": 0,
          "wdir": null,
          "wspd": null
        }
      ],
      "metar_raw": "SPECI ZSPD 180646Z 10007MPS 040V110 9999 FEW030CB 32/28 Q1000 NOSIG",
      "metar_wdir": null,
      "metar_wspd": null,
      "metar_oat": 32,
      "metar_qnh": 1000,
      "hourly_oat": [
        32,
        32,
        33,
        32,
        31,
        30,
        30,
        30,
        29,
        28,
        28,
        28,
        28,
        28,
        28,
        28,
        28,
        29,
        30,
        31,
        31,
        31,
        32,
        29,
        28
      ]
    },
    "SHA": {
      "icao": "ZSSS",
      "issued": "2026-07-18T03:07:00.000Z",
      "raw": "TAF ZSSS 180307Z 1806/1912 28004MPS 8000 SCT030 TX37/1806Z TX33/1906Z TN28/1821Z TEMPO 1806/1810 TSRA BKN011 FEW030CB",
      "groups": [
        {
          "text": "TAF ZSSS 180307Z 1806/1912 28004MPS 8000 SCT030 TX37/1806Z TX33/1906Z TN28/1821Z",
          "offset_h": 0,
          "wdir": null,
          "wspd": null
        },
        {
          "text": "TEMPO 1806/1810 TSRA BKN011 FEW030CB",
          "offset_h": 0,
          "wdir": null,
          "wspd": null
        }
      ],
      "metar_raw": "METAR ZSSS 180630Z 34005MPS 290V010 9999 -SHRA FEW030CB 32/29 Q1000 NOSIG",
      "metar_wdir": null,
      "metar_wspd": null,
      "metar_oat": 32,
      "metar_qnh": 1000,
      "hourly_oat": [
        35,
        35,
        36,
        31,
        32,
        32,
        31,
        31,
        29,
        29,
        28,
        28,
        28,
        28,
        28,
        28,
        28,
        29,
        30,
        31,
        32,
        34,
        35,
        35,
        28
      ]
    }
  }
}