{
  "updated": "2026-06-01T19:24:01Z",
  "tafs": {
    "SAN": {
      "icao": "KSAN",
      "issued": "2026-06-01T19:01:00.000Z",
      "raw": "TAF KSAN 011901Z 0119/0224 24010G22KT P6SM FEW018 FM012300 24008KT P6SM SCT015 FM020300 VRB04KT P6SM OVC015 TEMPO 0209/0213 OVC010 FM021800 VRB04KT P6SM SCT018 FM022000 28010KT P6SM FEW020",
      "groups": [
        {
          "text": "TAF KSAN 011901Z 0119/0224 24010G22KT P6SM FEW018",
          "offset_h": 0,
          "wdir": 240,
          "wspd": 10
        },
        {
          "text": "FM012300 24008KT P6SM SCT015",
          "offset_h": 4,
          "wdir": 240,
          "wspd": 8
        },
        {
          "text": "FM020300 VRB04KT P6SM OVC015",
          "offset_h": 8,
          "wdir": "VRB",
          "wspd": 4
        },
        {
          "text": "TEMPO 0209/0213 OVC010",
          "offset_h": 14,
          "wdir": null,
          "wspd": null
        },
        {
          "text": "FM021800 VRB04KT P6SM SCT018",
          "offset_h": 23,
          "wdir": "VRB",
          "wspd": 4
        },
        {
          "text": "FM022000 28010KT P6SM FEW020",
          "offset_h": 25,
          "wdir": 280,
          "wspd": 10
        }
      ],
      "metar_raw": "METAR KSAN 011851Z 22009G19KT 200V280 10SM FEW019 20/13 A2998 RMK AO2 SLP153 T02000133 $",
      "metar_wdir": 220,
      "metar_wspd": 9,
      "metar_oat": 20,
      "metar_qnh": 1015,
      "hourly_oat": [
        21,
        21,
        22,
        22,
        21,
        20,
        19,
        18,
        17,
        17,
        17,
        16,
        16,
        15,
        15,
        15,
        15,
        15,
        15,
        15,
        16,
        17,
        18,
        20,
        21
      ]
    },
    "HNL": {
      "icao": "PHNL",
      "issued": "2026-06-01T17:37:00.000Z",
      "raw": "TAF PHNL 011737Z 0118/0224 06008KT P6SM VCSH FEW025 SCT040 FM012100 07012G20KT P6SM VCSH FEW025 SCT040 FM020700 05008KT P6SM VCSH FEW020 SCT035 FM022000 07014G22KT P6SM FEW025 SCT040",
      "groups": [
        {
          "text": "TAF PHNL 011737Z 0118/0224 06008KT P6SM VCSH FEW025 SCT040",
          "offset_h": -1,
          "wdir": 60,
          "wspd": 8
        },
        {
          "text": "FM012100 07012G20KT P6SM VCSH FEW025 SCT040",
          "offset_h": 2,
          "wdir": 70,
          "wspd": 12
        },
        {
          "text": "FM020700 05008KT P6SM VCSH FEW020 SCT035",
          "offset_h": 12,
          "wdir": 50,
          "wspd": 8
        },
        {
          "text": "FM022000 07014G22KT P6SM FEW025 SCT040",
          "offset_h": 25,
          "wdir": 70,
          "wspd": 14
        }
      ],
      "metar_raw": "METAR PHNL 011853Z 08014G20KT 10SM FEW025 SCT045 28/19 A2997 RMK AO2 SLP148 T02780194",
      "metar_wdir": 80,
      "metar_wspd": 14,
      "metar_oat": 28,
      "metar_qnh": 1015,
      "hourly_oat": [
        25,
        27,
        27,
        28,
        28,
        29,
        28,
        27,
        27,
        25,
        24,
        24,
        23,
        23,
        22,
        22,
        22,
        22,
        22,
        22,
        22,
        22,
        23,
        24,
        25
      ]
    },
    "LAX": {
      "icao": "KLAX",
      "issued": "2026-06-01T17:31:00.000Z",
      "raw": "TAF KLAX 011731Z 0118/0224 20008KT P6SM FEW010 SCT025 FM012100 25012KT P6SM SCT025 FM020300 25006KT P6SM BKN010 FM020600 VRB03KT P6SM BKN008 FM021800 25006KT P6SM SCT012 FM022100 26012KT P6SM SCT250",
      "groups": [
        {
          "text": "TAF KLAX 011731Z 0118/0224 20008KT P6SM FEW010 SCT025",
          "offset_h": -1,
          "wdir": 200,
          "wspd": 8
        },
        {
          "text": "FM012100 25012KT P6SM SCT025",
          "offset_h": 2,
          "wdir": 250,
          "wspd": 12
        },
        {
          "text": "FM020300 25006KT P6SM BKN010",
          "offset_h": 8,
          "wdir": 250,
          "wspd": 6
        },
        {
          "text": "FM020600 VRB03KT P6SM BKN008",
          "offset_h": 11,
          "wdir": "VRB",
          "wspd": 3
        },
        {
          "text": "FM021800 25006KT P6SM SCT012",
          "offset_h": 23,
          "wdir": 250,
          "wspd": 6
        },
        {
          "text": "FM022100 26012KT P6SM SCT250",
          "offset_h": 26,
          "wdir": 260,
          "wspd": 12
        }
      ],
      "metar_raw": "METAR KLAX 011853Z 25011KT 10SM FEW020 22/14 A2996 RMK AO2 SLP144 T02170139 $",
      "metar_wdir": 250,
      "metar_wspd": 11,
      "metar_oat": 22,
      "metar_qnh": 1015,
      "hourly_oat": [
        20,
        22,
        21,
        20,
        18,
        18,
        17,
        16,
        15,
        15,
        16,
        15,
        15,
        15,
        15,
        15,
        15,
        14,
        14,
        15,
        16,
        17,
        18,
        19,
        19
      ]
    },
    "ITM": {
      "icao": "RJOO",
      "issued": "2026-06-01T17:05:00.000Z",
      "raw": "TAF RJOO 011705Z 0118/0300 06006KT 7000 -SHRA FEW008 SCT015 BKN030 TEMPO 0118/0212 3000 SHRA BR FEW003 BKN008 BKN015 BECMG 0209/0212 06016KT TEMPO 0212/0215 06022G33KT 2000 SHRA BR FEW003 SCT005 BKN008 BECMG 0215/0218 36018KT TEMPO 0215/0221 02022G33KT 2000 SHRA BR FEW003 SCT005 BKN008",
      "groups": [
        {
          "text": "TAF RJOO 011705Z 0118/0300 06006KT 7000 -SHRA FEW008 SCT015 BKN030",
          "offset_h": -1,
          "wdir": 60,
          "wspd": 6
        },
        {
          "text": "TEMPO 0118/0212 3000 SHRA BR FEW003 BKN008 BKN015",
          "offset_h": -1,
          "wdir": null,
          "wspd": null
        },
        {
          "text": "BECMG 0209/0212 06016KT",
          "offset_h": 14,
          "wdir": 60,
          "wspd": 16
        },
        {
          "text": "TEMPO 0212/0215 06022G33KT 2000 SHRA BR FEW003 SCT005 BKN008",
          "offset_h": 17,
          "wdir": 60,
          "wspd": 22
        },
        {
          "text": "BECMG 0215/0218 36018KT",
          "offset_h": 20,
          "wdir": 360,
          "wspd": 18
        },
        {
          "text": "TEMPO 0215/0221 02022G33KT 2000 SHRA BR FEW003 SCT005 BKN008",
          "offset_h": 20,
          "wdir": 20,
          "wspd": 22
        }
      ],
      "metar_raw": "METAR RJOO 011900Z AUTO 03004KT 5000 RA BR FEW027 SCT045 OVC050 20/19 Q1016",
      "metar_wdir": 30,
      "metar_wspd": 4,
      "metar_oat": 20,
      "metar_qnh": 1016,
      "hourly_oat": [
        19,
        19,
        19,
        20,
        20,
        21,
        21,
        21,
        21,
        21,
        21,
        20,
        20,
        20,
        20,
        20,
        20,
        20,
        20,
        20,
        20,
        21,
        21,
        21,
        21
      ]
    },
    "OKA": {
      "icao": "ROAH",
      "issued": "2026-06-01T17:05:00.000Z",
      "raw": "TAF ROAH 011705Z 0118/0300 26038G48KT 8000 FEW008 BKN012 TEMPO 0118/0122 2000 -SHRA BR FEW003 BKN006 TEMPO 0122/0200 4000 -SHRA BR FEW003 BKN008 BECMG 0122/0200 26026KT BECMG 0203/0205 26015KT TEMPO 0212/0221 FEW006 BKN008",
      "groups": [
        {
          "text": "TAF ROAH 011705Z 0118/0300 26038G48KT 8000 FEW008 BKN012",
          "offset_h": -1,
          "wdir": 260,
          "wspd": 38
        },
        {
          "text": "TEMPO 0118/0122 2000 -SHRA BR FEW003 BKN006",
          "offset_h": -1,
          "wdir": null,
          "wspd": null
        },
        {
          "text": "TEMPO 0122/0200 4000 -SHRA BR FEW003 BKN008",
          "offset_h": 3,
          "wdir": null,
          "wspd": null
        },
        {
          "text": "BECMG 0122/0200 26026KT",
          "offset_h": 3,
          "wdir": 260,
          "wspd": 26
        },
        {
          "text": "BECMG 0203/0205 26015KT",
          "offset_h": 8,
          "wdir": 260,
          "wspd": 15
        },
        {
          "text": "TEMPO 0212/0221 FEW006 BKN008",
          "offset_h": 17,
          "wdir": null,
          "wspd": null
        }
      ],
      "metar_raw": "METAR ROAH 011900Z AUTO 26029G39KT 4500 BR BKN012 OVC021 26/25 Q0996",
      "metar_wdir": 260,
      "metar_wspd": 29,
      "metar_oat": 26,
      "metar_qnh": 996,
      "hourly_oat": [
        26,
        26,
        26,
        26,
        26,
        27,
        27,
        27,
        28,
        28,
        28,
        28,
        27,
        27,
        26,
        26,
        26,
        25,
        25,
        25,
        25,
        25,
        25,
        25,
        25
      ]
    },
    "NGO": {
      "icao": "RJGG",
      "issued": "2026-06-01T17:05:00.000Z",
      "raw": "TAF RJGG 011705Z 0118/0300 11010KT 9000 -RA FEW012 BKN020 TEMPO 0205/0212 4000 RA BR FEW003 BKN008 TEMPO 0212/0218 3000 SHRA BR FEW002 BKN005 BECMG 0215/0218 04020KT BECMG 0218/0221 34026KT TEMPO 0218/0300 33035G45KT 2000 +SHRA BR FEW002 BKN005",
      "groups": [
        {
          "text": "TAF RJGG 011705Z 0118/0300 11010KT 9000 -RA FEW012 BKN020",
          "offset_h": -1,
          "wdir": 110,
          "wspd": 10
        },
        {
          "text": "TEMPO 0205/0212 4000 RA BR FEW003 BKN008",
          "offset_h": 10,
          "wdir": null,
          "wspd": null
        },
        {
          "text": "TEMPO 0212/0218 3000 SHRA BR FEW002 BKN005",
          "offset_h": 17,
          "wdir": null,
          "wspd": null
        },
        {
          "text": "BECMG 0215/0218 04020KT",
          "offset_h": 20,
          "wdir": 40,
          "wspd": 20
        },
        {
          "text": "BECMG 0218/0221 34026KT",
          "offset_h": 23,
          "wdir": 340,
          "wspd": 26
        },
        {
          "text": "TEMPO 0218/0300 33035G45KT 2000 +SHRA BR FEW002 BKN005",
          "offset_h": 23,
          "wdir": 330,
          "wspd": 35
        }
      ],
      "metar_raw": "METAR RJGG 011900Z AUTO 10008KT 9999 SCT019 BKN023 BKN027 22/19 Q1016 NOSIG",
      "metar_wdir": 100,
      "metar_wspd": 8,
      "metar_oat": 22,
      "metar_qnh": 1016,
      "hourly_oat": [
        21,
        21,
        21,
        20,
        20,
        20,
        20,
        20,
        20,
        20,
        20,
        20,
        20,
        20,
        20,
        20,
        20,
        21,
        21,
        21,
        21,
        21,
        21,
        21,
        22
      ]
    },
    "FUK": {
      "icao": "RJFF",
      "issued": "2026-06-01T17:05:00.000Z",
      "raw": "TAF RJFF 011705Z 0118/0300 09010KT 9000 -SHRA FEW008 BKN030 BECMG 0204/0206 01010KT BECMG 0209/0212 31008KT TEMPO 0212/0300 BKN008 BKN013",
      "groups": [
        {
          "text": "TAF RJFF 011705Z 0118/0300 09010KT 9000 -SHRA FEW008 BKN030",
          "offset_h": -1,
          "wdir": 90,
          "wspd": 10
        },
        {
          "text": "BECMG 0204/0206 01010KT",
          "offset_h": 9,
          "wdir": 10,
          "wspd": 10
        },
        {
          "text": "BECMG 0209/0212 31008KT",
          "offset_h": 14,
          "wdir": 310,
          "wspd": 8
        },
        {
          "text": "TEMPO 0212/0300 BKN008 BKN013",
          "offset_h": 17,
          "wdir": null,
          "wspd": null
        }
      ],
      "metar_raw": "METAR RJFF 011900Z AUTO 05006KT 9999 FEW015 BKN070 OVC080 22/20 Q1009 BECMG 11004KT",
      "metar_wdir": 50,
      "metar_wspd": 6,
      "metar_oat": 22,
      "metar_qnh": 1009,
      "hourly_oat": [
        22,
        22,
        22,
        21,
        21,
        22,
        22,
        23,
        23,
        24,
        24,
        24,
        23,
        23,
        24,
        23,
        23,
        23,
        22,
        22,
        22,
        22,
        22,
        22,
        22
      ]
    },
    "CTS": {
      "icao": "RJCC",
      "issued": "2026-06-01T17:05:00.000Z",
      "raw": "TAF RJCC 011705Z 0118/0300 17010KT 9999 FEW030 TEMPO 0212/0221 2000 BR FEW001 BKN004",
      "groups": [
        {
          "text": "TAF RJCC 011705Z 0118/0300 17010KT 9999 FEW030",
          "offset_h": -1,
          "wdir": 170,
          "wspd": 10
        },
        {
          "text": "TEMPO 0212/0221 2000 BR FEW001 BKN004",
          "offset_h": 17,
          "wdir": null,
          "wspd": null
        }
      ],
      "metar_raw": "METAR RJCC 011900Z 18008KT 9999 FEW030 10/09 Q1013",
      "metar_wdir": 180,
      "metar_wspd": 8,
      "metar_oat": 10,
      "metar_qnh": 1013,
      "hourly_oat": [
        12,
        13,
        16,
        18,
        20,
        22,
        24,
        25,
        25,
        25,
        25,
        24,
        23,
        22,
        20,
        18,
        16,
        15,
        14,
        14,
        13,
        13,
        13,
        13,
        13
      ]
    },
    "NRT": {
      "icao": "RJAA",
      "issued": "2026-06-01T17:05:00.000Z",
      "raw": "TAF RJAA 011705Z 0118/0300 19010KT 9999 FEW030 BECMG 0212/0215 11008KT TEMPO 0212/0218 4000 SHRA BR FEW003 BKN005 TEMPO 0218/0221 09015G25KT 3000 SHRA BR FEW001 BKN003 BECMG 0221/0300 07026KT TEMPO 0221/0300 07028G40KT 2000 +SHRA BR FEW001 BKN003",
      "groups": [
        {
          "text": "TAF RJAA 011705Z 0118/0300 19010KT 9999 FEW030",
          "offset_h": -1,
          "wdir": 190,
          "wspd": 10
        },
        {
          "text": "BECMG 0212/0215 11008KT",
          "offset_h": 17,
          "wdir": 110,
          "wspd": 8
        },
        {
          "text": "TEMPO 0212/0218 4000 SHRA BR FEW003 BKN005",
          "offset_h": 17,
          "wdir": null,
          "wspd": null
        },
        {
          "text": "TEMPO 0218/0221 09015G25KT 3000 SHRA BR FEW001 BKN003",
          "offset_h": 23,
          "wdir": 90,
          "wspd": 15
        },
        {
          "text": "BECMG 0221/0300 07026KT",
          "offset_h": 26,
          "wdir": 70,
          "wspd": 26
        },
        {
          "text": "TEMPO 0221/0300 07028G40KT 2000 +SHRA BR FEW001 BKN003",
          "offset_h": 26,
          "wdir": 70,
          "wspd": 28
        }
      ],
      "metar_raw": "METAR RJAA 011900Z AUTO 16005KT 9999 NSC 18/14 Q1017 NOSIG",
      "metar_wdir": 160,
      "metar_wspd": 5,
      "metar_oat": 18,
      "metar_qnh": 1017,
      "hourly_oat": [
        18,
        18,
        19,
        21,
        23,
        24,
        24,
        25,
        25,
        24,
        23,
        22,
        22,
        21,
        20,
        20,
        19,
        19,
        19,
        19,
        19,
        19,
        18,
        18,
        18
      ]
    },
    "KIX": {
      "icao": "RJBB",
      "issued": "2026-06-01T17:05:00.000Z",
      "raw": "TAF RJBB 011705Z 0118/0300 06008KT 7000 -SHRA FEW008 SCT015 BKN030 TEMPO 0118/0212 3000 SHRA BR FEW003 BKN008 BKN015 BECMG 0209/0212 06030KT TEMPO 0212/0221 04040G52KT 2000 +SHRA BR FEW003 SCT005 BKN008 BECMG 0221/0300 34020KT",
      "groups": [
        {
          "text": "TAF RJBB 011705Z 0118/0300 06008KT 7000 -SHRA FEW008 SCT015 BKN030",
          "offset_h": -1,
          "wdir": 60,
          "wspd": 8
        },
        {
          "text": "TEMPO 0118/0212 3000 SHRA BR FEW003 BKN008 BKN015",
          "offset_h": -1,
          "wdir": null,
          "wspd": null
        },
        {
          "text": "BECMG 0209/0212 06030KT",
          "offset_h": 14,
          "wdir": 60,
          "wspd": 30
        },
        {
          "text": "TEMPO 0212/0221 04040G52KT 2000 +SHRA BR FEW003 SCT005 BKN008",
          "offset_h": 17,
          "wdir": 40,
          "wspd": 40
        },
        {
          "text": "BECMG 0221/0300 34020KT",
          "offset_h": 26,
          "wdir": 340,
          "wspd": 20
        }
      ],
      "metar_raw": "METAR RJBB 011900Z AUTO 09009KT 9999 -RA OVC038 20/19 Q1015 TEMPO 4000 SHRA BR",
      "metar_wdir": 90,
      "metar_wspd": 9,
      "metar_oat": 20,
      "metar_qnh": 1015,
      "hourly_oat": [
        21,
        20,
        20,
        20,
        20,
        21,
        21,
        22,
        22,
        22,
        22,
        22,
        22,
        22,
        22,
        22,
        22,
        22,
        22,
        22,
        22,
        22,
        22,
        22,
        22
      ]
    },
    "HND": {
      "icao": "RJTT",
      "issued": "2026-06-01T17:05:00.000Z",
      "raw": "TAF RJTT 011705Z 0118/0300 20016KT 9999 FEW030 BECMG 0212/0215 08016KT TEMPO 0212/0218 3000 SHRA BR FEW005 BKN008 BECMG 0218/0221 08026KT TEMPO 0218/0300 08034G46KT 1500 +SHRA BR FEW003 BKN005",
      "groups": [
        {
          "text": "TAF RJTT 011705Z 0118/0300 20016KT 9999 FEW030",
          "offset_h": -1,
          "wdir": 200,
          "wspd": 16
        },
        {
          "text": "BECMG 0212/0215 08016KT",
          "offset_h": 17,
          "wdir": 80,
          "wspd": 16
        },
        {
          "text": "TEMPO 0212/0218 3000 SHRA BR FEW005 BKN008",
          "offset_h": 17,
          "wdir": null,
          "wspd": null
        },
        {
          "text": "BECMG 0218/0221 08026KT",
          "offset_h": 23,
          "wdir": 80,
          "wspd": 26
        },
        {
          "text": "TEMPO 0218/0300 08034G46KT 1500 +SHRA BR FEW003 BKN005",
          "offset_h": 23,
          "wdir": 80,
          "wspd": 34
        }
      ],
      "metar_raw": "METAR RJTT 011900Z 19010KT 150V210 CAVOK 22/16 Q1016 NOSIG",
      "metar_wdir": 190,
      "metar_wspd": 10,
      "metar_oat": 22,
      "metar_qnh": 1016,
      "hourly_oat": [
        21,
        20,
        21,
        22,
        22,
        23,
        23,
        23,
        23,
        22,
        22,
        22,
        21,
        21,
        21,
        20,
        20,
        20,
        20,
        20,
        20,
        20,
        20,
        19,
        19
      ]
    },
    "TSA": {
      "icao": "RCSS",
      "issued": "2026-06-01T17:00:00.000Z",
      "raw": "TAF RCSS 011700Z 0118/0218 29005KT 9999 FEW015 BKN032 TEMPO 0118/0124 07005KT TEMPO 0208/0214 12008KT BECMG 0214/0216 09005KT",
      "groups": [
        {
          "text": "TAF RCSS 011700Z 0118/0218 29005KT 9999 FEW015 BKN032",
          "offset_h": -1,
          "wdir": 290,
          "wspd": 5
        },
        {
          "text": "TEMPO 0118/0124 07005KT",
          "offset_h": -1,
          "wdir": 70,
          "wspd": 5
        },
        {
          "text": "TEMPO 0208/0214 12008KT",
          "offset_h": 13,
          "wdir": 120,
          "wspd": 8
        },
        {
          "text": "BECMG 0214/0216 09005KT",
          "offset_h": 19,
          "wdir": 90,
          "wspd": 5
        }
      ],
      "metar_raw": "METAR RCSS 011900Z 08003KT 9999 FEW016 BKN160 25/23 Q1006 NOSIG RMK A2972",
      "metar_wdir": 80,
      "metar_wspd": 3,
      "metar_oat": 25,
      "metar_qnh": 1006,
      "hourly_oat": [
        23,
        23,
        23,
        24,
        25,
        27,
        29,
        31,
        32,
        33,
        33,
        33,
        33,
        33,
        32,
        31,
        29,
        28,
        27,
        26,
        26,
        26,
        25,
        25,
        25
      ]
    },
    "GMP": {
      "icao": "RKSS",
      "issued": "2026-06-01T17:00:00.000Z",
      "raw": "TAF RKSS 011700Z 0118/0224 35005KT CAVOK TN15/0120Z TX33/0206Z TN19/0220Z BECMG 0120/0122 08005KT BECMG 0201/0203 29006KT",
      "groups": [
        {
          "text": "TAF RKSS 011700Z 0118/0224 35005KT CAVOK TN15/0120Z TX33/0206Z TN19/0220Z",
          "offset_h": -1,
          "wdir": 350,
          "wspd": 5
        },
        {
          "text": "BECMG 0120/0122 08005KT",
          "offset_h": 1,
          "wdir": 80,
          "wspd": 5
        },
        {
          "text": "BECMG 0201/0203 29006KT",
          "offset_h": 6,
          "wdir": 290,
          "wspd": 6
        }
      ],
      "metar_raw": "METAR RKSS 011900Z 33003KT CAVOK 16/16 Q1010 NOSIG",
      "metar_wdir": 330,
      "metar_wspd": 3,
      "metar_oat": 16,
      "metar_qnh": 1010,
      "hourly_oat": [
        15,
        14,
        14,
        16,
        19,
        21,
        24,
        26,
        28,
        28,
        29,
        30,
        29,
        28,
        27,
        25,
        23,
        22,
        20,
        19,
        19,
        18,
        18,
        18,
        17
      ]
    },
    "BKK": {
      "icao": "VTBS",
      "issued": "2026-06-01T17:00:00.000Z",
      "raw": "TAF VTBS 011700Z 0118/0224 19008KT 9999 FEW020 TEMPO 0210/0215 VRB15KT 4000 TSRA FEW018CB SCT020 BKN080",
      "groups": [
        {
          "text": "TAF VTBS 011700Z 0118/0224 19008KT 9999 FEW020",
          "offset_h": -1,
          "wdir": 190,
          "wspd": 8
        },
        {
          "text": "TEMPO 0210/0215 VRB15KT 4000 TSRA FEW018CB SCT020 BKN080",
          "offset_h": 15,
          "wdir": "VRB",
          "wspd": 15
        }
      ],
      "metar_raw": "METAR VTBS 011900Z 09004KT 060V160 8000 FEW005 FEW020CB SCT030 28/28 Q1008 NOSIG",
      "metar_wdir": 90,
      "metar_wspd": 4,
      "metar_oat": 28,
      "metar_qnh": 1008,
      "hourly_oat": [
        26,
        26,
        26,
        26,
        26,
        27,
        29,
        31,
        32,
        34,
        35,
        31,
        28,
        29,
        30,
        30,
        30,
        28,
        28,
        28,
        28,
        28,
        27,
        27,
        27
      ]
    },
    "SIN": {
      "icao": "WSSS",
      "issued": "2026-06-01T17:00:00.000Z",
      "raw": "TAF WSSS 011700Z 0118/0300 18008KT 9999 FEW015 SCT020 TEMPO 0122/0201 24015G25KT 3000 TSRA FEW012CB BKN015",
      "groups": [
        {
          "text": "TAF WSSS 011700Z 0118/0300 18008KT 9999 FEW015 SCT020",
          "offset_h": -1,
          "wdir": 180,
          "wspd": 8
        },
        {
          "text": "TEMPO 0122/0201 24015G25KT 3000 TSRA FEW012CB BKN015",
          "offset_h": 3,
          "wdir": 240,
          "wspd": 15
        }
      ],
      "metar_raw": "METAR WSSS 011900Z 19004KT 9999 FEW018 BKN300 28/25 Q1010 NOSIG",
      "metar_wdir": 190,
      "metar_wspd": 4,
      "metar_oat": 28,
      "metar_qnh": 1010,
      "hourly_oat": [
        29,
        29,
        29,
        29,
        28,
        29,
        30,
        31,
        31,
        32,
        31,
        32,
        32,
        32,
        32,
        31,
        30,
        30,
        29,
        29,
        29,
        29,
        28,
        28,
        27
      ]
    },
    "CGK": {
      "icao": "WIII",
      "issued": "2026-06-01T17:00:00.000Z",
      "raw": "TAF WIII 011700Z 0118/0300 19005KT 5000 HZ SCT020 BECMG 0200/0202 35010KT 8000 NSW BECMG 0211/0213 VRB05KT 5000 HZ",
      "groups": [
        {
          "text": "TAF WIII 011700Z 0118/0300 19005KT 5000 HZ SCT020",
          "offset_h": -1,
          "wdir": 190,
          "wspd": 5
        },
        {
          "text": "BECMG 0200/0202 35010KT 8000 NSW",
          "offset_h": 5,
          "wdir": 350,
          "wspd": 10
        },
        {
          "text": "BECMG 0211/0213 VRB05KT 5000 HZ",
          "offset_h": 16,
          "wdir": "VRB",
          "wspd": 5
        }
      ],
      "metar_raw": "METAR WIII 011900Z 16003KT 140V200 7000 FEW020 27/24 Q1011 NOSIG",
      "metar_wdir": 160,
      "metar_wspd": 3,
      "metar_oat": 27,
      "metar_qnh": 1011,
      "hourly_oat": [
        25,
        25,
        24,
        24,
        24,
        25,
        28,
        30,
        31,
        32,
        32,
        33,
        32,
        32,
        31,
        30,
        29,
        28,
        28,
        28,
        28,
        27,
        27,
        26,
        26
      ]
    },
    "KUL": {
      "icao": "WMKK",
      "issued": "2026-06-01T17:00:00.000Z",
      "raw": "TAF WMKK 011700Z 0118/0300 VRB02KT 9999 FEW030 PROB30 TEMPO 0122/0201 6000 -TSRA FEW017CB",
      "groups": [
        {
          "text": "TAF WMKK 011700Z 0118/0300 VRB02KT 9999 FEW030",
          "offset_h": -1,
          "wdir": "VRB",
          "wspd": 2
        },
        {
          "text": "PROB30",
          "offset_h": 0,
          "wdir": null,
          "wspd": null
        },
        {
          "text": "TEMPO 0122/0201 6000 -TSRA FEW017CB",
          "offset_h": 3,
          "wdir": null,
          "wspd": null
        }
      ],
      "metar_raw": "METAR WMKK 011900Z 00000KT 9999 FEW030 28/26 Q1009 NOSIG",
      "metar_wdir": 0,
      "metar_wspd": 0,
      "metar_oat": 28,
      "metar_qnh": 1009,
      "hourly_oat": [
        25,
        25,
        25,
        24,
        24,
        24,
        25,
        27,
        28,
        30,
        31,
        31,
        31,
        31,
        30,
        30,
        29,
        28,
        27,
        27,
        27,
        27,
        27,
        25,
        25
      ]
    },
    "HAN": {
      "icao": "VVNB",
      "issued": "2026-06-01T17:00:00.000Z",
      "raw": "TAF VVNB 011700Z 0118/0218 12006KT 6000 FEW030 BECMG 0121/0123 3500 BR BECMG 0201/0202 6000 NSW",
      "groups": [
        {
          "text": "TAF VVNB 011700Z 0118/0218 12006KT 6000 FEW030",
          "offset_h": -1,
          "wdir": 120,
          "wspd": 6
        },
        {
          "text": "BECMG 0121/0123 3500 BR",
          "offset_h": 2,
          "wdir": null,
          "wspd": null
        },
        {
          "text": "BECMG 0201/0202 6000 NSW",
          "offset_h": 6,
          "wdir": null,
          "wspd": null
        }
      ],
      "metar_raw": "METAR VVNB 011900Z 13006KT CAVOK 29/26 Q1006 NOSIG",
      "metar_wdir": 130,
      "metar_wspd": 6,
      "metar_oat": 29,
      "metar_qnh": 1006,
      "hourly_oat": [
        28,
        28,
        28,
        27,
        28,
        29,
        30,
        32,
        33,
        33,
        34,
        35,
        35,
        35,
        34,
        33,
        32,
        31,
        30,
        30,
        29,
        28,
        27,
        27,
        27
      ]
    },
    "SGN": {
      "icao": "VVTS",
      "issued": "2026-06-01T17:00:00.000Z",
      "raw": "TAF VVTS 011700Z 0118/0224 VRB03KT 9999 SCT017 SCT040 BECMG 0201/0202 26010KT TEMPO 0207/0211 26015G28KT 2000 +TSRA BKN013 SCT015CB TEMPO 0211/0215 5000 SHRA SCT015 FEW017CB BKN040",
      "groups": [
        {
          "text": "TAF VVTS 011700Z 0118/0224 VRB03KT 9999 SCT017 SCT040",
          "offset_h": -1,
          "wdir": "VRB",
          "wspd": 3
        },
        {
          "text": "BECMG 0201/0202 26010KT",
          "offset_h": 6,
          "wdir": 260,
          "wspd": 10
        },
        {
          "text": "TEMPO 0207/0211 26015G28KT 2000 +TSRA BKN013 SCT015CB",
          "offset_h": 12,
          "wdir": 260,
          "wspd": 15
        },
        {
          "text": "TEMPO 0211/0215 5000 SHRA SCT015 FEW017CB BKN040",
          "offset_h": 16,
          "wdir": null,
          "wspd": null
        }
      ],
      "metar_raw": "METAR VVTS 011900Z 08004KT 9999 BKN016 OVC087 27/26 Q1008 NOSIG",
      "metar_wdir": 80,
      "metar_wspd": 4,
      "metar_oat": 27,
      "metar_qnh": 1008,
      "hourly_oat": [
        26,
        25,
        26,
        25,
        26,
        26,
        28,
        29,
        30,
        30,
        27,
        27,
        28,
        28,
        25,
        25,
        26,
        26,
        26,
        25,
        25,
        25,
        25,
        25,
        25
      ]
    },
    "TPE": {
      "icao": "RCTP",
      "issued": "2026-06-01T17:00:00.000Z",
      "raw": "TAF RCTP 011700Z 0118/0224 01005KT 9999 FEW015 BKN032 TEMPO 0118/0124 FEW007 BKN013 BECMG 0200/0202 32005KT TEMPO 0208/0214 25008KT BECMG 0214/0216 23008KT TEMPO 0218/0224 20013KT FEW010 BKN020",
      "groups": [
        {
          "text": "TAF RCTP 011700Z 0118/0224 01005KT 9999 FEW015 BKN032",
          "offset_h": -1,
          "wdir": 10,
          "wspd": 5
        },
        {
          "text": "TEMPO 0118/0124 FEW007 BKN013",
          "offset_h": -1,
          "wdir": null,
          "wspd": null
        },
        {
          "text": "BECMG 0200/0202 32005KT",
          "offset_h": 5,
          "wdir": 320,
          "wspd": 5
        },
        {
          "text": "TEMPO 0208/0214 25008KT",
          "offset_h": 13,
          "wdir": 250,
          "wspd": 8
        },
        {
          "text": "BECMG 0214/0216 23008KT",
          "offset_h": 19,
          "wdir": 230,
          "wspd": 8
        },
        {
          "text": "TEMPO 0218/0224 20013KT FEW010 BKN020",
          "offset_h": 23,
          "wdir": 200,
          "wspd": 13
        }
      ],
      "metar_raw": "METAR RCTP 011900Z 13005KT 9999 FEW007 BKN012 26/24 Q1006 NOSIG RMK A2972",
      "metar_wdir": 130,
      "metar_wspd": 5,
      "metar_oat": 26,
      "metar_qnh": 1006,
      "hourly_oat": [
        24,
        24,
        24,
        24,
        26,
        28,
        29,
        29,
        29,
        30,
        30,
        30,
        30,
        30,
        29,
        28,
        26,
        26,
        26,
        26,
        26,
        26,
        26,
        26,
        26
      ]
    },
    "HKG": {
      "icao": "VHHH",
      "issued": "2026-06-01T17:00:00.000Z",
      "raw": "TAF VHHH 011700Z 0118/0224 18010KT 9999 FEW020 TX33/0206Z TN28/0122Z TN29/0222Z TEMPO 0118/0124 VRB05KT BECMG 0202/0204 26010KT BECMG 0209/0211 20010KT",
      "groups": [
        {
          "text": "TAF VHHH 011700Z 0118/0224 18010KT 9999 FEW020 TX33/0206Z TN28/0122Z TN29/0222Z",
          "offset_h": -1,
          "wdir": 180,
          "wspd": 10
        },
        {
          "text": "TEMPO 0118/0124 VRB05KT",
          "offset_h": -1,
          "wdir": "VRB",
          "wspd": 5
        },
        {
          "text": "BECMG 0202/0204 26010KT",
          "offset_h": 7,
          "wdir": 260,
          "wspd": 10
        },
        {
          "text": "BECMG 0209/0211 20010KT",
          "offset_h": 14,
          "wdir": 200,
          "wspd": 10
        }
      ],
      "metar_raw": "METAR VHHH 011900Z 19007KT 9999 FEW020 SCT030 29/25 Q1007 NOSIG",
      "metar_wdir": 190,
      "metar_wspd": 7,
      "metar_oat": 29,
      "metar_qnh": 1007,
      "hourly_oat": [
        28,
        28,
        28,
        28,
        28,
        28,
        28,
        29,
        30,
        30,
        30,
        30,
        30,
        30,
        30,
        29,
        29,
        29,
        29,
        29,
        29,
        29,
        29,
        28,
        28
      ]
    },
    "SHA": {
      "icao": "ZSSS",
      "issued": "2026-06-01T15:07:00.000Z",
      "raw": "TAF ZSSS 011507Z 0118/0224 12004MPS 8000 SCT030 TX34/0206Z TN23/0121Z TN24/0221Z",
      "groups": [
        {
          "text": "TAF ZSSS 011507Z 0118/0224 12004MPS 8000 SCT030 TX34/0206Z TN23/0121Z TN24/0221Z",
          "offset_h": -1,
          "wdir": null,
          "wspd": null
        }
      ],
      "metar_raw": "METAR ZSSS 011900Z 00000MPS 9999 FEW013 24/22 Q1006 NOSIG",
      "metar_wdir": null,
      "metar_wspd": null,
      "metar_oat": 24,
      "metar_qnh": 1006,
      "hourly_oat": [
        24,
        24,
        23,
        24,
        25,
        27,
        29,
        31,
        32,
        34,
        35,
        34,
        35,
        34,
        33,
        31,
        29,
        28,
        27,
        26,
        25,
        25,
        25,
        25,
        25
      ]
    },
    "PVG": {
      "icao": "ZSPD",
      "issued": "2026-06-01T15:07:00.000Z",
      "raw": "TAF ZSPD 011507Z 0118/0224 13004MPS 6000 BKN005 TX29/0206Z TN23/0121Z TN23/0221Z TEMPO 0118/0123 2000 BR BKN003 BECMG 0123/0124 BKN015",
      "groups": [
        {
          "text": "TAF ZSPD 011507Z 0118/0224 13004MPS 6000 BKN005 TX29/0206Z TN23/0121Z TN23/0221Z",
          "offset_h": -1,
          "wdir": null,
          "wspd": null
        },
        {
          "text": "TEMPO 0118/0123 2000 BR BKN003",
          "offset_h": -1,
          "wdir": null,
          "wspd": null
        },
        {
          "text": "BECMG 0123/0124 BKN015",
          "offset_h": 4,
          "wdir": null,
          "wspd": null
        }
      ],
      "metar_raw": "METAR ZSPD 011900Z 05002MPS 340V120 9999 BKN004 24/24 Q1005 NOSIG",
      "metar_wdir": null,
      "metar_wspd": null,
      "metar_oat": 24,
      "metar_qnh": 1005,
      "hourly_oat": [
        22,
        22,
        22,
        23,
        24,
        25,
        26,
        28,
        29,
        30,
        30,
        29,
        28,
        27,
        26,
        25,
        24,
        24,
        24,
        24,
        24,
        24,
        24,
        24,
        24
      ]
    },
    "DLC": {
      "icao": "ZYTL",
      "issued": "2026-06-01T15:02:00.000Z",
      "raw": "TAF ZYTL 011502Z 0118/0218 13004MPS 5000 BR FEW040 TX25/0206Z TN20/0121Z",
      "groups": [
        {
          "text": "TAF ZYTL 011502Z 0118/0218 13004MPS 5000 BR FEW040 TX25/0206Z TN20/0121Z",
          "offset_h": -1,
          "wdir": null,
          "wspd": null
        }
      ],
      "metar_raw": "METAR ZYTL 011900Z 10004MPS CAVOK 19/13 Q1007 NOSIG",
      "metar_wdir": null,
      "metar_wspd": null,
      "metar_oat": 19,
      "metar_qnh": 1007,
      "hourly_oat": [
        18,
        18,
        18,
        19,
        21,
        22,
        23,
        24,
        25,
        26,
        26,
        26,
        26,
        24,
        22,
        21,
        20,
        20,
        20,
        20,
        19,
        19,
        18,
        18,
        18
      ]
    },
    "CAN": {
      "icao": "ZGGG",
      "issued": "2026-06-01T15:01:00.000Z",
      "raw": "TAF ZGGG 011501Z 0118/0224 18003MPS 8000 BKN040 TX35/0207Z TN25/0122Z TN25/0222Z TEMPO 0121/0201 TSRA FEW026CB BKN033 TEMPO 0207/0211 TSRA FEW026CB BKN033",
      "groups": [
        {
          "text": "TAF ZGGG 011501Z 0118/0224 18003MPS 8000 BKN040 TX35/0207Z TN25/0122Z TN25/0222Z",
          "offset_h": -1,
          "wdir": null,
          "wspd": null
        },
        {
          "text": "TEMPO 0121/0201 TSRA FEW026CB BKN033",
          "offset_h": 2,
          "wdir": null,
          "wspd": null
        },
        {
          "text": "TEMPO 0207/0211 TSRA FEW026CB BKN033",
          "offset_h": 12,
          "wdir": null,
          "wspd": null
        }
      ],
      "metar_raw": "METAR ZGGG 011900Z 00000MPS 9999 SCT020 28/25 Q1007 NOSIG",
      "metar_wdir": null,
      "metar_wspd": null,
      "metar_oat": 28,
      "metar_qnh": 1007,
      "hourly_oat": [
        26,
        26,
        26,
        26,
        26,
        26,
        29,
        30,
        31,
        32,
        32,
        32,
        32,
        33,
        32,
        30,
        30,
        29,
        29,
        28,
        28,
        28,
        27,
        27,
        27
      ]
    },
    "PEK": {
      "icao": "ZBAA",
      "issued": "2026-06-01T15:00:00.000Z",
      "raw": "TAF ZBAA 011500Z 0118/0224 16004MPS CAVOK TX36/0207Z TN21/0120Z TN21/0220Z BECMG 0210/0211 30010G17MPS TS FEW050CB BECMG 0212/0213 05004MPS NSW",
      "groups": [
        {
          "text": "TAF ZBAA 011500Z 0118/0224 16004MPS CAVOK TX36/0207Z TN21/0120Z TN21/0220Z",
          "offset_h": -1,
          "wdir": null,
          "wspd": null
        },
        {
          "text": "BECMG 0210/0211 30010G17MPS TS FEW050CB",
          "offset_h": 15,
          "wdir": null,
          "wspd": null
        },
        {
          "text": "BECMG 0212/0213 05004MPS NSW",
          "offset_h": 17,
          "wdir": null,
          "wspd": null
        }
      ],
      "metar_raw": "METAR ZBAA 011900Z 10002MPS 060V150 CAVOK 24/20 Q1002 NOSIG",
      "metar_wdir": null,
      "metar_wspd": null,
      "metar_oat": 24,
      "metar_qnh": 1002,
      "hourly_oat": [
        24,
        22,
        22,
        22,
        24,
        26,
        28,
        30,
        32,
        33,
        35,
        36,
        36,
        35,
        34,
        34,
        32,
        30,
        28,
        28,
        27,
        23,
        22,
        21,
        21
      ]
    }
  }
}