{
  "updated": "2026-07-11T20:44:44Z",
  "tafs": {
    "HNL": {
      "icao": "PHNL",
      "issued": "2026-07-11T20:39:00.000Z",
      "raw": "TAF PHNL 112039Z 1121/1224 06015G25KT P6SM FEW025 SCT040 FM120500 05011KT P6SM SCT025 SCT040 FM122000 06015G25KT P6SM SCT025 SCT040",
      "groups": [
        {
          "text": "TAF PHNL 112039Z 1121/1224 06015G25KT P6SM FEW025 SCT040",
          "offset_h": 1,
          "wdir": 60,
          "wspd": 15
        },
        {
          "text": "FM120500 05011KT P6SM SCT025 SCT040",
          "offset_h": 9,
          "wdir": 50,
          "wspd": 11
        },
        {
          "text": "FM122000 06015G25KT P6SM SCT025 SCT040",
          "offset_h": 24,
          "wdir": 60,
          "wspd": 15
        }
      ],
      "metar_raw": "METAR PHNL 111953Z 06014G23KT 10SM FEW025 FEW038 SCT250 29/21 A3005 RMK AO2 SLP176 T02940206 $",
      "metar_wdir": 60,
      "metar_wspd": 14,
      "metar_oat": 29,
      "metar_qnh": 1018,
      "hourly_oat": [
        28,
        28,
        29,
        29,
        29,
        29,
        28,
        27,
        26,
        25,
        24,
        24,
        24,
        24,
        24,
        24,
        24,
        23,
        24,
        23,
        23,
        24,
        25,
        26,
        27
      ]
    },
    "SAN": {
      "icao": "KSAN",
      "issued": "2026-07-11T20:34:00.000Z",
      "raw": "TAF KSAN 112034Z 1121/1224 23010KT P6SM FEW020 SCT150 FM120200 VRB05KT P6SM SCT015 SCT150 FM120500 VRB04KT P6SM OVC011 TEMPO 1210/1214 OVC009 FM121700 25010KT P6SM SCT013",
      "groups": [
        {
          "text": "TAF KSAN 112034Z 1121/1224 23010KT P6SM FEW020 SCT150",
          "offset_h": 1,
          "wdir": 230,
          "wspd": 10
        },
        {
          "text": "FM120200 VRB05KT P6SM SCT015 SCT150",
          "offset_h": 6,
          "wdir": "VRB",
          "wspd": 5
        },
        {
          "text": "FM120500 VRB04KT P6SM OVC011",
          "offset_h": 9,
          "wdir": "VRB",
          "wspd": 4
        },
        {
          "text": "TEMPO 1210/1214 OVC009",
          "offset_h": 14,
          "wdir": null,
          "wspd": null
        },
        {
          "text": "FM121700 25010KT P6SM SCT013",
          "offset_h": 21,
          "wdir": 250,
          "wspd": 10
        }
      ],
      "metar_raw": "METAR KSAN 111951Z 29007KT 10SM SCT020 BKN200 23/17 A2996 RMK AO2 SLP144 T02330167 $",
      "metar_wdir": 290,
      "metar_wspd": 7,
      "metar_oat": 23,
      "metar_qnh": 1015,
      "hourly_oat": [
        25,
        24,
        24,
        24,
        23,
        23,
        21,
        20,
        20,
        20,
        19,
        19,
        19,
        19,
        19,
        18,
        19,
        19,
        18,
        19,
        20,
        20,
        21,
        23,
        25
      ]
    },
    "HKG": {
      "icao": "VHHH",
      "issued": "2026-07-11T20:00:00.000Z",
      "raw": "TAF VHHH 112000Z 1121/1303 22015KT 9999 FEW010 TX34/1206Z TN29/1122Z TN28/1222Z",
      "groups": [
        {
          "text": "TAF VHHH 112000Z 1121/1303 22015KT 9999 FEW010 TX34/1206Z TN29/1122Z TN28/1222Z",
          "offset_h": 1,
          "wdir": 220,
          "wspd": 15
        }
      ],
      "metar_raw": "METAR VHHH 112030Z 21007KT 9999 FEW012 30/26 Q0997 NOSIG",
      "metar_wdir": 210,
      "metar_wspd": 7,
      "metar_oat": 30,
      "metar_qnh": 997,
      "hourly_oat": [
        29,
        28,
        28,
        29,
        29,
        30,
        30,
        31,
        31,
        31,
        32,
        31,
        30,
        30,
        30,
        29,
        29,
        29,
        29,
        29,
        29,
        29,
        28,
        28,
        28
      ]
    },
    "PEK": {
      "icao": "ZBAA",
      "issued": "2026-07-11T19:32:00.000Z",
      "raw": "TAF AMD ZBAA 111932Z 1118/1224 12004MPS 5000 BR NSC TX30/1207Z TN25/1121Z TN23/1221Z TEMPO 1118/1120 2800 +SHRA BR",
      "groups": [
        {
          "text": "TAF AMD ZBAA 111932Z 1118/1224 12004MPS 5000 BR NSC TX30/1207Z TN25/1121Z TN23/1221Z",
          "offset_h": -2,
          "wdir": null,
          "wspd": null
        },
        {
          "text": "TEMPO 1118/1120 2800 +SHRA BR",
          "offset_h": -2,
          "wdir": null,
          "wspd": null
        }
      ],
      "metar_raw": "METAR ZBAA 112030Z 16003MPS 080V180 7000 -SHRA SCT016 24/24 Q1003 NOSIG",
      "metar_wdir": null,
      "metar_wspd": null,
      "metar_oat": 24,
      "metar_qnh": 1003,
      "hourly_oat": [
        24,
        25,
        25,
        25,
        26,
        28,
        29,
        30,
        31,
        31,
        31,
        31,
        31,
        31,
        30,
        29,
        28,
        27,
        27,
        26,
        26,
        26,
        25,
        26,
        25
      ]
    },
    "LAX": {
      "icao": "KLAX",
      "issued": "2026-07-11T17:40:00.000Z",
      "raw": "TAF KLAX 111740Z 1118/1224 18005KT P6SM SCT018 BKN250 FM111900 25010KT P6SM SCT018 BKN250 FM120600 25006KT P6SM BKN015 FM121100 25004KT P6SM OVC009 FM121400 VRB03KT P6SM OVC012 FM121800 26005KT P6SM OVC020 FM122000 26010KT P6SM BKN250",
      "groups": [
        {
          "text": "TAF KLAX 111740Z 1118/1224 18005KT P6SM SCT018 BKN250",
          "offset_h": -2,
          "wdir": 180,
          "wspd": 5
        },
        {
          "text": "FM111900 25010KT P6SM SCT018 BKN250",
          "offset_h": -1,
          "wdir": 250,
          "wspd": 10
        },
        {
          "text": "FM120600 25006KT P6SM BKN015",
          "offset_h": 10,
          "wdir": 250,
          "wspd": 6
        },
        {
          "text": "FM121100 25004KT P6SM OVC009",
          "offset_h": 15,
          "wdir": 250,
          "wspd": 4
        },
        {
          "text": "FM121400 VRB03KT P6SM OVC012",
          "offset_h": 18,
          "wdir": "VRB",
          "wspd": 3
        },
        {
          "text": "FM121800 26005KT P6SM OVC020",
          "offset_h": 22,
          "wdir": 260,
          "wspd": 5
        },
        {
          "text": "FM122000 26010KT P6SM BKN250",
          "offset_h": 24,
          "wdir": 260,
          "wspd": 10
        }
      ],
      "metar_raw": "METAR KLAX 111953Z 25011KT 10SM FEW012 SCT230 BKN280 23/16 A2995 RMK AO2 SLP139 T02330156 $",
      "metar_wdir": 250,
      "metar_wspd": 11,
      "metar_oat": 23,
      "metar_qnh": 1014,
      "hourly_oat": [
        25,
        26,
        23,
        23,
        22,
        21,
        20,
        19,
        19,
        18,
        18,
        18,
        18,
        18,
        18,
        18,
        17,
        17,
        18,
        20,
        21,
        22,
        22,
        22,
        22
      ]
    },
    "CTS": {
      "icao": "RJCC",
      "issued": "2026-07-11T17:08:00.000Z",
      "raw": "TAF RJCC 111708Z 1118/1300 17010KT 9999 FEW005 BKN012 TEMPO 1118/1121 0700 FG VV001 TEMPO 1121/1123 1500 BR FEW001 BKN003 TEMPO 1123/1209 FEW003 BKN005 TEMPO 1209/1218 0700 FG VV001 BECMG 1215/1218 34008KT TEMPO 1218/1300 1500 BR FEW001 BKN003",
      "groups": [
        {
          "text": "TAF RJCC 111708Z 1118/1300 17010KT 9999 FEW005 BKN012",
          "offset_h": -2,
          "wdir": 170,
          "wspd": 10
        },
        {
          "text": "TEMPO 1118/1121 0700 FG VV001",
          "offset_h": -2,
          "wdir": null,
          "wspd": null
        },
        {
          "text": "TEMPO 1121/1123 1500 BR FEW001 BKN003",
          "offset_h": 1,
          "wdir": null,
          "wspd": null
        },
        {
          "text": "TEMPO 1123/1209 FEW003 BKN005",
          "offset_h": 3,
          "wdir": null,
          "wspd": null
        },
        {
          "text": "TEMPO 1209/1218 0700 FG VV001",
          "offset_h": 13,
          "wdir": null,
          "wspd": null
        },
        {
          "text": "BECMG 1215/1218 34008KT",
          "offset_h": 19,
          "wdir": 340,
          "wspd": 8
        },
        {
          "text": "TEMPO 1218/1300 1500 BR FEW001 BKN003",
          "offset_h": 22,
          "wdir": null,
          "wspd": null
        }
      ],
      "metar_raw": "METAR RJCC 112030Z 16007KT 2300 -SHRA BR FEW001 BKN002 BKN003 21/21 Q1007",
      "metar_wdir": 160,
      "metar_wspd": 7,
      "metar_oat": 21,
      "metar_qnh": 1007,
      "hourly_oat": [
        19,
        20,
        21,
        22,
        22,
        24,
        24,
        25,
        27,
        26,
        25,
        24,
        23,
        23,
        22,
        22,
        22,
        21,
        21,
        21,
        20,
        20,
        20,
        20,
        21
      ]
    },
    "ITM": {
      "icao": "RJOO",
      "issued": "2026-07-11T17:07:00.000Z",
      "raw": "TAF RJOO 111707Z 1118/1300 26004KT 9999 FEW030 BECMG 1122/1200 22006KT BECMG 1209/1212 32004KT",
      "groups": [
        {
          "text": "TAF RJOO 111707Z 1118/1300 26004KT 9999 FEW030",
          "offset_h": -2,
          "wdir": 260,
          "wspd": 4
        },
        {
          "text": "BECMG 1122/1200 22006KT",
          "offset_h": 2,
          "wdir": 220,
          "wspd": 6
        },
        {
          "text": "BECMG 1209/1212 32004KT",
          "offset_h": 13,
          "wdir": 320,
          "wspd": 4
        }
      ],
      "metar_raw": "METAR RJOO 112000Z AUTO 25004KT 200V290 9999 SCT020 BKN240 26/23 Q1013",
      "metar_wdir": 250,
      "metar_wspd": 4,
      "metar_oat": 26,
      "metar_qnh": 1013,
      "hourly_oat": [
        24,
        24,
        25,
        26,
        27,
        28,
        29,
        30,
        30,
        30,
        31,
        31,
        30,
        29,
        28,
        28,
        27,
        27,
        26,
        26,
        26,
        25,
        25,
        25,
        25
      ]
    },
    "KIX": {
      "icao": "RJBB",
      "issued": "2026-07-11T17:07:00.000Z",
      "raw": "TAF RJBB 111707Z 1118/1300 20007KT 9999 FEW020",
      "groups": [
        {
          "text": "TAF RJBB 111707Z 1118/1300 20007KT 9999 FEW020",
          "offset_h": -2,
          "wdir": 200,
          "wspd": 7
        }
      ],
      "metar_raw": "METAR RJBB 112030Z AUTO VRB02KT 9999 NCD 25/23 Q1013 NOSIG",
      "metar_wdir": "VRB",
      "metar_wspd": 2,
      "metar_oat": 25,
      "metar_qnh": 1013,
      "hourly_oat": [
        25,
        25,
        26,
        26,
        26,
        26,
        26,
        26,
        26,
        26,
        26,
        27,
        26,
        27,
        27,
        26,
        26,
        26,
        26,
        26,
        26,
        26,
        26,
        26,
        26
      ]
    },
    "NRT": {
      "icao": "RJAA",
      "issued": "2026-07-11T17:05:00.000Z",
      "raw": "TAF RJAA 111705Z 1118/1300 22006KT 9999 FEW015 BKN030 TEMPO 1209/1212 FEW003 BKN008 TEMPO 1212/1215 FEW001 BKN005 TEMPO 1215/1221 4000 -SHRA BR FEW001 BKN005 TEMPO 1221/1300 FEW003 BKN008",
      "groups": [
        {
          "text": "TAF RJAA 111705Z 1118/1300 22006KT 9999 FEW015 BKN030",
          "offset_h": -2,
          "wdir": 220,
          "wspd": 6
        },
        {
          "text": "TEMPO 1209/1212 FEW003 BKN008",
          "offset_h": 13,
          "wdir": null,
          "wspd": null
        },
        {
          "text": "TEMPO 1212/1215 FEW001 BKN005",
          "offset_h": 16,
          "wdir": null,
          "wspd": null
        },
        {
          "text": "TEMPO 1215/1221 4000 -SHRA BR FEW001 BKN005",
          "offset_h": 19,
          "wdir": null,
          "wspd": null
        },
        {
          "text": "TEMPO 1221/1300 FEW003 BKN008",
          "offset_h": 25,
          "wdir": null,
          "wspd": null
        }
      ],
      "metar_raw": "METAR RJAA 112030Z AUTO 14004KT 9999 NSC 23/22 Q1011 NOSIG",
      "metar_wdir": 140,
      "metar_wspd": 4,
      "metar_oat": 23,
      "metar_qnh": 1011,
      "hourly_oat": [
        23,
        23,
        24,
        25,
        26,
        26,
        27,
        28,
        28,
        28,
        28,
        28,
        27,
        26,
        26,
        25,
        24,
        24,
        23,
        23,
        23,
        23,
        24,
        24,
        24
      ]
    },
    "HND": {
      "icao": "RJTT",
      "issued": "2026-07-11T17:05:00.000Z",
      "raw": "TAF RJTT 111705Z 1118/1300 18010KT 9999 FEW020",
      "groups": [
        {
          "text": "TAF RJTT 111705Z 1118/1300 18010KT 9999 FEW020",
          "offset_h": -2,
          "wdir": 180,
          "wspd": 10
        }
      ],
      "metar_raw": "METAR RJTT 112030Z 18006KT 9999 FEW015 BKN180 26/23 Q1011 NOSIG",
      "metar_wdir": 180,
      "metar_wspd": 6,
      "metar_oat": 26,
      "metar_qnh": 1011,
      "hourly_oat": [
        24,
        24,
        24,
        25,
        26,
        27,
        28,
        28,
        28,
        27,
        27,
        27,
        26,
        26,
        26,
        25,
        25,
        25,
        25,
        24,
        24,
        24,
        24,
        24,
        24
      ]
    },
    "OKA": {
      "icao": "ROAH",
      "issued": "2026-07-11T17:05:00.000Z",
      "raw": "TAF ROAH 111705Z 1118/1300 16024KT 9999 FEW010 BKN015 TEMPO 1118/1121 16028G38KT FEW006 BKN008 TEMPO 1121/1209 16025G35KT",
      "groups": [
        {
          "text": "TAF ROAH 111705Z 1118/1300 16024KT 9999 FEW010 BKN015",
          "offset_h": -2,
          "wdir": 160,
          "wspd": 24
        },
        {
          "text": "TEMPO 1118/1121 16028G38KT FEW006 BKN008",
          "offset_h": -2,
          "wdir": 160,
          "wspd": 28
        },
        {
          "text": "TEMPO 1121/1209 16025G35KT",
          "offset_h": 1,
          "wdir": 160,
          "wspd": 25
        }
      ],
      "metar_raw": "METAR ROAH 112030Z AUTO 15023KT 8000 BKN009 BKN011 OVC019 27/26 Q1007",
      "metar_wdir": 150,
      "metar_wspd": 23,
      "metar_oat": 27,
      "metar_qnh": 1007,
      "hourly_oat": [
        27,
        27,
        27,
        28,
        28,
        28,
        29,
        28,
        29,
        29,
        29,
        29,
        28,
        28,
        27,
        27,
        27,
        27,
        27,
        27,
        27,
        27,
        27,
        26,
        26
      ]
    },
    "NGO": {
      "icao": "RJGG",
      "issued": "2026-07-11T17:05:00.000Z",
      "raw": "TAF RJGG 111705Z 1118/1300 30006KT 9999 FEW030 BECMG 1204/1206 23006KT BECMG 1209/1212 29006KT",
      "groups": [
        {
          "text": "TAF RJGG 111705Z 1118/1300 30006KT 9999 FEW030",
          "offset_h": -2,
          "wdir": 300,
          "wspd": 6
        },
        {
          "text": "BECMG 1204/1206 23006KT",
          "offset_h": 8,
          "wdir": 230,
          "wspd": 6
        },
        {
          "text": "BECMG 1209/1212 29006KT",
          "offset_h": 13,
          "wdir": 290,
          "wspd": 6
        }
      ],
      "metar_raw": "METAR RJGG 112030Z AUTO 32002KT 9999 NSC 26/24 Q1012 NOSIG",
      "metar_wdir": 320,
      "metar_wspd": 2,
      "metar_oat": 26,
      "metar_qnh": 1012,
      "hourly_oat": [
        24,
        24,
        24,
        25,
        25,
        25,
        26,
        26,
        26,
        27,
        26,
        26,
        26,
        26,
        26,
        26,
        26,
        26,
        26,
        26,
        26,
        26,
        26,
        26,
        26
      ]
    },
    "FUK": {
      "icao": "RJFF",
      "issued": "2026-07-11T17:05:00.000Z",
      "raw": "TAF RJFF 111705Z 1118/1300 14006KT CAVOK BECMG 1200/1202 16016KT BECMG 1206/1209 28008KT BECMG 1209/1212 15008KT",
      "groups": [
        {
          "text": "TAF RJFF 111705Z 1118/1300 14006KT CAVOK",
          "offset_h": -2,
          "wdir": 140,
          "wspd": 6
        },
        {
          "text": "BECMG 1200/1202 16016KT",
          "offset_h": 4,
          "wdir": 160,
          "wspd": 16
        },
        {
          "text": "BECMG 1206/1209 28008KT",
          "offset_h": 10,
          "wdir": 280,
          "wspd": 8
        },
        {
          "text": "BECMG 1209/1212 15008KT",
          "offset_h": 13,
          "wdir": 150,
          "wspd": 8
        }
      ],
      "metar_raw": "METAR RJFF 112030Z AUTO 15007KT 9999 NCD 28/23 Q1012 NOSIG",
      "metar_wdir": 150,
      "metar_wspd": 7,
      "metar_oat": 28,
      "metar_qnh": 1012,
      "hourly_oat": [
        26,
        26,
        27,
        29,
        31,
        33,
        34,
        35,
        35,
        35,
        35,
        34,
        34,
        32,
        31,
        30,
        30,
        29,
        28,
        28,
        28,
        27,
        27,
        27,
        27
      ]
    },
    "SGN": {
      "icao": "VVTS",
      "issued": "2026-07-11T17:00:00.000Z",
      "raw": "TAF COR VVTS 111700Z 1118/1224 25008KT 9999 SCT017 SCT040 TEMPO 1207/1211 5000 TSRA SCT015 FEW017CB BKN040",
      "groups": [
        {
          "text": "TAF COR VVTS 111700Z 1118/1224 25008KT 9999 SCT017 SCT040",
          "offset_h": -2,
          "wdir": 250,
          "wspd": 8
        },
        {
          "text": "TEMPO 1207/1211 5000 TSRA SCT015 FEW017CB BKN040",
          "offset_h": 11,
          "wdir": null,
          "wspd": null
        }
      ],
      "metar_raw": "METAR VVTS 112030Z 24011KT CAVOK 28/26 Q1005 NOSIG",
      "metar_wdir": 240,
      "metar_wspd": 11,
      "metar_oat": 28,
      "metar_qnh": 1005,
      "hourly_oat": [
        27,
        27,
        27,
        27,
        28,
        29,
        31,
        32,
        32,
        32,
        27,
        28,
        28,
        28,
        28,
        27,
        26,
        26,
        27,
        27,
        26,
        26,
        26,
        26,
        26
      ]
    },
    "GMP": {
      "icao": "RKSS",
      "issued": "2026-07-11T17:00:00.000Z",
      "raw": "TAF RKSS 111700Z 1118/1224 04005KT CAVOK TN25/1120Z TX34/1205Z TN25/1220Z BECMG 1120/1122 19005KT BECMG 1204/1206 28006KT BECMG 1214/1216 19005KT 9999 SCT035",
      "groups": [
        {
          "text": "TAF RKSS 111700Z 1118/1224 04005KT CAVOK TN25/1120Z TX34/1205Z TN25/1220Z",
          "offset_h": -2,
          "wdir": 40,
          "wspd": 5
        },
        {
          "text": "BECMG 1120/1122 19005KT",
          "offset_h": 0,
          "wdir": 190,
          "wspd": 5
        },
        {
          "text": "BECMG 1204/1206 28006KT",
          "offset_h": 8,
          "wdir": 280,
          "wspd": 6
        },
        {
          "text": "BECMG 1214/1216 19005KT 9999 SCT035",
          "offset_h": 18,
          "wdir": 190,
          "wspd": 5
        }
      ],
      "metar_raw": "METAR RKSS 112000Z 32001KT CAVOK 24/24 Q1010 NOSIG",
      "metar_wdir": 320,
      "metar_wspd": 1,
      "metar_oat": 24,
      "metar_qnh": 1010,
      "hourly_oat": [
        24,
        24,
        25,
        27,
        29,
        31,
        32,
        33,
        33,
        33,
        34,
        33,
        32,
        31,
        30,
        29,
        28,
        28,
        28,
        27,
        27,
        26,
        26,
        26,
        25
      ]
    },
    "TSA": {
      "icao": "RCSS",
      "issued": "2026-07-11T17:00:00.000Z",
      "raw": "TAF RCSS 111700Z 1118/1218 11005KT 9999 FEW015 BKN100 TEMPO 1118/1124 30008KT TEMPO 1214/1218 FEW015 BKN032",
      "groups": [
        {
          "text": "TAF RCSS 111700Z 1118/1218 11005KT 9999 FEW015 BKN100",
          "offset_h": -2,
          "wdir": 110,
          "wspd": 5
        },
        {
          "text": "TEMPO 1118/1124 30008KT",
          "offset_h": -2,
          "wdir": 300,
          "wspd": 8
        },
        {
          "text": "TEMPO 1214/1218 FEW015 BKN032",
          "offset_h": 18,
          "wdir": null,
          "wspd": null
        }
      ],
      "metar_raw": "METAR RCSS 112000Z 31005KT 9999 FEW020 BKN120 BKN150 27/25 Q0994 NOSIG RMK QFF 994.2HPA A2936",
      "metar_wdir": 310,
      "metar_wspd": 5,
      "metar_oat": 27,
      "metar_qnh": 994,
      "hourly_oat": [
        26,
        26,
        25,
        26,
        26,
        27,
        29,
        31,
        31,
        32,
        34,
        33,
        31,
        31,
        30,
        29,
        28,
        28,
        27,
        27,
        27,
        26,
        26,
        26,
        26
      ]
    },
    "TPE": {
      "icao": "RCTP",
      "issued": "2026-07-11T17:00:00.000Z",
      "raw": "TAF RCTP 111700Z 1118/1224 21020G32KT 9999 FEW015 BKN100 BECMG 1204/1206 23010KT BECMG 1211/1213 18005KT",
      "groups": [
        {
          "text": "TAF RCTP 111700Z 1118/1224 21020G32KT 9999 FEW015 BKN100",
          "offset_h": -2,
          "wdir": 210,
          "wspd": 20
        },
        {
          "text": "BECMG 1204/1206 23010KT",
          "offset_h": 8,
          "wdir": 230,
          "wspd": 10
        },
        {
          "text": "BECMG 1211/1213 18005KT",
          "offset_h": 15,
          "wdir": 180,
          "wspd": 5
        }
      ],
      "metar_raw": "METAR RCTP 112030Z 23023KT 9999 -RA FEW015 SCT050 BKN100 29/23 Q0994 WS ALL RWY NOSIG RMK A2936",
      "metar_wdir": 230,
      "metar_wspd": 23,
      "metar_oat": 29,
      "metar_qnh": 994,
      "hourly_oat": [
        28,
        29,
        28,
        28,
        28,
        29,
        30,
        32,
        32,
        33,
        33,
        33,
        33,
        32,
        31,
        30,
        29,
        28,
        28,
        28,
        27,
        27,
        27,
        27,
        26
      ]
    },
    "BKK": {
      "icao": "VTBS",
      "issued": "2026-07-11T17:00:00.000Z",
      "raw": "TAF VTBS 111700Z 1118/1224 23008KT 9999 FEW020 TEMPO 1209/1213 VRB15KT 4000 TSRA FEW018CB SCT020 BKN080",
      "groups": [
        {
          "text": "TAF VTBS 111700Z 1118/1224 23008KT 9999 FEW020",
          "offset_h": -2,
          "wdir": 230,
          "wspd": 8
        },
        {
          "text": "TEMPO 1209/1213 VRB15KT 4000 TSRA FEW018CB SCT020 BKN080",
          "offset_h": 13,
          "wdir": "VRB",
          "wspd": 15
        }
      ],
      "metar_raw": "METAR VTBS 112030Z 22004KT 9999 FEW020 BKN050 28/25 Q1004 NOSIG",
      "metar_wdir": 220,
      "metar_wspd": 4,
      "metar_oat": 28,
      "metar_qnh": 1004,
      "hourly_oat": [
        28,
        28,
        28,
        28,
        28,
        30,
        30,
        30,
        30,
        30,
        31,
        32,
        30,
        31,
        30,
        30,
        29,
        29,
        28,
        27,
        27,
        26,
        26,
        26,
        26
      ]
    },
    "SIN": {
      "icao": "WSSS",
      "issued": "2026-07-11T17:00:00.000Z",
      "raw": "TAF WSSS 111700Z 1118/1300 17008KT 9999 FEW015 SCT020",
      "groups": [
        {
          "text": "TAF WSSS 111700Z 1118/1300 17008KT 9999 FEW015 SCT020",
          "offset_h": -2,
          "wdir": 170,
          "wspd": 8
        }
      ],
      "metar_raw": "METAR WSSS 112030Z 16005KT 9999 FEW018 BKN300 27/24 Q1009 NOSIG",
      "metar_wdir": 160,
      "metar_wspd": 5,
      "metar_oat": 27,
      "metar_qnh": 1009,
      "hourly_oat": [
        28,
        28,
        28,
        27,
        27,
        27,
        29,
        30,
        30,
        30,
        30,
        30,
        30,
        30,
        30,
        29,
        29,
        29,
        29,
        29,
        28,
        28,
        28,
        28,
        28
      ]
    },
    "CGK": {
      "icao": "WIII",
      "issued": "2026-07-11T17:00:00.000Z",
      "raw": "TAF WIII 111700Z 1118/1300 13005KT 7000 FEW020 BECMG 1120/1122 5000 HZ BECMG 1201/1203 05011KT 8000 NSW",
      "groups": [
        {
          "text": "TAF WIII 111700Z 1118/1300 13005KT 7000 FEW020",
          "offset_h": -2,
          "wdir": 130,
          "wspd": 5
        },
        {
          "text": "BECMG 1120/1122 5000 HZ",
          "offset_h": 0,
          "wdir": null,
          "wspd": null
        },
        {
          "text": "BECMG 1201/1203 05011KT 8000 NSW",
          "offset_h": 5,
          "wdir": 50,
          "wspd": 11
        }
      ],
      "metar_raw": "METAR WIII 112030Z 15003KT 6000 FEW020 25/22 Q1011 NOSIG",
      "metar_wdir": 150,
      "metar_wspd": 3,
      "metar_oat": 25,
      "metar_qnh": 1011,
      "hourly_oat": [
        24,
        24,
        24,
        24,
        25,
        27,
        29,
        31,
        32,
        34,
        34,
        32,
        31,
        31,
        30,
        29,
        28,
        28,
        28,
        27,
        27,
        26,
        25,
        25,
        24
      ]
    },
    "KUL": {
      "icao": "WMKK",
      "issued": "2026-07-11T17:00:00.000Z",
      "raw": "TAF WMKK 111700Z 1118/1300 VRB03KT 9999 FEW030 TEMPO 1122/1201 5000 TSRA FEW017CB",
      "groups": [
        {
          "text": "TAF WMKK 111700Z 1118/1300 VRB03KT 9999 FEW030",
          "offset_h": -2,
          "wdir": "VRB",
          "wspd": 3
        },
        {
          "text": "TEMPO 1122/1201 5000 TSRA FEW017CB",
          "offset_h": 2,
          "wdir": null,
          "wspd": null
        }
      ],
      "metar_raw": "METAR WMKK 112030Z 00000KT 6000 FEW010 26/25 Q1009 NOSIG",
      "metar_wdir": 0,
      "metar_wspd": 0,
      "metar_oat": 26,
      "metar_qnh": 1009,
      "hourly_oat": [
        24,
        24,
        24,
        24,
        25,
        26,
        28,
        29,
        29,
        30,
        30,
        31,
        30,
        30,
        30,
        29,
        28,
        27,
        27,
        26,
        26,
        26,
        26,
        26,
        25
      ]
    },
    "HAN": {
      "icao": "VVNB",
      "issued": "2026-07-11T17:00:00.000Z",
      "raw": "TAF VVNB 111700Z 1118/1218 06005KT 9999 FEW020 TEMPO 1121/1124 4000 SHRA SCT012 FEW025TCU TEMPO 1203/1208 3500 TSRA SCT012 FEW027CB TEMPO 1210/1214 3000 TSRA SCT010 FEW027CB",
      "groups": [
        {
          "text": "TAF VVNB 111700Z 1118/1218 06005KT 9999 FEW020",
          "offset_h": -2,
          "wdir": 60,
          "wspd": 5
        },
        {
          "text": "TEMPO 1121/1124 4000 SHRA SCT012 FEW025TCU",
          "offset_h": 1,
          "wdir": null,
          "wspd": null
        },
        {
          "text": "TEMPO 1203/1208 3500 TSRA SCT012 FEW027CB",
          "offset_h": 7,
          "wdir": null,
          "wspd": null
        },
        {
          "text": "TEMPO 1210/1214 3000 TSRA SCT010 FEW027CB",
          "offset_h": 14,
          "wdir": null,
          "wspd": null
        }
      ],
      "metar_raw": "METAR VVNB 112030Z 08002KT CAVOK 27/26 Q0997 NOSIG",
      "metar_wdir": 80,
      "metar_wspd": 2,
      "metar_oat": 27,
      "metar_qnh": 997,
      "hourly_oat": [
        26,
        26,
        26,
        27,
        28,
        29,
        30,
        31,
        32,
        32,
        32,
        32,
        32,
        29,
        28,
        28,
        27,
        26,
        26,
        26,
        26,
        26,
        24,
        24,
        24
      ]
    },
    "PVG": {
      "icao": "ZSPD",
      "issued": "2026-07-11T15:22:00.000Z",
      "raw": "TAF ZSPD 111522Z 1118/1224 10017G25MPS 6000 SHRA BKN013 TX30/1206Z TN26/1121Z TN27/1221Z TEMPO 1118/1122 2800 +SHRA BKN009 FEW030CB TEMPO 1122/1202 +SHRA BKN009 FEW030CB BECMG 1202/1204 16018G27MPS -SHRA BKN016 TEMPO 1207/1211 SHRA BKN013 FEW030CB BECMG 1213/1215 16012G21MPS",
      "groups": [
        {
          "text": "TAF ZSPD 111522Z 1118/1224 10017G25MPS 6000 SHRA BKN013 TX30/1206Z TN26/1121Z TN27/1221Z",
          "offset_h": -2,
          "wdir": null,
          "wspd": null
        },
        {
          "text": "TEMPO 1118/1122 2800 +SHRA BKN009 FEW030CB",
          "offset_h": -2,
          "wdir": null,
          "wspd": null
        },
        {
          "text": "TEMPO 1122/1202 +SHRA BKN009 FEW030CB",
          "offset_h": 2,
          "wdir": null,
          "wspd": null
        },
        {
          "text": "BECMG 1202/1204 16018G27MPS -SHRA BKN016",
          "offset_h": 6,
          "wdir": null,
          "wspd": null
        },
        {
          "text": "TEMPO 1207/1211 SHRA BKN013 FEW030CB",
          "offset_h": 11,
          "wdir": null,
          "wspd": null
        },
        {
          "text": "BECMG 1213/1215 16012G21MPS",
          "offset_h": 17,
          "wdir": null,
          "wspd": null
        }
      ],
      "metar_raw": "METAR ZSPD 112030Z 11012G18MPS 9999 BKN013 27/26 Q0992 NOSIG",
      "metar_wdir": null,
      "metar_wspd": null,
      "metar_oat": 27,
      "metar_qnh": 992,
      "hourly_oat": [
        27,
        28,
        28,
        28,
        28,
        29,
        29,
        29,
        29,
        30,
        29,
        30,
        29,
        29,
        28,
        28,
        28,
        28,
        28,
        28,
        28,
        28,
        28,
        28,
        28
      ]
    },
    "SHA": {
      "icao": "ZSSS",
      "issued": "2026-07-11T15:22:00.000Z",
      "raw": "TAF ZSSS 111522Z 1118/1224 10011G22MPS 6000 SHRA BKN013 TX31/1206Z TN27/1121Z TN28/1221Z TEMPO 1118/1122 2800 +SHRA BKN009 FEW030CB TEMPO 1122/1202 +SHRA BKN009 FEW030CB BECMG 1202/1204 16015G25MPS -SHRA BKN020 BECMG 1207/1209 16010G18MPS TEMPO 1207/1211 SHRA BKN011",
      "groups": [
        {
          "text": "TAF ZSSS 111522Z 1118/1224 10011G22MPS 6000 SHRA BKN013 TX31/1206Z TN27/1121Z TN28/1221Z",
          "offset_h": -2,
          "wdir": null,
          "wspd": null
        },
        {
          "text": "TEMPO 1118/1122 2800 +SHRA BKN009 FEW030CB",
          "offset_h": -2,
          "wdir": null,
          "wspd": null
        },
        {
          "text": "TEMPO 1122/1202 +SHRA BKN009 FEW030CB",
          "offset_h": 2,
          "wdir": null,
          "wspd": null
        },
        {
          "text": "BECMG 1202/1204 16015G25MPS -SHRA BKN020",
          "offset_h": 6,
          "wdir": null,
          "wspd": null
        },
        {
          "text": "BECMG 1207/1209 16010G18MPS",
          "offset_h": 11,
          "wdir": null,
          "wspd": null
        },
        {
          "text": "TEMPO 1207/1211 SHRA BKN011",
          "offset_h": 11,
          "wdir": null,
          "wspd": null
        }
      ],
      "metar_raw": "METAR ZSSS 112030Z 11011MPS 080V140 9999 BKN015 28/25 Q0991 NOSIG",
      "metar_wdir": null,
      "metar_wspd": null,
      "metar_oat": 28,
      "metar_qnh": 991,
      "hourly_oat": [
        27,
        27,
        28,
        28,
        28,
        28,
        29,
        30,
        30,
        30,
        30,
        30,
        30,
        29,
        29,
        29,
        28,
        28,
        28,
        28,
        28,
        28,
        28,
        28,
        28
      ]
    },
    "DLC": {
      "icao": "ZYTL",
      "issued": "2026-07-11T15:05:00.000Z",
      "raw": "TAF ZYTL 111505Z 1118/1218 17004MPS 5000 BR SCT020 TX29/1206Z TN23/1120Z",
      "groups": [
        {
          "text": "TAF ZYTL 111505Z 1118/1218 17004MPS 5000 BR SCT020 TX29/1206Z TN23/1120Z",
          "offset_h": -2,
          "wdir": null,
          "wspd": null
        }
      ],
      "metar_raw": "METAR ZYTL 112030Z 16004MPS 120V200 9999 SCT010 25/23 Q1006 NOSIG",
      "metar_wdir": null,
      "metar_wspd": null,
      "metar_oat": 25,
      "metar_qnh": 1006,
      "hourly_oat": [
        24,
        24,
        25,
        26,
        26,
        28,
        28,
        29,
        29,
        29,
        29,
        29,
        28,
        28,
        27,
        26,
        25,
        25,
        25,
        25,
        25,
        25,
        25,
        24,
        25
      ]
    },
    "CAN": {
      "icao": "ZGGG",
      "issued": "2026-07-11T15:01:00.000Z",
      "raw": "TAF ZGGG 111501Z 1118/1224 19003MPS 8000 SCT040 TX38/1207Z TN29/1122Z TN29/1222Z",
      "groups": [
        {
          "text": "TAF ZGGG 111501Z 1118/1224 19003MPS 8000 SCT040 TX38/1207Z TN29/1122Z TN29/1222Z",
          "offset_h": -2,
          "wdir": null,
          "wspd": null
        }
      ],
      "metar_raw": "METAR ZGGG 112030Z 21003MPS 160V260 CAVOK 30/26 Q0997 NOSIG",
      "metar_wdir": null,
      "metar_wspd": null,
      "metar_oat": 30,
      "metar_qnh": 997,
      "hourly_oat": [
        28,
        27,
        27,
        28,
        30,
        31,
        33,
        34,
        35,
        35,
        36,
        36,
        36,
        35,
        35,
        33,
        31,
        30,
        30,
        30,
        29,
        28,
        28,
        28,
        27
      ]
    }
  }
}