{
  "updated": "2026-07-13T01:45:28Z",
  "tafs": {
    "LAX": {
      "icao": "KLAX",
      "issued": "2026-07-12T23:31:00.000Z",
      "raw": "TAF KLAX 122331Z 1300/1406 28008KT P6SM BKN150 FM130800 VRB03KT P6SM SCT015 FM131700 26006KT P6SM BKN120 FM132100 26012KT P6SM BKN250",
      "groups": [
        {
          "text": "TAF KLAX 122331Z 1300/1406 28008KT P6SM BKN150",
          "offset_h": -1,
          "wdir": 280,
          "wspd": 8
        },
        {
          "text": "FM130800 VRB03KT P6SM SCT015",
          "offset_h": 7,
          "wdir": "VRB",
          "wspd": 3
        },
        {
          "text": "FM131700 26006KT P6SM BKN120",
          "offset_h": 16,
          "wdir": 260,
          "wspd": 6
        },
        {
          "text": "FM132100 26012KT P6SM BKN250",
          "offset_h": 20,
          "wdir": 260,
          "wspd": 12
        }
      ],
      "metar_raw": "SPECI KLAX 130142Z 27010KT 10SM FEW009 SCT120 BKN180 BKN240 22/18 A2989 RMK AO2 T02170178 $",
      "metar_wdir": 270,
      "metar_wspd": 10,
      "metar_oat": 22,
      "metar_qnh": 1012,
      "hourly_oat": [
        22,
        21,
        20,
        20,
        19,
        18,
        18,
        18,
        18,
        18,
        18,
        18,
        17,
        18,
        20,
        22,
        23,
        23,
        23,
        23,
        24,
        23,
        22,
        20,
        20
      ]
    },
    "SAN": {
      "icao": "KSAN",
      "issued": "2026-07-12T23:29:00.000Z",
      "raw": "TAF KSAN 122329Z 1300/1406 28010KT P6SM BKN120 FM130300 VRB04KT P6SM SCT012 SCT150 FM130900 VRB03KT P6SM BKN013 FM131600 VRB04KT P6SM SCT015 SCT150 FM131800 28008KT P6SM SCT150 FM140200 VRB04KT P6SM FEW015 BKN200",
      "groups": [
        {
          "text": "TAF KSAN 122329Z 1300/1406 28010KT P6SM BKN120",
          "offset_h": -1,
          "wdir": 280,
          "wspd": 10
        },
        {
          "text": "FM130300 VRB04KT P6SM SCT012 SCT150",
          "offset_h": 2,
          "wdir": "VRB",
          "wspd": 4
        },
        {
          "text": "FM130900 VRB03KT P6SM BKN013",
          "offset_h": 8,
          "wdir": "VRB",
          "wspd": 3
        },
        {
          "text": "FM131600 VRB04KT P6SM SCT015 SCT150",
          "offset_h": 15,
          "wdir": "VRB",
          "wspd": 4
        },
        {
          "text": "FM131800 28008KT P6SM SCT150",
          "offset_h": 17,
          "wdir": 280,
          "wspd": 8
        },
        {
          "text": "FM140200 VRB04KT P6SM FEW015 BKN200",
          "offset_h": 25,
          "wdir": "VRB",
          "wspd": 4
        }
      ],
      "metar_raw": "METAR KSAN 130051Z 30005KT 10SM FEW012 SCT080 BKN180 BKN250 22/18 A2991 RMK AO2 SLP129 CB DSNT SE T02170178 $",
      "metar_wdir": 300,
      "metar_wspd": 5,
      "metar_oat": 22,
      "metar_qnh": 1013,
      "hourly_oat": [
        22,
        21,
        21,
        20,
        19,
        19,
        18,
        18,
        18,
        17,
        17,
        17,
        17,
        18,
        20,
        22,
        22,
        23,
        23,
        23,
        23,
        25,
        24,
        23,
        22
      ]
    },
    "HNL": {
      "icao": "PHNL",
      "issued": "2026-07-12T23:20:00.000Z",
      "raw": "TAF PHNL 122320Z 1300/1406 06015G25KT P6SM VCSH SCT025 SCT040 FM130700 05010KT P6SM SCT025 SCT040 FM132000 06015G25KT P6SM SCT025 SCT040 FM140500 05011KT P6SM SCT025 SCT040",
      "groups": [
        {
          "text": "TAF PHNL 122320Z 1300/1406 06015G25KT P6SM VCSH SCT025 SCT040",
          "offset_h": -1,
          "wdir": 60,
          "wspd": 15
        },
        {
          "text": "FM130700 05010KT P6SM SCT025 SCT040",
          "offset_h": 6,
          "wdir": 50,
          "wspd": 10
        },
        {
          "text": "FM132000 06015G25KT P6SM SCT025 SCT040",
          "offset_h": 19,
          "wdir": 60,
          "wspd": 15
        },
        {
          "text": "FM140500 05011KT P6SM SCT025 SCT040",
          "offset_h": 28,
          "wdir": 50,
          "wspd": 11
        }
      ],
      "metar_raw": "METAR PHNL 130053Z 06016G26KT 10SM FEW026 FEW045 FEW070 30/18 A2999 RMK AO2 PK WND 07028/0042 SLP154 T03000183 $",
      "metar_wdir": 60,
      "metar_wspd": 16,
      "metar_oat": 30,
      "metar_qnh": 1016,
      "hourly_oat": [
        28,
        28,
        27,
        26,
        24,
        24,
        24,
        24,
        23,
        23,
        23,
        22,
        22,
        22,
        22,
        22,
        24,
        25,
        26,
        28,
        29,
        30,
        29,
        29,
        29
      ]
    },
    "NGO": {
      "icao": "RJGG",
      "issued": "2026-07-12T23:05:00.000Z",
      "raw": "TAF RJGG 122305Z 1300/1406 31014KT 9999 FEW030",
      "groups": [
        {
          "text": "TAF RJGG 122305Z 1300/1406 31014KT 9999 FEW030",
          "offset_h": -1,
          "wdir": 310,
          "wspd": 14
        }
      ],
      "metar_raw": "METAR RJGG 130130Z 32015KT 9999 FEW015 BKN/// 30/25 Q1009 NOSIG",
      "metar_wdir": 320,
      "metar_wspd": 15,
      "metar_oat": 30,
      "metar_qnh": 1009,
      "hourly_oat": [
        27,
        28,
        29,
        29,
        28,
        28,
        28,
        28,
        28,
        28,
        28,
        27,
        27,
        27,
        27,
        27,
        27,
        27,
        27,
        26,
        26,
        27,
        27,
        27,
        27
      ]
    },
    "NRT": {
      "icao": "RJAA",
      "issued": "2026-07-12T23:05:00.000Z",
      "raw": "TAF RJAA 122305Z 1300/1406 28012KT 9999 FEW020 BKN040 BECMG 1308/1310 36006KT BECMG 1315/1318 14010KT",
      "groups": [
        {
          "text": "TAF RJAA 122305Z 1300/1406 28012KT 9999 FEW020 BKN040",
          "offset_h": -1,
          "wdir": 280,
          "wspd": 12
        },
        {
          "text": "BECMG 1308/1310 36006KT",
          "offset_h": 7,
          "wdir": 360,
          "wspd": 6
        },
        {
          "text": "BECMG 1315/1318 14010KT",
          "offset_h": 14,
          "wdir": 140,
          "wspd": 10
        }
      ],
      "metar_raw": "METAR RJAA 130130Z VRB01KT 6000 FEW030 SCT100 BKN/// 28/24 Q1006 BECMG 26006KT",
      "metar_wdir": "VRB",
      "metar_wspd": 1,
      "metar_oat": 28,
      "metar_qnh": 1006,
      "hourly_oat": [
        25,
        26,
        28,
        29,
        29,
        30,
        30,
        29,
        28,
        28,
        27,
        27,
        26,
        25,
        25,
        24,
        24,
        24,
        23,
        23,
        24,
        26,
        27,
        28,
        30
      ]
    },
    "KIX": {
      "icao": "RJBB",
      "issued": "2026-07-12T23:05:00.000Z",
      "raw": "TAF RJBB 122305Z 1300/1406 22006KT 9999 FEW030 SCT045 BECMG 1312/1315 12004KT BECMG 1403/1406 22005KT",
      "groups": [
        {
          "text": "TAF RJBB 122305Z 1300/1406 22006KT 9999 FEW030 SCT045",
          "offset_h": -1,
          "wdir": 220,
          "wspd": 6
        },
        {
          "text": "BECMG 1312/1315 12004KT",
          "offset_h": 11,
          "wdir": 120,
          "wspd": 4
        },
        {
          "text": "BECMG 1403/1406 22005KT",
          "offset_h": 26,
          "wdir": 220,
          "wspd": 5
        }
      ],
      "metar_raw": "METAR RJBB 130130Z 22005KT 180V260 9999 FEW030 BKN/// 29/25 Q1011 NOSIG",
      "metar_wdir": 220,
      "metar_wspd": 5,
      "metar_oat": 29,
      "metar_qnh": 1011,
      "hourly_oat": [
        26,
        26,
        27,
        27,
        28,
        28,
        28,
        28,
        28,
        27,
        27,
        27,
        27,
        27,
        27,
        26,
        26,
        26,
        26,
        26,
        26,
        26,
        26,
        26,
        26
      ]
    },
    "HND": {
      "icao": "RJTT",
      "issued": "2026-07-12T23:05:00.000Z",
      "raw": "TAF RJTT 122305Z 1300/1406 19008KT 9999 FEW030 BECMG 1309/1311 30004KT BECMG 1318/1321 18012KT",
      "groups": [
        {
          "text": "TAF RJTT 122305Z 1300/1406 19008KT 9999 FEW030",
          "offset_h": -1,
          "wdir": 190,
          "wspd": 8
        },
        {
          "text": "BECMG 1309/1311 30004KT",
          "offset_h": 8,
          "wdir": 300,
          "wspd": 4
        },
        {
          "text": "BECMG 1318/1321 18012KT",
          "offset_h": 17,
          "wdir": 180,
          "wspd": 12
        }
      ],
      "metar_raw": "METAR RJTT 130130Z 21004KT 160V310 9999 -SHRA FEW030 SCT100 BKN150 27/25 Q1006 NOSIG",
      "metar_wdir": 210,
      "metar_wspd": 4,
      "metar_oat": 27,
      "metar_qnh": 1006,
      "hourly_oat": [
        25,
        26,
        26,
        26,
        26,
        27,
        27,
        28,
        27,
        26,
        26,
        26,
        26,
        26,
        25,
        25,
        24,
        24,
        23,
        24,
        24,
        26,
        27,
        28,
        29
      ]
    },
    "ITM": {
      "icao": "RJOO",
      "issued": "2026-07-12T23:05:00.000Z",
      "raw": "TAF RJOO 122305Z 1300/1406 22005KT 9999 FEW025 TEMPO 1304/1308 TS FEW020 FEW025CB SCT035 BECMG 1308/1310 32006KT BECMG 1321/1400 22006KT",
      "groups": [
        {
          "text": "TAF RJOO 122305Z 1300/1406 22005KT 9999 FEW025",
          "offset_h": -1,
          "wdir": 220,
          "wspd": 5
        },
        {
          "text": "TEMPO 1304/1308 TS FEW020 FEW025CB SCT035",
          "offset_h": 3,
          "wdir": null,
          "wspd": null
        },
        {
          "text": "BECMG 1308/1310 32006KT",
          "offset_h": 7,
          "wdir": 320,
          "wspd": 6
        },
        {
          "text": "BECMG 1321/1400 22006KT",
          "offset_h": 20,
          "wdir": 220,
          "wspd": 6
        }
      ],
      "metar_raw": "METAR RJOO 130100Z 18006KT 140V230 9999 FEW025 SCT035 BKN/// 31/25 Q1011",
      "metar_wdir": 180,
      "metar_wspd": 6,
      "metar_oat": 31,
      "metar_qnh": 1011,
      "hourly_oat": [
        30,
        31,
        31,
        31,
        32,
        32,
        32,
        32,
        32,
        31,
        30,
        29,
        28,
        27,
        27,
        26,
        26,
        26,
        25,
        25,
        25,
        26,
        28,
        29,
        30
      ]
    },
    "OKA": {
      "icao": "ROAH",
      "issued": "2026-07-12T23:05:00.000Z",
      "raw": "TAF ROAH 122305Z 1300/1406 17018KT 9999 FEW010 SCT020 TEMPO 1315/1400 FEW005 BKN008",
      "groups": [
        {
          "text": "TAF ROAH 122305Z 1300/1406 17018KT 9999 FEW010 SCT020",
          "offset_h": -1,
          "wdir": 170,
          "wspd": 18
        },
        {
          "text": "TEMPO 1315/1400 FEW005 BKN008",
          "offset_h": 14,
          "wdir": null,
          "wspd": null
        }
      ],
      "metar_raw": "METAR ROAH 130130Z 16015KT 9999 SCT012 BKN025 30/26 Q1012",
      "metar_wdir": 160,
      "metar_wspd": 15,
      "metar_oat": 30,
      "metar_qnh": 1012,
      "hourly_oat": [
        29,
        29,
        29,
        29,
        29,
        29,
        29,
        28,
        28,
        27,
        27,
        27,
        27,
        26,
        26,
        26,
        26,
        26,
        26,
        26,
        26,
        27,
        27,
        28,
        28
      ]
    },
    "FUK": {
      "icao": "RJFF",
      "issued": "2026-07-12T23:05:00.000Z",
      "raw": "TAF RJFF 122305Z 1300/1406 16006KT 9999 FEW025 BKN040 BECMG 1302/1304 32011KT BECMG 1308/1310 20004KT",
      "groups": [
        {
          "text": "TAF RJFF 122305Z 1300/1406 16006KT 9999 FEW025 BKN040",
          "offset_h": -1,
          "wdir": 160,
          "wspd": 6
        },
        {
          "text": "BECMG 1302/1304 32011KT",
          "offset_h": 1,
          "wdir": 320,
          "wspd": 11
        },
        {
          "text": "BECMG 1308/1310 20004KT",
          "offset_h": 7,
          "wdir": 200,
          "wspd": 4
        }
      ],
      "metar_raw": "METAR RJFF 130130Z 16007KT 110V230 9999 FEW030 BKN040 33/24 Q1012 BECMG 32010KT",
      "metar_wdir": 160,
      "metar_wspd": 7,
      "metar_oat": 33,
      "metar_qnh": 1012,
      "hourly_oat": [
        32,
        32,
        32,
        31,
        30,
        30,
        31,
        31,
        31,
        31,
        30,
        29,
        28,
        28,
        27,
        27,
        27,
        27,
        26,
        26,
        26,
        27,
        29,
        30,
        31
      ]
    },
    "CTS": {
      "icao": "RJCC",
      "issued": "2026-07-12T23:05:00.000Z",
      "raw": "TAF RJCC 122305Z 1300/1406 33006KT 9999 FEW008 BKN015 TEMPO 1310/1312 FEW005 BKN008 TEMPO 1312/1315 4000 BR FEW003 BKN005 BECMG 1315/1318 18004KT TEMPO 1315/1400 1500 BR FEW001 BKN003 TEMPO 1400/1403 FEW003 BKN006",
      "groups": [
        {
          "text": "TAF RJCC 122305Z 1300/1406 33006KT 9999 FEW008 BKN015",
          "offset_h": -1,
          "wdir": 330,
          "wspd": 6
        },
        {
          "text": "TEMPO 1310/1312 FEW005 BKN008",
          "offset_h": 9,
          "wdir": null,
          "wspd": null
        },
        {
          "text": "TEMPO 1312/1315 4000 BR FEW003 BKN005",
          "offset_h": 11,
          "wdir": null,
          "wspd": null
        },
        {
          "text": "BECMG 1315/1318 18004KT",
          "offset_h": 14,
          "wdir": 180,
          "wspd": 4
        },
        {
          "text": "TEMPO 1315/1400 1500 BR FEW001 BKN003",
          "offset_h": 14,
          "wdir": null,
          "wspd": null
        },
        {
          "text": "TEMPO 1400/1403 FEW003 BKN006",
          "offset_h": 23,
          "wdir": null,
          "wspd": null
        }
      ],
      "metar_raw": "METAR RJCC 130130Z 02004KT 340V070 9999 FEW010 SCT015 BKN020 26/22 Q1005",
      "metar_wdir": 20,
      "metar_wspd": 4,
      "metar_oat": 26,
      "metar_qnh": 1005,
      "hourly_oat": [
        26,
        28,
        27,
        27,
        26,
        26,
        25,
        24,
        23,
        22,
        22,
        21,
        21,
        21,
        21,
        21,
        20,
        20,
        20,
        20,
        21,
        22,
        22,
        22,
        22
      ]
    },
    "GMP": {
      "icao": "RKSS",
      "issued": "2026-07-12T23:00:00.000Z",
      "raw": "TAF RKSS 122300Z 1300/1406 18006KT 9999 SCT035 TX33/1306Z TN26/1321Z TX30/1406Z BECMG 1303/1305 24008KT BECMG 1316/1318 17007KT 6000 FEW010 BKN030 OVC080 BECMG 1404/1406 18015G30KT 4000 -RA",
      "groups": [
        {
          "text": "TAF RKSS 122300Z 1300/1406 18006KT 9999 SCT035 TX33/1306Z TN26/1321Z TX30/1406Z",
          "offset_h": -1,
          "wdir": 180,
          "wspd": 6
        },
        {
          "text": "BECMG 1303/1305 24008KT",
          "offset_h": 2,
          "wdir": 240,
          "wspd": 8
        },
        {
          "text": "BECMG 1316/1318 17007KT 6000 FEW010 BKN030 OVC080",
          "offset_h": 15,
          "wdir": 170,
          "wspd": 7
        },
        {
          "text": "BECMG 1404/1406 18015G30KT 4000 -RA",
          "offset_h": 27,
          "wdir": 180,
          "wspd": 15
        }
      ],
      "metar_raw": "METAR RKSS 130100Z 19005KT 140V220 9999 BKN030 31/25 Q1010 NOSIG",
      "metar_wdir": 190,
      "metar_wspd": 5,
      "metar_oat": 31,
      "metar_qnh": 1010,
      "hourly_oat": [
        29,
        30,
        31,
        32,
        32,
        32,
        32,
        31,
        30,
        29,
        28,
        27,
        27,
        27,
        26,
        26,
        26,
        26,
        26,
        25,
        25,
        26,
        27,
        28,
        29
      ]
    },
    "SIN": {
      "icao": "WSSS",
      "issued": "2026-07-12T23:00:00.000Z",
      "raw": "TAF WSSS 122300Z 1300/1406 15008KT 9999 FEW015 SCT020",
      "groups": [
        {
          "text": "TAF WSSS 122300Z 1300/1406 15008KT 9999 FEW015 SCT020",
          "offset_h": -1,
          "wdir": 150,
          "wspd": 8
        }
      ],
      "metar_raw": "METAR WSSS 130130Z 12010KT 9999 FEW018 BKN300 30/25 Q1010 NOSIG",
      "metar_wdir": 120,
      "metar_wspd": 10,
      "metar_oat": 30,
      "metar_qnh": 1010,
      "hourly_oat": [
        29,
        30,
        30,
        31,
        31,
        31,
        31,
        31,
        30,
        30,
        30,
        29,
        29,
        29,
        29,
        29,
        28,
        28,
        28,
        28,
        28,
        28,
        28,
        25,
        26
      ]
    },
    "KUL": {
      "icao": "WMKK",
      "issued": "2026-07-12T23:00:00.000Z",
      "raw": "TAF WMKK 122300Z 1300/1406 14007KT 9999 FEW018",
      "groups": [
        {
          "text": "TAF WMKK 122300Z 1300/1406 14007KT 9999 FEW018",
          "offset_h": -1,
          "wdir": 140,
          "wspd": 7
        }
      ],
      "metar_raw": "METAR WMKK 130130Z 13005KT 050V190 7000 FEW018 30/25 Q1009 NOSIG",
      "metar_wdir": 130,
      "metar_wspd": 5,
      "metar_oat": 30,
      "metar_qnh": 1009,
      "hourly_oat": [
        27,
        29,
        30,
        31,
        30,
        30,
        31,
        30,
        30,
        30,
        29,
        28,
        27,
        27,
        27,
        27,
        26,
        26,
        26,
        23,
        24,
        23,
        23,
        24,
        25
      ]
    },
    "HAN": {
      "icao": "VVNB",
      "issued": "2026-07-12T23:00:00.000Z",
      "raw": "TAF VVNB 122300Z 1300/1324 09005KT 6000 SCT020 TEMPO 1304/1307 4000 TSRA SCT010 FEW027CB TEMPO 1311/1315 4000 TSRA SCT010 FEW027CB",
      "groups": [
        {
          "text": "TAF VVNB 122300Z 1300/1324 09005KT 6000 SCT020",
          "offset_h": -1,
          "wdir": 90,
          "wspd": 5
        },
        {
          "text": "TEMPO 1304/1307 4000 TSRA SCT010 FEW027CB",
          "offset_h": 3,
          "wdir": null,
          "wspd": null
        },
        {
          "text": "TEMPO 1311/1315 4000 TSRA SCT010 FEW027CB",
          "offset_h": 10,
          "wdir": null,
          "wspd": null
        }
      ],
      "metar_raw": "METAR VVNB 130130Z 33004KT 280V010 6000 SCT010 BKN016 30/27 Q1002 NOSIG",
      "metar_wdir": 330,
      "metar_wspd": 4,
      "metar_oat": 30,
      "metar_qnh": 1002,
      "hourly_oat": [
        30,
        31,
        32,
        32,
        33,
        33,
        34,
        33,
        30,
        31,
        30,
        30,
        29,
        29,
        28,
        28,
        28,
        27,
        27,
        27,
        26,
        26,
        27,
        28,
        29
      ]
    },
    "SGN": {
      "icao": "VVTS",
      "issued": "2026-07-12T23:00:00.000Z",
      "raw": "TAF VVTS 122300Z 1300/1406 22010KT 9999 SCT017 TEMPO 1304/1307 22015G28KT 4000 TSRA SCT015 SCT017CB TEMPO 1307/1311 5000 SHRA SCT015 FEW017CB",
      "groups": [
        {
          "text": "TAF VVTS 122300Z 1300/1406 22010KT 9999 SCT017",
          "offset_h": -1,
          "wdir": 220,
          "wspd": 10
        },
        {
          "text": "TEMPO 1304/1307 22015G28KT 4000 TSRA SCT015 SCT017CB",
          "offset_h": 3,
          "wdir": 220,
          "wspd": 15
        },
        {
          "text": "TEMPO 1307/1311 5000 SHRA SCT015 FEW017CB",
          "offset_h": 6,
          "wdir": null,
          "wspd": null
        }
      ],
      "metar_raw": "METAR VVTS 130130Z 26011KT 230V290 9999 FEW016 SCT099 29/25 Q1008 NOSIG",
      "metar_wdir": 260,
      "metar_wspd": 11,
      "metar_oat": 29,
      "metar_qnh": 1008,
      "hourly_oat": [
        28,
        28,
        29,
        31,
        28,
        29,
        30,
        27,
        26,
        26,
        26,
        26,
        26,
        26,
        26,
        25,
        25,
        25,
        25,
        25,
        25,
        25,
        25,
        26,
        27
      ]
    },
    "HKG": {
      "icao": "VHHH",
      "issued": "2026-07-12T23:00:00.000Z",
      "raw": "TAF VHHH 122300Z 1300/1406 12010KT 9999 FEW020 TX33/1306Z TX29/1406Z TN26/1322Z TEMPO 1301/1306 22010KT TEMPO 1304/1308 4000 SHRA FEW010CB SCT020 TEMPO 1317/1321 16015G25KT 3500 SHRA FEW010CB SCT020 TEMPO 1321/1406 VRB20G30KT 2000 TSRA SHRA FEW008CB SCT015",
      "groups": [
        {
          "text": "TAF VHHH 122300Z 1300/1406 12010KT 9999 FEW020 TX33/1306Z TX29/1406Z TN26/1322Z",
          "offset_h": -1,
          "wdir": 120,
          "wspd": 10
        },
        {
          "text": "TEMPO 1301/1306 22010KT",
          "offset_h": 0,
          "wdir": 220,
          "wspd": 10
        },
        {
          "text": "TEMPO 1304/1308 4000 SHRA FEW010CB SCT020",
          "offset_h": 3,
          "wdir": null,
          "wspd": null
        },
        {
          "text": "TEMPO 1317/1321 16015G25KT 3500 SHRA FEW010CB SCT020",
          "offset_h": 16,
          "wdir": 160,
          "wspd": 15
        },
        {
          "text": "TEMPO 1321/1406 VRB20G30KT 2000 TSRA SHRA FEW008CB SCT015",
          "offset_h": 20,
          "wdir": "VRB",
          "wspd": 20
        }
      ],
      "metar_raw": "METAR VHHH 130130Z 04003KT 9999 FEW015 31/25 Q1003 NOSIG",
      "metar_wdir": 40,
      "metar_wspd": 3,
      "metar_oat": 31,
      "metar_qnh": 1003,
      "hourly_oat": [
        30,
        30,
        31,
        30,
        30,
        30,
        30,
        30,
        30,
        29,
        29,
        29,
        28,
        28,
        28,
        28,
        27,
        26,
        26,
        26,
        26,
        26,
        26,
        26,
        27
      ]
    },
    "TSA": {
      "icao": "RCSS",
      "issued": "2026-07-12T23:00:00.000Z",
      "raw": "TAF RCSS 122300Z 1300/1324 09005KT 9999 FEW012 BKN032 TEMPO 1303/1309 10010KT 2400 TSRA SCT006 BKN011 FEW012CB TEMPO 1310/1316 5000 SHRA SCT008 FEW012CB BKN017 BECMG 1322/1324 27008KT",
      "groups": [
        {
          "text": "TAF RCSS 122300Z 1300/1324 09005KT 9999 FEW012 BKN032",
          "offset_h": -1,
          "wdir": 90,
          "wspd": 5
        },
        {
          "text": "TEMPO 1303/1309 10010KT 2400 TSRA SCT006 BKN011 FEW012CB",
          "offset_h": 2,
          "wdir": 100,
          "wspd": 10
        },
        {
          "text": "TEMPO 1310/1316 5000 SHRA SCT008 FEW012CB BKN017",
          "offset_h": 9,
          "wdir": null,
          "wspd": null
        },
        {
          "text": "BECMG 1322/1324 27008KT",
          "offset_h": 21,
          "wdir": 270,
          "wspd": 8
        }
      ],
      "metar_raw": "METAR RCSS 130130Z 30005KT 270V330 9999 FEW018 SCT025 BKN250 32/28 Q1005 NOSIG RMK A2970",
      "metar_wdir": 300,
      "metar_wspd": 5,
      "metar_oat": 32,
      "metar_qnh": 1005,
      "hourly_oat": [
        31,
        32,
        32,
        30,
        29,
        28,
        30,
        29,
        29,
        28,
        27,
        27,
        27,
        26,
        26,
        26,
        26,
        26,
        26,
        26,
        26,
        26,
        28,
        29,
        30
      ]
    },
    "TPE": {
      "icao": "RCTP",
      "issued": "2026-07-12T23:00:00.000Z",
      "raw": "TAF RCTP 122300Z 1300/1406 22007KT 9999 FEW012 BKN032 BECMG 1303/1305 02008KT TEMPO 1303/1309 5000 SHRA SCT008 FEW010CB BKN012 TEMPO 1314/1318 18005KT 4000 SHRA SCT006 FEW010CB BKN012 TEMPO 1318/1322 13005KT BECMG 1322/1400 34007KT",
      "groups": [
        {
          "text": "TAF RCTP 122300Z 1300/1406 22007KT 9999 FEW012 BKN032",
          "offset_h": -1,
          "wdir": 220,
          "wspd": 7
        },
        {
          "text": "BECMG 1303/1305 02008KT",
          "offset_h": 2,
          "wdir": 20,
          "wspd": 8
        },
        {
          "text": "TEMPO 1303/1309 5000 SHRA SCT008 FEW010CB BKN012",
          "offset_h": 2,
          "wdir": null,
          "wspd": null
        },
        {
          "text": "TEMPO 1314/1318 18005KT 4000 SHRA SCT006 FEW010CB BKN012",
          "offset_h": 13,
          "wdir": 180,
          "wspd": 5
        },
        {
          "text": "TEMPO 1318/1322 13005KT",
          "offset_h": 17,
          "wdir": 130,
          "wspd": 5
        },
        {
          "text": "BECMG 1322/1400 34007KT",
          "offset_h": 21,
          "wdir": 340,
          "wspd": 7
        }
      ],
      "metar_raw": "METAR RCTP 130130Z 27006KT 9999 FEW010 BKN016 BKN025 31/26 Q1006 NOSIG RMK A2971",
      "metar_wdir": 270,
      "metar_wspd": 6,
      "metar_oat": 31,
      "metar_qnh": 1006,
      "hourly_oat": [
        30,
        30,
        29,
        30,
        29,
        29,
        29,
        29,
        28,
        27,
        27,
        27,
        26,
        26,
        26,
        26,
        26,
        26,
        26,
        25,
        26,
        26,
        27,
        29,
        30
      ]
    },
    "BKK": {
      "icao": "VTBS",
      "issued": "2026-07-12T23:00:00.000Z",
      "raw": "TAF VTBS 122300Z 1300/1406 24008KT 9999 FEW020 TEMPO 1308/1312 VRB15KT 4000 TSRA FEW018CB SCT030 BKN080",
      "groups": [
        {
          "text": "TAF VTBS 122300Z 1300/1406 24008KT 9999 FEW020",
          "offset_h": -1,
          "wdir": 240,
          "wspd": 8
        },
        {
          "text": "TEMPO 1308/1312 VRB15KT 4000 TSRA FEW018CB SCT030 BKN080",
          "offset_h": 7,
          "wdir": "VRB",
          "wspd": 15
        }
      ],
      "metar_raw": "METAR VTBS 130130Z 25008KT 9999 FEW020 29/22 Q1006 NOSIG",
      "metar_wdir": 250,
      "metar_wspd": 8,
      "metar_oat": 29,
      "metar_qnh": 1006,
      "hourly_oat": [
        28,
        28,
        29,
        30,
        31,
        30,
        30,
        30,
        29,
        28,
        28,
        28,
        28,
        28,
        28,
        27,
        27,
        27,
        27,
        27,
        27,
        27,
        27,
        28,
        29
      ]
    },
    "CGK": {
      "icao": "WIII",
      "issued": "2026-07-12T23:00:00.000Z",
      "raw": "TAF WIII 122300Z 1300/1406 17006KT 5000 HZ SCT020 BECMG 1301/1303 05011KT 7000 NSW BECMG 1314/1316 14005KT BECMG 1316/1318 5000 HZ BECMG 1401/1403 04011KT 7000 NSW",
      "groups": [
        {
          "text": "TAF WIII 122300Z 1300/1406 17006KT 5000 HZ SCT020",
          "offset_h": -1,
          "wdir": 170,
          "wspd": 6
        },
        {
          "text": "BECMG 1301/1303 05011KT 7000 NSW",
          "offset_h": 0,
          "wdir": 50,
          "wspd": 11
        },
        {
          "text": "BECMG 1314/1316 14005KT",
          "offset_h": 13,
          "wdir": 140,
          "wspd": 5
        },
        {
          "text": "BECMG 1316/1318 5000 HZ",
          "offset_h": 15,
          "wdir": null,
          "wspd": null
        },
        {
          "text": "BECMG 1401/1403 04011KT 7000 NSW",
          "offset_h": 24,
          "wdir": 40,
          "wspd": 11
        }
      ],
      "metar_raw": "METAR WIII 130130Z 11010KT 3500 HZ FEW020 28/22 Q1013 NOSIG",
      "metar_wdir": 110,
      "metar_wspd": 10,
      "metar_oat": 28,
      "metar_qnh": 1013,
      "hourly_oat": [
        27,
        29,
        31,
        32,
        34,
        34,
        34,
        32,
        31,
        30,
        28,
        28,
        28,
        28,
        27,
        27,
        26,
        26,
        26,
        25,
        25,
        25,
        24,
        26,
        28
      ]
    },
    "DLC": {
      "icao": "ZYTL",
      "issued": "2026-07-12T21:17:00.000Z",
      "raw": "TAF ZYTL 122117Z 1300/1324 14006G12MPS 5000 BR BKN008 BKN026 TX28/1306Z TN24/1322Z BECMG 1306/1307 2500 -SHRA BR TEMPO 1322/1324 TSRA BR BKN005 BKN026 SCT033CB",
      "groups": [
        {
          "text": "TAF ZYTL 122117Z 1300/1324 14006G12MPS 5000 BR BKN008 BKN026 TX28/1306Z TN24/1322Z",
          "offset_h": -1,
          "wdir": null,
          "wspd": null
        },
        {
          "text": "BECMG 1306/1307 2500 -SHRA BR",
          "offset_h": 5,
          "wdir": null,
          "wspd": null
        },
        {
          "text": "TEMPO 1322/1324 TSRA BR BKN005 BKN026 SCT033CB",
          "offset_h": 21,
          "wdir": null,
          "wspd": null
        }
      ],
      "metar_raw": "METAR ZYTL 130130Z 14007MPS 8000 -SHRA SCT007 BKN008 BKN020 25/24 Q1004 NOSIG",
      "metar_wdir": null,
      "metar_wspd": null,
      "metar_oat": 25,
      "metar_qnh": 1004,
      "hourly_oat": [
        26,
        26,
        26,
        25,
        26,
        26,
        27,
        26,
        26,
        25,
        25,
        24,
        24,
        24,
        24,
        24,
        24,
        24,
        24,
        24,
        24,
        24,
        24,
        25,
        26
      ]
    },
    "PVG": {
      "icao": "ZSPD",
      "issued": "2026-07-12T21:11:00.000Z",
      "raw": "TAF ZSPD 122111Z 1300/1406 16010G15MPS 8000 BKN020 TX32/1306Z TX34/1406Z TN28/1321Z BECMG 1309/1310 18007MPS",
      "groups": [
        {
          "text": "TAF ZSPD 122111Z 1300/1406 16010G15MPS 8000 BKN020 TX32/1306Z TX34/1406Z TN28/1321Z",
          "offset_h": -1,
          "wdir": null,
          "wspd": null
        },
        {
          "text": "BECMG 1309/1310 18007MPS",
          "offset_h": 8,
          "wdir": null,
          "wspd": null
        }
      ],
      "metar_raw": "METAR ZSPD 130130Z 17011MPS CAVOK 31/26 Q1001 NOSIG",
      "metar_wdir": null,
      "metar_wspd": null,
      "metar_oat": 31,
      "metar_qnh": 1001,
      "hourly_oat": [
        30,
        31,
        31,
        32,
        32,
        33,
        32,
        31,
        31,
        30,
        29,
        29,
        29,
        28,
        28,
        28,
        28,
        28,
        28,
        28,
        27,
        28,
        29,
        30,
        31
      ]
    },
    "SHA": {
      "icao": "ZSSS",
      "issued": "2026-07-12T21:09:00.000Z",
      "raw": "TAF ZSSS 122109Z 1300/1406 16009G14MPS 8000 BKN020 TX34/1306Z TX36/1406Z TN28/1321Z BECMG 1306/1307 17005MPS",
      "groups": [
        {
          "text": "TAF ZSSS 122109Z 1300/1406 16009G14MPS 8000 BKN020 TX34/1306Z TX36/1406Z TN28/1321Z",
          "offset_h": -1,
          "wdir": null,
          "wspd": null
        },
        {
          "text": "BECMG 1306/1307 17005MPS",
          "offset_h": 5,
          "wdir": null,
          "wspd": null
        }
      ],
      "metar_raw": "METAR ZSSS 130130Z 18009MPS 9999 FEW030 33/25 Q1000 NOSIG",
      "metar_wdir": null,
      "metar_wspd": null,
      "metar_oat": 33,
      "metar_qnh": 1000,
      "hourly_oat": [
        30,
        31,
        32,
        32,
        33,
        34,
        33,
        33,
        32,
        31,
        30,
        30,
        29,
        29,
        28,
        28,
        28,
        28,
        28,
        27,
        27,
        28,
        29,
        30,
        31
      ]
    },
    "CAN": {
      "icao": "ZGGG",
      "issued": "2026-07-12T21:03:00.000Z",
      "raw": "TAF ZGGG 122103Z 1300/1406 16003MPS 8000 SCT040 TX38/1307Z TX31/1406Z TN28/1322Z TEMPO 1307/1311 TSRA FEW026CB BKN033 TEMPO 1322/1402 TSRA FEW026CB BKN033 TEMPO 1405/1406 +TSRA SCT010 SCT026CB BKN033",
      "groups": [
        {
          "text": "TAF ZGGG 122103Z 1300/1406 16003MPS 8000 SCT040 TX38/1307Z TX31/1406Z TN28/1322Z",
          "offset_h": -1,
          "wdir": null,
          "wspd": null
        },
        {
          "text": "TEMPO 1307/1311 TSRA FEW026CB BKN033",
          "offset_h": 6,
          "wdir": null,
          "wspd": null
        },
        {
          "text": "TEMPO 1322/1402 TSRA FEW026CB BKN033",
          "offset_h": 21,
          "wdir": null,
          "wspd": null
        },
        {
          "text": "TEMPO 1405/1406 +TSRA SCT010 SCT026CB BKN033",
          "offset_h": 28,
          "wdir": null,
          "wspd": null
        }
      ],
      "metar_raw": "METAR ZGGG 130130Z 19002MPS 130V240 9999 FEW023 33/27 Q1003 NOSIG",
      "metar_wdir": null,
      "metar_wspd": null,
      "metar_oat": 33,
      "metar_qnh": 1003,
      "hourly_oat": [
        31,
        32,
        33,
        34,
        34,
        35,
        35,
        35,
        33,
        32,
        30,
        29,
        28,
        28,
        28,
        27,
        27,
        27,
        27,
        27,
        27,
        26,
        26,
        27,
        28
      ]
    },
    "PEK": {
      "icao": "ZBAA",
      "issued": "2026-07-12T21:03:00.000Z",
      "raw": "TAF ZBAA 122103Z 1300/1406 36004MPS CAVOK TX33/1306Z TX31/1406Z TN23/1321Z",
      "groups": [
        {
          "text": "TAF ZBAA 122103Z 1300/1406 36004MPS CAVOK TX33/1306Z TX31/1406Z TN23/1321Z",
          "offset_h": -1,
          "wdir": null,
          "wspd": null
        }
      ],
      "metar_raw": "METAR ZBAA 130130Z 01004MPS CAVOK 30/25 Q1003 NOSIG",
      "metar_wdir": null,
      "metar_wspd": null,
      "metar_oat": 30,
      "metar_qnh": 1003,
      "hourly_oat": [
        29,
        30,
        31,
        32,
        32,
        33,
        33,
        33,
        33,
        32,
        30,
        28,
        28,
        27,
        26,
        26,
        25,
        25,
        24,
        24,
        23,
        23,
        24,
        26,
        28
      ]
    }
  }
}