{
  "updated": "2026-07-24T10:06:20Z",
  "tafs": {
    "LAX": {
      "icao": "KLAX",
      "issued": "2026-07-24T09:16:00.000Z",
      "raw": "TAF KLAX 240916Z 2409/2512 VRB03KT P6SM SKC FM241200 VRB03KT P6SM SCT008 FM241700 24008KT P6SM SCT200 FM242000 26014KT P6SM SCT200 FM250400 24008KT P6SM SKC FM250700 VRB03KT P6SM SKC FM251000 VRB03KT P6SM BKN008",
      "groups": [
        {
          "text": "TAF KLAX 240916Z 2409/2512 VRB03KT P6SM SKC",
          "offset_h": -1,
          "wdir": "VRB",
          "wspd": 3
        },
        {
          "text": "FM241200 VRB03KT P6SM SCT008",
          "offset_h": 2,
          "wdir": "VRB",
          "wspd": 3
        },
        {
          "text": "FM241700 24008KT P6SM SCT200",
          "offset_h": 7,
          "wdir": 240,
          "wspd": 8
        },
        {
          "text": "FM242000 26014KT P6SM SCT200",
          "offset_h": 10,
          "wdir": 260,
          "wspd": 14
        },
        {
          "text": "FM250400 24008KT P6SM SKC",
          "offset_h": 18,
          "wdir": 240,
          "wspd": 8
        },
        {
          "text": "FM250700 VRB03KT P6SM SKC",
          "offset_h": 21,
          "wdir": "VRB",
          "wspd": 3
        },
        {
          "text": "FM251000 VRB03KT P6SM BKN008",
          "offset_h": 24,
          "wdir": "VRB",
          "wspd": 3
        }
      ],
      "metar_raw": "METAR KLAX 240953Z 24004KT 10SM FEW010 21/18 A2986 RMK AO2 SLP107 T02060178 $",
      "metar_wdir": 240,
      "metar_wspd": 4,
      "metar_oat": 21,
      "metar_qnh": 1011,
      "hourly_oat": [
        18,
        18,
        18,
        17,
        19,
        22,
        25,
        27,
        28,
        27,
        28,
        28,
        27,
        26,
        25,
        24,
        23,
        22,
        20,
        20,
        19,
        19,
        18,
        18,
        17
      ]
    },
    "DLC": {
      "icao": "ZYTL",
      "issued": "2026-07-24T09:15:00.000Z",
      "raw": "TAF ZYTL 240915Z 2412/2512 12004MPS 5000 BR SCT020 TX30/2506Z TN24/2420Z BECMG 2414/2415 2000 -SHRA BR BKN026 FEW033CB BECMG 2418/2419 TSRA BR BKN010 BKN026 SCT033CB BECMG 2420/2421 -SHRA BR BKN026 FEW033CB BECMG 2502/2503 SCT020 BECMG 2506/2507 5000 BR",
      "groups": [
        {
          "text": "TAF ZYTL 240915Z 2412/2512 12004MPS 5000 BR SCT020 TX30/2506Z TN24/2420Z",
          "offset_h": 2,
          "wdir": null,
          "wspd": null
        },
        {
          "text": "BECMG 2414/2415 2000 -SHRA BR BKN026 FEW033CB",
          "offset_h": 4,
          "wdir": null,
          "wspd": null
        },
        {
          "text": "BECMG 2418/2419 TSRA BR BKN010 BKN026 SCT033CB",
          "offset_h": 8,
          "wdir": null,
          "wspd": null
        },
        {
          "text": "BECMG 2420/2421 -SHRA BR BKN026 FEW033CB",
          "offset_h": 10,
          "wdir": null,
          "wspd": null
        },
        {
          "text": "BECMG 2502/2503 SCT020",
          "offset_h": 16,
          "wdir": null,
          "wspd": null
        },
        {
          "text": "BECMG 2506/2507 5000 BR",
          "offset_h": 20,
          "wdir": null,
          "wspd": null
        }
      ],
      "metar_raw": "METAR ZYTL 241000Z 09004MPS 9999 SCT023 27/24 Q1006 NOSIG",
      "metar_wdir": null,
      "metar_wspd": null,
      "metar_oat": 27,
      "metar_qnh": 1006,
      "hourly_oat": [
        28,
        27,
        26,
        26,
        26,
        26,
        26,
        25,
        25,
        24,
        24,
        24,
        24,
        25,
        27,
        28,
        29,
        30,
        30,
        30,
        30,
        30,
        30,
        30,
        28
      ]
    },
    "CAN": {
      "icao": "ZGGG",
      "issued": "2026-07-24T09:05:00.000Z",
      "raw": "TAF ZGGG 240905Z 2412/2518 30003MPS 8000 BKN033 TX32/2412Z TX36/2507Z TN28/2422Z TEMPO 2507/2511 2500 TSRA SCT026CB BKN033",
      "groups": [
        {
          "text": "TAF ZGGG 240905Z 2412/2518 30003MPS 8000 BKN033 TX32/2412Z TX36/2507Z TN28/2422Z",
          "offset_h": 2,
          "wdir": null,
          "wspd": null
        },
        {
          "text": "TEMPO 2507/2511 2500 TSRA SCT026CB BKN033",
          "offset_h": 21,
          "wdir": null,
          "wspd": null
        }
      ],
      "metar_raw": "METAR ZGGG 241000Z 31003MPS 270V360 9999 SCT060 35/23 Q1003 NOSIG",
      "metar_wdir": null,
      "metar_wspd": null,
      "metar_oat": 35,
      "metar_qnh": 1003,
      "hourly_oat": [
        33,
        32,
        30,
        29,
        29,
        28,
        28,
        28,
        27,
        26,
        26,
        26,
        26,
        27,
        29,
        31,
        33,
        34,
        35,
        36,
        36,
        33,
        34,
        29,
        29
      ]
    },
    "PVG": {
      "icao": "ZSPD",
      "issued": "2026-07-24T09:02:00.000Z",
      "raw": "TAF ZSPD 240902Z 2412/2518 16006MPS 8000 SCT030 TX31/2412Z TX35/2506Z TN28/2421Z",
      "groups": [
        {
          "text": "TAF ZSPD 240902Z 2412/2518 16006MPS 8000 SCT030 TX31/2412Z TX35/2506Z TN28/2421Z",
          "offset_h": 2,
          "wdir": null,
          "wspd": null
        }
      ],
      "metar_raw": "METAR ZSPD 241000Z 14006MPS CAVOK 32/26 Q1007 NOSIG",
      "metar_wdir": null,
      "metar_wspd": null,
      "metar_oat": 32,
      "metar_qnh": 1007,
      "hourly_oat": [
        32,
        31,
        30,
        30,
        29,
        29,
        29,
        29,
        28,
        29,
        28,
        28,
        29,
        30,
        32,
        33,
        34,
        35,
        35,
        35,
        35,
        35,
        34,
        32,
        31
      ]
    },
    "PEK": {
      "icao": "ZBAA",
      "issued": "2026-07-24T09:01:00.000Z",
      "raw": "TAF ZBAA 240901Z 2412/2518 08003MPS 6000 NSC TX31/2506Z TN23/2421Z TN24/2518Z",
      "groups": [
        {
          "text": "TAF ZBAA 240901Z 2412/2518 08003MPS 6000 NSC TX31/2506Z TN23/2421Z TN24/2518Z",
          "offset_h": 2,
          "wdir": null,
          "wspd": null
        }
      ],
      "metar_raw": "METAR ZBAA 241000Z VRB01MPS 9999 FEW033 FEW033TCU 30/23 Q1005 NOSIG",
      "metar_wdir": null,
      "metar_wspd": null,
      "metar_oat": 30,
      "metar_qnh": 1005,
      "hourly_oat": [
        29,
        28,
        27,
        26,
        26,
        25,
        25,
        24,
        24,
        24,
        24,
        23,
        24,
        25,
        26,
        27,
        28,
        29,
        30,
        30,
        31,
        31,
        31,
        31,
        30
      ]
    },
    "SHA": {
      "icao": "ZSSS",
      "issued": "2026-07-24T09:01:00.000Z",
      "raw": "TAF ZSSS 240901Z 2412/2518 16004MPS 8000 SCT030 TX33/2412Z TX36/2506Z TN29/2421Z",
      "groups": [
        {
          "text": "TAF ZSSS 240901Z 2412/2518 16004MPS 8000 SCT030 TX33/2412Z TX36/2506Z TN29/2421Z",
          "offset_h": 2,
          "wdir": null,
          "wspd": null
        }
      ],
      "metar_raw": "METAR ZSSS 241000Z 15006MPS CAVOK 35/25 Q1006 NOSIG",
      "metar_wdir": null,
      "metar_wspd": null,
      "metar_oat": 35,
      "metar_qnh": 1006,
      "hourly_oat": [
        34,
        32,
        31,
        30,
        29,
        29,
        29,
        29,
        28,
        28,
        28,
        28,
        28,
        30,
        31,
        32,
        34,
        35,
        35,
        36,
        36,
        36,
        36,
        34,
        33
      ]
    },
    "HNL": {
      "icao": "PHNL",
      "issued": "2026-07-24T09:00:00.000Z",
      "raw": "TAF PHNL 240900Z 2409/2512 06012G20KT 6SM -SHRA SCT025 SCT045 FM242000 06017G25KT P6SM FEW025 SCT045 FM250600 06014G22KT P6SM VCSH SCT025 SCT045",
      "groups": [
        {
          "text": "TAF PHNL 240900Z 2409/2512 06012G20KT 6SM -SHRA SCT025 SCT045",
          "offset_h": -1,
          "wdir": 60,
          "wspd": 12
        },
        {
          "text": "FM242000 06017G25KT P6SM FEW025 SCT045",
          "offset_h": 10,
          "wdir": 60,
          "wspd": 17
        },
        {
          "text": "FM250600 06014G22KT P6SM VCSH SCT025 SCT045",
          "offset_h": 20,
          "wdir": 60,
          "wspd": 14
        }
      ],
      "metar_raw": "METAR PHNL 240953Z 07010KT 10SM FEW025 BKN035 BKN060 25/20 A3007 RMK AO2 SLP183 T02500200 403110239 $",
      "metar_wdir": 70,
      "metar_wspd": 10,
      "metar_oat": 25,
      "metar_qnh": 1018,
      "hourly_oat": [
        23,
        23,
        23,
        23,
        23,
        22,
        22,
        23,
        24,
        26,
        27,
        28,
        28,
        28,
        28,
        28,
        28,
        27,
        26,
        25,
        24,
        24,
        24,
        24,
        24
      ]
    },
    "SGN": {
      "icao": "VVTS",
      "issued": "2026-07-24T08:55:00.000Z",
      "raw": "TAF AMD VVTS 240855Z 2409/2512 26010KT 9999 SCT017 TEMPO 2411/2415 5000 TSRA SCT015 FEW017CB TEMPO 2507/2510 30015G28KT 2000 +TSRA SCT013 SCT015CB",
      "groups": [
        {
          "text": "TAF AMD VVTS 240855Z 2409/2512 26010KT 9999 SCT017",
          "offset_h": -1,
          "wdir": 260,
          "wspd": 10
        },
        {
          "text": "TEMPO 2411/2415 5000 TSRA SCT015 FEW017CB",
          "offset_h": 1,
          "wdir": null,
          "wspd": null
        },
        {
          "text": "TEMPO 2507/2510 30015G28KT 2000 +TSRA SCT013 SCT015CB",
          "offset_h": 21,
          "wdir": 300,
          "wspd": 15
        }
      ],
      "metar_raw": "METAR VVTS 241000Z 21010KT 9999 SCT026 31/23 Q1003 NOSIG",
      "metar_wdir": 210,
      "metar_wspd": 10,
      "metar_oat": 31,
      "metar_qnh": 1003,
      "hourly_oat": [
        27,
        26,
        26,
        26,
        26,
        26,
        25,
        25,
        25,
        25,
        25,
        25,
        25,
        25,
        26,
        27,
        29,
        30,
        30,
        28,
        27,
        28,
        26,
        26,
        26
      ]
    },
    "SAN": {
      "icao": "KSAN",
      "issued": "2026-07-24T08:36:00.000Z",
      "raw": "TAF KSAN 240836Z 2409/2512 VRB04KT P6SM SCT010 FM240930 VRB03KT P6SM BKN009 FM241630 VRB04KT P6SM FEW012 FM241900 25008KT P6SM SKC FM250500 VRB04KT P6SM BKN012",
      "groups": [
        {
          "text": "TAF KSAN 240836Z 2409/2512 VRB04KT P6SM SCT010",
          "offset_h": -1,
          "wdir": "VRB",
          "wspd": 4
        },
        {
          "text": "FM240930 VRB03KT P6SM BKN009",
          "offset_h": -1,
          "wdir": "VRB",
          "wspd": 3
        },
        {
          "text": "FM241630 VRB04KT P6SM FEW012",
          "offset_h": 6,
          "wdir": "VRB",
          "wspd": 4
        },
        {
          "text": "FM241900 25008KT P6SM SKC",
          "offset_h": 9,
          "wdir": 250,
          "wspd": 8
        },
        {
          "text": "FM250500 VRB04KT P6SM BKN012",
          "offset_h": 19,
          "wdir": "VRB",
          "wspd": 4
        }
      ],
      "metar_raw": "METAR KSAN 240951Z 30003KT 9SM OVC011 22/19 A2988 RMK AO2 SLP117 T02170189 $",
      "metar_wdir": 300,
      "metar_wspd": 3,
      "metar_oat": 22,
      "metar_qnh": 1012,
      "hourly_oat": [
        21,
        21,
        21,
        21,
        21,
        22,
        24,
        25,
        26,
        27,
        27,
        27,
        27,
        27,
        26,
        25,
        24,
        22,
        22,
        22,
        22,
        21,
        21,
        21,
        20
      ]
    },
    "HKG": {
      "icao": "VHHH",
      "issued": "2026-07-24T08:00:00.000Z",
      "raw": "TAF VHHH 240800Z 2409/2515 26010KT 9999 FEW020 TX33/2506Z TN27/2422Z BECMG 2410/2412 18010KT BECMG 2416/2418 26010KT BECMG 2501/2503 34015KT TEMPO 2508/2515 34020G30KT 2000 TSRA SHRA FEW010CB SCT020 BECMG 2513/2515 34025KT",
      "groups": [
        {
          "text": "TAF VHHH 240800Z 2409/2515 26010KT 9999 FEW020 TX33/2506Z TN27/2422Z",
          "offset_h": -1,
          "wdir": 260,
          "wspd": 10
        },
        {
          "text": "BECMG 2410/2412 18010KT",
          "offset_h": 0,
          "wdir": 180,
          "wspd": 10
        },
        {
          "text": "BECMG 2416/2418 26010KT",
          "offset_h": 6,
          "wdir": 260,
          "wspd": 10
        },
        {
          "text": "BECMG 2501/2503 34015KT",
          "offset_h": 15,
          "wdir": 340,
          "wspd": 15
        },
        {
          "text": "TEMPO 2508/2515 34020G30KT 2000 TSRA SHRA FEW010CB SCT020",
          "offset_h": 22,
          "wdir": 340,
          "wspd": 20
        },
        {
          "text": "BECMG 2513/2515 34025KT",
          "offset_h": 27,
          "wdir": 340,
          "wspd": 25
        }
      ],
      "metar_raw": "METAR VHHH 241000Z 23006KT 170V270 9999 FEW030 33/21 Q1003 NOSIG",
      "metar_wdir": 230,
      "metar_wspd": 6,
      "metar_oat": 33,
      "metar_qnh": 1003,
      "hourly_oat": [
        30,
        29,
        28,
        28,
        28,
        28,
        28,
        28,
        28,
        28,
        28,
        28,
        28,
        28,
        28,
        29,
        29,
        30,
        30,
        31,
        30,
        29,
        29,
        28,
        29
      ]
    },
    "TPE": {
      "icao": "RCTP",
      "issued": "2026-07-24T06:47:00.000Z",
      "raw": "TAF AMD RCTP 240647Z 2406/2512 09020G30KT 9999 FEW012 TEMPO 2415/2421 10015G25KT BECMG 2422/2424 15010G20KT BECMG 2504/2506 27007KT TEMPO 2509/2512 30005KT",
      "groups": [
        {
          "text": "TAF AMD RCTP 240647Z 2406/2512 09020G30KT 9999 FEW012",
          "offset_h": -4,
          "wdir": 90,
          "wspd": 20
        },
        {
          "text": "TEMPO 2415/2421 10015G25KT",
          "offset_h": 5,
          "wdir": 100,
          "wspd": 15
        },
        {
          "text": "BECMG 2422/2424 15010G20KT",
          "offset_h": 12,
          "wdir": 150,
          "wspd": 10
        },
        {
          "text": "BECMG 2504/2506 27007KT",
          "offset_h": 18,
          "wdir": 270,
          "wspd": 7
        },
        {
          "text": "TEMPO 2509/2512 30005KT",
          "offset_h": 23,
          "wdir": 300,
          "wspd": 5
        }
      ],
      "metar_raw": "METAR RCTP 240930Z 07022G32KT 9999 FEW020 BKN100 34/24 Q1003 WS ALL RWY NOSIG RMK A2963",
      "metar_wdir": 70,
      "metar_wspd": 22,
      "metar_oat": 34,
      "metar_qnh": 1003,
      "hourly_oat": [
        30,
        29,
        29,
        28,
        28,
        28,
        28,
        28,
        27,
        27,
        28,
        27,
        27,
        28,
        30,
        30,
        32,
        33,
        33,
        33,
        33,
        32,
        32,
        31,
        30
      ]
    },
    "KIX": {
      "icao": "RJBB",
      "issued": "2026-07-24T05:08:00.000Z",
      "raw": "TAF RJBB 240508Z 2406/2512 24006KT 9999 FEW030 BECMG 2409/2411 06006KT BECMG 2500/2503 29006KT TEMPO 2506/2512 TS FEW015 BKN030 FEW030CB BECMG 2509/2512 04012KT",
      "groups": [
        {
          "text": "TAF RJBB 240508Z 2406/2512 24006KT 9999 FEW030",
          "offset_h": -4,
          "wdir": 240,
          "wspd": 6
        },
        {
          "text": "BECMG 2409/2411 06006KT",
          "offset_h": -1,
          "wdir": 60,
          "wspd": 6
        },
        {
          "text": "BECMG 2500/2503 29006KT",
          "offset_h": 14,
          "wdir": 290,
          "wspd": 6
        },
        {
          "text": "TEMPO 2506/2512 TS FEW015 BKN030 FEW030CB",
          "offset_h": 20,
          "wdir": null,
          "wspd": null
        },
        {
          "text": "BECMG 2509/2512 04012KT",
          "offset_h": 23,
          "wdir": 40,
          "wspd": 12
        }
      ],
      "metar_raw": "METAR RJBB 241000Z 26004KT 9999 FEW035 32/28 Q1009 BECMG 01007KT",
      "metar_wdir": 260,
      "metar_wspd": 4,
      "metar_oat": 32,
      "metar_qnh": 1009,
      "hourly_oat": [
        30,
        30,
        31,
        30,
        30,
        30,
        29,
        29,
        29,
        28,
        28,
        28,
        28,
        28,
        28,
        28,
        28,
        29,
        29,
        30,
        30,
        30,
        30,
        30,
        31
      ]
    },
    "ITM": {
      "icao": "RJOO",
      "issued": "2026-07-24T05:08:00.000Z",
      "raw": "TAF RJOO 240508Z 2406/2512 34008KT 9999 FEW030 TEMPO 2503/2509 TS FEW015 BKN030 FEW030CB",
      "groups": [
        {
          "text": "TAF RJOO 240508Z 2406/2512 34008KT 9999 FEW030",
          "offset_h": -4,
          "wdir": 340,
          "wspd": 8
        },
        {
          "text": "TEMPO 2503/2509 TS FEW015 BKN030 FEW030CB",
          "offset_h": 17,
          "wdir": null,
          "wspd": null
        }
      ],
      "metar_raw": "METAR RJOO 241000Z 36012KT 9999 FEW035 34/20 Q1009",
      "metar_wdir": 360,
      "metar_wspd": 12,
      "metar_oat": 34,
      "metar_qnh": 1009,
      "hourly_oat": [
        31,
        30,
        29,
        29,
        28,
        28,
        27,
        26,
        26,
        26,
        26,
        26,
        28,
        29,
        31,
        32,
        34,
        34,
        34,
        34,
        34,
        35,
        34,
        33,
        31
      ]
    },
    "NRT": {
      "icao": "RJAA",
      "issued": "2026-07-24T05:05:00.000Z",
      "raw": "TAF RJAA 240505Z 2406/2512 12010KT 9999 FEW012 BKN020 TEMPO 2406/2408 TS FEW012 FEW015CB BKN020 TEMPO 2408/2412 3000 +TSRA BR FEW003 BKN008 FEW015CB BECMG 2416/2418 33004KT TEMPO 2418/2500 3000 BR FEW003 BKN005 BECMG 2503/2506 04014KT",
      "groups": [
        {
          "text": "TAF RJAA 240505Z 2406/2512 12010KT 9999 FEW012 BKN020",
          "offset_h": -4,
          "wdir": 120,
          "wspd": 10
        },
        {
          "text": "TEMPO 2406/2408 TS FEW012 FEW015CB BKN020",
          "offset_h": -4,
          "wdir": null,
          "wspd": null
        },
        {
          "text": "TEMPO 2408/2412 3000 +TSRA BR FEW003 BKN008 FEW015CB",
          "offset_h": -2,
          "wdir": null,
          "wspd": null
        },
        {
          "text": "BECMG 2416/2418 33004KT",
          "offset_h": 6,
          "wdir": 330,
          "wspd": 4
        },
        {
          "text": "TEMPO 2418/2500 3000 BR FEW003 BKN005",
          "offset_h": 8,
          "wdir": null,
          "wspd": null
        },
        {
          "text": "BECMG 2503/2506 04014KT",
          "offset_h": 17,
          "wdir": 40,
          "wspd": 14
        }
      ],
      "metar_raw": "METAR RJAA 241000Z 13004KT 9999 VCSH SCT015 BKN030 27/25 Q1010 NOSIG",
      "metar_wdir": 130,
      "metar_wspd": 4,
      "metar_oat": 27,
      "metar_qnh": 1010,
      "hourly_oat": [
        26,
        25,
        25,
        25,
        25,
        25,
        25,
        25,
        25,
        25,
        24,
        25,
        26,
        26,
        28,
        30,
        32,
        32,
        32,
        32,
        31,
        30,
        28,
        27,
        27
      ]
    },
    "HND": {
      "icao": "RJTT",
      "issued": "2026-07-24T05:05:00.000Z",
      "raw": "TAF RJTT 240505Z 2406/2512 16010KT 6000 -SHRA FEW008 BKN015 TEMPO 2406/2408 -TSRA FEW015 FEW025CB BKN030 TEMPO 2408/2411 1500 +TSRA BR FEW003 BKN005 SCT025CB TEMPO 2411/2412 4000 -TSRA BR FEW008 BKN015 FEW025CB BECMG 2411/2413 36006KT TEMPO 2418/2421 FEW003 BKN008 BECMG 2500/2503 08008KT TEMPO 2506/2512 -TSRA FEW015 FEW025CB BKN030 BECMG 2509/2512 05014KT",
      "groups": [
        {
          "text": "TAF RJTT 240505Z 2406/2512 16010KT 6000 -SHRA FEW008 BKN015",
          "offset_h": -4,
          "wdir": 160,
          "wspd": 10
        },
        {
          "text": "TEMPO 2406/2408 -TSRA FEW015 FEW025CB BKN030",
          "offset_h": -4,
          "wdir": null,
          "wspd": null
        },
        {
          "text": "TEMPO 2408/2411 1500 +TSRA BR FEW003 BKN005 SCT025CB",
          "offset_h": -2,
          "wdir": null,
          "wspd": null
        },
        {
          "text": "TEMPO 2411/2412 4000 -TSRA BR FEW008 BKN015 FEW025CB",
          "offset_h": 1,
          "wdir": null,
          "wspd": null
        },
        {
          "text": "BECMG 2411/2413 36006KT",
          "offset_h": 1,
          "wdir": 360,
          "wspd": 6
        },
        {
          "text": "TEMPO 2418/2421 FEW003 BKN008",
          "offset_h": 8,
          "wdir": null,
          "wspd": null
        },
        {
          "text": "BECMG 2500/2503 08008KT",
          "offset_h": 14,
          "wdir": 80,
          "wspd": 8
        },
        {
          "text": "TEMPO 2506/2512 -TSRA FEW015 FEW025CB BKN030",
          "offset_h": 20,
          "wdir": null,
          "wspd": null
        },
        {
          "text": "BECMG 2509/2512 05014KT",
          "offset_h": 23,
          "wdir": 50,
          "wspd": 14
        }
      ],
      "metar_raw": "METAR RJTT 241000Z 20012KT 9999 FEW015 BKN030 BKN130 30/27 Q1009 TEMPO FM1100 TL1130 TS",
      "metar_wdir": 200,
      "metar_wspd": 12,
      "metar_oat": 30,
      "metar_qnh": 1009,
      "hourly_oat": [
        28,
        27,
        27,
        27,
        27,
        27,
        27,
        27,
        27,
        27,
        26,
        26,
        26,
        28,
        30,
        31,
        32,
        32,
        33,
        33,
        33,
        33,
        31,
        29,
        28
      ]
    },
    "OKA": {
      "icao": "ROAH",
      "issued": "2026-07-24T05:05:00.000Z",
      "raw": "TAF ROAH 240505Z 2406/2512 14010KT 9999 FEW020 BKN030",
      "groups": [
        {
          "text": "TAF ROAH 240505Z 2406/2512 14010KT 9999 FEW020 BKN030",
          "offset_h": -4,
          "wdir": 140,
          "wspd": 10
        }
      ],
      "metar_raw": "METAR ROAH 241000Z 15010KT 9999 -SHRA SCT015 30/27 Q1011",
      "metar_wdir": 150,
      "metar_wspd": 10,
      "metar_oat": 30,
      "metar_qnh": 1011,
      "hourly_oat": [
        30,
        29,
        29,
        29,
        29,
        29,
        28,
        28,
        28,
        28,
        28,
        28,
        29,
        30,
        31,
        32,
        32,
        33,
        33,
        33,
        33,
        33,
        32,
        31,
        30
      ]
    },
    "FUK": {
      "icao": "RJFF",
      "issued": "2026-07-24T05:05:00.000Z",
      "raw": "TAF RJFF 240505Z 2406/2512 32008KT 9999 FEW035 BECMG 2412/2414 14004KT BECMG 2500/2503 32011KT",
      "groups": [
        {
          "text": "TAF RJFF 240505Z 2406/2512 32008KT 9999 FEW035",
          "offset_h": -4,
          "wdir": 320,
          "wspd": 8
        },
        {
          "text": "BECMG 2412/2414 14004KT",
          "offset_h": 2,
          "wdir": 140,
          "wspd": 4
        },
        {
          "text": "BECMG 2500/2503 32011KT",
          "offset_h": 14,
          "wdir": 320,
          "wspd": 11
        }
      ],
      "metar_raw": "METAR RJFF 241000Z 33007KT 300V360 9999 FEW025 31/25 Q1011 NOSIG",
      "metar_wdir": 330,
      "metar_wspd": 7,
      "metar_oat": 31,
      "metar_qnh": 1011,
      "hourly_oat": [
        29,
        28,
        28,
        28,
        27,
        27,
        26,
        26,
        26,
        26,
        26,
        26,
        26,
        28,
        29,
        30,
        30,
        31,
        30,
        31,
        30,
        30,
        30,
        29,
        28
      ]
    },
    "NGO": {
      "icao": "RJGG",
      "issued": "2026-07-24T05:05:00.000Z",
      "raw": "TAF RJGG 240505Z 2406/2512 23006KT 9999 FEW030 BECMG 2407/2409 31010KT",
      "groups": [
        {
          "text": "TAF RJGG 240505Z 2406/2512 23006KT 9999 FEW030",
          "offset_h": -4,
          "wdir": 230,
          "wspd": 6
        },
        {
          "text": "BECMG 2407/2409 31010KT",
          "offset_h": -3,
          "wdir": 310,
          "wspd": 10
        }
      ],
      "metar_raw": "METAR RJGG 241000Z 32014KT 9999 FEW020 33/24 Q1009 NOSIG",
      "metar_wdir": 320,
      "metar_wspd": 14,
      "metar_oat": 33,
      "metar_qnh": 1009,
      "hourly_oat": [
        32,
        32,
        31,
        30,
        30,
        30,
        30,
        29,
        29,
        29,
        29,
        29,
        29,
        30,
        30,
        31,
        31,
        32,
        31,
        32,
        33,
        33,
        33,
        32,
        31
      ]
    },
    "CTS": {
      "icao": "RJCC",
      "issued": "2026-07-24T05:05:00.000Z",
      "raw": "TAF RJCC 240505Z 2406/2512 17010KT 9999 FEW008 BKN015 TEMPO 2406/2412 FEW003 BKN005 TEMPO 2412/2500 FEW005 BKN008",
      "groups": [
        {
          "text": "TAF RJCC 240505Z 2406/2512 17010KT 9999 FEW008 BKN015",
          "offset_h": -4,
          "wdir": 170,
          "wspd": 10
        },
        {
          "text": "TEMPO 2406/2412 FEW003 BKN005",
          "offset_h": -4,
          "wdir": null,
          "wspd": null
        },
        {
          "text": "TEMPO 2412/2500 FEW005 BKN008",
          "offset_h": 2,
          "wdir": null,
          "wspd": null
        }
      ],
      "metar_raw": "METAR RJCC 241000Z 18013KT 9999 FEW005 SCT009 BKN010 19/17 Q1013",
      "metar_wdir": 180,
      "metar_wspd": 13,
      "metar_oat": 19,
      "metar_qnh": 1013,
      "hourly_oat": [
        19,
        19,
        19,
        19,
        19,
        19,
        18,
        18,
        18,
        18,
        18,
        19,
        19,
        19,
        19,
        20,
        20,
        21,
        21,
        20,
        19,
        19,
        18,
        18,
        18
      ]
    },
    "TSA": {
      "icao": "RCSS",
      "issued": "2026-07-24T05:00:00.000Z",
      "raw": "TAF RCSS 240500Z 2406/2506 11012G22KT 9999 FEW012 BKN032 BECMG 2406/2408 10015G25KT TEMPO 2418/2424 11020G30KT 5000 SHRA FEW012 BKN020 BKN050 BECMG 2500/2502 11018G28KT BECMG 2504/2506 13015G25KT",
      "groups": [
        {
          "text": "TAF RCSS 240500Z 2406/2506 11012G22KT 9999 FEW012 BKN032",
          "offset_h": -4,
          "wdir": 110,
          "wspd": 12
        },
        {
          "text": "BECMG 2406/2408 10015G25KT",
          "offset_h": -4,
          "wdir": 100,
          "wspd": 15
        },
        {
          "text": "TEMPO 2418/2424 11020G30KT 5000 SHRA FEW012 BKN020 BKN050",
          "offset_h": 8,
          "wdir": 110,
          "wspd": 20
        },
        {
          "text": "BECMG 2500/2502 11018G28KT",
          "offset_h": 14,
          "wdir": 110,
          "wspd": 18
        },
        {
          "text": "BECMG 2504/2506 13015G25KT",
          "offset_h": 18,
          "wdir": 130,
          "wspd": 15
        }
      ],
      "metar_raw": "METAR RCSS 240930Z 10015KT 9999 FEW022 SCT035 BKN200 32/27 Q1005 NOSIG RMK A2970",
      "metar_wdir": 100,
      "metar_wspd": 15,
      "metar_oat": 32,
      "metar_qnh": 1005,
      "hourly_oat": [
        29,
        28,
        28,
        28,
        27,
        27,
        27,
        27,
        27,
        27,
        27,
        27,
        27,
        28,
        29,
        29,
        30,
        31,
        32,
        33,
        34,
        33,
        33,
        32,
        31
      ]
    },
    "CGK": {
      "icao": "WIII",
      "issued": "2026-07-24T05:00:00.000Z",
      "raw": "TAF WIII 240500Z 2406/2512 02011KT 8000 SCT020 BECMG 2413/2415 15005KT 4000 HZ",
      "groups": [
        {
          "text": "TAF WIII 240500Z 2406/2512 02011KT 8000 SCT020",
          "offset_h": -4,
          "wdir": 20,
          "wspd": 11
        },
        {
          "text": "BECMG 2413/2415 15005KT 4000 HZ",
          "offset_h": 3,
          "wdir": 150,
          "wspd": 5
        }
      ],
      "metar_raw": "METAR WIII 241000Z 35006KT 9000 FEW020 29/22 Q1007 NOSIG",
      "metar_wdir": 350,
      "metar_wspd": 6,
      "metar_oat": 29,
      "metar_qnh": 1007,
      "hourly_oat": [
        30,
        29,
        29,
        28,
        28,
        28,
        27,
        26,
        25,
        25,
        25,
        24,
        24,
        24,
        25,
        27,
        29,
        31,
        32,
        34,
        33,
        32,
        31,
        31,
        30
      ]
    },
    "BKK": {
      "icao": "VTBS",
      "issued": "2026-07-24T05:00:00.000Z",
      "raw": "TAF VTBS 240500Z 2406/2512 24008KT 9999 FEW020 TEMPO 2410/2414 VRB15KT 3000 TSRA FEW018CB SCT020 BKN080",
      "groups": [
        {
          "text": "TAF VTBS 240500Z 2406/2512 24008KT 9999 FEW020",
          "offset_h": -4,
          "wdir": 240,
          "wspd": 8
        },
        {
          "text": "TEMPO 2410/2414 VRB15KT 3000 TSRA FEW018CB SCT020 BKN080",
          "offset_h": 0,
          "wdir": "VRB",
          "wspd": 15
        }
      ],
      "metar_raw": "METAR VTBS 241000Z 25007KT 9999 FEW020 SCT045 35/22 Q1002 NOSIG",
      "metar_wdir": 250,
      "metar_wspd": 7,
      "metar_oat": 35,
      "metar_qnh": 1002,
      "hourly_oat": [
        28,
        28,
        27,
        27,
        27,
        27,
        27,
        27,
        27,
        26,
        26,
        26,
        26,
        26,
        27,
        28,
        29,
        30,
        32,
        33,
        34,
        33,
        31,
        31,
        31
      ]
    },
    "KUL": {
      "icao": "WMKK",
      "issued": "2026-07-24T05:00:00.000Z",
      "raw": "TAF WMKK 240500Z 2406/2512 15005KT 9999 FEW018 PROB30 TEMPO 2407/2410 7000 -TSRA FEW017CB",
      "groups": [
        {
          "text": "TAF WMKK 240500Z 2406/2512 15005KT 9999 FEW018",
          "offset_h": -4,
          "wdir": 150,
          "wspd": 5
        },
        {
          "text": "PROB30",
          "offset_h": 0,
          "wdir": null,
          "wspd": null
        },
        {
          "text": "TEMPO 2407/2410 7000 -TSRA FEW017CB",
          "offset_h": -3,
          "wdir": null,
          "wspd": null
        }
      ],
      "metar_raw": "METAR WMKK 240930Z 00000KT 9000 FEW017CB 30/26 Q1006 NOSIG",
      "metar_wdir": 0,
      "metar_wspd": 0,
      "metar_oat": 30,
      "metar_qnh": 1006,
      "hourly_oat": [
        29,
        28,
        26,
        25,
        25,
        25,
        25,
        25,
        25,
        25,
        24,
        24,
        23,
        23,
        23,
        24,
        25,
        26,
        27,
        27,
        28,
        28,
        29,
        29,
        28
      ]
    },
    "HAN": {
      "icao": "VVNB",
      "issued": "2026-07-24T05:00:00.000Z",
      "raw": "TAF VVNB 240500Z 2406/2506 12005KT 9999 SCT020 TEMPO 2406/2411 3500 TSRA BKN012 FEW027CB TEMPO 2414/2418 3500 TSRA BKN012 FEW027CB TEMPO 2420/2501 3200 TSRA BKN010 FEW027CB",
      "groups": [
        {
          "text": "TAF VVNB 240500Z 2406/2506 12005KT 9999 SCT020",
          "offset_h": -4,
          "wdir": 120,
          "wspd": 5
        },
        {
          "text": "TEMPO 2406/2411 3500 TSRA BKN012 FEW027CB",
          "offset_h": -4,
          "wdir": null,
          "wspd": null
        },
        {
          "text": "TEMPO 2414/2418 3500 TSRA BKN012 FEW027CB",
          "offset_h": 4,
          "wdir": null,
          "wspd": null
        },
        {
          "text": "TEMPO 2420/2501 3200 TSRA BKN010 FEW027CB",
          "offset_h": 10,
          "wdir": null,
          "wspd": null
        }
      ],
      "metar_raw": "METAR VVNB 241000Z 06004KT 330V140 9999 VCTS FEW028CB SCT033 29/27 Q1003 NOSIG",
      "metar_wdir": 60,
      "metar_wspd": 4,
      "metar_oat": 29,
      "metar_qnh": 1003,
      "hourly_oat": [
        30,
        27,
        26,
        26,
        26,
        25,
        25,
        25,
        24,
        24,
        24,
        24,
        24,
        24,
        25,
        26,
        28,
        29,
        30,
        31,
        32,
        32,
        33,
        33,
        32
      ]
    },
    "SIN": {
      "icao": "WSSS",
      "issued": "2026-07-24T05:00:00.000Z",
      "raw": "TAF WSSS 240500Z 2406/2512 16010KT 9999 FEW015 SCT020",
      "groups": [
        {
          "text": "TAF WSSS 240500Z 2406/2512 16010KT 9999 FEW015 SCT020",
          "offset_h": -4,
          "wdir": 160,
          "wspd": 10
        }
      ],
      "metar_raw": "METAR WSSS 241000Z 13012KT 9999 FEW016 FEW018TCU FEW020CB SCT030 30/24 Q1006 NOSIG",
      "metar_wdir": 130,
      "metar_wspd": 12,
      "metar_oat": 30,
      "metar_qnh": 1006,
      "hourly_oat": [
        28,
        28,
        28,
        27,
        27,
        25,
        24,
        25,
        25,
        25,
        25,
        25,
        25,
        26,
        25,
        25,
        27,
        27,
        26,
        28,
        28,
        28,
        27,
        26,
        27
      ]
    },
    "GMP": {
      "icao": "RKSS",
      "issued": "2026-07-24T05:00:00.000Z",
      "raw": "TAF RKSS 240500Z 2406/2512 18006KT 9999 BKN025 TN25/2420Z TX30/2506Z BECMG 2407/2409 24007KT SCT030 BECMG 2411/2413 18005KT BKN020 BECMG 2423/2501 24007KT TEMPO 2501/2506 -RA",
      "groups": [
        {
          "text": "TAF RKSS 240500Z 2406/2512 18006KT 9999 BKN025 TN25/2420Z TX30/2506Z",
          "offset_h": -4,
          "wdir": 180,
          "wspd": 6
        },
        {
          "text": "BECMG 2407/2409 24007KT SCT030",
          "offset_h": -3,
          "wdir": 240,
          "wspd": 7
        },
        {
          "text": "BECMG 2411/2413 18005KT BKN020",
          "offset_h": 1,
          "wdir": 180,
          "wspd": 5
        },
        {
          "text": "BECMG 2423/2501 24007KT",
          "offset_h": 13,
          "wdir": 240,
          "wspd": 7
        },
        {
          "text": "TEMPO 2501/2506 -RA",
          "offset_h": 15,
          "wdir": null,
          "wspd": null
        }
      ],
      "metar_raw": "METAR RKSS 241000Z 27006KT 220V290 9999 FEW030 SCT200 30/25 Q1010 NOSIG",
      "metar_wdir": 270,
      "metar_wspd": 6,
      "metar_oat": 30,
      "metar_qnh": 1010,
      "hourly_oat": [
        28,
        27,
        26,
        26,
        25,
        25,
        25,
        25,
        25,
        25,
        25,
        25,
        25,
        26,
        27,
        28,
        28,
        28,
        28,
        28,
        29,
        29,
        28,
        28,
        27
      ]
    }
  }
}