{
  "updated": "2026-07-04T02:08:36Z",
  "tafs": {
    "HKG": {
      "icao": "VHHH",
      "issued": "2026-07-04T02:00:00.000Z",
      "raw": "TAF VHHH 040200Z 0403/0509 14010KT 9999 FEW010 SCT025 TX31/0406Z TX31/0506Z TN28/0422Z TEMPO 0403/0406 14020G30KT 2000 TSRA +SHRA FEW008CB SCT015 TEMPO 0406/0412 16015G25KT 2500 SHRA FEW010CB SCT020 TEMPO 0412/0418 3000 SHRA FEW010CB SCT020 TEMPO 0421/0503 3000 SHRA FEW010CB SCT020",
      "groups": [
        {
          "text": "TAF VHHH 040200Z 0403/0509 14010KT 9999 FEW010 SCT025 TX31/0406Z TX31/0506Z TN28/0422Z",
          "offset_h": 1,
          "wdir": 140,
          "wspd": 10
        },
        {
          "text": "TEMPO 0403/0406 14020G30KT 2000 TSRA +SHRA FEW008CB SCT015",
          "offset_h": 1,
          "wdir": 140,
          "wspd": 20
        },
        {
          "text": "TEMPO 0406/0412 16015G25KT 2500 SHRA FEW010CB SCT020",
          "offset_h": 4,
          "wdir": 160,
          "wspd": 15
        },
        {
          "text": "TEMPO 0412/0418 3000 SHRA FEW010CB SCT020",
          "offset_h": 10,
          "wdir": null,
          "wspd": null
        },
        {
          "text": "TEMPO 0421/0503 3000 SHRA FEW010CB SCT020",
          "offset_h": 19,
          "wdir": null,
          "wspd": null
        }
      ],
      "metar_raw": "METAR VHHH 040200Z 14012KT 9999 FEW012 SCT025 31/25 Q1009 NOSIG",
      "metar_wdir": 140,
      "metar_wspd": 12,
      "metar_oat": 31,
      "metar_qnh": 1009
    },
    "NRT": {
      "icao": "RJAA",
      "issued": "2026-07-04T00:53:00.000Z",
      "raw": "TAF AMD RJAA 040053Z 0400/0506 14010KT 9999 FEW008 BKN015 TEMPO 0409/0412 FEW003 BKN008 TEMPO 0412/0500 FEW001 BKN003",
      "groups": [
        {
          "text": "TAF AMD RJAA 040053Z 0400/0506 14010KT 9999 FEW008 BKN015",
          "offset_h": -2,
          "wdir": 140,
          "wspd": 10
        },
        {
          "text": "TEMPO 0409/0412 FEW003 BKN008",
          "offset_h": 7,
          "wdir": null,
          "wspd": null
        },
        {
          "text": "TEMPO 0412/0500 FEW001 BKN003",
          "offset_h": 10,
          "wdir": null,
          "wspd": null
        }
      ],
      "metar_raw": "METAR RJAA 040200Z 17003KT 120V240 9999 FEW015 BKN025 24/21 Q1012 NOSIG",
      "metar_wdir": 170,
      "metar_wspd": 3,
      "metar_oat": 24,
      "metar_qnh": 1012
    },
    "FUK": {
      "icao": "RJFF",
      "issued": "2026-07-04T00:32:00.000Z",
      "raw": "TAF AMD RJFF 040032Z 0400/0506 21005KT 9999 FEW007 BKN020 BECMG 0401/0403 31008KT TEMPO 0402/0404 BKN005 BKN025 BECMG 0412/0415 15006KT",
      "groups": [
        {
          "text": "TAF AMD RJFF 040032Z 0400/0506 21005KT 9999 FEW007 BKN020",
          "offset_h": -2,
          "wdir": 210,
          "wspd": 5
        },
        {
          "text": "BECMG 0401/0403 31008KT",
          "offset_h": -1,
          "wdir": 310,
          "wspd": 8
        },
        {
          "text": "TEMPO 0402/0404 BKN005 BKN025",
          "offset_h": 0,
          "wdir": null,
          "wspd": null
        },
        {
          "text": "BECMG 0412/0415 15006KT",
          "offset_h": 10,
          "wdir": 150,
          "wspd": 6
        }
      ],
      "metar_raw": "METAR RJFF 040200Z 15007KT 120V180 9999 FEW015 SCT030 BKN090 28/25 Q1008 BECMG 25005KT TEMPO BKN005 BKN025",
      "metar_wdir": 150,
      "metar_wspd": 7,
      "metar_oat": 28,
      "metar_qnh": 1008
    },
    "PEK": {
      "icao": "ZBAA",
      "issued": "2026-07-03T23:54:00.000Z",
      "raw": "TAF AMD ZBAA 032354Z 0400/0506 17004MPS 6000 -TSRA FEW030CB TX35/0406Z TX30/0506Z TN24/0421Z BECMG 0401/0402 NSW NSC TEMPO 0410/0414 TS FEW040CB BKN040",
      "groups": [
        {
          "text": "TAF AMD ZBAA 032354Z 0400/0506 17004MPS 6000 -TSRA FEW030CB TX35/0406Z TX30/0506Z TN24/0421Z",
          "offset_h": -2,
          "wdir": null,
          "wspd": null
        },
        {
          "text": "BECMG 0401/0402 NSW NSC",
          "offset_h": -1,
          "wdir": null,
          "wspd": null
        },
        {
          "text": "TEMPO 0410/0414 TS FEW040CB BKN040",
          "offset_h": 8,
          "wdir": null,
          "wspd": null
        }
      ],
      "metar_raw": "METAR ZBAA 040200Z 20003MPS 160V250 CAVOK 27/22 Q1000 NOSIG",
      "metar_wdir": null,
      "metar_wspd": null,
      "metar_oat": 27,
      "metar_qnh": 1000
    },
    "LAX": {
      "icao": "KLAX",
      "issued": "2026-07-03T23:21:00.000Z",
      "raw": "TAF KLAX 032321Z 0400/0506 26011KT P6SM FEW020 SCT250 FM041100 VRB03KT P6SM OVC007 FM041600 25004KT P6SM BKN010 FM041800 26007KT P6SM SKC FM042100 26011KT P6SM SCT250",
      "groups": [
        {
          "text": "TAF KLAX 032321Z 0400/0506 26011KT P6SM FEW020 SCT250",
          "offset_h": -2,
          "wdir": 260,
          "wspd": 11
        },
        {
          "text": "FM041100 VRB03KT P6SM OVC007",
          "offset_h": 9,
          "wdir": "VRB",
          "wspd": 3
        },
        {
          "text": "FM041600 25004KT P6SM BKN010",
          "offset_h": 14,
          "wdir": 250,
          "wspd": 4
        },
        {
          "text": "FM041800 26007KT P6SM SKC",
          "offset_h": 16,
          "wdir": 260,
          "wspd": 7
        },
        {
          "text": "FM042100 26011KT P6SM SCT250",
          "offset_h": 19,
          "wdir": 260,
          "wspd": 11
        }
      ],
      "metar_raw": "METAR KLAX 040153Z 26010KT 10SM FEW020 SCT100 SCT220 20/16 A2997 RMK AO2 SLP146 T02000156 $",
      "metar_wdir": 260,
      "metar_wspd": 10,
      "metar_oat": 20,
      "metar_qnh": 1015
    },
    "HNL": {
      "icao": "PHNL",
      "issued": "2026-07-03T23:20:00.000Z",
      "raw": "TAF PHNL 032320Z 0400/0506 04012G20KT P6SM FEW025 SCT040 FM040600 04010KT P6SM VCSH SCT025 SCT040 FM042000 05012G20KT P6SM FEW025 SCT040",
      "groups": [
        {
          "text": "TAF PHNL 032320Z 0400/0506 04012G20KT P6SM FEW025 SCT040",
          "offset_h": -2,
          "wdir": 40,
          "wspd": 12
        },
        {
          "text": "FM040600 04010KT P6SM VCSH SCT025 SCT040",
          "offset_h": 4,
          "wdir": 40,
          "wspd": 10
        },
        {
          "text": "FM042000 05012G20KT P6SM FEW025 SCT040",
          "offset_h": 18,
          "wdir": 50,
          "wspd": 12
        }
      ],
      "metar_raw": "METAR PHNL 040153Z 03013G20KT 10SM FEW023 FEW035 FEW250 29/19 A2995 RMK AO2 SLP142 VCSH NE T02940194 $",
      "metar_wdir": 30,
      "metar_wspd": 13,
      "metar_oat": 29,
      "metar_qnh": 1014
    },
    "SAN": {
      "icao": "KSAN",
      "issued": "2026-07-03T23:20:00.000Z",
      "raw": "TAF KSAN 032320Z 0400/0506 30010KT P6SM BKN250 FM040300 VRB05KT P6SM SCT015 FM040700 VRB04KT P6SM OVC015 FM041500 VRB04KT P6SM FEW018 BKN150 FM041800 30010KT P6SM SCT070 BKN100 FM050300 VRB04KT P6SM SCT015 SCT120",
      "groups": [
        {
          "text": "TAF KSAN 032320Z 0400/0506 30010KT P6SM BKN250",
          "offset_h": -2,
          "wdir": 300,
          "wspd": 10
        },
        {
          "text": "FM040300 VRB05KT P6SM SCT015",
          "offset_h": 1,
          "wdir": "VRB",
          "wspd": 5
        },
        {
          "text": "FM040700 VRB04KT P6SM OVC015",
          "offset_h": 5,
          "wdir": "VRB",
          "wspd": 4
        },
        {
          "text": "FM041500 VRB04KT P6SM FEW018 BKN150",
          "offset_h": 13,
          "wdir": "VRB",
          "wspd": 4
        },
        {
          "text": "FM041800 30010KT P6SM SCT070 BKN100",
          "offset_h": 16,
          "wdir": 300,
          "wspd": 10
        },
        {
          "text": "FM050300 VRB04KT P6SM SCT015 SCT120",
          "offset_h": 25,
          "wdir": "VRB",
          "wspd": 4
        }
      ],
      "metar_raw": "METAR KSAN 040151Z 31008KT 10SM FEW020 BKN250 21/16 A2999 RMK AO2 SLP155 T02060156 $",
      "metar_wdir": 310,
      "metar_wspd": 8,
      "metar_oat": 21,
      "metar_qnh": 1016
    },
    "CTS": {
      "icao": "RJCC",
      "issued": "2026-07-03T23:05:00.000Z",
      "raw": "TAF RJCC 032305Z 0400/0506 17014KT 9999 FEW030 TEMPO 0412/0415 FEW003 BKN007 TEMPO 0415/0421 4000 BR FEW003 BKN005 TEMPO 0421/0500 FEW003 BKN007",
      "groups": [
        {
          "text": "TAF RJCC 032305Z 0400/0506 17014KT 9999 FEW030",
          "offset_h": -2,
          "wdir": 170,
          "wspd": 14
        },
        {
          "text": "TEMPO 0412/0415 FEW003 BKN007",
          "offset_h": 10,
          "wdir": null,
          "wspd": null
        },
        {
          "text": "TEMPO 0415/0421 4000 BR FEW003 BKN005",
          "offset_h": 13,
          "wdir": null,
          "wspd": null
        },
        {
          "text": "TEMPO 0421/0500 FEW003 BKN007",
          "offset_h": 19,
          "wdir": null,
          "wspd": null
        }
      ],
      "metar_raw": "METAR RJCC 040200Z 17015KT 9999 FEW020 21/13 Q1013",
      "metar_wdir": 170,
      "metar_wspd": 15,
      "metar_oat": 21,
      "metar_qnh": 1013
    },
    "KIX": {
      "icao": "RJBB",
      "issued": "2026-07-03T23:05:00.000Z",
      "raw": "TAF RJBB 032305Z 0400/0506 07006KT 9999 FEW015 BKN030 TEMPO 0403/0412 3000 SHRA BR BECMG 0418/0421 28004KT",
      "groups": [
        {
          "text": "TAF RJBB 032305Z 0400/0506 07006KT 9999 FEW015 BKN030",
          "offset_h": -2,
          "wdir": 70,
          "wspd": 6
        },
        {
          "text": "TEMPO 0403/0412 3000 SHRA BR",
          "offset_h": 1,
          "wdir": null,
          "wspd": null
        },
        {
          "text": "BECMG 0418/0421 28004KT",
          "offset_h": 16,
          "wdir": 280,
          "wspd": 4
        }
      ],
      "metar_raw": "METAR RJBB 040200Z 16005KT 130V210 9999 -RA FEW015 BKN045 BKN130 27/21 Q1010 BECMG 07004KT TEMPO 3000 SHRA BR",
      "metar_wdir": 160,
      "metar_wspd": 5,
      "metar_oat": 27,
      "metar_qnh": 1010
    },
    "HND": {
      "icao": "RJTT",
      "issued": "2026-07-03T23:05:00.000Z",
      "raw": "TAF RJTT 032305Z 0400/0506 09004KT 9999 FEW015 BKN030 TEMPO 0400/0403 FEW005 BKN008 BECMG 0404/0406 18012KT BECMG 0415/0418 08012KT TEMPO 0415/0500 FEW005 BKN008",
      "groups": [
        {
          "text": "TAF RJTT 032305Z 0400/0506 09004KT 9999 FEW015 BKN030",
          "offset_h": -2,
          "wdir": 90,
          "wspd": 4
        },
        {
          "text": "TEMPO 0400/0403 FEW005 BKN008",
          "offset_h": -2,
          "wdir": null,
          "wspd": null
        },
        {
          "text": "BECMG 0404/0406 18012KT",
          "offset_h": 2,
          "wdir": 180,
          "wspd": 12
        },
        {
          "text": "BECMG 0415/0418 08012KT",
          "offset_h": 13,
          "wdir": 80,
          "wspd": 12
        },
        {
          "text": "TEMPO 0415/0500 FEW005 BKN008",
          "offset_h": 13,
          "wdir": null,
          "wspd": null
        }
      ],
      "metar_raw": "METAR RJTT 040200Z 08005KT 8000 FEW010 BKN025 BKN/// 24/21 Q1013 NOSIG",
      "metar_wdir": 80,
      "metar_wspd": 5,
      "metar_oat": 24,
      "metar_qnh": 1013
    },
    "ITM": {
      "icao": "RJOO",
      "issued": "2026-07-03T23:05:00.000Z",
      "raw": "TAF RJOO 032305Z 0400/0506 08006KT 8000 -SHRA FEW012 BKN020 TEMPO 0403/0406 4000 -SHRA BR TEMPO 0406/0408 3000 -SHRA BR TEMPO 0408/0411 1500 SHRA BR FEW002 SCT005 BKN008 TEMPO 0411/0415 3000 -SHRA BR BECMG 0415/0418 35004KT",
      "groups": [
        {
          "text": "TAF RJOO 032305Z 0400/0506 08006KT 8000 -SHRA FEW012 BKN020",
          "offset_h": -2,
          "wdir": 80,
          "wspd": 6
        },
        {
          "text": "TEMPO 0403/0406 4000 -SHRA BR",
          "offset_h": 1,
          "wdir": null,
          "wspd": null
        },
        {
          "text": "TEMPO 0406/0408 3000 -SHRA BR",
          "offset_h": 4,
          "wdir": null,
          "wspd": null
        },
        {
          "text": "TEMPO 0408/0411 1500 SHRA BR FEW002 SCT005 BKN008",
          "offset_h": 6,
          "wdir": null,
          "wspd": null
        },
        {
          "text": "TEMPO 0411/0415 3000 -SHRA BR",
          "offset_h": 9,
          "wdir": null,
          "wspd": null
        },
        {
          "text": "BECMG 0415/0418 35004KT",
          "offset_h": 13,
          "wdir": 350,
          "wspd": 4
        }
      ],
      "metar_raw": "METAR RJOO 040200Z 13004KT 070V170 9999 -RA FEW020 BKN050 BKN120 27/20 Q1010",
      "metar_wdir": 130,
      "metar_wspd": 4,
      "metar_oat": 27,
      "metar_qnh": 1010
    },
    "OKA": {
      "icao": "ROAH",
      "issued": "2026-07-03T23:05:00.000Z",
      "raw": "TAF ROAH 032305Z 0400/0506 21010KT 9999 FEW015",
      "groups": [
        {
          "text": "TAF ROAH 032305Z 0400/0506 21010KT 9999 FEW015",
          "offset_h": -2,
          "wdir": 210,
          "wspd": 10
        }
      ],
      "metar_raw": "METAR ROAH 040200Z 21006KT 9999 FEW012 30/26 Q1014",
      "metar_wdir": 210,
      "metar_wspd": 6,
      "metar_oat": 30,
      "metar_qnh": 1014
    },
    "NGO": {
      "icao": "RJGG",
      "issued": "2026-07-03T23:05:00.000Z",
      "raw": "TAF RJGG 032305Z 0400/0506 15010KT 9999 -RA FEW015 SCT020 BKN030 TEMPO 0411/0418 4000 SHRA BR FEW003 BKN008 TEMPO 0418/0421 FEW003 BKN008",
      "groups": [
        {
          "text": "TAF RJGG 032305Z 0400/0506 15010KT 9999 -RA FEW015 SCT020 BKN030",
          "offset_h": -2,
          "wdir": 150,
          "wspd": 10
        },
        {
          "text": "TEMPO 0411/0418 4000 SHRA BR FEW003 BKN008",
          "offset_h": 9,
          "wdir": null,
          "wspd": null
        },
        {
          "text": "TEMPO 0418/0421 FEW003 BKN008",
          "offset_h": 16,
          "wdir": null,
          "wspd": null
        }
      ],
      "metar_raw": "METAR RJGG 040200Z 17009KT 9999 FEW015 SCT180 BKN/// 25/22 Q1011 NOSIG",
      "metar_wdir": 170,
      "metar_wspd": 9,
      "metar_oat": 25,
      "metar_qnh": 1011
    },
    "TPE": {
      "icao": "RCTP",
      "issued": "2026-07-03T23:00:00.000Z",
      "raw": "TAF RCTP 032300Z 0400/0506 31005KT 9999 FEW010 BKN032 TEMPO 0400/0403 18005KT TEMPO 0403/0409 30015KT TEMPO 0409/0412 25005KT 4000 RA FEW010 BKN017 FEW020CB BECMG 0412/0413 21005KT TEMPO 0413/0418 15005KT TEMPO 0418/0424 14005KT",
      "groups": [
        {
          "text": "TAF RCTP 032300Z 0400/0506 31005KT 9999 FEW010 BKN032",
          "offset_h": -2,
          "wdir": 310,
          "wspd": 5
        },
        {
          "text": "TEMPO 0400/0403 18005KT",
          "offset_h": -2,
          "wdir": 180,
          "wspd": 5
        },
        {
          "text": "TEMPO 0403/0409 30015KT",
          "offset_h": 1,
          "wdir": 300,
          "wspd": 15
        },
        {
          "text": "TEMPO 0409/0412 25005KT 4000 RA FEW010 BKN017 FEW020CB",
          "offset_h": 7,
          "wdir": 250,
          "wspd": 5
        },
        {
          "text": "BECMG 0412/0413 21005KT",
          "offset_h": 10,
          "wdir": 210,
          "wspd": 5
        },
        {
          "text": "TEMPO 0413/0418 15005KT",
          "offset_h": 11,
          "wdir": 150,
          "wspd": 5
        },
        {
          "text": "TEMPO 0418/0424 14005KT",
          "offset_h": 16,
          "wdir": 140,
          "wspd": 5
        }
      ],
      "metar_raw": "METAR RCTP 040200Z 23009KT 210V270 9999 FEW012 BKN200 34/25 Q1012 NOSIG RMK A2991",
      "metar_wdir": 230,
      "metar_wspd": 9,
      "metar_oat": 34,
      "metar_qnh": 1012
    },
    "BKK": {
      "icao": "VTBS",
      "issued": "2026-07-03T23:00:00.000Z",
      "raw": "TAF VTBS 032300Z 0400/0506 22008KT 9999 FEW020 TEMPO 0400/0404 -TSRA FEW018CB SCT020 BKN080 TEMPO 0409/0413 VRB15KT 4000 TSRA FEW018CB SCT020 BKN080",
      "groups": [
        {
          "text": "TAF VTBS 032300Z 0400/0506 22008KT 9999 FEW020",
          "offset_h": -2,
          "wdir": 220,
          "wspd": 8
        },
        {
          "text": "TEMPO 0400/0404 -TSRA FEW018CB SCT020 BKN080",
          "offset_h": -2,
          "wdir": null,
          "wspd": null
        },
        {
          "text": "TEMPO 0409/0413 VRB15KT 4000 TSRA FEW018CB SCT020 BKN080",
          "offset_h": 7,
          "wdir": "VRB",
          "wspd": 15
        }
      ],
      "metar_raw": "METAR VTBS 040200Z 24009KT 9999 FEW020 BKN100 27/23 Q1008 NOSIG",
      "metar_wdir": 240,
      "metar_wspd": 9,
      "metar_oat": 27,
      "metar_qnh": 1008
    },
    "KUL": {
      "icao": "WMKK",
      "issued": "2026-07-03T23:00:00.000Z",
      "raw": "TAF WMKK 032300Z 0400/0506 VRB03KT 9999 FEW030",
      "groups": [
        {
          "text": "TAF WMKK 032300Z 0400/0506 VRB03KT 9999 FEW030",
          "offset_h": -2,
          "wdir": "VRB",
          "wspd": 3
        }
      ],
      "metar_raw": "METAR WMKK 040200Z 13006KT 060V200 9999 FEW017CB 31/25 Q1010 NOSIG",
      "metar_wdir": 130,
      "metar_wspd": 6,
      "metar_oat": 31,
      "metar_qnh": 1010
    },
    "HAN": {
      "icao": "VVNB",
      "issued": "2026-07-03T23:00:00.000Z",
      "raw": "TAF VVNB 032300Z 0400/0424 32008KT 9999 FEW020 BKN040 TEMPO 0406/0411 02015G25KT 3000 TSRA BKN012 FEW027CB OVC040 TEMPO 0413/0417 3000 TSRA BKN010 FEW027CB OVC040 TEMPO 0419/0424 4000 TSRA BKN010 FEW027CB OVC040",
      "groups": [
        {
          "text": "TAF VVNB 032300Z 0400/0424 32008KT 9999 FEW020 BKN040",
          "offset_h": -2,
          "wdir": 320,
          "wspd": 8
        },
        {
          "text": "TEMPO 0406/0411 02015G25KT 3000 TSRA BKN012 FEW027CB OVC040",
          "offset_h": 4,
          "wdir": 20,
          "wspd": 15
        },
        {
          "text": "TEMPO 0413/0417 3000 TSRA BKN010 FEW027CB OVC040",
          "offset_h": 11,
          "wdir": null,
          "wspd": null
        },
        {
          "text": "TEMPO 0419/0424 4000 TSRA BKN010 FEW027CB OVC040",
          "offset_h": 17,
          "wdir": null,
          "wspd": null
        }
      ],
      "metar_raw": "METAR VVNB 040200Z 34009KT 9999 FEW031 BKN055 30/24 Q1003 NOSIG",
      "metar_wdir": 340,
      "metar_wspd": 9,
      "metar_oat": 30,
      "metar_qnh": 1003
    },
    "SGN": {
      "icao": "VVTS",
      "issued": "2026-07-03T23:00:00.000Z",
      "raw": "TAF VVTS 032300Z 0400/0506 23010KT 9999 SCT017 TEMPO 0402/0406 3000 SHRA SCT015 FEW017CB TEMPO 0406/0411 23015G25KT 2000 +TSRA BKN013 SCT015CB",
      "groups": [
        {
          "text": "TAF VVTS 032300Z 0400/0506 23010KT 9999 SCT017",
          "offset_h": -2,
          "wdir": 230,
          "wspd": 10
        },
        {
          "text": "TEMPO 0402/0406 3000 SHRA SCT015 FEW017CB",
          "offset_h": 0,
          "wdir": null,
          "wspd": null
        },
        {
          "text": "TEMPO 0406/0411 23015G25KT 2000 +TSRA BKN013 SCT015CB",
          "offset_h": 4,
          "wdir": 230,
          "wspd": 15
        }
      ],
      "metar_raw": "METAR VVTS 040200Z 20007KT 170V230 9999 FEW024 SCT050 27/24 Q1011 NOSIG",
      "metar_wdir": 200,
      "metar_wspd": 7,
      "metar_oat": 27,
      "metar_qnh": 1011
    },
    "SIN": {
      "icao": "WSSS",
      "issued": "2026-07-03T23:00:00.000Z",
      "raw": "TAF WSSS 032300Z 0400/0506 15008KT 9999 FEW015 SCT020",
      "groups": [
        {
          "text": "TAF WSSS 032300Z 0400/0506 15008KT 9999 FEW015 SCT020",
          "offset_h": -2,
          "wdir": 150,
          "wspd": 8
        }
      ],
      "metar_raw": "METAR WSSS 040200Z 12009KT 080V140 9999 FEW018 BKN300 31/25 Q1011 NOSIG",
      "metar_wdir": 120,
      "metar_wspd": 9,
      "metar_oat": 31,
      "metar_qnh": 1011
    },
    "TSA": {
      "icao": "RCSS",
      "issued": "2026-07-03T23:00:00.000Z",
      "raw": "TAF RCSS 032300Z 0400/0424 28005KT 9999 FEW010 BKN032 TEMPO 0404/0408 28011KT TEMPO 0408/0412 09005KT 4000 RA FEW010 BKN017 FEW020CB TEMPO 0412/0418 10005KT",
      "groups": [
        {
          "text": "TAF RCSS 032300Z 0400/0424 28005KT 9999 FEW010 BKN032",
          "offset_h": -2,
          "wdir": 280,
          "wspd": 5
        },
        {
          "text": "TEMPO 0404/0408 28011KT",
          "offset_h": 2,
          "wdir": 280,
          "wspd": 11
        },
        {
          "text": "TEMPO 0408/0412 09005KT 4000 RA FEW010 BKN017 FEW020CB",
          "offset_h": 6,
          "wdir": 90,
          "wspd": 5
        },
        {
          "text": "TEMPO 0412/0418 10005KT",
          "offset_h": 10,
          "wdir": 100,
          "wspd": 5
        }
      ],
      "metar_raw": "METAR RCSS 040200Z VRB03KT 9999 SCT020 34/26 Q1012 NOSIG RMK A2990",
      "metar_wdir": "VRB",
      "metar_wspd": 3,
      "metar_oat": 34,
      "metar_qnh": 1012
    },
    "GMP": {
      "icao": "RKSS",
      "issued": "2026-07-03T23:00:00.000Z",
      "raw": "TAF RKSS 032300Z 0400/0506 20005KT 6000 BKN025 TX31/0406Z TN23/0420Z TX31/0505Z BECMG 0402/0404 27006KT 9999 SCT040 BECMG 0412/0414 19005KT 6000 BECMG 0418/0420 FEW010 BKN025 BECMG 0422/0424 SCT040 TEMPO 0505/0506 22006KT -RA FEW010 BKN030 OVC070",
      "groups": [
        {
          "text": "TAF RKSS 032300Z 0400/0506 20005KT 6000 BKN025 TX31/0406Z TN23/0420Z TX31/0505Z",
          "offset_h": -2,
          "wdir": 200,
          "wspd": 5
        },
        {
          "text": "BECMG 0402/0404 27006KT 9999 SCT040",
          "offset_h": 0,
          "wdir": 270,
          "wspd": 6
        },
        {
          "text": "BECMG 0412/0414 19005KT 6000",
          "offset_h": 10,
          "wdir": 190,
          "wspd": 5
        },
        {
          "text": "BECMG 0418/0420 FEW010 BKN025",
          "offset_h": 16,
          "wdir": null,
          "wspd": null
        },
        {
          "text": "BECMG 0422/0424 SCT040",
          "offset_h": 20,
          "wdir": null,
          "wspd": null
        },
        {
          "text": "TEMPO 0505/0506 22006KT -RA FEW010 BKN030 OVC070",
          "offset_h": 27,
          "wdir": 220,
          "wspd": 6
        }
      ],
      "metar_raw": "METAR RKSS 040200Z 21004KT 8000 BKN025 28/23 Q1007 NOSIG",
      "metar_wdir": 210,
      "metar_wspd": 4,
      "metar_oat": 28,
      "metar_qnh": 1007
    },
    "CGK": {
      "icao": "WIII",
      "issued": "2026-07-03T23:00:00.000Z",
      "raw": "TAF WIII 032300Z 0400/0506 14006KT 5000 HZ SCT020 BECMG 0402/0404 07012KT 7000 NSW BECMG 0415/0417 15005KT BECMG 0418/0420 5000 HZ BECMG 0502/0504 06011KT 7000 NSW",
      "groups": [
        {
          "text": "TAF WIII 032300Z 0400/0506 14006KT 5000 HZ SCT020",
          "offset_h": -2,
          "wdir": 140,
          "wspd": 6
        },
        {
          "text": "BECMG 0402/0404 07012KT 7000 NSW",
          "offset_h": 0,
          "wdir": 70,
          "wspd": 12
        },
        {
          "text": "BECMG 0415/0417 15005KT",
          "offset_h": 13,
          "wdir": 150,
          "wspd": 5
        },
        {
          "text": "BECMG 0418/0420 5000 HZ",
          "offset_h": 16,
          "wdir": null,
          "wspd": null
        },
        {
          "text": "BECMG 0502/0504 06011KT 7000 NSW",
          "offset_h": 24,
          "wdir": 60,
          "wspd": 11
        }
      ],
      "metar_raw": "METAR WIII 040200Z 12009KT 5000 HZ FEW020 30/23 Q1013 NOSIG",
      "metar_wdir": 120,
      "metar_wspd": 9,
      "metar_oat": 30,
      "metar_qnh": 1013
    },
    "DLC": {
      "icao": "ZYTL",
      "issued": "2026-07-03T21:05:00.000Z",
      "raw": "TAF ZYTL 032105Z 0400/0424 17004MPS 5000 BR FEW040 TX32/0406Z TN22/0420Z",
      "groups": [
        {
          "text": "TAF ZYTL 032105Z 0400/0424 17004MPS 5000 BR FEW040 TX32/0406Z TN22/0420Z",
          "offset_h": -2,
          "wdir": null,
          "wspd": null
        }
      ],
      "metar_raw": "METAR ZYTL 040200Z 21008MPS CAVOK 29/19 Q1003 NOSIG",
      "metar_wdir": null,
      "metar_wspd": null,
      "metar_oat": 29,
      "metar_qnh": 1003
    },
    "CAN": {
      "icao": "ZGGG",
      "issued": "2026-07-03T21:05:00.000Z",
      "raw": "TAF ZGGG 032105Z 0400/0506 16004MPS 6000 BKN030 TX30/0407Z TX30/0506Z TN25/0422Z TEMPO 0400/0403 SHRA FEW026CB BKN030 TEMPO 0404/0409 2500 +TSRA SCT026CB BKN030 TEMPO 0410/0413 SHRA FEW026CB BKN030 TEMPO 0416/0420 4000 +SHRA FEW026CB BKN030 TEMPO 0422/0502 4000 +SHRA FEW026CB BKN030",
      "groups": [
        {
          "text": "TAF ZGGG 032105Z 0400/0506 16004MPS 6000 BKN030 TX30/0407Z TX30/0506Z TN25/0422Z",
          "offset_h": -2,
          "wdir": null,
          "wspd": null
        },
        {
          "text": "TEMPO 0400/0403 SHRA FEW026CB BKN030",
          "offset_h": -2,
          "wdir": null,
          "wspd": null
        },
        {
          "text": "TEMPO 0404/0409 2500 +TSRA SCT026CB BKN030",
          "offset_h": 2,
          "wdir": null,
          "wspd": null
        },
        {
          "text": "TEMPO 0410/0413 SHRA FEW026CB BKN030",
          "offset_h": 8,
          "wdir": null,
          "wspd": null
        },
        {
          "text": "TEMPO 0416/0420 4000 +SHRA FEW026CB BKN030",
          "offset_h": 14,
          "wdir": null,
          "wspd": null
        },
        {
          "text": "TEMPO 0422/0502 4000 +SHRA FEW026CB BKN030",
          "offset_h": 20,
          "wdir": null,
          "wspd": null
        }
      ],
      "metar_raw": "METAR ZGGG 040200Z 25002MPS 190V280 9999 -SHRA FEW013 BKN033 26/26 Q1009 RETSRA NOSIG",
      "metar_wdir": null,
      "metar_wspd": null,
      "metar_oat": 26,
      "metar_qnh": 1009
    },
    "SHA": {
      "icao": "ZSSS",
      "issued": "2026-07-03T21:01:00.000Z",
      "raw": "TAF ZSSS 032101Z 0400/0506 20004MPS 6000 BKN030 TX34/0406Z TX32/0506Z TN24/0421Z TEMPO 0406/0410 33008G13MPS 2000 TSRA BKN010 SCT030CB",
      "groups": [
        {
          "text": "TAF ZSSS 032101Z 0400/0506 20004MPS 6000 BKN030 TX34/0406Z TX32/0506Z TN24/0421Z",
          "offset_h": -2,
          "wdir": null,
          "wspd": null
        },
        {
          "text": "TEMPO 0406/0410 33008G13MPS 2000 TSRA BKN010 SCT030CB",
          "offset_h": 4,
          "wdir": null,
          "wspd": null
        }
      ],
      "metar_raw": "METAR ZSSS 040200Z 22004MPS 190V280 CAVOK 31/25 Q1008 NOSIG",
      "metar_wdir": null,
      "metar_wspd": null,
      "metar_oat": 31,
      "metar_qnh": 1008
    },
    "PVG": {
      "icao": "ZSPD",
      "issued": "2026-07-03T21:00:00.000Z",
      "raw": "TAF ZSPD 032100Z 0400/0506 19004MPS 6000 BKN020 TX32/0406Z TX31/0506Z TN22/0421Z TEMPO 0406/0410 33008G13MPS 2000 TSRA BKN010 SCT030CB",
      "groups": [
        {
          "text": "TAF ZSPD 032100Z 0400/0506 19004MPS 6000 BKN020 TX32/0406Z TX31/0506Z TN22/0421Z",
          "offset_h": -2,
          "wdir": null,
          "wspd": null
        },
        {
          "text": "TEMPO 0406/0410 33008G13MPS 2000 TSRA BKN010 SCT030CB",
          "offset_h": 4,
          "wdir": null,
          "wspd": null
        }
      ],
      "metar_raw": "METAR ZSPD 040200Z 20005MPS CAVOK 31/26 Q1008 NOSIG",
      "metar_wdir": null,
      "metar_wspd": null,
      "metar_oat": 31,
      "metar_qnh": 1008
    }
  }
}