{
  "updated": "2026-05-18T21:19:10Z",
  "tafs": {
    "": {
      "icao": "",
      "issued": "2026-05-18T15:01:00.000Z",
      "raw": "TAF ZBAA 181501Z 1818/1924 15004MPS 4000 BR NSC TX28/1906Z TN14/1821Z TN16/1921Z"
    }
  }
}