{
  "updated": "2026-05-30T08:43:14Z",
  "tafs": {
    "LAX": {
      "icao": "KLAX",
      "issued": "2026-05-30T08:39:00.000Z",
      "raw": "TAF KLAX 300839Z 3009/3112 VRB03KT P6SM SKC FM301000 12006KT P6SM OVC010 FM301700 VRB03KT P6SM SCT015 FM301900 26014KT P6SM SKC FM310300 VRB03KT P6SM SKC FM311000 12006KT P6SM OVC010",
      "groups": [
        {
          "text": "TAF KLAX 300839Z 3009/3112 VRB03KT P6SM SKC",
          "offset_h": 1,
          "wdir": "VRB",
          "wspd": 3
        },
        {
          "text": "FM301000 12006KT P6SM OVC010",
          "offset_h": 2,
          "wdir": 120,
          "wspd": 6
        },
        {
          "text": "FM301700 VRB03KT P6SM SCT015",
          "offset_h": 9,
          "wdir": "VRB",
          "wspd": 3
        },
        {
          "text": "FM301900 26014KT P6SM SKC",
          "offset_h": 11,
          "wdir": 260,
          "wspd": 14
        },
        {
          "text": "FM310300 VRB03KT P6SM SKC",
          "offset_h": 19,
          "wdir": "VRB",
          "wspd": 3
        },
        {
          "text": "FM311000 12006KT P6SM OVC010",
          "offset_h": 26,
          "wdir": 120,
          "wspd": 6
        }
      ],
      "metar_raw": "METAR KLAX 300753Z 25004KT 10SM FEW010 16/13 A3001 RMK AO2 SLP162 T01610128 402000150 $",
      "metar_wdir": 250,
      "metar_wspd": 4,
      "metar_oat": 16,
      "metar_qnh": 1016,
      "hourly_oat": [
        14,
        13,
        12,
        12,
        12,
        11,
        14,
        17,
        19,
        21,
        21,
        21,
        21,
        20,
        20,
        20,
        20,
        20,
        18,
        18,
        16,
        16,
        15,
        15,
        14
      ]
    },
    "SAN": {
      "icao": "KSAN",
      "issued": "2026-05-30T08:34:00.000Z",
      "raw": "TAF KSAN 300834Z 3009/3112 VRB04KT P6SM BKN020 TEMPO 3009/3012 SCT022 FM301600 VRB04KT P6SM SCT024 FM301900 29010KT P6SM SKC FM310300 VRB04KT P6SM SCT015 FM310500 VRB04KT P6SM OVC015",
      "groups": [
        {
          "text": "TAF KSAN 300834Z 3009/3112 VRB04KT P6SM BKN020",
          "offset_h": 1,
          "wdir": "VRB",
          "wspd": 4
        },
        {
          "text": "TEMPO 3009/3012 SCT022",
          "offset_h": 1,
          "wdir": null,
          "wspd": null
        },
        {
          "text": "FM301600 VRB04KT P6SM SCT024",
          "offset_h": 8,
          "wdir": "VRB",
          "wspd": 4
        },
        {
          "text": "FM301900 29010KT P6SM SKC",
          "offset_h": 11,
          "wdir": 290,
          "wspd": 10
        },
        {
          "text": "FM310300 VRB04KT P6SM SCT015",
          "offset_h": 19,
          "wdir": "VRB",
          "wspd": 4
        },
        {
          "text": "FM310500 VRB04KT P6SM OVC015",
          "offset_h": 21,
          "wdir": "VRB",
          "wspd": 4
        }
      ],
      "metar_raw": "SPECI KSAN 300831Z 29004KT 10SM FEW019 17/13 A3003 RMK AO2 T01670133",
      "metar_wdir": 290,
      "metar_wspd": 4,
      "metar_oat": 17,
      "metar_qnh": 1017,
      "hourly_oat": [
        16,
        15,
        15,
        14,
        13,
        13,
        15,
        18,
        19,
        21,
        21,
        22,
        22,
        22,
        22,
        21,
        20,
        19,
        18,
        18,
        17,
        16,
        16,
        15,
        15
      ]
    },
    "HNL": {
      "icao": "PHNL",
      "issued": "2026-05-30T08:10:00.000Z",
      "raw": "TAF PHNL 300810Z 3008/3112 06008KT P6SM VCSH FEW025 SCT070 FM302000 06010G20KT P6SM FEW025 SCT040 FM310600 VRB06KT P6SM FEW025 FEW045",
      "groups": [
        {
          "text": "TAF PHNL 300810Z 3008/3112 06008KT P6SM VCSH FEW025 SCT070",
          "offset_h": 0,
          "wdir": 60,
          "wspd": 8
        },
        {
          "text": "FM302000 06010G20KT P6SM FEW025 SCT040",
          "offset_h": 12,
          "wdir": 60,
          "wspd": 10
        },
        {
          "text": "FM310600 VRB06KT P6SM FEW025 FEW045",
          "offset_h": 22,
          "wdir": "VRB",
          "wspd": 6
        }
      ],
      "metar_raw": "METAR PHNL 300753Z 06008KT 10SM FEW025 FEW050 SCT070 24/18 A3005 RMK AO2 SLP175 T02390183 $",
      "metar_wdir": 60,
      "metar_wspd": 8,
      "metar_oat": 24,
      "metar_qnh": 1018,
      "hourly_oat": [
        22,
        22,
        22,
        22,
        21,
        21,
        21,
        21,
        21,
        22,
        24,
        26,
        27,
        27,
        28,
        28,
        28,
        27,
        26,
        26,
        25,
        24,
        23,
        23,
        22
      ]
    },
    "HKG": {
      "icao": "VHHH",
      "issued": "2026-05-30T08:00:00.000Z",
      "raw": "TAF VHHH 300800Z 3009/3115 10010KT 9999 FEW015 TX32/3106Z TN28/3022Z TEMPO 3009/3011 27010KT TEMPO 3010/3014 4000 SHRA FEW010CB SCT020 TEMPO 3020/3024 VRB05KT 3500 SHRA FEW010CB SCT020 TEMPO 3103/3109 25010KT",
      "groups": [
        {
          "text": "TAF VHHH 300800Z 3009/3115 10010KT 9999 FEW015 TX32/3106Z TN28/3022Z",
          "offset_h": 1,
          "wdir": 100,
          "wspd": 10
        },
        {
          "text": "TEMPO 3009/3011 27010KT",
          "offset_h": 1,
          "wdir": 270,
          "wspd": 10
        },
        {
          "text": "TEMPO 3010/3014 4000 SHRA FEW010CB SCT020",
          "offset_h": 2,
          "wdir": null,
          "wspd": null
        },
        {
          "text": "TEMPO 3020/3024 VRB05KT 3500 SHRA FEW010CB SCT020",
          "offset_h": 12,
          "wdir": "VRB",
          "wspd": 5
        },
        {
          "text": "TEMPO 3103/3109 25010KT",
          "offset_h": 19,
          "wdir": 250,
          "wspd": 10
        }
      ],
      "metar_raw": "METAR VHHH 300830Z 24007KT 210V270 9999 FEW020 32/24 Q1007 NOSIG",
      "metar_wdir": 240,
      "metar_wspd": 7,
      "metar_oat": 32,
      "metar_qnh": 1007,
      "hourly_oat": [
        29,
        29,
        28,
        28,
        26,
        26,
        26,
        26,
        26,
        26,
        25,
        25,
        25,
        25,
        25,
        25,
        26,
        27,
        28,
        29,
        29,
        30,
        29,
        29,
        29
      ]
    },
    "DLC": {
      "icao": "ZYTL",
      "issued": "2026-05-30T05:40:00.000Z",
      "raw": "TAF AMD ZYTL 300540Z 3006/3106 25010G15MPS 6000 NSC TX33/3006Z TN19/3020Z BECMG 3009/3010 25005MPS",
      "groups": [
        {
          "text": "TAF AMD ZYTL 300540Z 3006/3106 25010G15MPS 6000 NSC TX33/3006Z TN19/3020Z",
          "offset_h": -2,
          "wdir": null,
          "wspd": null
        },
        {
          "text": "BECMG 3009/3010 25005MPS",
          "offset_h": 1,
          "wdir": null,
          "wspd": null
        }
      ],
      "metar_raw": "METAR ZYTL 300830Z 23007MPS CAVOK 30/11 Q1005 NOSIG",
      "metar_wdir": null,
      "metar_wspd": null,
      "metar_oat": 30,
      "metar_qnh": 1005,
      "hourly_oat": [
        27,
        26,
        25,
        24,
        24,
        24,
        23,
        22,
        22,
        22,
        22,
        22,
        21,
        21,
        21,
        22,
        24,
        25,
        26,
        26,
        26,
        27,
        27,
        26,
        26
      ]
    },
    "CTS": {
      "icao": "RJCC",
      "issued": "2026-05-30T05:05:00.000Z",
      "raw": "TAF RJCC 300505Z 3006/3112 28015KT 9999 FEW020 BKN040 TEMPO 3006/3008 28022G34KT BECMG 3010/3012 18008KT BECMG 3100/3103 30012KT BECMG 3109/3112 16006KT",
      "groups": [
        {
          "text": "TAF RJCC 300505Z 3006/3112 28015KT 9999 FEW020 BKN040",
          "offset_h": -2,
          "wdir": 280,
          "wspd": 15
        },
        {
          "text": "TEMPO 3006/3008 28022G34KT",
          "offset_h": -2,
          "wdir": 280,
          "wspd": 22
        },
        {
          "text": "BECMG 3010/3012 18008KT",
          "offset_h": 2,
          "wdir": 180,
          "wspd": 8
        },
        {
          "text": "BECMG 3100/3103 30012KT",
          "offset_h": 16,
          "wdir": 300,
          "wspd": 12
        },
        {
          "text": "BECMG 3109/3112 16006KT",
          "offset_h": 25,
          "wdir": 160,
          "wspd": 6
        }
      ],
      "metar_raw": "METAR RJCC 300830Z 25012KT 210V270 9999 FEW020 BKN080 17/06 Q0999",
      "metar_wdir": 250,
      "metar_wspd": 12,
      "metar_oat": 17,
      "metar_qnh": 999,
      "hourly_oat": [
        17,
        15,
        13,
        11,
        11,
        10,
        10,
        10,
        10,
        9,
        10,
        9,
        10,
        13,
        15,
        18,
        20,
        22,
        23,
        24,
        24,
        24,
        24,
        23,
        22
      ]
    },
    "NRT": {
      "icao": "RJAA",
      "issued": "2026-05-30T05:05:00.000Z",
      "raw": "TAF RJAA 300505Z 3006/3112 16014KT 9999 FEW030 BECMG 3010/3012 14004KT",
      "groups": [
        {
          "text": "TAF RJAA 300505Z 3006/3112 16014KT 9999 FEW030",
          "offset_h": -2,
          "wdir": 160,
          "wspd": 14
        },
        {
          "text": "BECMG 3010/3012 14004KT",
          "offset_h": 2,
          "wdir": 140,
          "wspd": 4
        }
      ],
      "metar_raw": "METAR RJAA 300830Z 17013KT 9999 FEW030 25/14 Q1007 NOSIG",
      "metar_wdir": 170,
      "metar_wspd": 13,
      "metar_oat": 25,
      "metar_qnh": 1007,
      "hourly_oat": [
        25,
        24,
        22,
        21,
        20,
        19,
        19,
        18,
        18,
        17,
        17,
        18,
        17,
        18,
        20,
        22,
        24,
        25,
        25,
        26,
        27,
        26,
        25,
        25,
        24
      ]
    },
    "KIX": {
      "icao": "RJBB",
      "issued": "2026-05-30T05:05:00.000Z",
      "raw": "TAF RJBB 300505Z 3006/3112 22008KT 9999 FEW030",
      "groups": [
        {
          "text": "TAF RJBB 300505Z 3006/3112 22008KT 9999 FEW030",
          "offset_h": -2,
          "wdir": 220,
          "wspd": 8
        }
      ],
      "metar_raw": "METAR RJBB 300830Z 26007KT 9999 FEW030 BKN/// 24/18 Q1009 NOSIG",
      "metar_wdir": 260,
      "metar_wspd": 7,
      "metar_oat": 24,
      "metar_qnh": 1009,
      "hourly_oat": [
        23,
        23,
        24,
        23,
        23,
        22,
        22,
        22,
        21,
        21,
        21,
        21,
        21,
        21,
        21,
        22,
        22,
        22,
        21,
        21,
        22,
        22,
        23,
        24,
        24
      ]
    },
    "HND": {
      "icao": "RJTT",
      "issued": "2026-05-30T05:05:00.000Z",
      "raw": "TAF RJTT 300505Z 3006/3112 19016KT 9999 FEW030 BECMG 3013/3015 34006KT BECMG 3103/3106 19012KT",
      "groups": [
        {
          "text": "TAF RJTT 300505Z 3006/3112 19016KT 9999 FEW030",
          "offset_h": -2,
          "wdir": 190,
          "wspd": 16
        },
        {
          "text": "BECMG 3013/3015 34006KT",
          "offset_h": 5,
          "wdir": 340,
          "wspd": 6
        },
        {
          "text": "BECMG 3103/3106 19012KT",
          "offset_h": 19,
          "wdir": 190,
          "wspd": 12
        }
      ],
      "metar_raw": "METAR RJTT 300830Z 19018KT 9999 FEW030 25/15 Q1007 NOSIG",
      "metar_wdir": 190,
      "metar_wspd": 18,
      "metar_oat": 25,
      "metar_qnh": 1007,
      "hourly_oat": [
        24,
        23,
        22,
        22,
        22,
        22,
        21,
        20,
        19,
        19,
        19,
        18,
        19,
        19,
        20,
        22,
        23,
        24,
        25,
        25,
        25,
        26,
        25,
        25,
        24
      ]
    },
    "NGO": {
      "icao": "RJGG",
      "issued": "2026-05-30T05:05:00.000Z",
      "raw": "TAF RJGG 300505Z 3006/3112 19010KT 9999 FEW030 BECMG 3012/3014 35006KT BECMG 3103/3106 17010KT",
      "groups": [
        {
          "text": "TAF RJGG 300505Z 3006/3112 19010KT 9999 FEW030",
          "offset_h": -2,
          "wdir": 190,
          "wspd": 10
        },
        {
          "text": "BECMG 3012/3014 35006KT",
          "offset_h": 4,
          "wdir": 350,
          "wspd": 6
        },
        {
          "text": "BECMG 3103/3106 17010KT",
          "offset_h": 19,
          "wdir": 170,
          "wspd": 10
        }
      ],
      "metar_raw": "METAR RJGG 300830Z 18011KT CAVOK 25/15 Q1008 NOSIG",
      "metar_wdir": 180,
      "metar_wspd": 11,
      "metar_oat": 25,
      "metar_qnh": 1008,
      "hourly_oat": [
        24,
        24,
        23,
        23,
        23,
        22,
        22,
        22,
        21,
        21,
        21,
        21,
        20,
        20,
        20,
        21,
        21,
        22,
        23,
        23,
        23,
        22,
        23,
        24,
        24
      ]
    },
    "OKA": {
      "icao": "ROAH",
      "issued": "2026-05-30T05:05:00.000Z",
      "raw": "TAF ROAH 300505Z 3006/3112 07010KT 9999 FEW015 SCT025 TEMPO 3021/3100 4000 SHRA BR FEW005 BKN008 FEW015CB BECMG 3109/3112 07020KT",
      "groups": [
        {
          "text": "TAF ROAH 300505Z 3006/3112 07010KT 9999 FEW015 SCT025",
          "offset_h": -2,
          "wdir": 70,
          "wspd": 10
        },
        {
          "text": "TEMPO 3021/3100 4000 SHRA BR FEW005 BKN008 FEW015CB",
          "offset_h": 13,
          "wdir": null,
          "wspd": null
        },
        {
          "text": "BECMG 3109/3112 07020KT",
          "offset_h": 25,
          "wdir": 70,
          "wspd": 20
        }
      ],
      "metar_raw": "METAR ROAH 300830Z 09012KT 9999 FEW025 27/21 Q1008",
      "metar_wdir": 90,
      "metar_wspd": 12,
      "metar_oat": 27,
      "metar_qnh": 1008,
      "hourly_oat": [
        26,
        25,
        24,
        24,
        24,
        24,
        24,
        24,
        25,
        24,
        25,
        24,
        25,
        25,
        25,
        26,
        26,
        26,
        28,
        28,
        28,
        28,
        28,
        27,
        27
      ]
    },
    "ITM": {
      "icao": "RJOO",
      "issued": "2026-05-30T05:05:00.000Z",
      "raw": "TAF RJOO 300505Z 3006/3112 21006KT 9999 FEW030 BECMG 3006/3008 30004KT BECMG 3021/3100 20006KT BECMG 3103/3106 26008KT",
      "groups": [
        {
          "text": "TAF RJOO 300505Z 3006/3112 21006KT 9999 FEW030",
          "offset_h": -2,
          "wdir": 210,
          "wspd": 6
        },
        {
          "text": "BECMG 3006/3008 30004KT",
          "offset_h": -2,
          "wdir": 300,
          "wspd": 4
        },
        {
          "text": "BECMG 3021/3100 20006KT",
          "offset_h": 13,
          "wdir": 200,
          "wspd": 6
        },
        {
          "text": "BECMG 3103/3106 26008KT",
          "offset_h": 19,
          "wdir": 260,
          "wspd": 8
        }
      ],
      "metar_raw": "METAR RJOO 300800Z 21006KT 180V270 9999 FEW035 SCT/// 29/05 Q1008",
      "metar_wdir": 210,
      "metar_wspd": 6,
      "metar_oat": 29,
      "metar_qnh": 1008,
      "hourly_oat": [
        27,
        27,
        25,
        23,
        22,
        21,
        20,
        20,
        20,
        20,
        19,
        18,
        18,
        18,
        19,
        21,
        22,
        24,
        26,
        27,
        27,
        27,
        27,
        27,
        26
      ]
    },
    "FUK": {
      "icao": "RJFF",
      "issued": "2026-05-30T05:05:00.000Z",
      "raw": "TAF RJFF 300505Z 3006/3112 32011KT 9999 FEW040 BECMG 3010/3012 15004KT BECMG 3100/3103 32010KT",
      "groups": [
        {
          "text": "TAF RJFF 300505Z 3006/3112 32011KT 9999 FEW040",
          "offset_h": -2,
          "wdir": 320,
          "wspd": 11
        },
        {
          "text": "BECMG 3010/3012 15004KT",
          "offset_h": 2,
          "wdir": 150,
          "wspd": 4
        },
        {
          "text": "BECMG 3100/3103 32010KT",
          "offset_h": 16,
          "wdir": 320,
          "wspd": 10
        }
      ],
      "metar_raw": "METAR RJFF 300830Z 33008KT CAVOK 26/13 Q1009 NOSIG",
      "metar_wdir": 330,
      "metar_wspd": 8,
      "metar_oat": 26,
      "metar_qnh": 1009,
      "hourly_oat": [
        24,
        24,
        23,
        22,
        21,
        21,
        20,
        20,
        20,
        19,
        19,
        19,
        19,
        19,
        20,
        23,
        25,
        27,
        28,
        28,
        27,
        27,
        27,
        26,
        25
      ]
    },
    "CGK": {
      "icao": "WIII",
      "issued": "2026-05-30T05:00:00.000Z",
      "raw": "TAF WIII 300500Z 3006/3112 02010KT 7000 SCT020 BECMG 3011/3013 23005KT",
      "groups": [
        {
          "text": "TAF WIII 300500Z 3006/3112 02010KT 7000 SCT020",
          "offset_h": -2,
          "wdir": 20,
          "wspd": 10
        },
        {
          "text": "BECMG 3011/3013 23005KT",
          "offset_h": 3,
          "wdir": 230,
          "wspd": 5
        }
      ],
      "metar_raw": "METAR WIII 300830Z 01008KT 340V050 5000 HZ FEW020 31/24 Q1008 NOSIG",
      "metar_wdir": 10,
      "metar_wspd": 8,
      "metar_oat": 31,
      "metar_qnh": 1008,
      "hourly_oat": [
        30,
        29,
        28,
        28,
        27,
        26,
        26,
        26,
        26,
        25,
        25,
        25,
        24,
        24,
        24,
        24,
        25,
        26,
        28,
        30,
        30,
        31,
        32,
        31,
        31
      ]
    },
    "KUL": {
      "icao": "WMKK",
      "issued": "2026-05-30T05:00:00.000Z",
      "raw": "TAF WMKK 300500Z 3006/3112 25005KT 9999 FEW018 BECMG 3010/3012 VRB03KT FEW030",
      "groups": [
        {
          "text": "TAF WMKK 300500Z 3006/3112 25005KT 9999 FEW018",
          "offset_h": -2,
          "wdir": 250,
          "wspd": 5
        },
        {
          "text": "BECMG 3010/3012 VRB03KT FEW030",
          "offset_h": 2,
          "wdir": "VRB",
          "wspd": 3
        }
      ],
      "metar_raw": "METAR WMKK 300830Z VRB02KT 9999 FEW017CB 32/25 Q1006 NOSIG",
      "metar_wdir": "VRB",
      "metar_wspd": 2,
      "metar_oat": 32,
      "metar_qnh": 1006,
      "hourly_oat": [
        31,
        31,
        30,
        29,
        28,
        27,
        27,
        27,
        26,
        26,
        26,
        26,
        26,
        26,
        26,
        25,
        25,
        26,
        28,
        29,
        30,
        31,
        32,
        32,
        32
      ]
    },
    "HAN": {
      "icao": "VVNB",
      "issued": "2026-05-30T05:00:00.000Z",
      "raw": "TAF VVNB 300500Z 3006/3106 30010KT 9999 FEW030 BECMG 3007/3008 05006KT",
      "groups": [
        {
          "text": "TAF VVNB 300500Z 3006/3106 30010KT 9999 FEW030",
          "offset_h": -2,
          "wdir": 300,
          "wspd": 10
        },
        {
          "text": "BECMG 3007/3008 05006KT",
          "offset_h": -1,
          "wdir": 50,
          "wspd": 6
        }
      ],
      "metar_raw": "METAR VVNB 300830Z 28006KT 240V320 9999 FEW028TCU 32/25 Q1008 NOSIG",
      "metar_wdir": 280,
      "metar_wspd": 6,
      "metar_oat": 32,
      "metar_qnh": 1008,
      "hourly_oat": [
        32,
        32,
        32,
        30,
        29,
        29,
        27,
        26,
        26,
        26,
        26,
        25,
        25,
        25,
        25,
        25,
        26,
        28,
        29,
        31,
        32,
        32,
        33,
        34,
        33
      ]
    },
    "SGN": {
      "icao": "VVTS",
      "issued": "2026-05-30T05:00:00.000Z",
      "raw": "TAF VVTS 300500Z 3006/3112 29008KT 9999 SCT017 SCT040 TEMPO 3008/3011 01015G26KT 3000 TSRA SCT015 SCT017CB BKN040 TEMPO 3011/3015 5000 SHRA SCT015 FEW017CB SCT040 TEMPO 3104/3107 3000 TSRA SCT013 SCT015CB BKN040",
      "groups": [
        {
          "text": "TAF VVTS 300500Z 3006/3112 29008KT 9999 SCT017 SCT040",
          "offset_h": -2,
          "wdir": 290,
          "wspd": 8
        },
        {
          "text": "TEMPO 3008/3011 01015G26KT 3000 TSRA SCT015 SCT017CB BKN040",
          "offset_h": 0,
          "wdir": 10,
          "wspd": 15
        },
        {
          "text": "TEMPO 3011/3015 5000 SHRA SCT015 FEW017CB SCT040",
          "offset_h": 3,
          "wdir": null,
          "wspd": null
        },
        {
          "text": "TEMPO 3104/3107 3000 TSRA SCT013 SCT015CB BKN040",
          "offset_h": 20,
          "wdir": null,
          "wspd": null
        }
      ],
      "metar_raw": "METAR VVTS 300830Z VRB01KT CAVOK 31/25 Q1006 NOSIG",
      "metar_wdir": "VRB",
      "metar_wspd": 1,
      "metar_oat": 31,
      "metar_qnh": 1006,
      "hourly_oat": [
        29,
        29,
        28,
        27,
        26,
        26,
        26,
        26,
        26,
        26,
        25,
        25,
        24,
        24,
        24,
        25,
        25,
        26,
        28,
        28,
        29,
        30,
        31,
        31,
        30
      ]
    },
    "TPE": {
      "icao": "RCTP",
      "issued": "2026-05-30T05:00:00.000Z",
      "raw": "TAF RCTP 300500Z 3006/3112 04020KT 9999 FEW015 BECMG 3012/3014 05015G25KT BECMG 3018/3020 05010KT BECMG 3103/3105 06015G25KT",
      "groups": [
        {
          "text": "TAF RCTP 300500Z 3006/3112 04020KT 9999 FEW015",
          "offset_h": -2,
          "wdir": 40,
          "wspd": 20
        },
        {
          "text": "BECMG 3012/3014 05015G25KT",
          "offset_h": 4,
          "wdir": 50,
          "wspd": 15
        },
        {
          "text": "BECMG 3018/3020 05010KT",
          "offset_h": 10,
          "wdir": 50,
          "wspd": 10
        },
        {
          "text": "BECMG 3103/3105 06015G25KT",
          "offset_h": 19,
          "wdir": 60,
          "wspd": 15
        }
      ],
      "metar_raw": "METAR RCTP 300830Z 03018KT 9999 FEW020 SCT180 28/21 Q1008 NOSIG RMK A2979",
      "metar_wdir": 30,
      "metar_wspd": 18,
      "metar_oat": 28,
      "metar_qnh": 1008,
      "hourly_oat": [
        27,
        26,
        25,
        24,
        24,
        24,
        24,
        24,
        23,
        23,
        23,
        23,
        23,
        23,
        23,
        24,
        25,
        26,
        26,
        27,
        27,
        27,
        27,
        27,
        27
      ]
    },
    "SIN": {
      "icao": "WSSS",
      "issued": "2026-05-30T05:00:00.000Z",
      "raw": "TAF WSSS 300500Z 3006/3112 20007KT 9999 FEW015 SCT020",
      "groups": [
        {
          "text": "TAF WSSS 300500Z 3006/3112 20007KT 9999 FEW015 SCT020",
          "offset_h": -2,
          "wdir": 200,
          "wspd": 7
        }
      ],
      "metar_raw": "METAR WSSS 300830Z 17008KT 9999 FEW020 BKN270 31/24 Q1008 NOSIG",
      "metar_wdir": 170,
      "metar_wspd": 8,
      "metar_oat": 31,
      "metar_qnh": 1008,
      "hourly_oat": [
        32,
        31,
        31,
        30,
        29,
        29,
        29,
        29,
        29,
        29,
        29,
        28,
        28,
        28,
        28,
        28,
        29,
        30,
        30,
        31,
        31,
        32,
        32,
        32,
        32
      ]
    },
    "GMP": {
      "icao": "RKSS",
      "issued": "2026-05-30T05:00:00.000Z",
      "raw": "TAF RKSS 300500Z 3006/3112 24007KT CAVOK TN15/3020Z TX30/3106Z BECMG 3012/3014 18005KT 6000 NSC BECMG 3018/3020 15005KT 4000 BR BECMG 3021/3023 18005KT 6000 NSW BECMG 3102/3104 24006KT CAVOK",
      "groups": [
        {
          "text": "TAF RKSS 300500Z 3006/3112 24007KT CAVOK TN15/3020Z TX30/3106Z",
          "offset_h": -2,
          "wdir": 240,
          "wspd": 7
        },
        {
          "text": "BECMG 3012/3014 18005KT 6000 NSC",
          "offset_h": 4,
          "wdir": 180,
          "wspd": 5
        },
        {
          "text": "BECMG 3018/3020 15005KT 4000 BR",
          "offset_h": 10,
          "wdir": 150,
          "wspd": 5
        },
        {
          "text": "BECMG 3021/3023 18005KT 6000 NSW",
          "offset_h": 13,
          "wdir": 180,
          "wspd": 5
        },
        {
          "text": "BECMG 3102/3104 24006KT CAVOK",
          "offset_h": 18,
          "wdir": 240,
          "wspd": 6
        }
      ],
      "metar_raw": "METAR RKSS 300800Z 23010KT 190V260 CAVOK 27/15 Q1009 NOSIG",
      "metar_wdir": 230,
      "metar_wspd": 10,
      "metar_oat": 27,
      "metar_qnh": 1009,
      "hourly_oat": [
        24,
        23,
        21,
        19,
        18,
        17,
        16,
        16,
        15,
        15,
        14,
        14,
        14,
        14,
        16,
        18,
        21,
        24,
        26,
        27,
        28,
        28,
        28,
        27,
        26
      ]
    },
    "BKK": {
      "icao": "VTBS",
      "issued": "2026-05-30T05:00:00.000Z",
      "raw": "TAF VTBS 300500Z 3006/3112 20008KT 9999 FEW020 TEMPO 3008/3012 VRB15KT 4000 TSRA FEW018CB SCT030 BKN100",
      "groups": [
        {
          "text": "TAF VTBS 300500Z 3006/3112 20008KT 9999 FEW020",
          "offset_h": -2,
          "wdir": 200,
          "wspd": 8
        },
        {
          "text": "TEMPO 3008/3012 VRB15KT 4000 TSRA FEW018CB SCT030 BKN100",
          "offset_h": 0,
          "wdir": "VRB",
          "wspd": 15
        }
      ],
      "metar_raw": "METAR VTBS 300830Z 16006KT 090V200 9999 FEW020 33/25 Q1005 NOSIG",
      "metar_wdir": 160,
      "metar_wspd": 6,
      "metar_oat": 33,
      "metar_qnh": 1005,
      "hourly_oat": [
        32,
        31,
        31,
        30,
        30,
        29,
        29,
        28,
        28,
        28,
        28,
        28,
        27,
        27,
        26,
        26,
        26,
        28,
        30,
        32,
        33,
        33,
        29,
        31,
        32
      ]
    },
    "TSA": {
      "icao": "RCSS",
      "issued": "2026-05-30T05:00:00.000Z",
      "raw": "TAF RCSS 300500Z 3006/3106 10012KT 9999 FEW015 TEMPO 3020/3024 11007KT",
      "groups": [
        {
          "text": "TAF RCSS 300500Z 3006/3106 10012KT 9999 FEW015",
          "offset_h": -2,
          "wdir": 100,
          "wspd": 12
        },
        {
          "text": "TEMPO 3020/3024 11007KT",
          "offset_h": 12,
          "wdir": 110,
          "wspd": 7
        }
      ],
      "metar_raw": "METAR RCSS 300830Z 09013KT 9999 FEW025 28/21 Q1009 WS R10 NOSIG RMK A2980",
      "metar_wdir": 90,
      "metar_wspd": 13,
      "metar_oat": 28,
      "metar_qnh": 1009,
      "hourly_oat": [
        27,
        26,
        25,
        24,
        24,
        23,
        23,
        23,
        22,
        22,
        22,
        22,
        22,
        21,
        22,
        25,
        26,
        27,
        28,
        28,
        28,
        28,
        28,
        28,
        27
      ]
    },
    "CAN": {
      "icao": "ZGGG",
      "issued": "2026-05-30T03:06:00.000Z",
      "raw": "TAF ZGGG 300306Z 3006/3112 08003MPS 8000 SCT033 TX35/3007Z TX35/3107Z TN26/3022Z TEMPO 3008/3012 2500 +TSRA SCT026CB BKN033 TEMPO 3107/3111 TSRA SCT026CB BKN033",
      "groups": [
        {
          "text": "TAF ZGGG 300306Z 3006/3112 08003MPS 8000 SCT033 TX35/3007Z TX35/3107Z TN26/3022Z",
          "offset_h": -2,
          "wdir": null,
          "wspd": null
        },
        {
          "text": "TEMPO 3008/3012 2500 +TSRA SCT026CB BKN033",
          "offset_h": 0,
          "wdir": null,
          "wspd": null
        },
        {
          "text": "TEMPO 3107/3111 TSRA SCT026CB BKN033",
          "offset_h": 23,
          "wdir": null,
          "wspd": null
        }
      ],
      "metar_raw": "METAR ZGGG 300830Z 25003MPS 210V310 9999 SCT053 35/22 Q1007 NOSIG",
      "metar_wdir": null,
      "metar_wspd": null,
      "metar_oat": 35,
      "metar_qnh": 1007,
      "hourly_oat": [
        31,
        32,
        31,
        28,
        26,
        26,
        26,
        26,
        26,
        26,
        26,
        26,
        25,
        25,
        25,
        26,
        27,
        28,
        29,
        31,
        32,
        32,
        33,
        33,
        32
      ]
    },
    "PEK": {
      "icao": "ZBAA",
      "issued": "2026-05-30T03:04:00.000Z",
      "raw": "TAF ZBAA 300304Z 3006/3112 19004MPS CAVOK TX36/3007Z TX35/3107Z TN20/3021Z",
      "groups": [
        {
          "text": "TAF ZBAA 300304Z 3006/3112 19004MPS CAVOK TX36/3007Z TX35/3107Z TN20/3021Z",
          "offset_h": -2,
          "wdir": null,
          "wspd": null
        }
      ],
      "metar_raw": "METAR ZBAA 300830Z 20007MPS CAVOK 36/14 Q1002 NOSIG",
      "metar_wdir": null,
      "metar_wspd": null,
      "metar_oat": 36,
      "metar_qnh": 1002,
      "hourly_oat": [
        35,
        34,
        32,
        31,
        29,
        29,
        28,
        28,
        27,
        26,
        25,
        24,
        23,
        22,
        23,
        24,
        25,
        26,
        28,
        29,
        31,
        32,
        33,
        33,
        34
      ]
    },
    "SHA": {
      "icao": "ZSSS",
      "issued": "2026-05-30T03:02:00.000Z",
      "raw": "TAF ZSSS 300302Z 3006/3112 11004MPS 8000 SCT030 TX30/3006Z TX31/3106Z TN21/3021Z",
      "groups": [
        {
          "text": "TAF ZSSS 300302Z 3006/3112 11004MPS 8000 SCT030 TX30/3006Z TX31/3106Z TN21/3021Z",
          "offset_h": -2,
          "wdir": null,
          "wspd": null
        }
      ],
      "metar_raw": "METAR ZSSS 300830Z 19004MPS 150V250 CAVOK 28/11 Q1011 NOSIG",
      "metar_wdir": null,
      "metar_wspd": null,
      "metar_oat": 28,
      "metar_qnh": 1011,
      "hourly_oat": [
        28,
        27,
        25,
        24,
        24,
        22,
        21,
        20,
        20,
        20,
        19,
        19,
        18,
        18,
        20,
        21,
        24,
        26,
        28,
        29,
        30,
        30,
        30,
        30,
        29
      ]
    },
    "PVG": {
      "icao": "ZSPD",
      "issued": "2026-05-30T03:01:00.000Z",
      "raw": "TAF ZSPD 300301Z 3006/3112 11004MPS 8000 SCT030 TX28/3006Z TX29/3106Z TN20/3021Z",
      "groups": [
        {
          "text": "TAF ZSPD 300301Z 3006/3112 11004MPS 8000 SCT030 TX28/3006Z TX29/3106Z TN20/3021Z",
          "offset_h": -2,
          "wdir": null,
          "wspd": null
        }
      ],
      "metar_raw": "METAR ZSPD 300830Z 11004MPS CAVOK 26/10 Q1012 NOSIG",
      "metar_wdir": null,
      "metar_wspd": null,
      "metar_oat": 26,
      "metar_qnh": 1012,
      "hourly_oat": [
        24,
        24,
        23,
        22,
        22,
        22,
        21,
        20,
        20,
        20,
        19,
        19,
        18,
        18,
        20,
        23,
        24,
        25,
        26,
        26,
        26,
        26,
        26,
        26,
        25
      ]
    }
  }
}