{
  "updated": "2026-07-13T21:43:34Z",
  "tafs": {
    "CTS": {
      "icao": "RJCC",
      "issued": "2026-07-13T21:34:00.000Z",
      "raw": "TAF AMD RJCC 132134Z 1321/1500 17010KT 9000 FEW005 BKN012 TEMPO 1406/1409 4000 -SHRA BR FEW001 BKN005 TEMPO 1409/1418 2000 BR FEW001 BKN003 TEMPO 1418/1500 1500 BR FEW001 SCT002 BKN003",
      "groups": [
        {
          "text": "TAF AMD RJCC 132134Z 1321/1500 17010KT 9000 FEW005 BKN012",
          "offset_h": 0,
          "wdir": 170,
          "wspd": 10
        },
        {
          "text": "TEMPO 1406/1409 4000 -SHRA BR FEW001 BKN005",
          "offset_h": 9,
          "wdir": null,
          "wspd": null
        },
        {
          "text": "TEMPO 1409/1418 2000 BR FEW001 BKN003",
          "offset_h": 12,
          "wdir": null,
          "wspd": null
        },
        {
          "text": "TEMPO 1418/1500 1500 BR FEW001 SCT002 BKN003",
          "offset_h": 21,
          "wdir": null,
          "wspd": null
        }
      ],
      "metar_raw": "METAR RJCC 132130Z 22003KT 8000 FEW003 BKN012 BKN040 22/21 Q1005",
      "metar_wdir": 220,
      "metar_wspd": 3,
      "metar_oat": 22,
      "metar_qnh": 1005,
      "hourly_oat": [
        22,
        23,
        23,
        23,
        24,
        24,
        24,
        26,
        26,
        25,
        24,
        22,
        22,
        21,
        21,
        21,
        21,
        20,
        20,
        20,
        21,
        21,
        21,
        20,
        21
      ]
    },
    "HNL": {
      "icao": "PHNL",
      "issued": "2026-07-13T21:04:00.000Z",
      "raw": "TAF PHNL 132104Z 1321/1424 06016G25KT P6SM FEW025 SCT050 FM140600 05010KT P6SM FEW025 SCT040 FM142000 06013G22KT P6SM FEW025 BKN040",
      "groups": [
        {
          "text": "TAF PHNL 132104Z 1321/1424 06016G25KT P6SM FEW025 SCT050",
          "offset_h": 0,
          "wdir": 60,
          "wspd": 16
        },
        {
          "text": "FM140600 05010KT P6SM FEW025 SCT040",
          "offset_h": 9,
          "wdir": 50,
          "wspd": 10
        },
        {
          "text": "FM142000 06013G22KT P6SM FEW025 BKN040",
          "offset_h": 23,
          "wdir": 60,
          "wspd": 13
        }
      ],
      "metar_raw": "METAR PHNL 132053Z 06017G24KT 10SM FEW025 SCT055 SCT200 29/17 A3003 RMK AO2 SLP167 T02940172 58000 $",
      "metar_wdir": 60,
      "metar_wspd": 17,
      "metar_oat": 29,
      "metar_qnh": 1017,
      "hourly_oat": [
        29,
        30,
        30,
        30,
        29,
        29,
        28,
        27,
        25,
        24,
        23,
        23,
        23,
        22,
        22,
        22,
        22,
        22,
        22,
        22,
        23,
        25,
        27,
        28,
        28
      ]
    },
    "GMP": {
      "icao": "RKSS",
      "issued": "2026-07-13T20:55:00.000Z",
      "raw": "TAF AMD RKSS 132055Z 1321/1424 17007KT 9999 BKN035 BKN080 TN28/1320Z TX31/1405Z TN24/1420Z TEMPO 1321/1323 6000 -RA BECMG 1402/1404 18016G35KT 6000 -RA FEW010 BKN025 OVC070 BECMG 1408/1410 4000 RA TEMPO 1409/1412 2500 SCT008CB BKN020 OVC060 BECMG 1412/1414 21016G35KT 6000 -RA",
      "groups": [
        {
          "text": "TAF AMD RKSS 132055Z 1321/1424 17007KT 9999 BKN035 BKN080 TN28/1320Z TX31/1405Z TN24/1420Z",
          "offset_h": 0,
          "wdir": 170,
          "wspd": 7
        },
        {
          "text": "TEMPO 1321/1323 6000 -RA",
          "offset_h": 0,
          "wdir": null,
          "wspd": null
        },
        {
          "text": "BECMG 1402/1404 18016G35KT 6000 -RA FEW010 BKN025 OVC070",
          "offset_h": 5,
          "wdir": 180,
          "wspd": 16
        },
        {
          "text": "BECMG 1408/1410 4000 RA",
          "offset_h": 11,
          "wdir": null,
          "wspd": null
        },
        {
          "text": "TEMPO 1409/1412 2500 SCT008CB BKN020 OVC060",
          "offset_h": 12,
          "wdir": null,
          "wspd": null
        },
        {
          "text": "BECMG 1412/1414 21016G35KT 6000 -RA",
          "offset_h": 15,
          "wdir": 210,
          "wspd": 16
        }
      ],
      "metar_raw": "METAR RKSS 132100Z 15006KT 9999 SCT030 OVC070 26/26 Q1007 NOSIG",
      "metar_wdir": 150,
      "metar_wspd": 6,
      "metar_oat": 26,
      "metar_qnh": 1007,
      "hourly_oat": [
        25,
        26,
        27,
        28,
        29,
        30,
        30,
        30,
        30,
        28,
        28,
        28,
        26,
        26,
        26,
        26,
        26,
        25,
        25,
        25,
        25,
        25,
        24,
        24,
        24
      ]
    },
    "SAN": {
      "icao": "KSAN",
      "issued": "2026-07-13T20:31:00.000Z",
      "raw": "TAF KSAN 132031Z 1321/1424 28009KT P6SM SCT150 FM140300 VRB04KT P6SM SCT013 SCT150 FM140600 VRB03KT P6SM BKN013 FM141600 22005KT P6SM SCT015 FM141900 29012G20KT P6SM SCT200",
      "groups": [
        {
          "text": "TAF KSAN 132031Z 1321/1424 28009KT P6SM SCT150",
          "offset_h": 0,
          "wdir": 280,
          "wspd": 9
        },
        {
          "text": "FM140300 VRB04KT P6SM SCT013 SCT150",
          "offset_h": 6,
          "wdir": "VRB",
          "wspd": 4
        },
        {
          "text": "FM140600 VRB03KT P6SM BKN013",
          "offset_h": 9,
          "wdir": "VRB",
          "wspd": 3
        },
        {
          "text": "FM141600 22005KT P6SM SCT015",
          "offset_h": 19,
          "wdir": 220,
          "wspd": 5
        },
        {
          "text": "FM141900 29012G20KT P6SM SCT200",
          "offset_h": 22,
          "wdir": 290,
          "wspd": 12
        }
      ],
      "metar_raw": "METAR KSAN 132051Z VRB06KT 10SM FEW015 SCT150 24/18 A2997 RMK AO2 SLP150 T02440178 58007 $",
      "metar_wdir": "VRB",
      "metar_wspd": 6,
      "metar_oat": 24,
      "metar_qnh": 1015,
      "hourly_oat": [
        26,
        25,
        25,
        25,
        24,
        22,
        21,
        20,
        20,
        20,
        20,
        20,
        19,
        19,
        19,
        19,
        19,
        20,
        20,
        21,
        21,
        22,
        23,
        23,
        23
      ]
    },
    "HKG": {
      "icao": "VHHH",
      "issued": "2026-07-13T20:00:00.000Z",
      "raw": "TAF VHHH 132000Z 1321/1503 10010KT 9999 FEW015 SCT025 TX31/1406Z TN27/1322Z TN27/1422Z TEMPO 1321/1406 12020G30KT 1500 TSRA +SHRA FEW008CB SCT015 BECMG 1404/1406 19015KT TEMPO 1406/1412 19022G32KT 2000 +SHRA FEW010CB SCT020 TEMPO 1412/1421 20015G25KT 3000 SHRA FEW010CB SCT020 TEMPO 1421/1503 20015G25KT 2000 TSRA SHRA FEW008CB SCT020",
      "groups": [
        {
          "text": "TAF VHHH 132000Z 1321/1503 10010KT 9999 FEW015 SCT025 TX31/1406Z TN27/1322Z TN27/1422Z",
          "offset_h": 0,
          "wdir": 100,
          "wspd": 10
        },
        {
          "text": "TEMPO 1321/1406 12020G30KT 1500 TSRA +SHRA FEW008CB SCT015",
          "offset_h": 0,
          "wdir": 120,
          "wspd": 20
        },
        {
          "text": "BECMG 1404/1406 19015KT",
          "offset_h": 7,
          "wdir": 190,
          "wspd": 15
        },
        {
          "text": "TEMPO 1406/1412 19022G32KT 2000 +SHRA FEW010CB SCT020",
          "offset_h": 9,
          "wdir": 190,
          "wspd": 22
        },
        {
          "text": "TEMPO 1412/1421 20015G25KT 3000 SHRA FEW010CB SCT020",
          "offset_h": 15,
          "wdir": 200,
          "wspd": 15
        },
        {
          "text": "TEMPO 1421/1503 20015G25KT 2000 TSRA SHRA FEW008CB SCT020",
          "offset_h": 24,
          "wdir": 200,
          "wspd": 15
        }
      ],
      "metar_raw": "METAR VHHH 132130Z 06007KT 9999 SHRA FEW010 SCT025 27/25 Q1001 TEMPO 3500 SHRA FEW010CB SCT020",
      "metar_wdir": 60,
      "metar_wspd": 7,
      "metar_oat": 27,
      "metar_qnh": 1001,
      "hourly_oat": [
        27,
        27,
        27,
        27,
        27,
        27,
        27,
        27,
        27,
        27,
        27,
        27,
        28,
        28,
        27,
        27,
        27,
        27,
        28,
        27,
        27,
        26,
        27,
        26,
        27
      ]
    },
    "LAX": {
      "icao": "KLAX",
      "issued": "2026-07-13T17:20:00.000Z",
      "raw": "TAF KLAX 131720Z 1318/1424 26006KT P6SM BKN150 BKN250 FM131900 26012KT P6SM BKN150 BKN250 FM140400 26006KT P6SM BKN250 FM140900 VRB03KT P6SM BKN006 FM141600 26006KT P6SM SCT250 FM141900 26012KT P6SM SCT250",
      "groups": [
        {
          "text": "TAF KLAX 131720Z 1318/1424 26006KT P6SM BKN150 BKN250",
          "offset_h": -3,
          "wdir": 260,
          "wspd": 6
        },
        {
          "text": "FM131900 26012KT P6SM BKN150 BKN250",
          "offset_h": -2,
          "wdir": 260,
          "wspd": 12
        },
        {
          "text": "FM140400 26006KT P6SM BKN250",
          "offset_h": 7,
          "wdir": 260,
          "wspd": 6
        },
        {
          "text": "FM140900 VRB03KT P6SM BKN006",
          "offset_h": 12,
          "wdir": "VRB",
          "wspd": 3
        },
        {
          "text": "FM141600 26006KT P6SM SCT250",
          "offset_h": 19,
          "wdir": 260,
          "wspd": 6
        },
        {
          "text": "FM141900 26012KT P6SM SCT250",
          "offset_h": 22,
          "wdir": 260,
          "wspd": 12
        }
      ],
      "metar_raw": "METAR KLAX 132053Z 26009KT 10SM FEW017 SCT120 BKN160 BKN250 23/18 A2996 RMK AO2 SLP145 T02330178 58006 $",
      "metar_wdir": 260,
      "metar_wspd": 9,
      "metar_oat": 23,
      "metar_qnh": 1015,
      "hourly_oat": [
        24,
        22,
        24,
        23,
        22,
        21,
        20,
        19,
        19,
        18,
        19,
        18,
        18,
        18,
        18,
        18,
        18,
        18,
        18,
        18,
        20,
        21,
        22,
        23,
        23
      ]
    },
    "NRT": {
      "icao": "RJAA",
      "issued": "2026-07-13T17:05:00.000Z",
      "raw": "TAF RJAA 131705Z 1318/1500 20004KT 9999 FEW030 TEMPO 1319/1321 4000 BR BECMG 1400/1402 03006KT BECMG 1403/1405 14010KT",
      "groups": [
        {
          "text": "TAF RJAA 131705Z 1318/1500 20004KT 9999 FEW030",
          "offset_h": -3,
          "wdir": 200,
          "wspd": 4
        },
        {
          "text": "TEMPO 1319/1321 4000 BR",
          "offset_h": -2,
          "wdir": null,
          "wspd": null
        },
        {
          "text": "BECMG 1400/1402 03006KT",
          "offset_h": 3,
          "wdir": 30,
          "wspd": 6
        },
        {
          "text": "BECMG 1403/1405 14010KT",
          "offset_h": 6,
          "wdir": 140,
          "wspd": 10
        }
      ],
      "metar_raw": "METAR RJAA 132130Z 14004KT CAVOK 25/23 Q1008 NOSIG",
      "metar_wdir": 140,
      "metar_wspd": 4,
      "metar_oat": 25,
      "metar_qnh": 1008,
      "hourly_oat": [
        24,
        26,
        27,
        29,
        30,
        31,
        32,
        33,
        32,
        31,
        30,
        30,
        29,
        28,
        27,
        26,
        26,
        25,
        25,
        24,
        24,
        24,
        24,
        24,
        25
      ]
    },
    "KIX": {
      "icao": "RJBB",
      "issued": "2026-07-13T17:05:00.000Z",
      "raw": "TAF RJBB 131705Z 1318/1500 26004KT 9999 FEW030",
      "groups": [
        {
          "text": "TAF RJBB 131705Z 1318/1500 26004KT 9999 FEW030",
          "offset_h": -3,
          "wdir": 260,
          "wspd": 4
        }
      ],
      "metar_raw": "METAR RJBB 132130Z VRB02KT 9999 FEW020 27/25 Q1010 NOSIG",
      "metar_wdir": "VRB",
      "metar_wspd": 2,
      "metar_oat": 27,
      "metar_qnh": 1010,
      "hourly_oat": [
        26,
        26,
        26,
        26,
        26,
        26,
        26,
        27,
        28,
        28,
        28,
        29,
        29,
        29,
        28,
        28,
        27,
        27,
        27,
        27,
        26,
        26,
        26,
        26,
        26
      ]
    },
    "ITM": {
      "icao": "RJOO",
      "issued": "2026-07-13T17:05:00.000Z",
      "raw": "TAF RJOO 131705Z 1318/1500 31006KT 9999 FEW030 BECMG 1323/1401 22006KT BECMG 1409/1412 01004KT BECMG 1421/1500 20006KT",
      "groups": [
        {
          "text": "TAF RJOO 131705Z 1318/1500 31006KT 9999 FEW030",
          "offset_h": -3,
          "wdir": 310,
          "wspd": 6
        },
        {
          "text": "BECMG 1323/1401 22006KT",
          "offset_h": 2,
          "wdir": 220,
          "wspd": 6
        },
        {
          "text": "BECMG 1409/1412 01004KT",
          "offset_h": 12,
          "wdir": 10,
          "wspd": 4
        },
        {
          "text": "BECMG 1421/1500 20006KT",
          "offset_h": 24,
          "wdir": 200,
          "wspd": 6
        }
      ],
      "metar_raw": "METAR RJOO 132100Z AUTO 31006KT 9999 SCT047 27/23 Q1010",
      "metar_wdir": 310,
      "metar_wspd": 6,
      "metar_oat": 27,
      "metar_qnh": 1010,
      "hourly_oat": [
        25,
        26,
        28,
        29,
        30,
        31,
        32,
        32,
        32,
        32,
        32,
        32,
        32,
        31,
        30,
        29,
        28,
        28,
        27,
        26,
        26,
        26,
        25,
        25,
        25
      ]
    },
    "HND": {
      "icao": "RJTT",
      "issued": "2026-07-13T17:05:00.000Z",
      "raw": "TAF RJTT 131705Z 1318/1500 23006KT 9999 FEW030 BECMG 1401/1403 17010KT",
      "groups": [
        {
          "text": "TAF RJTT 131705Z 1318/1500 23006KT 9999 FEW030",
          "offset_h": -3,
          "wdir": 230,
          "wspd": 6
        },
        {
          "text": "BECMG 1401/1403 17010KT",
          "offset_h": 4,
          "wdir": 170,
          "wspd": 10
        }
      ],
      "metar_raw": "METAR RJTT 132130Z 18007KT 9999 FEW020 BKN/// 28/23 Q1008 NOSIG",
      "metar_wdir": 180,
      "metar_wspd": 7,
      "metar_oat": 28,
      "metar_qnh": 1008,
      "hourly_oat": [
        25,
        26,
        27,
        28,
        29,
        30,
        31,
        31,
        31,
        31,
        30,
        29,
        28,
        27,
        26,
        26,
        26,
        26,
        25,
        25,
        25,
        25,
        25,
        25,
        26
      ]
    },
    "FUK": {
      "icao": "RJFF",
      "issued": "2026-07-13T17:05:00.000Z",
      "raw": "TAF RJFF 131705Z 1318/1500 15006KT 9999 FEW040",
      "groups": [
        {
          "text": "TAF RJFF 131705Z 1318/1500 15006KT 9999 FEW040",
          "offset_h": -3,
          "wdir": 150,
          "wspd": 6
        }
      ],
      "metar_raw": "METAR RJFF 132130Z 14005KT 9999 FEW015 SCT035 28/23 Q1011 NOSIG",
      "metar_wdir": 140,
      "metar_wspd": 5,
      "metar_oat": 28,
      "metar_qnh": 1011,
      "hourly_oat": [
        26,
        27,
        28,
        30,
        31,
        32,
        32,
        32,
        32,
        32,
        32,
        32,
        31,
        30,
        29,
        28,
        28,
        28,
        28,
        28,
        28,
        28,
        28,
        28,
        28
      ]
    },
    "OKA": {
      "icao": "ROAH",
      "issued": "2026-07-13T17:05:00.000Z",
      "raw": "TAF ROAH 131705Z 1318/1500 18010KT 9999 FEW010 SCT015",
      "groups": [
        {
          "text": "TAF ROAH 131705Z 1318/1500 18010KT 9999 FEW010 SCT015",
          "offset_h": -3,
          "wdir": 180,
          "wspd": 10
        }
      ],
      "metar_raw": "METAR ROAH 132130Z 16012KT 9999 FEW007 BKN/// 27/25 Q1012",
      "metar_wdir": 160,
      "metar_wspd": 12,
      "metar_oat": 27,
      "metar_qnh": 1012,
      "hourly_oat": [
        26,
        27,
        27,
        28,
        29,
        29,
        29,
        29,
        29,
        29,
        29,
        28,
        28,
        27,
        27,
        26,
        26,
        26,
        26,
        26,
        26,
        26,
        26,
        26,
        26
      ]
    },
    "NGO": {
      "icao": "RJGG",
      "issued": "2026-07-13T17:05:00.000Z",
      "raw": "TAF RJGG 131705Z 1318/1500 34010KT 9999 FEW030 BECMG 1418/1421 13004KT",
      "groups": [
        {
          "text": "TAF RJGG 131705Z 1318/1500 34010KT 9999 FEW030",
          "offset_h": -3,
          "wdir": 340,
          "wspd": 10
        },
        {
          "text": "BECMG 1418/1421 13004KT",
          "offset_h": 21,
          "wdir": 130,
          "wspd": 4
        }
      ],
      "metar_raw": "METAR RJGG 132130Z 31013KT 9999 FEW020 27/23 Q1009 NOSIG",
      "metar_wdir": 310,
      "metar_wspd": 13,
      "metar_oat": 27,
      "metar_qnh": 1009,
      "hourly_oat": [
        27,
        27,
        27,
        27,
        28,
        28,
        29,
        30,
        30,
        30,
        30,
        30,
        30,
        29,
        28,
        28,
        28,
        27,
        27,
        27,
        27,
        26,
        26,
        26,
        26
      ]
    },
    "KUL": {
      "icao": "WMKK",
      "issued": "2026-07-13T17:00:00.000Z",
      "raw": "TAF WMKK 131700Z 1318/1500 VRB03KT 9999 FEW030",
      "groups": [
        {
          "text": "TAF WMKK 131700Z 1318/1500 VRB03KT 9999 FEW030",
          "offset_h": -3,
          "wdir": "VRB",
          "wspd": 3
        }
      ],
      "metar_raw": "METAR WMKK 132130Z 13005KT 060V200 8000 FEW030 28/24 Q1009 NOSIG",
      "metar_wdir": 130,
      "metar_wspd": 5,
      "metar_oat": 28,
      "metar_qnh": 1009,
      "hourly_oat": [
        26,
        26,
        26,
        25,
        26,
        28,
        29,
        30,
        30,
        31,
        31,
        31,
        30,
        30,
        29,
        28,
        28,
        28,
        27,
        27,
        26,
        26,
        26,
        26,
        26
      ]
    },
    "TSA": {
      "icao": "RCSS",
      "issued": "2026-07-13T17:00:00.000Z",
      "raw": "TAF RCSS 131700Z 1318/1418 29005KT 9999 FEW015 BKN032 TEMPO 1318/1324 09005KT TEMPO 1404/1410 10010KT 4000 SHRA FEW010 FEW015CB BKN017",
      "groups": [
        {
          "text": "TAF RCSS 131700Z 1318/1418 29005KT 9999 FEW015 BKN032",
          "offset_h": -3,
          "wdir": 290,
          "wspd": 5
        },
        {
          "text": "TEMPO 1318/1324 09005KT",
          "offset_h": -3,
          "wdir": 90,
          "wspd": 5
        },
        {
          "text": "TEMPO 1404/1410 10010KT 4000 SHRA FEW010 FEW015CB BKN017",
          "offset_h": 7,
          "wdir": 100,
          "wspd": 10
        }
      ],
      "metar_raw": "METAR RCSS 132100Z 08004KT 9999 FEW020 BKN060 27/27 Q1007 NOSIG RMK A2974",
      "metar_wdir": 80,
      "metar_wspd": 4,
      "metar_oat": 27,
      "metar_qnh": 1007,
      "hourly_oat": [
        26,
        26,
        29,
        30,
        32,
        33,
        33,
        33,
        32,
        31,
        31,
        31,
        30,
        29,
        28,
        28,
        28,
        27,
        27,
        26,
        26,
        26,
        26,
        26,
        26
      ]
    },
    "TPE": {
      "icao": "RCTP",
      "issued": "2026-07-13T17:00:00.000Z",
      "raw": "TAF RCTP 131700Z 1318/1424 17005KT 9999 FEW015 BKN032 TEMPO 1318/1324 11005KT BECMG 1400/1402 36005KT TEMPO 1404/1410 29010KT 5000 SHRA FEW010 FEW015CB BKN020 BECMG 1410/1412 16005KT",
      "groups": [
        {
          "text": "TAF RCTP 131700Z 1318/1424 17005KT 9999 FEW015 BKN032",
          "offset_h": -3,
          "wdir": 170,
          "wspd": 5
        },
        {
          "text": "TEMPO 1318/1324 11005KT",
          "offset_h": -3,
          "wdir": 110,
          "wspd": 5
        },
        {
          "text": "BECMG 1400/1402 36005KT",
          "offset_h": 3,
          "wdir": 360,
          "wspd": 5
        },
        {
          "text": "TEMPO 1404/1410 29010KT 5000 SHRA FEW010 FEW015CB BKN020",
          "offset_h": 7,
          "wdir": 290,
          "wspd": 10
        },
        {
          "text": "BECMG 1410/1412 16005KT",
          "offset_h": 13,
          "wdir": 160,
          "wspd": 5
        }
      ],
      "metar_raw": "METAR RCTP 132130Z 09003KT 050V150 9999 FEW015 27/26 Q1007 NOSIG RMK A2974",
      "metar_wdir": 90,
      "metar_wspd": 3,
      "metar_oat": 27,
      "metar_qnh": 1007,
      "hourly_oat": [
        26,
        26,
        28,
        30,
        30,
        31,
        30,
        30,
        31,
        30,
        30,
        30,
        29,
        29,
        28,
        28,
        28,
        27,
        27,
        27,
        26,
        26,
        26,
        26,
        26
      ]
    },
    "BKK": {
      "icao": "VTBS",
      "issued": "2026-07-13T17:00:00.000Z",
      "raw": "TAF VTBS 131700Z 1318/1424 23008KT 9999 FEW020 TEMPO 1406/1412 VRB15G25KT 4000 TSRA FEW018CB SCT030 BKN100",
      "groups": [
        {
          "text": "TAF VTBS 131700Z 1318/1424 23008KT 9999 FEW020",
          "offset_h": -3,
          "wdir": 230,
          "wspd": 8
        },
        {
          "text": "TEMPO 1406/1412 VRB15G25KT 4000 TSRA FEW018CB SCT030 BKN100",
          "offset_h": 9,
          "wdir": "VRB",
          "wspd": 15
        }
      ],
      "metar_raw": "METAR VTBS 132130Z 22007KT 9999 FEW020 29/23 Q1006 NOSIG",
      "metar_wdir": 220,
      "metar_wspd": 7,
      "metar_oat": 29,
      "metar_qnh": 1006,
      "hourly_oat": [
        27,
        27,
        27,
        28,
        29,
        30,
        30,
        30,
        30,
        28,
        28,
        30,
        29,
        29,
        29,
        29,
        29,
        27,
        27,
        27,
        27,
        27,
        27,
        26,
        26
      ]
    },
    "HAN": {
      "icao": "VVNB",
      "issued": "2026-07-13T17:00:00.000Z",
      "raw": "TAF VVNB 131700Z 1318/1418 12006KT 9999 FEW025 PROB40 TEMPO 1408/1412 3500 TSRA SCT010 FEW027CB",
      "groups": [
        {
          "text": "TAF VVNB 131700Z 1318/1418 12006KT 9999 FEW025",
          "offset_h": -3,
          "wdir": 120,
          "wspd": 6
        },
        {
          "text": "PROB40",
          "offset_h": 0,
          "wdir": null,
          "wspd": null
        },
        {
          "text": "TEMPO 1408/1412 3500 TSRA SCT010 FEW027CB",
          "offset_h": 11,
          "wdir": null,
          "wspd": null
        }
      ],
      "metar_raw": "METAR VVNB 132130Z 05003KT CAVOK 28/27 Q1001 NOSIG",
      "metar_wdir": 50,
      "metar_wspd": 3,
      "metar_oat": 28,
      "metar_qnh": 1001,
      "hourly_oat": [
        26,
        26,
        27,
        28,
        30,
        31,
        32,
        33,
        34,
        34,
        34,
        34,
        34,
        34,
        32,
        31,
        30,
        29,
        29,
        28,
        28,
        28,
        28,
        28,
        27
      ]
    },
    "CGK": {
      "icao": "WIII",
      "issued": "2026-07-13T17:00:00.000Z",
      "raw": "TAF WIII 131700Z 1318/1500 12006KT 8000 SCT020 BECMG 1319/1321 4000 HZ BECMG 1401/1403 05013KT 8000 NSW",
      "groups": [
        {
          "text": "TAF WIII 131700Z 1318/1500 12006KT 8000 SCT020",
          "offset_h": -3,
          "wdir": 120,
          "wspd": 6
        },
        {
          "text": "BECMG 1319/1321 4000 HZ",
          "offset_h": -2,
          "wdir": null,
          "wspd": null
        },
        {
          "text": "BECMG 1401/1403 05013KT 8000 NSW",
          "offset_h": 4,
          "wdir": 50,
          "wspd": 13
        }
      ],
      "metar_raw": "METAR WIII 132130Z 15005KT 130V190 5000 HZ FEW020 26/22 Q1011 NOSIG",
      "metar_wdir": 150,
      "metar_wspd": 5,
      "metar_oat": 26,
      "metar_qnh": 1011,
      "hourly_oat": [
        26,
        25,
        25,
        26,
        28,
        30,
        32,
        33,
        34,
        34,
        32,
        32,
        31,
        30,
        29,
        29,
        28,
        28,
        27,
        27,
        26,
        26,
        26,
        26,
        25
      ]
    },
    "SIN": {
      "icao": "WSSS",
      "issued": "2026-07-13T17:00:00.000Z",
      "raw": "TAF WSSS 131700Z 1318/1500 16009KT 9999 FEW015 SCT020",
      "groups": [
        {
          "text": "TAF WSSS 131700Z 1318/1500 16009KT 9999 FEW015 SCT020",
          "offset_h": -3,
          "wdir": 160,
          "wspd": 9
        }
      ],
      "metar_raw": "METAR WSSS 132130Z 13004KT 9999 SCT016 BKN300 28/25 Q1009 NOSIG",
      "metar_wdir": 130,
      "metar_wspd": 4,
      "metar_oat": 28,
      "metar_qnh": 1009,
      "hourly_oat": [
        28,
        28,
        28,
        28,
        29,
        30,
        30,
        31,
        32,
        31,
        31,
        30,
        29,
        30,
        29,
        29,
        29,
        29,
        29,
        29,
        29,
        29,
        28,
        29,
        28
      ]
    },
    "SGN": {
      "icao": "VVTS",
      "issued": "2026-07-13T17:00:00.000Z",
      "raw": "TAF VVTS 131700Z 1318/1424 24010KT 9999 SCT017 TEMPO 1321/1324 5000 SHRA BKN015 FEW017CB TEMPO 1405/1410 24018G28KT 2500 +TSRA BKN015 SCT017CB TEMPO 1410/1414 5000 SHRA BKN015 FEW017CB",
      "groups": [
        {
          "text": "TAF VVTS 131700Z 1318/1424 24010KT 9999 SCT017",
          "offset_h": -3,
          "wdir": 240,
          "wspd": 10
        },
        {
          "text": "TEMPO 1321/1324 5000 SHRA BKN015 FEW017CB",
          "offset_h": 0,
          "wdir": null,
          "wspd": null
        },
        {
          "text": "TEMPO 1405/1410 24018G28KT 2500 +TSRA BKN015 SCT017CB",
          "offset_h": 8,
          "wdir": 240,
          "wspd": 18
        },
        {
          "text": "TEMPO 1410/1414 5000 SHRA BKN015 FEW017CB",
          "offset_h": 13,
          "wdir": null,
          "wspd": null
        }
      ],
      "metar_raw": "METAR VVTS 132130Z 26007KT CAVOK 26/25 Q1008 NOSIG",
      "metar_wdir": 260,
      "metar_wspd": 7,
      "metar_oat": 26,
      "metar_qnh": 1008,
      "hourly_oat": [
        25,
        25,
        25,
        26,
        27,
        28,
        30,
        31,
        32,
        28,
        28,
        28,
        26,
        26,
        26,
        26,
        26,
        26,
        26,
        26,
        26,
        25,
        25,
        25,
        25
      ]
    },
    "DLC": {
      "icao": "ZYTL",
      "issued": "2026-07-13T15:09:00.000Z",
      "raw": "TAF ZYTL 131509Z 1318/1418 13006G12MPS 4000 -SHRA BR BKN004 BKN026 TX29/1406Z TN23/1321Z TEMPO 1318/1321 1400 SHRA BR BKN004 BKN026 FEW033CB BECMG 1400/1401 2500 BR BECMG 1401/1402 33006G13MPS 3000 SCT010 SCT026 BECMG 1411/1412 26004MPS",
      "groups": [
        {
          "text": "TAF ZYTL 131509Z 1318/1418 13006G12MPS 4000 -SHRA BR BKN004 BKN026 TX29/1406Z TN23/1321Z",
          "offset_h": -3,
          "wdir": null,
          "wspd": null
        },
        {
          "text": "TEMPO 1318/1321 1400 SHRA BR BKN004 BKN026 FEW033CB",
          "offset_h": -3,
          "wdir": null,
          "wspd": null
        },
        {
          "text": "BECMG 1400/1401 2500 BR",
          "offset_h": 3,
          "wdir": null,
          "wspd": null
        },
        {
          "text": "BECMG 1401/1402 33006G13MPS 3000 SCT010 SCT026",
          "offset_h": 4,
          "wdir": null,
          "wspd": null
        },
        {
          "text": "BECMG 1411/1412 26004MPS",
          "offset_h": 14,
          "wdir": null,
          "wspd": null
        }
      ],
      "metar_raw": "METAR ZYTL 132130Z 13003MPS 8000 -SHRA BKN004 OVC023 24/24 Q0998 NOSIG",
      "metar_wdir": null,
      "metar_wspd": null,
      "metar_oat": 24,
      "metar_qnh": 998,
      "hourly_oat": [
        24,
        24,
        24,
        24,
        24,
        25,
        27,
        27,
        27,
        28,
        27,
        27,
        27,
        26,
        25,
        25,
        25,
        25,
        25,
        25,
        24,
        24,
        24,
        24,
        24
      ]
    },
    "CAN": {
      "icao": "ZGGG",
      "issued": "2026-07-13T15:07:00.000Z",
      "raw": "TAF ZGGG 131507Z 1318/1424 15004MPS 8000 BKN030 TX32/1407Z TN28/1322Z TN28/1422Z TEMPO 1318/1323 4000 +SHRA FEW026CB BKN030 TEMPO 1404/1407 1500 +TSRA SCT026CB BKN033 TEMPO 1407/1413 3000 +SHRA FEW026CB BKN030 TEMPO 1422/1424 4000 +SHRA FEW026CB BKN030",
      "groups": [
        {
          "text": "TAF ZGGG 131507Z 1318/1424 15004MPS 8000 BKN030 TX32/1407Z TN28/1322Z TN28/1422Z",
          "offset_h": -3,
          "wdir": null,
          "wspd": null
        },
        {
          "text": "TEMPO 1318/1323 4000 +SHRA FEW026CB BKN030",
          "offset_h": -3,
          "wdir": null,
          "wspd": null
        },
        {
          "text": "TEMPO 1404/1407 1500 +TSRA SCT026CB BKN033",
          "offset_h": 7,
          "wdir": null,
          "wspd": null
        },
        {
          "text": "TEMPO 1407/1413 3000 +SHRA FEW026CB BKN030",
          "offset_h": 10,
          "wdir": null,
          "wspd": null
        },
        {
          "text": "TEMPO 1422/1424 4000 +SHRA FEW026CB BKN030",
          "offset_h": 25,
          "wdir": null,
          "wspd": null
        }
      ],
      "metar_raw": "METAR ZGGG 132130Z 04002MPS 010V070 9999 BKN053 28/26 Q1002 NOSIG",
      "metar_wdir": null,
      "metar_wspd": null,
      "metar_oat": 28,
      "metar_qnh": 1002,
      "hourly_oat": [
        26,
        26,
        26,
        26,
        28,
        29,
        30,
        31,
        29,
        29,
        28,
        27,
        28,
        27,
        26,
        26,
        26,
        26,
        25,
        26,
        26,
        26,
        26,
        26,
        26
      ]
    },
    "PVG": {
      "icao": "ZSPD",
      "issued": "2026-07-13T15:03:00.000Z",
      "raw": "TAF ZSPD 131503Z 1318/1424 18009G15MPS 8000 BKN020 TX35/1406Z TN28/1321Z TN29/1421Z BECMG 1321/1322 17006MPS",
      "groups": [
        {
          "text": "TAF ZSPD 131503Z 1318/1424 18009G15MPS 8000 BKN020 TX35/1406Z TN28/1321Z TN29/1421Z",
          "offset_h": -3,
          "wdir": null,
          "wspd": null
        },
        {
          "text": "BECMG 1321/1322 17006MPS",
          "offset_h": 0,
          "wdir": null,
          "wspd": null
        }
      ],
      "metar_raw": "METAR ZSPD 132130Z 19007MPS CAVOK 28/25 Q1003 NOSIG",
      "metar_wdir": null,
      "metar_wspd": null,
      "metar_oat": 28,
      "metar_qnh": 1003,
      "hourly_oat": [
        28,
        28,
        29,
        30,
        31,
        32,
        33,
        34,
        34,
        34,
        35,
        34,
        33,
        32,
        31,
        30,
        30,
        30,
        29,
        29,
        29,
        29,
        28,
        28,
        28
      ]
    },
    "SHA": {
      "icao": "ZSSS",
      "issued": "2026-07-13T15:03:00.000Z",
      "raw": "TAF ZSSS 131503Z 1318/1424 17005MPS 8000 BKN020 TX36/1406Z TN28/1321Z TN29/1421Z",
      "groups": [
        {
          "text": "TAF ZSSS 131503Z 1318/1424 17005MPS 8000 BKN020 TX36/1406Z TN28/1321Z TN29/1421Z",
          "offset_h": -3,
          "wdir": null,
          "wspd": null
        }
      ],
      "metar_raw": "METAR ZSSS 132130Z 18004MPS CAVOK 29/24 Q1003 NOSIG",
      "metar_wdir": null,
      "metar_wspd": null,
      "metar_oat": 29,
      "metar_qnh": 1003,
      "hourly_oat": [
        27,
        28,
        29,
        30,
        31,
        32,
        34,
        35,
        35,
        36,
        36,
        35,
        34,
        33,
        32,
        31,
        31,
        30,
        30,
        30,
        30,
        29,
        29,
        28,
        28
      ]
    },
    "PEK": {
      "icao": "ZBAA",
      "issued": "2026-07-13T15:01:00.000Z",
      "raw": "TAF ZBAA 131501Z 1318/1424 04004MPS CAVOK TX35/1407Z TN25/1321Z TN24/1421Z",
      "groups": [
        {
          "text": "TAF ZBAA 131501Z 1318/1424 04004MPS CAVOK TX35/1407Z TN25/1321Z TN24/1421Z",
          "offset_h": -3,
          "wdir": null,
          "wspd": null
        }
      ],
      "metar_raw": "METAR ZBAA 132130Z VRB01MPS CAVOK 25/25 Q1000 NOSIG",
      "metar_wdir": null,
      "metar_wspd": null,
      "metar_oat": 25,
      "metar_qnh": 1000,
      "hourly_oat": [
        24,
        24,
        26,
        27,
        28,
        30,
        32,
        31,
        32,
        33,
        33,
        32,
        32,
        32,
        29,
        28,
        27,
        27,
        27,
        26,
        25,
        25,
        23,
        22,
        22
      ]
    }
  }
}