{
  "updated": "2026-07-06T22:56:39Z",
  "tafs": {
    "GMP": {
      "icao": "RKSS",
      "issued": "2026-07-06T21:40:00.000Z",
      "raw": "TAF AMD RKSS 062140Z 0622/0724 21005KT 9999 -RA FEW010 BKN020 OVC070 TX31/0705Z TN24/0719Z BECMG 0623/0701 NSW TEMPO 0704/0708 25008KT -SHRA SCT010CB BKN020 OVC070 BECMG 0714/0716 15010KT SCT040 BECMG 0721/0723 BKN025",
      "groups": [
        {
          "text": "TAF AMD RKSS 062140Z 0622/0724 21005KT 9999 -RA FEW010 BKN020 OVC070 TX31/0705Z TN24/0719Z",
          "offset_h": 0,
          "wdir": 210,
          "wspd": 5
        },
        {
          "text": "BECMG 0623/0701 NSW",
          "offset_h": 1,
          "wdir": null,
          "wspd": null
        },
        {
          "text": "TEMPO 0704/0708 25008KT -SHRA SCT010CB BKN020 OVC070",
          "offset_h": 6,
          "wdir": 250,
          "wspd": 8
        },
        {
          "text": "BECMG 0714/0716 15010KT SCT040",
          "offset_h": 16,
          "wdir": 150,
          "wspd": 10
        },
        {
          "text": "BECMG 0721/0723 BKN025",
          "offset_h": 23,
          "wdir": null,
          "wspd": null
        }
      ],
      "metar_raw": "METAR RKSS 062200Z 24002KT 9999 -RA SCT005 BKN020 OVC080 23/22 Q1007 NOSIG",
      "metar_wdir": 240,
      "metar_wspd": 2,
      "metar_oat": 23,
      "metar_qnh": 1007,
      "hourly_oat": [
        24,
        24,
        24,
        25,
        25,
        26,
        26,
        27,
        28,
        28,
        28,
        27,
        27,
        26,
        26,
        25,
        25,
        25,
        25,
        25,
        25,
        25,
        24,
        24,
        24
      ]
    },
    "DLC": {
      "icao": "ZYTL",
      "issued": "2026-07-06T21:10:00.000Z",
      "raw": "TAF ZYTL 062110Z 0700/0724 14004MPS 5000 BR FEW040 TX28/0706Z TN22/0720Z TEMPO 0700/0703 2000 -SHRA BR BKN010 BKN026 FEW030CB TEMPO 0703/0706 2000 -TSRA BR BKN010 BKN026 FEW030CB",
      "groups": [
        {
          "text": "TAF ZYTL 062110Z 0700/0724 14004MPS 5000 BR FEW040 TX28/0706Z TN22/0720Z",
          "offset_h": 2,
          "wdir": null,
          "wspd": null
        },
        {
          "text": "TEMPO 0700/0703 2000 -SHRA BR BKN010 BKN026 FEW030CB",
          "offset_h": 2,
          "wdir": null,
          "wspd": null
        },
        {
          "text": "TEMPO 0703/0706 2000 -TSRA BR BKN010 BKN026 FEW030CB",
          "offset_h": 5,
          "wdir": null,
          "wspd": null
        }
      ],
      "metar_raw": "METAR ZYTL 062230Z 09004MPS 4000 BR FEW005 SCT040 23/23 Q1002 NOSIG",
      "metar_wdir": null,
      "metar_wspd": null,
      "metar_oat": 23,
      "metar_qnh": 1002,
      "hourly_oat": [
        23,
        23,
        24,
        25,
        25,
        25,
        26,
        27,
        27,
        26,
        26,
        26,
        25,
        24,
        23,
        23,
        23,
        23,
        23,
        23,
        23,
        22,
        22,
        23,
        23
      ]
    },
    "CAN": {
      "icao": "ZGGG",
      "issued": "2026-07-06T21:09:00.000Z",
      "raw": "TAF ZGGG 062109Z 0700/0806 15003MPS 8000 BKN033 TX32/0707Z TX33/0806Z TN26/0722Z TEMPO 0700/0702 SHRA FEW026CB BKN030 TEMPO 0704/0710 TSRA SCT026CB BKN030 TEMPO 0718/0722 SHRA FEW026CB BKN030 TEMPO 0804/0806 TSRA SCT026CB BKN030",
      "groups": [
        {
          "text": "TAF ZGGG 062109Z 0700/0806 15003MPS 8000 BKN033 TX32/0707Z TX33/0806Z TN26/0722Z",
          "offset_h": 2,
          "wdir": null,
          "wspd": null
        },
        {
          "text": "TEMPO 0700/0702 SHRA FEW026CB BKN030",
          "offset_h": 2,
          "wdir": null,
          "wspd": null
        },
        {
          "text": "TEMPO 0704/0710 TSRA SCT026CB BKN030",
          "offset_h": 6,
          "wdir": null,
          "wspd": null
        },
        {
          "text": "TEMPO 0718/0722 SHRA FEW026CB BKN030",
          "offset_h": 20,
          "wdir": null,
          "wspd": null
        },
        {
          "text": "TEMPO 0804/0806 TSRA SCT026CB BKN030",
          "offset_h": 30,
          "wdir": null,
          "wspd": null
        }
      ],
      "metar_raw": "METAR ZGGG 062230Z 10002MPS 060V120 9999 BKN023 27/25 Q1006 NOSIG",
      "metar_wdir": null,
      "metar_wspd": null,
      "metar_oat": 27,
      "metar_qnh": 1006,
      "hourly_oat": [
        24,
        25,
        26,
        26,
        26,
        28,
        31,
        26,
        27,
        27,
        27,
        28,
        28,
        27,
        27,
        27,
        26,
        26,
        25,
        24,
        24,
        24,
        24,
        24,
        24
      ]
    },
    "PVG": {
      "icao": "ZSPD",
      "issued": "2026-07-06T21:08:00.000Z",
      "raw": "TAF ZSPD 062108Z 0700/0806 18004MPS 6000 BKN020 TX35/0706Z TX34/0806Z TN27/0721Z",
      "groups": [
        {
          "text": "TAF ZSPD 062108Z 0700/0806 18004MPS 6000 BKN020 TX35/0706Z TX34/0806Z TN27/0721Z",
          "offset_h": 2,
          "wdir": null,
          "wspd": null
        }
      ],
      "metar_raw": "METAR ZSPD 062230Z 18005MPS CAVOK 28/25 Q1004 NOSIG",
      "metar_wdir": null,
      "metar_wspd": null,
      "metar_oat": 28,
      "metar_qnh": 1004,
      "hourly_oat": [
        27,
        28,
        29,
        30,
        31,
        32,
        33,
        33,
        33,
        33,
        33,
        32,
        30,
        29,
        29,
        29,
        29,
        29,
        28,
        28,
        28,
        28,
        27,
        27,
        27
      ]
    },
    "SHA": {
      "icao": "ZSSS",
      "issued": "2026-07-06T21:07:00.000Z",
      "raw": "TAF ZSSS 062107Z 0700/0806 17004MPS 6000 BKN030 TX35/0706Z TX34/0806Z TN27/0721Z",
      "groups": [
        {
          "text": "TAF ZSSS 062107Z 0700/0806 17004MPS 6000 BKN030 TX35/0706Z TX34/0806Z TN27/0721Z",
          "offset_h": 2,
          "wdir": null,
          "wspd": null
        }
      ],
      "metar_raw": "METAR ZSSS 062230Z 15004MPS CAVOK 29/25 Q1003 NOSIG",
      "metar_wdir": null,
      "metar_wspd": null,
      "metar_oat": 29,
      "metar_qnh": 1003,
      "hourly_oat": [
        27,
        28,
        29,
        30,
        32,
        32,
        33,
        34,
        34,
        34,
        34,
        33,
        32,
        30,
        30,
        30,
        29,
        29,
        29,
        29,
        28,
        28,
        28,
        28,
        28
      ]
    },
    "PEK": {
      "icao": "ZBAA",
      "issued": "2026-07-06T21:05:00.000Z",
      "raw": "TAF ZBAA 062105Z 0700/0806 16003MPS CAVOK TX31/0706Z TX33/0806Z TN22/0721Z TEMPO 0707/0713 -TSRA FEW040CB BKN040",
      "groups": [
        {
          "text": "TAF ZBAA 062105Z 0700/0806 16003MPS CAVOK TX31/0706Z TX33/0806Z TN22/0721Z",
          "offset_h": 2,
          "wdir": null,
          "wspd": null
        },
        {
          "text": "TEMPO 0707/0713 -TSRA FEW040CB BKN040",
          "offset_h": 9,
          "wdir": null,
          "wspd": null
        }
      ],
      "metar_raw": "METAR ZBAA 062230Z 36002MPS CAVOK 25/23 Q0999 NOSIG",
      "metar_wdir": null,
      "metar_wspd": null,
      "metar_oat": 25,
      "metar_qnh": 999,
      "hourly_oat": [
        22,
        24,
        25,
        27,
        28,
        29,
        30,
        30,
        28,
        28,
        25,
        24,
        25,
        24,
        23,
        23,
        22,
        22,
        22,
        22,
        22,
        22,
        22,
        22,
        22
      ]
    },
    "LAX": {
      "icao": "KLAX",
      "issued": "2026-07-06T21:01:00.000Z",
      "raw": "TAF KLAX 062101Z 0621/0724 26010G18KT P6SM FEW012 FM070300 25008KT P6SM FEW008 FEW250 FM070900 VRB03KT P6SM SCT008 FM071700 25012KT P6SM FEW250",
      "groups": [
        {
          "text": "TAF KLAX 062101Z 0621/0724 26010G18KT P6SM FEW012",
          "offset_h": -1,
          "wdir": 260,
          "wspd": 10
        },
        {
          "text": "FM070300 25008KT P6SM FEW008 FEW250",
          "offset_h": 5,
          "wdir": 250,
          "wspd": 8
        },
        {
          "text": "FM070900 VRB03KT P6SM SCT008",
          "offset_h": 11,
          "wdir": "VRB",
          "wspd": 3
        },
        {
          "text": "FM071700 25012KT P6SM FEW250",
          "offset_h": 19,
          "wdir": 250,
          "wspd": 12
        }
      ],
      "metar_raw": "METAR KLAX 062253Z 25015KT 10SM FEW009 22/16 A2992 RMK AO2 SLP130 T02220156",
      "metar_wdir": 250,
      "metar_wspd": 15,
      "metar_oat": 22,
      "metar_qnh": 1013,
      "hourly_oat": [
        23,
        23,
        22,
        21,
        21,
        20,
        19,
        18,
        18,
        17,
        16,
        16,
        16,
        15,
        15,
        15,
        17,
        19,
        21,
        24,
        24,
        24,
        23,
        23,
        22
      ]
    },
    "HNL": {
      "icao": "PHNL",
      "issued": "2026-07-06T20:54:00.000Z",
      "raw": "TAF PHNL 062054Z 0621/0724 06015G25KT P6SM SCT025 BKN040 FM071000 05013KT P6SM FEW025 SCT040 FM071800 06015G25KT P6SM SCT025 BKN040",
      "groups": [
        {
          "text": "TAF PHNL 062054Z 0621/0724 06015G25KT P6SM SCT025 BKN040",
          "offset_h": -1,
          "wdir": 60,
          "wspd": 15
        },
        {
          "text": "FM071000 05013KT P6SM FEW025 SCT040",
          "offset_h": 12,
          "wdir": 50,
          "wspd": 13
        },
        {
          "text": "FM071800 06015G25KT P6SM SCT025 BKN040",
          "offset_h": 20,
          "wdir": 60,
          "wspd": 15
        }
      ],
      "metar_raw": "METAR PHNL 062253Z 05011G22KT 10SM FEW026 FEW034 SCT042 30/18 A3004 RMK AO2 RAE03 SLP172 P0000 T03000183 $",
      "metar_wdir": 50,
      "metar_wspd": 11,
      "metar_oat": 30,
      "metar_qnh": 1017,
      "hourly_oat": [
        28,
        28,
        28,
        28,
        28,
        27,
        26,
        25,
        25,
        24,
        24,
        24,
        24,
        23,
        23,
        23,
        23,
        22,
        22,
        23,
        24,
        25,
        27,
        27,
        28
      ]
    },
    "SAN": {
      "icao": "KSAN",
      "issued": "2026-07-06T20:17:00.000Z",
      "raw": "TAF KSAN 062017Z 0620/0724 29012KT P6SM SCT015 SCT250 FM070300 31007KT P6SM SCT012 FM070800 VRB04KT P6SM OVC010 FM071700 29010KT P6SM SKC",
      "groups": [
        {
          "text": "TAF KSAN 062017Z 0620/0724 29012KT P6SM SCT015 SCT250",
          "offset_h": -2,
          "wdir": 290,
          "wspd": 12
        },
        {
          "text": "FM070300 31007KT P6SM SCT012",
          "offset_h": 5,
          "wdir": 310,
          "wspd": 7
        },
        {
          "text": "FM070800 VRB04KT P6SM OVC010",
          "offset_h": 10,
          "wdir": "VRB",
          "wspd": 4
        },
        {
          "text": "FM071700 29010KT P6SM SKC",
          "offset_h": 19,
          "wdir": 290,
          "wspd": 10
        }
      ],
      "metar_raw": "METAR KSAN 062251Z 29012KT 10SM FEW013 22/16 A2994 RMK AO2 SLP137 T02220161",
      "metar_wdir": 290,
      "metar_wspd": 12,
      "metar_oat": 22,
      "metar_qnh": 1014,
      "hourly_oat": [
        24,
        24,
        23,
        22,
        21,
        20,
        19,
        19,
        18,
        17,
        17,
        17,
        17,
        18,
        18,
        18,
        18,
        18,
        21,
        22,
        22,
        23,
        23,
        23,
        23
      ]
    },
    "HKG": {
      "icao": "VHHH",
      "issued": "2026-07-06T20:00:00.000Z",
      "raw": "TAF VHHH 062000Z 0621/0803 19015KT 9999 FEW010 SCT025 TX31/0706Z TN26/0622Z TN27/0722Z TEMPO 0621/0703 20020G30KT 1500 TSRA +SHRA FEW008CB SCT015 TEMPO 0703/0706 20015G25KT 2000 TSRA SHRA FEW008CB SCT020 TEMPO 0715/0718 3000 SHRA FEW008CB SCT020 TEMPO 0718/0724 20015G25KT 2000 TSRA SHRA FEW008CB SCT020 TEMPO 0800/0803 3000 SHRA FEW008CB SCT020",
      "groups": [
        {
          "text": "TAF VHHH 062000Z 0621/0803 19015KT 9999 FEW010 SCT025 TX31/0706Z TN26/0622Z TN27/0722Z",
          "offset_h": -1,
          "wdir": 190,
          "wspd": 15
        },
        {
          "text": "TEMPO 0621/0703 20020G30KT 1500 TSRA +SHRA FEW008CB SCT015",
          "offset_h": -1,
          "wdir": 200,
          "wspd": 20
        },
        {
          "text": "TEMPO 0703/0706 20015G25KT 2000 TSRA SHRA FEW008CB SCT020",
          "offset_h": 5,
          "wdir": 200,
          "wspd": 15
        },
        {
          "text": "TEMPO 0715/0718 3000 SHRA FEW008CB SCT020",
          "offset_h": 17,
          "wdir": null,
          "wspd": null
        },
        {
          "text": "TEMPO 0718/0724 20015G25KT 2000 TSRA SHRA FEW008CB SCT020",
          "offset_h": 20,
          "wdir": 200,
          "wspd": 15
        },
        {
          "text": "TEMPO 0800/0803 3000 SHRA FEW008CB SCT020",
          "offset_h": 26,
          "wdir": null,
          "wspd": null
        }
      ],
      "metar_raw": "SPECI VHHH 062250Z 20007KT 9999 SHRA FEW010 FEW015CB SCT025 28/25 Q1007 NOSIG",
      "metar_wdir": 200,
      "metar_wspd": 7,
      "metar_oat": 28,
      "metar_qnh": 1007,
      "hourly_oat": [
        26,
        26,
        26,
        27,
        26,
        27,
        28,
        27,
        27,
        27,
        28,
        29,
        28,
        28,
        28,
        28,
        28,
        28,
        26,
        26,
        26,
        26,
        27,
        26,
        26
      ]
    },
    "CTS": {
      "icao": "RJCC",
      "issued": "2026-07-06T17:05:00.000Z",
      "raw": "TAF RJCC 061705Z 0618/0800 17012KT 9999 FEW005 BKN015 TEMPO 0718/0800 FEW003 BKN008",
      "groups": [
        {
          "text": "TAF RJCC 061705Z 0618/0800 17012KT 9999 FEW005 BKN015",
          "offset_h": -4,
          "wdir": 170,
          "wspd": 12
        },
        {
          "text": "TEMPO 0718/0800 FEW003 BKN008",
          "offset_h": 20,
          "wdir": null,
          "wspd": null
        }
      ],
      "metar_raw": "METAR RJCC 062230Z 16010KT 9999 FEW010 BKN025 20/16 Q1016",
      "metar_wdir": 160,
      "metar_wspd": 10,
      "metar_oat": 20,
      "metar_qnh": 1016,
      "hourly_oat": [
        18,
        19,
        19,
        20,
        20,
        20,
        20,
        20,
        19,
        19,
        19,
        18,
        18,
        17,
        17,
        17,
        17,
        17,
        17,
        17,
        17,
        17,
        17,
        18,
        19
      ]
    },
    "OKA": {
      "icao": "ROAH",
      "issued": "2026-07-06T17:05:00.000Z",
      "raw": "TAF ROAH 061705Z 0618/0800 22004KT 9999 FEW015 BECMG 0700/0702 28006KT",
      "groups": [
        {
          "text": "TAF ROAH 061705Z 0618/0800 22004KT 9999 FEW015",
          "offset_h": -4,
          "wdir": 220,
          "wspd": 4
        },
        {
          "text": "BECMG 0700/0702 28006KT",
          "offset_h": 2,
          "wdir": 280,
          "wspd": 6
        }
      ],
      "metar_raw": "METAR ROAH 062230Z 18004KT 9999 FEW015 29/25 Q1011",
      "metar_wdir": 180,
      "metar_wspd": 4,
      "metar_oat": 29,
      "metar_qnh": 1011,
      "hourly_oat": [
        28,
        29,
        30,
        30,
        31,
        31,
        31,
        31,
        32,
        32,
        32,
        31,
        30,
        29,
        28,
        28,
        28,
        27,
        27,
        27,
        27,
        26,
        26,
        26,
        27
      ]
    },
    "ITM": {
      "icao": "RJOO",
      "issued": "2026-07-06T17:05:00.000Z",
      "raw": "TAF RJOO 061705Z 0618/0800 07008KT 9999 FEW012 BKN020",
      "groups": [
        {
          "text": "TAF RJOO 061705Z 0618/0800 07008KT 9999 FEW012 BKN020",
          "offset_h": -4,
          "wdir": 70,
          "wspd": 8
        }
      ],
      "metar_raw": "METAR RJOO 062200Z 07008KT 040V100 9999 FEW015 BKN030 23/19 Q1011",
      "metar_wdir": 70,
      "metar_wspd": 8,
      "metar_oat": 23,
      "metar_qnh": 1011,
      "hourly_oat": [
        23,
        24,
        25,
        26,
        27,
        28,
        28,
        29,
        29,
        29,
        29,
        28,
        26,
        25,
        25,
        25,
        24,
        24,
        24,
        24,
        24,
        23,
        23,
        23,
        24
      ]
    },
    "HND": {
      "icao": "RJTT",
      "issued": "2026-07-06T17:05:00.000Z",
      "raw": "TAF RJTT 061705Z 0618/0800 01008KT 9999 FEW015 BKN030 BECMG 0706/0709 10010KT BECMG 0715/0718 04006KT BECMG 0721/0800 07004KT",
      "groups": [
        {
          "text": "TAF RJTT 061705Z 0618/0800 01008KT 9999 FEW015 BKN030",
          "offset_h": -4,
          "wdir": 10,
          "wspd": 8
        },
        {
          "text": "BECMG 0706/0709 10010KT",
          "offset_h": 8,
          "wdir": 100,
          "wspd": 10
        },
        {
          "text": "BECMG 0715/0718 04006KT",
          "offset_h": 17,
          "wdir": 40,
          "wspd": 6
        },
        {
          "text": "BECMG 0721/0800 07004KT",
          "offset_h": 23,
          "wdir": 70,
          "wspd": 4
        }
      ],
      "metar_raw": "METAR RJTT 062230Z 03009KT 9999 FEW020 BKN060 23/20 Q1014 NOSIG",
      "metar_wdir": 30,
      "metar_wspd": 9,
      "metar_oat": 23,
      "metar_qnh": 1014,
      "hourly_oat": [
        20,
        21,
        21,
        22,
        22,
        22,
        23,
        23,
        23,
        24,
        23,
        23,
        23,
        23,
        23,
        22,
        22,
        22,
        22,
        22,
        21,
        21,
        21,
        21,
        22
      ]
    },
    "KIX": {
      "icao": "RJBB",
      "issued": "2026-07-06T17:05:00.000Z",
      "raw": "TAF RJBB 061705Z 0618/0800 08004KT 9999 FEW012 SCT015 BKN020 BECMG 0700/0702 28006KT BECMG 0712/0715 36004KT",
      "groups": [
        {
          "text": "TAF RJBB 061705Z 0618/0800 08004KT 9999 FEW012 SCT015 BKN020",
          "offset_h": -4,
          "wdir": 80,
          "wspd": 4
        },
        {
          "text": "BECMG 0700/0702 28006KT",
          "offset_h": 2,
          "wdir": 280,
          "wspd": 6
        },
        {
          "text": "BECMG 0712/0715 36004KT",
          "offset_h": 14,
          "wdir": 360,
          "wspd": 4
        }
      ],
      "metar_raw": "METAR RJBB 062230Z 05006KT 9999 FEW008 BKN030 23/20 Q1011 NOSIG",
      "metar_wdir": 50,
      "metar_wspd": 6,
      "metar_oat": 23,
      "metar_qnh": 1011,
      "hourly_oat": [
        24,
        24,
        24,
        24,
        24,
        24,
        24,
        24,
        24,
        24,
        24,
        25,
        25,
        25,
        25,
        25,
        24,
        24,
        24,
        24,
        24,
        24,
        24,
        24,
        24
      ]
    },
    "NRT": {
      "icao": "RJAA",
      "issued": "2026-07-06T17:05:00.000Z",
      "raw": "TAF RJAA 061705Z 0618/0800 01006KT 9999 FEW015 BKN030 BECMG 0703/0705 09008KT BECMG 0709/0712 02004KT BECMG 0721/0800 09006KT",
      "groups": [
        {
          "text": "TAF RJAA 061705Z 0618/0800 01006KT 9999 FEW015 BKN030",
          "offset_h": -4,
          "wdir": 10,
          "wspd": 6
        },
        {
          "text": "BECMG 0703/0705 09008KT",
          "offset_h": 5,
          "wdir": 90,
          "wspd": 8
        },
        {
          "text": "BECMG 0709/0712 02004KT",
          "offset_h": 11,
          "wdir": 20,
          "wspd": 4
        },
        {
          "text": "BECMG 0721/0800 09006KT",
          "offset_h": 23,
          "wdir": 90,
          "wspd": 6
        }
      ],
      "metar_raw": "METAR RJAA 062230Z 06004KT 010V120 9999 FEW008 BKN050 22/20 Q1014 NOSIG",
      "metar_wdir": 60,
      "metar_wspd": 4,
      "metar_oat": 22,
      "metar_qnh": 1014,
      "hourly_oat": [
        20,
        20,
        20,
        21,
        21,
        22,
        22,
        23,
        24,
        24,
        24,
        23,
        22,
        22,
        21,
        21,
        20,
        20,
        20,
        20,
        20,
        19,
        19,
        20,
        22
      ]
    },
    "NGO": {
      "icao": "RJGG",
      "issued": "2026-07-06T17:05:00.000Z",
      "raw": "TAF RJGG 061705Z 0618/0800 16008KT 9999 FEW010 BKN030 BECMG 0620/0622 32004KT BECMG 0701/0703 12006KT",
      "groups": [
        {
          "text": "TAF RJGG 061705Z 0618/0800 16008KT 9999 FEW010 BKN030",
          "offset_h": -4,
          "wdir": 160,
          "wspd": 8
        },
        {
          "text": "BECMG 0620/0622 32004KT",
          "offset_h": -2,
          "wdir": 320,
          "wspd": 4
        },
        {
          "text": "BECMG 0701/0703 12006KT",
          "offset_h": 3,
          "wdir": 120,
          "wspd": 6
        }
      ],
      "metar_raw": "METAR RJGG 062230Z 31003KT 280V340 9999 FEW009 SCT015 BKN060 22/20 Q1012 NOSIG",
      "metar_wdir": 310,
      "metar_wspd": 3,
      "metar_oat": 22,
      "metar_qnh": 1012,
      "hourly_oat": [
        22,
        22,
        23,
        23,
        23,
        23,
        23,
        23,
        24,
        24,
        24,
        24,
        24,
        24,
        24,
        24,
        24,
        24,
        23,
        23,
        23,
        23,
        23,
        23,
        23
      ]
    },
    "FUK": {
      "icao": "RJFF",
      "issued": "2026-07-06T17:05:00.000Z",
      "raw": "TAF RJFF 061705Z 0618/0800 16012KT 9999 FEW015 BKN020 BECMG 0701/0703 32011KT TEMPO 0703/0706 4000 -TSRA BR FEW015 SCT025 FEW025CB BKN030 TEMPO 0709/0712 BKN008 BKN035 BECMG 0712/0715 16010KT",
      "groups": [
        {
          "text": "TAF RJFF 061705Z 0618/0800 16012KT 9999 FEW015 BKN020",
          "offset_h": -4,
          "wdir": 160,
          "wspd": 12
        },
        {
          "text": "BECMG 0701/0703 32011KT",
          "offset_h": 3,
          "wdir": 320,
          "wspd": 11
        },
        {
          "text": "TEMPO 0703/0706 4000 -TSRA BR FEW015 SCT025 FEW025CB BKN030",
          "offset_h": 5,
          "wdir": null,
          "wspd": null
        },
        {
          "text": "TEMPO 0709/0712 BKN008 BKN035",
          "offset_h": 11,
          "wdir": null,
          "wspd": null
        },
        {
          "text": "BECMG 0712/0715 16010KT",
          "offset_h": 14,
          "wdir": 160,
          "wspd": 10
        }
      ],
      "metar_raw": "METAR RJFF 062230Z 14012KT 9999 FEW025 BKN/// 27/25 Q1009 NOSIG",
      "metar_wdir": 140,
      "metar_wspd": 12,
      "metar_oat": 27,
      "metar_qnh": 1009,
      "hourly_oat": [
        26,
        26,
        27,
        28,
        29,
        30,
        29,
        28,
        27,
        27,
        28,
        27,
        27,
        26,
        26,
        26,
        26,
        26,
        26,
        26,
        26,
        25,
        25,
        25,
        26
      ]
    },
    "BKK": {
      "icao": "VTBS",
      "issued": "2026-07-06T17:00:00.000Z",
      "raw": "TAF VTBS 061700Z 0618/0724 20008KT 9999 FEW020 TEMPO 0712/0716 VRB15KT 4000 TSRA FEW018CB SCT030 BKN100",
      "groups": [
        {
          "text": "TAF VTBS 061700Z 0618/0724 20008KT 9999 FEW020",
          "offset_h": -4,
          "wdir": 200,
          "wspd": 8
        },
        {
          "text": "TEMPO 0712/0716 VRB15KT 4000 TSRA FEW018CB SCT030 BKN100",
          "offset_h": 14,
          "wdir": "VRB",
          "wspd": 15
        }
      ],
      "metar_raw": "METAR VTBS 062230Z 23005KT 9999 FEW020 30/24 Q1009 NOSIG",
      "metar_wdir": 230,
      "metar_wspd": 5,
      "metar_oat": 30,
      "metar_qnh": 1009,
      "hourly_oat": [
        28,
        27,
        28,
        30,
        31,
        32,
        32,
        32,
        31,
        31,
        31,
        30,
        29,
        28,
        28,
        28,
        28,
        28,
        28,
        27,
        27,
        26,
        26,
        26,
        26
      ]
    },
    "HAN": {
      "icao": "VVNB",
      "issued": "2026-07-06T17:00:00.000Z",
      "raw": "TAF VVNB 061700Z 0618/0718 07006KT 9999 FEW025 TEMPO 0711/0715 3500 TSRA SCT012 FEW027CB",
      "groups": [
        {
          "text": "TAF VVNB 061700Z 0618/0718 07006KT 9999 FEW025",
          "offset_h": -4,
          "wdir": 70,
          "wspd": 6
        },
        {
          "text": "TEMPO 0711/0715 3500 TSRA SCT012 FEW027CB",
          "offset_h": 13,
          "wdir": null,
          "wspd": null
        }
      ],
      "metar_raw": "METAR VVNB 062230Z 04005KT 9000 NSC 27/26 Q1001 NOSIG",
      "metar_wdir": 40,
      "metar_wspd": 5,
      "metar_oat": 27,
      "metar_qnh": 1001,
      "hourly_oat": [
        25,
        26,
        27,
        29,
        30,
        30,
        31,
        32,
        32,
        32,
        32,
        32,
        29,
        28,
        26,
        26,
        26,
        26,
        26,
        26,
        26,
        25,
        25,
        25,
        26
      ]
    },
    "SGN": {
      "icao": "VVTS",
      "issued": "2026-07-06T17:00:00.000Z",
      "raw": "TAF VVTS 061700Z 0618/0724 VRB03KT 9999 SCT017 BECMG 0700/0701 23010KT TEMPO 0706/0710 23015G28KT 3000 TSRA SCT013 SCT015CB",
      "groups": [
        {
          "text": "TAF VVTS 061700Z 0618/0724 VRB03KT 9999 SCT017",
          "offset_h": -4,
          "wdir": "VRB",
          "wspd": 3
        },
        {
          "text": "BECMG 0700/0701 23010KT",
          "offset_h": 2,
          "wdir": 230,
          "wspd": 10
        },
        {
          "text": "TEMPO 0706/0710 23015G28KT 3000 TSRA SCT013 SCT015CB",
          "offset_h": 8,
          "wdir": 230,
          "wspd": 15
        }
      ],
      "metar_raw": "METAR VVTS 062230Z 21006KT 170V230 9999 SCT012 28/27 Q1010 NOSIG",
      "metar_wdir": 210,
      "metar_wspd": 6,
      "metar_oat": 28,
      "metar_qnh": 1010,
      "hourly_oat": [
        26,
        26,
        27,
        28,
        29,
        30,
        30,
        31,
        31,
        30,
        29,
        29,
        28,
        28,
        27,
        27,
        27,
        26,
        26,
        26,
        26,
        25,
        25,
        25,
        25
      ]
    },
    "KUL": {
      "icao": "WMKK",
      "issued": "2026-07-06T17:00:00.000Z",
      "raw": "TAF WMKK 061700Z 0618/0800 VRB03KT 9999 FEW030 PROB30 TEMPO 0621/0700 6000 -TSRA FEW010 FEW017CB",
      "groups": [
        {
          "text": "TAF WMKK 061700Z 0618/0800 VRB03KT 9999 FEW030",
          "offset_h": -4,
          "wdir": "VRB",
          "wspd": 3
        },
        {
          "text": "PROB30",
          "offset_h": 0,
          "wdir": null,
          "wspd": null
        },
        {
          "text": "TEMPO 0621/0700 6000 -TSRA FEW010 FEW017CB",
          "offset_h": -1,
          "wdir": null,
          "wspd": null
        }
      ],
      "metar_raw": "METAR WMKK 062230Z VRB03KT 9999 FEW030 27/25 Q1010 NOSIG",
      "metar_wdir": "VRB",
      "metar_wspd": 3,
      "metar_oat": 27,
      "metar_qnh": 1010,
      "hourly_oat": [
        25,
        25,
        25,
        25,
        27,
        28,
        30,
        28,
        27,
        29,
        30,
        29,
        29,
        28,
        27,
        27,
        26,
        26,
        26,
        25,
        25,
        24,
        24,
        23,
        23
      ]
    },
    "SIN": {
      "icao": "WSSS",
      "issued": "2026-07-06T17:00:00.000Z",
      "raw": "TAF WSSS 061700Z 0618/0800 18006KT 9999 FEW015 SCT020",
      "groups": [
        {
          "text": "TAF WSSS 061700Z 0618/0800 18006KT 9999 FEW015 SCT020",
          "offset_h": -4,
          "wdir": 180,
          "wspd": 6
        }
      ],
      "metar_raw": "METAR WSSS 062230Z 18003KT 9999 FEW018TCU BKN300 27/24 Q1011 NOSIG",
      "metar_wdir": 180,
      "metar_wspd": 3,
      "metar_oat": 27,
      "metar_qnh": 1011,
      "hourly_oat": [
        27,
        27,
        28,
        29,
        29,
        30,
        30,
        31,
        31,
        30,
        29,
        29,
        29,
        28,
        27,
        27,
        27,
        27,
        27,
        27,
        28,
        28,
        28,
        28,
        28
      ]
    },
    "CGK": {
      "icao": "WIII",
      "issued": "2026-07-06T17:00:00.000Z",
      "raw": "TAF WIII 061700Z 0618/0800 13005KT 7000 FEW020 BECMG 0620/0622 4000 HZ BECMG 0701/0703 04012KT 8000 NSW",
      "groups": [
        {
          "text": "TAF WIII 061700Z 0618/0800 13005KT 7000 FEW020",
          "offset_h": -4,
          "wdir": 130,
          "wspd": 5
        },
        {
          "text": "BECMG 0620/0622 4000 HZ",
          "offset_h": -2,
          "wdir": null,
          "wspd": null
        },
        {
          "text": "BECMG 0701/0703 04012KT 8000 NSW",
          "offset_h": 3,
          "wdir": 40,
          "wspd": 12
        }
      ],
      "metar_raw": "METAR WIII 062230Z VRB01KT 2100 BR FEW020 25/24 Q1012 NOSIG",
      "metar_wdir": "VRB",
      "metar_wspd": 1,
      "metar_oat": 25,
      "metar_qnh": 1012,
      "hourly_oat": [
        24,
        24,
        25,
        27,
        30,
        31,
        32,
        33,
        34,
        33,
        32,
        31,
        30,
        29,
        28,
        28,
        28,
        28,
        27,
        27,
        26,
        26,
        25,
        25,
        25
      ]
    },
    "TPE": {
      "icao": "RCTP",
      "issued": "2026-07-06T17:00:00.000Z",
      "raw": "TAF RCTP 061700Z 0618/0724 22005KT 9999 FEW012 BECMG 0700/0702 24012KT TEMPO 0706/0710 30015KT SCT010 FEW012CB BKN020 BKN040 BECMG 0711/0713 22005KT",
      "groups": [
        {
          "text": "TAF RCTP 061700Z 0618/0724 22005KT 9999 FEW012",
          "offset_h": -4,
          "wdir": 220,
          "wspd": 5
        },
        {
          "text": "BECMG 0700/0702 24012KT",
          "offset_h": 2,
          "wdir": 240,
          "wspd": 12
        },
        {
          "text": "TEMPO 0706/0710 30015KT SCT010 FEW012CB BKN020 BKN040",
          "offset_h": 8,
          "wdir": 300,
          "wspd": 15
        },
        {
          "text": "BECMG 0711/0713 22005KT",
          "offset_h": 13,
          "wdir": 220,
          "wspd": 5
        }
      ],
      "metar_raw": "METAR RCTP 062230Z 23011KT 9999 FEW020 SCT045 BKN180 28/25 Q1010 NOSIG RMK A2983",
      "metar_wdir": 230,
      "metar_wspd": 11,
      "metar_oat": 28,
      "metar_qnh": 1010,
      "hourly_oat": [
        27,
        28,
        29,
        30,
        32,
        31,
        31,
        31,
        31,
        31,
        30,
        30,
        29,
        28,
        28,
        28,
        27,
        27,
        26,
        26,
        26,
        26,
        26,
        26,
        26
      ]
    },
    "TSA": {
      "icao": "RCSS",
      "issued": "2026-07-06T17:00:00.000Z",
      "raw": "TAF RCSS 061700Z 0618/0718 30005KT 9999 FEW012 TEMPO 0706/0710 08008KT 4000 SHRA SCT010 FEW012CB BKN020 BKN040 BECMG 0711/0713 09005KT",
      "groups": [
        {
          "text": "TAF RCSS 061700Z 0618/0718 30005KT 9999 FEW012",
          "offset_h": -4,
          "wdir": 300,
          "wspd": 5
        },
        {
          "text": "TEMPO 0706/0710 08008KT 4000 SHRA SCT010 FEW012CB BKN020 BKN040",
          "offset_h": 8,
          "wdir": 80,
          "wspd": 8
        },
        {
          "text": "BECMG 0711/0713 09005KT",
          "offset_h": 13,
          "wdir": 90,
          "wspd": 5
        }
      ],
      "metar_raw": "METAR RCSS 062230Z VRB02KT 9999 FEW020 SCT030 BKN045 30/27 Q1010 NOSIG RMK A2984",
      "metar_wdir": "VRB",
      "metar_wspd": 2,
      "metar_oat": 30,
      "metar_qnh": 1010,
      "hourly_oat": [
        26,
        28,
        29,
        31,
        32,
        33,
        33,
        32,
        32,
        32,
        32,
        32,
        31,
        30,
        29,
        29,
        28,
        28,
        27,
        27,
        26,
        26,
        26,
        26,
        26
      ]
    }
  }
}