{
  "updated": "2026-06-21T17:17:48Z",
  "tafs": {
    "GMP": {
      "icao": "RKSS",
      "issued": "2026-06-21T17:00:00.000Z",
      "raw": "TAF RKSS 211700Z 2118/2224 06005KT CAVOK TN21/2119Z TX29/2205Z TN20/2220Z BECMG 2201/2203 27007KT 9999 BKN035 TEMPO 2206/2208 6000 -SHRA FEW008CB BKN025 OVC070 BECMG 2210/2212 16005KT",
      "groups": [
        {
          "text": "TAF RKSS 211700Z 2118/2224 06005KT CAVOK TN21/2119Z TX29/2205Z TN20/2220Z",
          "offset_h": 1,
          "wdir": 60,
          "wspd": 5
        },
        {
          "text": "BECMG 2201/2203 27007KT 9999 BKN035",
          "offset_h": 8,
          "wdir": 270,
          "wspd": 7
        },
        {
          "text": "TEMPO 2206/2208 6000 -SHRA FEW008CB BKN025 OVC070",
          "offset_h": 13,
          "wdir": null,
          "wspd": null
        },
        {
          "text": "BECMG 2210/2212 16005KT",
          "offset_h": 17,
          "wdir": 160,
          "wspd": 5
        }
      ],
      "metar_raw": "METAR RKSS 211700Z 34001KT CAVOK 22/22 Q1009 NOSIG",
      "metar_wdir": 340,
      "metar_wspd": 1,
      "metar_oat": 22,
      "metar_qnh": 1009,
      "hourly_oat": [
        20,
        20,
        20,
        20,
        20,
        20,
        22,
        23,
        24,
        25,
        27,
        27,
        27,
        27,
        27,
        25,
        25,
        24,
        22,
        22,
        21,
        20,
        20,
        20,
        19
      ]
    },
    "HKG": {
      "icao": "VHHH",
      "issued": "2026-06-21T17:00:00.000Z",
      "raw": "TAF VHHH 211700Z 2118/2224 22010KT 9999 FEW015 TX34/2206Z TN28/2122Z TN29/2222Z TEMPO 2118/2121 16010KT",
      "groups": [
        {
          "text": "TAF VHHH 211700Z 2118/2224 22010KT 9999 FEW015 TX34/2206Z TN28/2122Z TN29/2222Z",
          "offset_h": 1,
          "wdir": 220,
          "wspd": 10
        },
        {
          "text": "TEMPO 2118/2121 16010KT",
          "offset_h": 1,
          "wdir": 160,
          "wspd": 10
        }
      ],
      "metar_raw": "METAR VHHH 211700Z 19006KT 9999 FEW012 30/25 Q1008 NOSIG",
      "metar_wdir": 190,
      "metar_wspd": 6,
      "metar_oat": 30,
      "metar_qnh": 1008,
      "hourly_oat": [
        28,
        28,
        28,
        28,
        28,
        28,
        28,
        29,
        29,
        30,
        30,
        30,
        30,
        30,
        30,
        30,
        30,
        29,
        29,
        29,
        29,
        29,
        28,
        28,
        28
      ]
    },
    "TPE": {
      "icao": "RCTP",
      "issued": "2026-06-21T17:00:00.000Z",
      "raw": "TAF RCTP 211700Z 2118/2224 21005KT 9999 FEW020 TEMPO 2118/2124 FEW010 BKN016 BECMG 2200/2202 25010KT TEMPO 2203/2209 28015KT BECMG 2210/2212 21005KT TEMPO 2218/2224 FEW010 BKN016",
      "groups": [
        {
          "text": "TAF RCTP 211700Z 2118/2224 21005KT 9999 FEW020",
          "offset_h": 1,
          "wdir": 210,
          "wspd": 5
        },
        {
          "text": "TEMPO 2118/2124 FEW010 BKN016",
          "offset_h": 1,
          "wdir": null,
          "wspd": null
        },
        {
          "text": "BECMG 2200/2202 25010KT",
          "offset_h": 7,
          "wdir": 250,
          "wspd": 10
        },
        {
          "text": "TEMPO 2203/2209 28015KT",
          "offset_h": 10,
          "wdir": 280,
          "wspd": 15
        },
        {
          "text": "BECMG 2210/2212 21005KT",
          "offset_h": 17,
          "wdir": 210,
          "wspd": 5
        },
        {
          "text": "TEMPO 2218/2224 FEW010 BKN016",
          "offset_h": 25,
          "wdir": null,
          "wspd": null
        }
      ],
      "metar_raw": "METAR RCTP 211700Z VRB01KT 9999 FEW020 27/25 Q1007 NOSIG RMK A2975",
      "metar_wdir": "VRB",
      "metar_wspd": 1,
      "metar_oat": 27,
      "metar_qnh": 1007,
      "hourly_oat": [
        26,
        26,
        25,
        26,
        25,
        25,
        26,
        28,
        29,
        30,
        30,
        30,
        30,
        30,
        30,
        30,
        29,
        29,
        28,
        27,
        27,
        26,
        26,
        26,
        26
      ]
    },
    "TSA": {
      "icao": "RCSS",
      "issued": "2026-06-21T17:00:00.000Z",
      "raw": "TAF RCSS 211700Z 2118/2218 10005KT 9999 FEW020 BECMG 2201/2203 31005KT TEMPO 2203/2209 28010KT BECMG 2210/2212 10005KT",
      "groups": [
        {
          "text": "TAF RCSS 211700Z 2118/2218 10005KT 9999 FEW020",
          "offset_h": 1,
          "wdir": 100,
          "wspd": 5
        },
        {
          "text": "BECMG 2201/2203 31005KT",
          "offset_h": 8,
          "wdir": 310,
          "wspd": 5
        },
        {
          "text": "TEMPO 2203/2209 28010KT",
          "offset_h": 10,
          "wdir": 280,
          "wspd": 10
        },
        {
          "text": "BECMG 2210/2212 10005KT",
          "offset_h": 17,
          "wdir": 100,
          "wspd": 5
        }
      ],
      "metar_raw": "METAR RCSS 211700Z 32002KT 9999 FEW022 27/24 Q1007 NOSIG RMK A2974",
      "metar_wdir": 320,
      "metar_wspd": 2,
      "metar_oat": 27,
      "metar_qnh": 1007,
      "hourly_oat": [
        25,
        25,
        25,
        25,
        25,
        25,
        26,
        28,
        30,
        31,
        33,
        33,
        33,
        33,
        33,
        33,
        31,
        30,
        28,
        28,
        27,
        27,
        26,
        26,
        26
      ]
    },
    "OKA": {
      "icao": "ROAH",
      "issued": "2026-06-21T15:32:00.000Z",
      "raw": "TAF AMD ROAH 211532Z 2115/2218 18005KT 9999 FEW008 SCT012 TEMPO 2118/2200 FEW005 BKN008 TEMPO 2212/2218 FEW005 BKN008",
      "groups": [
        {
          "text": "TAF AMD ROAH 211532Z 2115/2218 18005KT 9999 FEW008 SCT012",
          "offset_h": -2,
          "wdir": 180,
          "wspd": 5
        },
        {
          "text": "TEMPO 2118/2200 FEW005 BKN008",
          "offset_h": 1,
          "wdir": null,
          "wspd": null
        },
        {
          "text": "TEMPO 2212/2218 FEW005 BKN008",
          "offset_h": 19,
          "wdir": null,
          "wspd": null
        }
      ],
      "metar_raw": "METAR ROAH 211700Z AUTO 22003KT 9999 NCD 26/25 Q1009",
      "metar_wdir": 220,
      "metar_wspd": 3,
      "metar_oat": 26,
      "metar_qnh": 1009,
      "hourly_oat": [
        25,
        25,
        25,
        25,
        25,
        26,
        27,
        28,
        29,
        29,
        30,
        29,
        30,
        30,
        29,
        29,
        28,
        28,
        27,
        27,
        27,
        27,
        27,
        27,
        27
      ]
    },
    "DLC": {
      "icao": "ZYTL",
      "issued": "2026-06-21T15:08:00.000Z",
      "raw": "TAF ZYTL 211508Z 2118/2218 29004MPS 5000 BR FEW040 TX26/2206Z TN18/2121Z",
      "groups": [
        {
          "text": "TAF ZYTL 211508Z 2118/2218 29004MPS 5000 BR FEW040 TX26/2206Z TN18/2121Z",
          "offset_h": 1,
          "wdir": null,
          "wspd": null
        }
      ],
      "metar_raw": "METAR ZYTL 211700Z 27002MPS CAVOK 18/14 Q1010 NOSIG",
      "metar_wdir": null,
      "metar_wspd": null,
      "metar_oat": 18,
      "metar_qnh": 1010,
      "hourly_oat": [
        20,
        20,
        20,
        19,
        19,
        20,
        24,
        26,
        28,
        29,
        29,
        30,
        30,
        29,
        29,
        28,
        27,
        26,
        25,
        24,
        22,
        21,
        20,
        20,
        20
      ]
    },
    "PVG": {
      "icao": "ZSPD",
      "issued": "2026-06-21T15:08:00.000Z",
      "raw": "TAF ZSPD 211508Z 2118/2224 12004MPS 6000 BKN011 TX25/2206Z TN21/2121Z TN22/2221Z BECMG 2201/2202 06005MPS TEMPO 2201/2205 TSRA SCT030CB TEMPO 2207/2211 -TSRA SCT030CB",
      "groups": [
        {
          "text": "TAF ZSPD 211508Z 2118/2224 12004MPS 6000 BKN011 TX25/2206Z TN21/2121Z TN22/2221Z",
          "offset_h": 1,
          "wdir": null,
          "wspd": null
        },
        {
          "text": "BECMG 2201/2202 06005MPS",
          "offset_h": 8,
          "wdir": null,
          "wspd": null
        },
        {
          "text": "TEMPO 2201/2205 TSRA SCT030CB",
          "offset_h": 8,
          "wdir": null,
          "wspd": null
        },
        {
          "text": "TEMPO 2207/2211 -TSRA SCT030CB",
          "offset_h": 14,
          "wdir": null,
          "wspd": null
        }
      ],
      "metar_raw": "METAR ZSPD 211700Z 11005MPS 100V160 9999 SCT013 OVC033 24/22 Q1008 NOSIG",
      "metar_wdir": null,
      "metar_wspd": null,
      "metar_oat": 24,
      "metar_qnh": 1008,
      "hourly_oat": [
        22,
        22,
        22,
        22,
        23,
        23,
        24,
        24,
        24,
        25,
        24,
        24,
        24,
        24,
        23,
        23,
        24,
        25,
        24,
        24,
        24,
        23,
        23,
        23,
        23
      ]
    },
    "SHA": {
      "icao": "ZSSS",
      "issued": "2026-06-21T15:07:00.000Z",
      "raw": "TAF ZSSS 211507Z 2118/2224 12004MPS 6000 BKN015 TX26/2206Z TN22/2121Z TN23/2221Z TEMPO 2200/2204 TSRA BKN008 SCT030CB BECMG 2201/2202 06004MPS TEMPO 2206/2210 -TSRA BKN008 SCT030CB",
      "groups": [
        {
          "text": "TAF ZSSS 211507Z 2118/2224 12004MPS 6000 BKN015 TX26/2206Z TN22/2121Z TN23/2221Z",
          "offset_h": 1,
          "wdir": null,
          "wspd": null
        },
        {
          "text": "TEMPO 2200/2204 TSRA BKN008 SCT030CB",
          "offset_h": 7,
          "wdir": null,
          "wspd": null
        },
        {
          "text": "BECMG 2201/2202 06004MPS",
          "offset_h": 8,
          "wdir": null,
          "wspd": null
        },
        {
          "text": "TEMPO 2206/2210 -TSRA BKN008 SCT030CB",
          "offset_h": 13,
          "wdir": null,
          "wspd": null
        }
      ],
      "metar_raw": "METAR ZSSS 211700Z 12004MPS 100V160 9999 -RA SCT015 23/21 Q1007 NOSIG",
      "metar_wdir": null,
      "metar_wspd": null,
      "metar_oat": 23,
      "metar_qnh": 1007,
      "hourly_oat": [
        23,
        22,
        22,
        22,
        22,
        23,
        23,
        24,
        25,
        26,
        26,
        26,
        26,
        24,
        24,
        25,
        26,
        26,
        25,
        24,
        23,
        23,
        23,
        23,
        23
      ]
    },
    "LAX": {
      "icao": "KLAX",
      "issued": "2026-06-21T15:07:00.000Z",
      "raw": "TAF KLAX 211507Z 2115/2218 25005KT P6SM SCT015 TEMPO 2115/2118 VRB05KT BKN015 FM211900 26012KT P6SM SKC FM220500 VRB03KT P6SM SKC FM220900 VRB03KT P6SM OVC010 FM221700 25006KT P6SM SCT012",
      "groups": [
        {
          "text": "TAF KLAX 211507Z 2115/2218 25005KT P6SM SCT015",
          "offset_h": -2,
          "wdir": 250,
          "wspd": 5
        },
        {
          "text": "TEMPO 2115/2118 VRB05KT BKN015",
          "offset_h": -2,
          "wdir": "VRB",
          "wspd": 5
        },
        {
          "text": "FM211900 26012KT P6SM SKC",
          "offset_h": 2,
          "wdir": 260,
          "wspd": 12
        },
        {
          "text": "FM220500 VRB03KT P6SM SKC",
          "offset_h": 12,
          "wdir": "VRB",
          "wspd": 3
        },
        {
          "text": "FM220900 VRB03KT P6SM OVC010",
          "offset_h": 16,
          "wdir": "VRB",
          "wspd": 3
        },
        {
          "text": "FM221700 25006KT P6SM SCT012",
          "offset_h": 24,
          "wdir": 250,
          "wspd": 6
        }
      ],
      "metar_raw": "METAR KLAX 211653Z 19006KT 10SM FEW006 BKN017 BKN022 19/13 A2993 RMK AO2 SLP135 FU FEW006 T01890133",
      "metar_wdir": 190,
      "metar_wspd": 6,
      "metar_oat": 19,
      "metar_qnh": 1014,
      "hourly_oat": [
        19,
        20,
        20,
        22,
        21,
        21,
        20,
        20,
        19,
        18,
        17,
        17,
        16,
        16,
        16,
        16,
        16,
        16,
        16,
        16,
        16,
        16,
        16,
        17,
        19
      ]
    },
    "PEK": {
      "icao": "ZBAA",
      "issued": "2026-06-21T15:02:00.000Z",
      "raw": "TAF ZBAA 211502Z 2118/2224 16004MPS CAVOK TX32/2206Z TN17/2121Z TN18/2221Z BECMG 2208/2209 -TSRA FEW040CB BKN040 BECMG 2210/2211 NSW NSC TEMPO 2212/2216 2800 -SHRA FEW040CB BKN040",
      "groups": [
        {
          "text": "TAF ZBAA 211502Z 2118/2224 16004MPS CAVOK TX32/2206Z TN17/2121Z TN18/2221Z",
          "offset_h": 1,
          "wdir": null,
          "wspd": null
        },
        {
          "text": "BECMG 2208/2209 -TSRA FEW040CB BKN040",
          "offset_h": 15,
          "wdir": null,
          "wspd": null
        },
        {
          "text": "BECMG 2210/2211 NSW NSC",
          "offset_h": 17,
          "wdir": null,
          "wspd": null
        },
        {
          "text": "TEMPO 2212/2216 2800 -SHRA FEW040CB BKN040",
          "offset_h": 19,
          "wdir": null,
          "wspd": null
        }
      ],
      "metar_raw": "METAR ZBAA 211700Z 15002MPS CAVOK 20/14 Q1008 NOSIG",
      "metar_wdir": null,
      "metar_wspd": null,
      "metar_oat": 20,
      "metar_qnh": 1008,
      "hourly_oat": [
        20,
        19,
        18,
        18,
        17,
        18,
        20,
        22,
        23,
        25,
        26,
        28,
        30,
        30,
        31,
        31,
        30,
        28,
        26,
        25,
        23,
        22,
        21,
        20,
        19
      ]
    },
    "CAN": {
      "icao": "ZGGG",
      "issued": "2026-06-21T15:01:00.000Z",
      "raw": "TAF ZGGG 211501Z 2118/2224 19004MPS 8000 SCT040 TX37/2207Z TN28/2122Z TN29/2222Z",
      "groups": [
        {
          "text": "TAF ZGGG 211501Z 2118/2224 19004MPS 8000 SCT040 TX37/2207Z TN28/2122Z TN29/2222Z",
          "offset_h": 1,
          "wdir": null,
          "wspd": null
        }
      ],
      "metar_raw": "METAR ZGGG 211700Z 15002MPS 120V180 9999 SCT026 29/25 Q1008 NOSIG",
      "metar_wdir": null,
      "metar_wspd": null,
      "metar_oat": 29,
      "metar_qnh": 1008,
      "hourly_oat": [
        27,
        26,
        26,
        26,
        26,
        26,
        27,
        28,
        30,
        31,
        32,
        33,
        34,
        34,
        35,
        34,
        34,
        33,
        31,
        30,
        29,
        28,
        28,
        27,
        27
      ]
    },
    "SAN": {
      "icao": "KSAN",
      "issued": "2026-06-21T14:42:00.000Z",
      "raw": "TAF KSAN 211442Z 2115/2218 VRB04KT P6SM BKN025 FM211800 30011KT P6SM FEW026 FM220300 VRB04KT P6SM BKN018",
      "groups": [
        {
          "text": "TAF KSAN 211442Z 2115/2218 VRB04KT P6SM BKN025",
          "offset_h": -2,
          "wdir": "VRB",
          "wspd": 4
        },
        {
          "text": "FM211800 30011KT P6SM FEW026",
          "offset_h": 1,
          "wdir": 300,
          "wspd": 11
        },
        {
          "text": "FM220300 VRB04KT P6SM BKN018",
          "offset_h": 10,
          "wdir": "VRB",
          "wspd": 4
        }
      ],
      "metar_raw": "METAR KSAN 211651Z 31004KT 10SM OVC029 20/13 A2995 RMK AO2 SLP141 T02000128 $",
      "metar_wdir": 310,
      "metar_wspd": 4,
      "metar_oat": 20,
      "metar_qnh": 1014,
      "hourly_oat": [
        20,
        20,
        21,
        22,
        22,
        22,
        22,
        21,
        20,
        19,
        18,
        18,
        18,
        18,
        18,
        18,
        17,
        17,
        17,
        17,
        17,
        17,
        18,
        18,
        18
      ]
    },
    "HNL": {
      "icao": "PHNL",
      "issued": "2026-06-21T14:35:00.000Z",
      "raw": "TAF PHNL 211435Z 2115/2218 01003KT P6SM FEW025 FM212000 06012G20KT P6SM FEW035 SCT050 FM220600 05006KT P6SM FEW020",
      "groups": [
        {
          "text": "TAF PHNL 211435Z 2115/2218 01003KT P6SM FEW025",
          "offset_h": -2,
          "wdir": 10,
          "wspd": 3
        },
        {
          "text": "FM212000 06012G20KT P6SM FEW035 SCT050",
          "offset_h": 3,
          "wdir": 60,
          "wspd": 12
        },
        {
          "text": "FM220600 05006KT P6SM FEW020",
          "offset_h": 13,
          "wdir": 50,
          "wspd": 6
        }
      ],
      "metar_raw": "METAR PHNL 211653Z 32004KT 10SM FEW022 FEW033 25/21 A3003 RMK AO2 SLP168 T02500211 $",
      "metar_wdir": 320,
      "metar_wspd": 4,
      "metar_oat": 25,
      "metar_qnh": 1017,
      "hourly_oat": [
        25,
        26,
        28,
        29,
        30,
        30,
        30,
        30,
        30,
        29,
        28,
        27,
        25,
        24,
        24,
        24,
        24,
        24,
        23,
        23,
        23,
        23,
        22,
        22,
        24
      ]
    },
    "KIX": {
      "icao": "RJBB",
      "issued": "2026-06-21T11:05:00.000Z",
      "raw": "TAF RJBB 211105Z 2112/2218 28014KT 9999 FEW020 BKN040 BECMG 2203/2206 35010KT",
      "groups": [
        {
          "text": "TAF RJBB 211105Z 2112/2218 28014KT 9999 FEW020 BKN040",
          "offset_h": -5,
          "wdir": 280,
          "wspd": 14
        },
        {
          "text": "BECMG 2203/2206 35010KT",
          "offset_h": 10,
          "wdir": 350,
          "wspd": 10
        }
      ],
      "metar_raw": "METAR RJBB 211700Z AUTO 30013KT 9999 FEW050 22/19 Q1006 NOSIG",
      "metar_wdir": 300,
      "metar_wspd": 13,
      "metar_oat": 22,
      "metar_qnh": 1006,
      "hourly_oat": [
        23,
        23,
        22,
        22,
        22,
        22,
        22,
        23,
        23,
        23,
        23,
        24,
        23,
        23,
        24,
        24,
        23,
        23,
        23,
        23,
        23,
        23,
        22,
        22,
        22
      ]
    },
    "NRT": {
      "icao": "RJAA",
      "issued": "2026-06-21T11:05:00.000Z",
      "raw": "TAF RJAA 211105Z 2112/2218 02010KT 9999 FEW015 BKN030 TEMPO 2117/2121 4000 BR FEW001 BKN005 TEMPO 2121/2200 FEW003 BKN008 TEMPO 2212/2215 FEW003 BKN008 TEMPO 2215/2218 FEW001 BKN005",
      "groups": [
        {
          "text": "TAF RJAA 211105Z 2112/2218 02010KT 9999 FEW015 BKN030",
          "offset_h": -5,
          "wdir": 20,
          "wspd": 10
        },
        {
          "text": "TEMPO 2117/2121 4000 BR FEW001 BKN005",
          "offset_h": 0,
          "wdir": null,
          "wspd": null
        },
        {
          "text": "TEMPO 2121/2200 FEW003 BKN008",
          "offset_h": 4,
          "wdir": null,
          "wspd": null
        },
        {
          "text": "TEMPO 2212/2215 FEW003 BKN008",
          "offset_h": 19,
          "wdir": null,
          "wspd": null
        },
        {
          "text": "TEMPO 2215/2218 FEW001 BKN005",
          "offset_h": 22,
          "wdir": null,
          "wspd": null
        }
      ],
      "metar_raw": "METAR RJAA 211700Z AUTO 33004KT 9999 OVC017 20/18 Q0999 TEMPO FEW008 BKN012",
      "metar_wdir": 330,
      "metar_wspd": 4,
      "metar_oat": 20,
      "metar_qnh": 999,
      "hourly_oat": [
        21,
        20,
        20,
        20,
        20,
        20,
        21,
        22,
        23,
        24,
        26,
        26,
        26,
        24,
        23,
        23,
        22,
        22,
        21,
        20,
        20,
        19,
        19,
        18,
        18
      ]
    },
    "CTS": {
      "icao": "RJCC",
      "issued": "2026-06-21T11:05:00.000Z",
      "raw": "TAF RJCC 211105Z 2112/2218 23006KT 9999 FEW012 BKN020 BECMG 2114/2116 34004KT BECMG 2122/2200 19010KT TEMPO 2206/2212 FEW004 BKN006 TEMPO 2212/2218 4000 -SHRA BR FEW003 BKN005",
      "groups": [
        {
          "text": "TAF RJCC 211105Z 2112/2218 23006KT 9999 FEW012 BKN020",
          "offset_h": -5,
          "wdir": 230,
          "wspd": 6
        },
        {
          "text": "BECMG 2114/2116 34004KT",
          "offset_h": -3,
          "wdir": 340,
          "wspd": 4
        },
        {
          "text": "BECMG 2122/2200 19010KT",
          "offset_h": 5,
          "wdir": 190,
          "wspd": 10
        },
        {
          "text": "TEMPO 2206/2212 FEW004 BKN006",
          "offset_h": 13,
          "wdir": null,
          "wspd": null
        },
        {
          "text": "TEMPO 2212/2218 4000 -SHRA BR FEW003 BKN005",
          "offset_h": 19,
          "wdir": null,
          "wspd": null
        }
      ],
      "metar_raw": "METAR RJCC 211700Z 14003KT 080V200 9999 FEW015 BKN100 14/12 Q1008",
      "metar_wdir": 140,
      "metar_wspd": 3,
      "metar_oat": 14,
      "metar_qnh": 1008,
      "hourly_oat": [
        13,
        13,
        13,
        14,
        15,
        17,
        19,
        20,
        20,
        20,
        20,
        19,
        18,
        18,
        17,
        16,
        15,
        15,
        14,
        14,
        13,
        13,
        13,
        13,
        12
      ]
    },
    "FUK": {
      "icao": "RJFF",
      "issued": "2026-06-21T11:05:00.000Z",
      "raw": "TAF RJFF 211105Z 2112/2218 35006KT 9999 FEW030 BECMG 2215/2218 10004KT",
      "groups": [
        {
          "text": "TAF RJFF 211105Z 2112/2218 35006KT 9999 FEW030",
          "offset_h": -5,
          "wdir": 350,
          "wspd": 6
        },
        {
          "text": "BECMG 2215/2218 10004KT",
          "offset_h": 22,
          "wdir": 100,
          "wspd": 4
        }
      ],
      "metar_raw": "METAR RJFF 211700Z AUTO 02003KT 330V070 9999 FEW025 SCT170 BKN180 21/18 Q1009 NOSIG",
      "metar_wdir": 20,
      "metar_wspd": 3,
      "metar_oat": 21,
      "metar_qnh": 1009,
      "hourly_oat": [
        21,
        21,
        21,
        21,
        21,
        21,
        22,
        23,
        24,
        24,
        24,
        24,
        23,
        23,
        22,
        21,
        21,
        21,
        21,
        21,
        20,
        20,
        20,
        20,
        20
      ]
    },
    "NGO": {
      "icao": "RJGG",
      "issued": "2026-06-21T11:05:00.000Z",
      "raw": "TAF RJGG 211105Z 2112/2218 29012KT 9999 FEW020 BKN030 BECMG 2200/2203 31024KT",
      "groups": [
        {
          "text": "TAF RJGG 211105Z 2112/2218 29012KT 9999 FEW020 BKN030",
          "offset_h": -5,
          "wdir": 290,
          "wspd": 12
        },
        {
          "text": "BECMG 2200/2203 31024KT",
          "offset_h": 7,
          "wdir": 310,
          "wspd": 24
        }
      ],
      "metar_raw": "METAR RJGG 211700Z AUTO 30012KT 9999 FEW032 24/20 Q1002 NOSIG",
      "metar_wdir": 300,
      "metar_wspd": 12,
      "metar_oat": 24,
      "metar_qnh": 1002,
      "hourly_oat": [
        24,
        24,
        23,
        23,
        23,
        23,
        24,
        24,
        24,
        24,
        25,
        24,
        24,
        24,
        24,
        24,
        24,
        23,
        23,
        23,
        23,
        23,
        23,
        22,
        22
      ]
    },
    "ITM": {
      "icao": "RJOO",
      "issued": "2026-06-21T11:05:00.000Z",
      "raw": "TAF RJOO 211105Z 2112/2218 32010KT 9999 FEW015 SCT020",
      "groups": [
        {
          "text": "TAF RJOO 211105Z 2112/2218 32010KT 9999 FEW015 SCT020",
          "offset_h": -5,
          "wdir": 320,
          "wspd": 10
        }
      ],
      "metar_raw": "METAR RJOO 211700Z AUTO 35006KT 9999 FEW018 SCT045 21/19 Q1005",
      "metar_wdir": 350,
      "metar_wspd": 6,
      "metar_oat": 21,
      "metar_qnh": 1005,
      "hourly_oat": [
        22,
        22,
        22,
        22,
        22,
        23,
        24,
        25,
        25,
        25,
        24,
        24,
        24,
        24,
        24,
        24,
        23,
        23,
        22,
        22,
        22,
        21,
        21,
        20,
        20
      ]
    },
    "HND": {
      "icao": "RJTT",
      "issued": "2026-06-21T11:05:00.000Z",
      "raw": "TAF RJTT 211105Z 2112/2218 08006KT 9999 FEW010 BKN020 BECMG 2113/2115 35008KT BECMG 2200/2203 12006KT BECMG 2203/2206 18010KT BECMG 2212/2215 10006KT",
      "groups": [
        {
          "text": "TAF RJTT 211105Z 2112/2218 08006KT 9999 FEW010 BKN020",
          "offset_h": -5,
          "wdir": 80,
          "wspd": 6
        },
        {
          "text": "BECMG 2113/2115 35008KT",
          "offset_h": -4,
          "wdir": 350,
          "wspd": 8
        },
        {
          "text": "BECMG 2200/2203 12006KT",
          "offset_h": 7,
          "wdir": 120,
          "wspd": 6
        },
        {
          "text": "BECMG 2203/2206 18010KT",
          "offset_h": 10,
          "wdir": 180,
          "wspd": 10
        },
        {
          "text": "BECMG 2212/2215 10006KT",
          "offset_h": 19,
          "wdir": 100,
          "wspd": 6
        }
      ],
      "metar_raw": "METAR RJTT 211700Z 34010KT 9999 FEW020 BKN040 22/18 Q0999 NOSIG",
      "metar_wdir": 340,
      "metar_wspd": 10,
      "metar_oat": 22,
      "metar_qnh": 999,
      "hourly_oat": [
        22,
        21,
        21,
        21,
        21,
        22,
        22,
        23,
        24,
        24,
        25,
        25,
        25,
        25,
        25,
        24,
        24,
        24,
        23,
        23,
        22,
        22,
        22,
        21,
        21
      ]
    },
    "SGN": {
      "icao": "VVTS",
      "issued": "2026-06-21T11:00:00.000Z",
      "raw": "TAF VVTS 211100Z 2112/2218 25008KT 9999 SCT017 TEMPO 2112/2114 5000 TSRA SCT015 FEW017CB TEMPO 2210/2213 26016G30KT 1500 +TSRA BKN013 SCT015CB",
      "groups": [
        {
          "text": "TAF VVTS 211100Z 2112/2218 25008KT 9999 SCT017",
          "offset_h": -5,
          "wdir": 250,
          "wspd": 8
        },
        {
          "text": "TEMPO 2112/2114 5000 TSRA SCT015 FEW017CB",
          "offset_h": -5,
          "wdir": null,
          "wspd": null
        },
        {
          "text": "TEMPO 2210/2213 26016G30KT 1500 +TSRA BKN013 SCT015CB",
          "offset_h": 17,
          "wdir": 260,
          "wspd": 16
        }
      ],
      "metar_raw": "METAR VVTS 211700Z 23003KT 190V270 CAVOK 29/26 Q1010 NOSIG",
      "metar_wdir": 230,
      "metar_wspd": 3,
      "metar_oat": 29,
      "metar_qnh": 1010,
      "hourly_oat": [
        27,
        27,
        27,
        26,
        26,
        26,
        26,
        27,
        29,
        30,
        32,
        33,
        34,
        34,
        34,
        34,
        34,
        27,
        26,
        26,
        26,
        26,
        26,
        26,
        26
      ]
    },
    "SIN": {
      "icao": "WSSS",
      "issued": "2026-06-21T11:00:00.000Z",
      "raw": "TAF WSSS 211100Z 2112/2218 17006KT 9999 FEW015 SCT020 TEMPO 2203/2206 3000 TSRA FEW012CB BKN015",
      "groups": [
        {
          "text": "TAF WSSS 211100Z 2112/2218 17006KT 9999 FEW015 SCT020",
          "offset_h": -5,
          "wdir": 170,
          "wspd": 6
        },
        {
          "text": "TEMPO 2203/2206 3000 TSRA FEW012CB BKN015",
          "offset_h": 10,
          "wdir": null,
          "wspd": null
        }
      ],
      "metar_raw": "METAR WSSS 211700Z 30003KT 240V340 9999 FEW016 BKN300 27/25 Q1012 NOSIG",
      "metar_wdir": 300,
      "metar_wspd": 3,
      "metar_oat": 27,
      "metar_qnh": 1012,
      "hourly_oat": [
        26,
        26,
        25,
        24,
        24,
        24,
        23,
        24,
        24,
        25,
        26,
        27,
        27,
        28,
        28,
        28,
        28,
        28,
        27,
        27,
        27,
        26,
        26,
        26,
        26
      ]
    },
    "BKK": {
      "icao": "VTBS",
      "issued": "2026-06-21T11:00:00.000Z",
      "raw": "TAF VTBS 211100Z 2112/2218 21008KT 9999 FEW020 TEMPO 2112/2115 VRB15KT 4000 TSRA FEW018CB SCT020 BKN080 TEMPO 2210/2214 VRB15KT 4000 TSRA FEW018CB SCT020 BKN080",
      "groups": [
        {
          "text": "TAF VTBS 211100Z 2112/2218 21008KT 9999 FEW020",
          "offset_h": -5,
          "wdir": 210,
          "wspd": 8
        },
        {
          "text": "TEMPO 2112/2115 VRB15KT 4000 TSRA FEW018CB SCT020 BKN080",
          "offset_h": -5,
          "wdir": "VRB",
          "wspd": 15
        },
        {
          "text": "TEMPO 2210/2214 VRB15KT 4000 TSRA FEW018CB SCT020 BKN080",
          "offset_h": 17,
          "wdir": "VRB",
          "wspd": 15
        }
      ],
      "metar_raw": "METAR VTBS 211700Z 35005KT 9999 FEW020 28/24 Q1011 NOSIG",
      "metar_wdir": 350,
      "metar_wspd": 5,
      "metar_oat": 28,
      "metar_qnh": 1011,
      "hourly_oat": [
        27,
        26,
        26,
        26,
        26,
        26,
        26,
        27,
        29,
        30,
        32,
        33,
        34,
        34,
        34,
        33,
        32,
        32,
        31,
        30,
        29,
        29,
        29,
        29,
        29
      ]
    },
    "KUL": {
      "icao": "WMKK",
      "issued": "2026-06-21T11:00:00.000Z",
      "raw": "TAF WMKK 211100Z 2112/2218 VRB03KT 9999 FEW018 PROB30 TEMPO 2119/2122 5000 TSRA FEW017CB",
      "groups": [
        {
          "text": "TAF WMKK 211100Z 2112/2218 VRB03KT 9999 FEW018",
          "offset_h": -5,
          "wdir": "VRB",
          "wspd": 3
        },
        {
          "text": "PROB30",
          "offset_h": 0,
          "wdir": null,
          "wspd": null
        },
        {
          "text": "TEMPO 2119/2122 5000 TSRA FEW017CB",
          "offset_h": 2,
          "wdir": null,
          "wspd": null
        }
      ],
      "metar_raw": "METAR WMKK 211700Z COR 01003KT 290V040 9999 FEW017CB SCT030 28/26 Q1011 NOSIG",
      "metar_wdir": 10,
      "metar_wspd": 3,
      "metar_oat": 28,
      "metar_qnh": 1011,
      "hourly_oat": [
        24,
        23,
        23,
        23,
        23,
        23,
        23,
        24,
        25,
        26,
        28,
        29,
        30,
        30,
        27,
        28,
        27,
        26,
        26,
        25,
        25,
        24,
        24,
        24,
        24
      ]
    },
    "HAN": {
      "icao": "VVNB",
      "issued": "2026-06-21T11:00:00.000Z",
      "raw": "TAF VVNB 211100Z 2112/2212 20006KT 9999 FEW030 TEMPO 2112/2114 22015G25KT 2500 +TSRA BKN012 FEW027CB",
      "groups": [
        {
          "text": "TAF VVNB 211100Z 2112/2212 20006KT 9999 FEW030",
          "offset_h": -5,
          "wdir": 200,
          "wspd": 6
        },
        {
          "text": "TEMPO 2112/2114 22015G25KT 2500 +TSRA BKN012 FEW027CB",
          "offset_h": -5,
          "wdir": 220,
          "wspd": 15
        }
      ],
      "metar_raw": "METAR VVNB 211700Z 08003KT 050V110 9999 -RA NSC 26/25 Q1006 NOSIG",
      "metar_wdir": 80,
      "metar_wspd": 3,
      "metar_oat": 26,
      "metar_qnh": 1006,
      "hourly_oat": [
        29,
        29,
        29,
        28,
        28,
        28,
        28,
        30,
        31,
        33,
        34,
        35,
        36,
        37,
        37,
        37,
        36,
        35,
        34,
        33,
        32,
        31,
        31,
        30,
        30
      ]
    },
    "CGK": {
      "icao": "WIII",
      "issued": "2026-06-21T11:00:00.000Z",
      "raw": "TAF WIII 211100Z 2112/2218 05010KT 8000 SCT020 BECMG 2113/2115 16005KT 5000 HZ BECMG 2201/2203 05011KT 8000 NSW",
      "groups": [
        {
          "text": "TAF WIII 211100Z 2112/2218 05010KT 8000 SCT020",
          "offset_h": -5,
          "wdir": 50,
          "wspd": 10
        },
        {
          "text": "BECMG 2113/2115 16005KT 5000 HZ",
          "offset_h": -4,
          "wdir": 160,
          "wspd": 5
        },
        {
          "text": "BECMG 2201/2203 05011KT 8000 NSW",
          "offset_h": 8,
          "wdir": 50,
          "wspd": 11
        }
      ],
      "metar_raw": "METAR WIII 211700Z 20003KT 170V230 2500 BR SCT020 26/25 Q1012 NOSIG",
      "metar_wdir": 200,
      "metar_wspd": 3,
      "metar_oat": 26,
      "metar_qnh": 1012,
      "hourly_oat": [
        25,
        25,
        25,
        24,
        24,
        24,
        24,
        24,
        26,
        28,
        30,
        31,
        31,
        31,
        31,
        30,
        29,
        28,
        28,
        27,
        27,
        27,
        26,
        26,
        25
      ]
    }
  }
}