{
  "updated": "2026-07-03T17:11:56Z",
  "tafs": {
    "LAX": {
      "icao": "KLAX",
      "issued": "2026-07-03T17:05:00.000Z",
      "raw": "TAF KLAX 031705Z 0317/0418 23003KT P6SM FEW009 SCT019 FM031900 25012KT P6SM FEW015 FM040400 25006KT P6SM SCT015 FM040900 25005KT P6SM BKN012 FM041700 25006KT P6SM SCT015",
      "groups": [
        {
          "text": "TAF KLAX 031705Z 0317/0418 23003KT P6SM FEW009 SCT019",
          "offset_h": 0,
          "wdir": 230,
          "wspd": 3
        },
        {
          "text": "FM031900 25012KT P6SM FEW015",
          "offset_h": 2,
          "wdir": 250,
          "wspd": 12
        },
        {
          "text": "FM040400 25006KT P6SM SCT015",
          "offset_h": 11,
          "wdir": 250,
          "wspd": 6
        },
        {
          "text": "FM040900 25005KT P6SM BKN012",
          "offset_h": 16,
          "wdir": 250,
          "wspd": 5
        },
        {
          "text": "FM041700 25006KT P6SM SCT015",
          "offset_h": 24,
          "wdir": 250,
          "wspd": 6
        }
      ],
      "metar_raw": "SPECI KLAX 031702Z 23003KT 9SM FEW009 SCT019 BKN150 20/14 A3002 RMK AO2 T02000144 $",
      "metar_wdir": 230,
      "metar_wspd": 3,
      "metar_oat": 20,
      "metar_qnh": 1017,
      "hourly_oat": [
        20,
        22,
        22,
        23,
        23,
        22,
        21,
        20,
        19,
        19,
        18,
        17,
        16,
        16,
        16,
        16,
        16,
        16,
        16,
        16,
        16,
        16,
        17,
        19,
        21
      ]
    },
    "GMP": {
      "icao": "RKSS",
      "issued": "2026-07-03T17:00:00.000Z",
      "raw": "TAF RKSS 031700Z 0318/0424 20005KT 6000 FEW010 BKN020 TN23/0320Z TX31/0406Z TN23/0420Z BECMG 0319/0321 4000 BR BECMG 0322/0324 6000 NSW BECMG 0401/0403 27006KT 9999 SCT040 BECMG 0412/0414 13005KT 6000",
      "groups": [
        {
          "text": "TAF RKSS 031700Z 0318/0424 20005KT 6000 FEW010 BKN020 TN23/0320Z TX31/0406Z TN23/0420Z",
          "offset_h": 1,
          "wdir": 200,
          "wspd": 5
        },
        {
          "text": "BECMG 0319/0321 4000 BR",
          "offset_h": 2,
          "wdir": null,
          "wspd": null
        },
        {
          "text": "BECMG 0322/0324 6000 NSW",
          "offset_h": 5,
          "wdir": null,
          "wspd": null
        },
        {
          "text": "BECMG 0401/0403 27006KT 9999 SCT040",
          "offset_h": 8,
          "wdir": 270,
          "wspd": 6
        },
        {
          "text": "BECMG 0412/0414 13005KT 6000",
          "offset_h": 19,
          "wdir": 130,
          "wspd": 5
        }
      ],
      "metar_raw": "METAR RKSS 031700Z 22005KT 6000 FEW015 BKN030 23/23 Q1009 NOSIG",
      "metar_wdir": 220,
      "metar_wspd": 5,
      "metar_oat": 23,
      "metar_qnh": 1009,
      "hourly_oat": [
        22,
        22,
        22,
        22,
        22,
        22,
        23,
        24,
        25,
        26,
        27,
        27,
        27,
        26,
        26,
        25,
        25,
        24,
        24,
        23,
        23,
        22,
        22,
        22,
        21
      ]
    },
    "TSA": {
      "icao": "RCSS",
      "issued": "2026-07-03T17:00:00.000Z",
      "raw": "TAF RCSS 031700Z 0318/0418 09005KT 9999 FEW015 BKN032 TEMPO 0404/0408 28010KT 5000 SHRA FEW010 BKN022 FEW025CB TEMPO 0415/0418 VRB05KT",
      "groups": [
        {
          "text": "TAF RCSS 031700Z 0318/0418 09005KT 9999 FEW015 BKN032",
          "offset_h": 1,
          "wdir": 90,
          "wspd": 5
        },
        {
          "text": "TEMPO 0404/0408 28010KT 5000 SHRA FEW010 BKN022 FEW025CB",
          "offset_h": 11,
          "wdir": 280,
          "wspd": 10
        },
        {
          "text": "TEMPO 0415/0418 VRB05KT",
          "offset_h": 22,
          "wdir": "VRB",
          "wspd": 5
        }
      ],
      "metar_raw": "METAR RCSS 031700Z 28004KT 250V310 9999 FEW020 BKN150 28/27 Q1012 NOSIG RMK A2991",
      "metar_wdir": 280,
      "metar_wspd": 4,
      "metar_oat": 28,
      "metar_qnh": 1012,
      "hourly_oat": [
        27,
        26,
        26,
        26,
        26,
        26,
        28,
        30,
        31,
        33,
        34,
        34,
        32,
        32,
        31,
        31,
        30,
        30,
        29,
        28,
        28,
        28,
        27,
        27,
        27
      ]
    },
    "TPE": {
      "icao": "RCTP",
      "issued": "2026-07-03T17:00:00.000Z",
      "raw": "TAF RCTP 031700Z 0318/0424 20008KT 9999 FEW015 BKN032 TEMPO 0318/0324 16005KT TEMPO 0405/0409 26012KT FEW010 FEW015TCU BKN020",
      "groups": [
        {
          "text": "TAF RCTP 031700Z 0318/0424 20008KT 9999 FEW015 BKN032",
          "offset_h": 1,
          "wdir": 200,
          "wspd": 8
        },
        {
          "text": "TEMPO 0318/0324 16005KT",
          "offset_h": 1,
          "wdir": 160,
          "wspd": 5
        },
        {
          "text": "TEMPO 0405/0409 26012KT FEW010 FEW015TCU BKN020",
          "offset_h": 12,
          "wdir": 260,
          "wspd": 12
        }
      ],
      "metar_raw": "METAR RCTP 031700Z 21007KT 9999 FEW018 SCT150 BKN200 28/25 Q1012 NOSIG RMK A2991",
      "metar_wdir": 210,
      "metar_wspd": 7,
      "metar_oat": 28,
      "metar_qnh": 1012,
      "hourly_oat": [
        26,
        26,
        26,
        26,
        26,
        26,
        28,
        29,
        30,
        31,
        31,
        31,
        31,
        30,
        30,
        30,
        29,
        29,
        28,
        28,
        27,
        27,
        27,
        26,
        26
      ]
    },
    "HKG": {
      "icao": "VHHH",
      "issued": "2026-07-03T17:00:00.000Z",
      "raw": "TAF VHHH 031700Z 0318/0424 12015KT 9999 FEW010 SCT025 TX30/0406Z TN26/0322Z TN27/0422Z TEMPO 0318/0321 13020G35KT 1500 TSRA +SHRA FEW008CB SCT015 TEMPO 0321/0324 14020G30KT 1000 +SHRA FEW006CB SCT015 TEMPO 0400/0406 14020G30KT 1200 TSRA +SHRA FEW008CB SCT015 TEMPO 0406/0412 16015G25KT 2500 SHRA FEW010CB SCT020 TEMPO 0412/0418 3000 SHRA FEW010CB SCT020 TEMPO 0421/0424 3000 SHRA FEW010CB SCT020",
      "groups": [
        {
          "text": "TAF VHHH 031700Z 0318/0424 12015KT 9999 FEW010 SCT025 TX30/0406Z TN26/0322Z TN27/0422Z",
          "offset_h": 1,
          "wdir": 120,
          "wspd": 15
        },
        {
          "text": "TEMPO 0318/0321 13020G35KT 1500 TSRA +SHRA FEW008CB SCT015",
          "offset_h": 1,
          "wdir": 130,
          "wspd": 20
        },
        {
          "text": "TEMPO 0321/0324 14020G30KT 1000 +SHRA FEW006CB SCT015",
          "offset_h": 4,
          "wdir": 140,
          "wspd": 20
        },
        {
          "text": "TEMPO 0400/0406 14020G30KT 1200 TSRA +SHRA FEW008CB SCT015",
          "offset_h": 7,
          "wdir": 140,
          "wspd": 20
        },
        {
          "text": "TEMPO 0406/0412 16015G25KT 2500 SHRA FEW010CB SCT020",
          "offset_h": 13,
          "wdir": 160,
          "wspd": 15
        },
        {
          "text": "TEMPO 0412/0418 3000 SHRA FEW010CB SCT020",
          "offset_h": 19,
          "wdir": null,
          "wspd": null
        },
        {
          "text": "TEMPO 0421/0424 3000 SHRA FEW010CB SCT020",
          "offset_h": 28,
          "wdir": null,
          "wspd": null
        }
      ],
      "metar_raw": "METAR VHHH 031700Z 12010KT 090V160 9999 FEW010 SCT025 29/25 Q1009 TEMPO 13020G30KT 3000 SHRA FEW010CB SCT020",
      "metar_wdir": 120,
      "metar_wspd": 10,
      "metar_oat": 29,
      "metar_qnh": 1009,
      "hourly_oat": [
        25,
        27,
        27,
        27,
        27,
        26,
        26,
        27,
        26,
        27,
        27,
        28,
        28,
        28,
        27,
        28,
        28,
        28,
        28,
        28,
        28,
        28,
        27,
        27,
        26
      ]
    },
    "SAN": {
      "icao": "KSAN",
      "issued": "2026-07-03T15:11:00.000Z",
      "raw": "TAF KSAN 031511Z 0315/0418 VRB04KT P6SM SCT020 SCT250 FM031800 29011KT P6SM SCT200 FM040300 VRB05KT P6SM SCT015 FM040600 VRB04KT P6SM BKN012",
      "groups": [
        {
          "text": "TAF KSAN 031511Z 0315/0418 VRB04KT P6SM SCT020 SCT250",
          "offset_h": -2,
          "wdir": "VRB",
          "wspd": 4
        },
        {
          "text": "FM031800 29011KT P6SM SCT200",
          "offset_h": 1,
          "wdir": 290,
          "wspd": 11
        },
        {
          "text": "FM040300 VRB05KT P6SM SCT015",
          "offset_h": 10,
          "wdir": "VRB",
          "wspd": 5
        },
        {
          "text": "FM040600 VRB04KT P6SM BKN012",
          "offset_h": 13,
          "wdir": "VRB",
          "wspd": 4
        }
      ],
      "metar_raw": "METAR KSAN 031651Z 32008KT 10SM FEW019 BKN250 22/15 A3001 RMK AO2 SLP160 T02170150 $",
      "metar_wdir": 320,
      "metar_wspd": 8,
      "metar_oat": 22,
      "metar_qnh": 1016,
      "hourly_oat": [
        22,
        23,
        24,
        23,
        23,
        23,
        22,
        22,
        21,
        20,
        19,
        18,
        18,
        18,
        18,
        18,
        17,
        17,
        17,
        17,
        17,
        18,
        19,
        20,
        22
      ]
    },
    "PVG": {
      "icao": "ZSPD",
      "issued": "2026-07-03T15:04:00.000Z",
      "raw": "TAF ZSPD 031504Z 0318/0424 19004MPS 6000 BKN020 TX32/0406Z TN22/0321Z TN23/0421Z TEMPO 0406/0410 33008G13MPS 2000 TSRA BKN010 SCT030CB",
      "groups": [
        {
          "text": "TAF ZSPD 031504Z 0318/0424 19004MPS 6000 BKN020 TX32/0406Z TN22/0321Z TN23/0421Z",
          "offset_h": 1,
          "wdir": null,
          "wspd": null
        },
        {
          "text": "TEMPO 0406/0410 33008G13MPS 2000 TSRA BKN010 SCT030CB",
          "offset_h": 13,
          "wdir": null,
          "wspd": null
        }
      ],
      "metar_raw": "METAR ZSPD 031700Z 26003MPS 230V290 CAVOK 26/26 Q1009 NOSIG",
      "metar_wdir": null,
      "metar_wspd": null,
      "metar_oat": 26,
      "metar_qnh": 1009,
      "hourly_oat": [
        26,
        26,
        26,
        25,
        25,
        26,
        26,
        28,
        30,
        32,
        32,
        32,
        28,
        26,
        27,
        27,
        27,
        27,
        27,
        26,
        26,
        25,
        25,
        26,
        26
      ]
    },
    "CAN": {
      "icao": "ZGGG",
      "issued": "2026-07-03T15:04:00.000Z",
      "raw": "TAF ZGGG 031504Z 0318/0424 16004MPS 6000 BKN033 TX30/0407Z TN26/0322Z TN26/0422Z TEMPO 0318/0320 3500 +SHRA FEW030CB BKN033 TEMPO 0322/0403 3500 +SHRA FEW030CB BKN033 TEMPO 0404/0409 2500 +TSRA SCT030CB BKN033 TEMPO 0410/0413 4000 SHRA FEW030CB BKN033 TEMPO 0416/0420 4000 SHRA FEW030CB BKN033",
      "groups": [
        {
          "text": "TAF ZGGG 031504Z 0318/0424 16004MPS 6000 BKN033 TX30/0407Z TN26/0322Z TN26/0422Z",
          "offset_h": 1,
          "wdir": null,
          "wspd": null
        },
        {
          "text": "TEMPO 0318/0320 3500 +SHRA FEW030CB BKN033",
          "offset_h": 1,
          "wdir": null,
          "wspd": null
        },
        {
          "text": "TEMPO 0322/0403 3500 +SHRA FEW030CB BKN033",
          "offset_h": 5,
          "wdir": null,
          "wspd": null
        },
        {
          "text": "TEMPO 0404/0409 2500 +TSRA SCT030CB BKN033",
          "offset_h": 11,
          "wdir": null,
          "wspd": null
        },
        {
          "text": "TEMPO 0410/0413 4000 SHRA FEW030CB BKN033",
          "offset_h": 17,
          "wdir": null,
          "wspd": null
        },
        {
          "text": "TEMPO 0416/0420 4000 SHRA FEW030CB BKN033",
          "offset_h": 23,
          "wdir": null,
          "wspd": null
        }
      ],
      "metar_raw": "METAR ZGGG 031700Z 07002MPS 030V100 CAVOK 27/25 Q1009 NOSIG",
      "metar_wdir": null,
      "metar_wspd": null,
      "metar_oat": 27,
      "metar_qnh": 1009,
      "hourly_oat": [
        26,
        25,
        25,
        25,
        25,
        25,
        25,
        25,
        26,
        26,
        27,
        27,
        29,
        27,
        28,
        27,
        27,
        27,
        27,
        26,
        26,
        26,
        26,
        25,
        25
      ]
    },
    "SHA": {
      "icao": "ZSSS",
      "issued": "2026-07-03T15:04:00.000Z",
      "raw": "TAF ZSSS 031504Z 0318/0424 20004MPS 6000 BKN030 TX33/0406Z TN24/0321Z TN24/0421Z TEMPO 0406/0410 33008G13MPS 2000 TSRA BKN010 SCT030CB",
      "groups": [
        {
          "text": "TAF ZSSS 031504Z 0318/0424 20004MPS 6000 BKN030 TX33/0406Z TN24/0321Z TN24/0421Z",
          "offset_h": 1,
          "wdir": null,
          "wspd": null
        },
        {
          "text": "TEMPO 0406/0410 33008G13MPS 2000 TSRA BKN010 SCT030CB",
          "offset_h": 13,
          "wdir": null,
          "wspd": null
        }
      ],
      "metar_raw": "METAR ZSSS 031700Z 20003MPS 160V240 CAVOK 26/24 Q1009 NOSIG",
      "metar_wdir": null,
      "metar_wspd": null,
      "metar_oat": 26,
      "metar_qnh": 1009,
      "hourly_oat": [
        26,
        26,
        26,
        26,
        26,
        26,
        26,
        28,
        30,
        31,
        32,
        32,
        28,
        27,
        27,
        28,
        28,
        27,
        27,
        26,
        26,
        26,
        26,
        26,
        26
      ]
    },
    "PEK": {
      "icao": "ZBAA",
      "issued": "2026-07-03T15:02:00.000Z",
      "raw": "TAF ZBAA 031502Z 0318/0424 16004MPS 6000 NSC TX35/0406Z TN24/0321Z TN24/0421Z TEMPO 0412/0415 TSRA FEW040CB BKN040",
      "groups": [
        {
          "text": "TAF ZBAA 031502Z 0318/0424 16004MPS 6000 NSC TX35/0406Z TN24/0321Z TN24/0421Z",
          "offset_h": 1,
          "wdir": null,
          "wspd": null
        },
        {
          "text": "TEMPO 0412/0415 TSRA FEW040CB BKN040",
          "offset_h": 19,
          "wdir": null,
          "wspd": null
        }
      ],
      "metar_raw": "METAR ZBAA 031700Z 12002MPS CAVOK 25/21 Q0999 NOSIG",
      "metar_wdir": null,
      "metar_wspd": null,
      "metar_oat": 25,
      "metar_qnh": 999,
      "hourly_oat": [
        24,
        24,
        24,
        23,
        23,
        24,
        25,
        26,
        28,
        29,
        30,
        32,
        32,
        33,
        34,
        34,
        34,
        33,
        31,
        30,
        29,
        28,
        27,
        27,
        27
      ]
    },
    "DLC": {
      "icao": "ZYTL",
      "issued": "2026-07-03T15:02:00.000Z",
      "raw": "TAF ZYTL 031502Z 0318/0418 16004MPS 5000 BR FEW040 TX31/0406Z TN22/0320Z",
      "groups": [
        {
          "text": "TAF ZYTL 031502Z 0318/0418 16004MPS 5000 BR FEW040 TX31/0406Z TN22/0320Z",
          "offset_h": 1,
          "wdir": null,
          "wspd": null
        }
      ],
      "metar_raw": "METAR ZYTL 031700Z 21004MPS 6000 NSC 28/22 Q1004 NOSIG",
      "metar_wdir": null,
      "metar_wspd": null,
      "metar_oat": 28,
      "metar_qnh": 1004,
      "hourly_oat": [
        24,
        24,
        24,
        24,
        24,
        24,
        25,
        27,
        28,
        29,
        29,
        30,
        31,
        31,
        31,
        30,
        29,
        28,
        26,
        25,
        25,
        24,
        24,
        23,
        23
      ]
    },
    "HNL": {
      "icao": "PHNL",
      "issued": "2026-07-03T15:00:00.000Z",
      "raw": "TAF PHNL 031500Z 0315/0418 06008KT P6SM FEW025 FEW040 FM032000 06015G25KT P6SM FEW025 SCT040 FM040600 06012KT P6SM FEW025 SCT045",
      "groups": [
        {
          "text": "TAF PHNL 031500Z 0315/0418 06008KT P6SM FEW025 FEW040",
          "offset_h": -2,
          "wdir": 60,
          "wspd": 8
        },
        {
          "text": "FM032000 06015G25KT P6SM FEW025 SCT040",
          "offset_h": 3,
          "wdir": 60,
          "wspd": 15
        },
        {
          "text": "FM040600 06012KT P6SM FEW025 SCT045",
          "offset_h": 13,
          "wdir": 60,
          "wspd": 12
        }
      ],
      "metar_raw": "METAR PHNL 031653Z 06012G22KT 10SM FEW025 FEW045 26/19 A2998 RMK AO2 SLP152 T02560189 $",
      "metar_wdir": 60,
      "metar_wspd": 12,
      "metar_oat": 26,
      "metar_qnh": 1015,
      "hourly_oat": [
        24,
        25,
        27,
        28,
        29,
        30,
        30,
        29,
        29,
        28,
        27,
        26,
        25,
        24,
        24,
        24,
        24,
        23,
        23,
        23,
        23,
        22,
        22,
        22,
        24
      ]
    },
    "ITM": {
      "icao": "RJOO",
      "issued": "2026-07-03T11:08:00.000Z",
      "raw": "TAF RJOO 031108Z 0312/0418 33006KT 9999 FEW030 BECMG 0320/0322 06006KT TEMPO 0400/0403 4000 -SHRA BR FEW005 BKN008 BKN012 TEMPO 0403/0412 2000 SHRA BR FEW003 SCT005 BKN008",
      "groups": [
        {
          "text": "TAF RJOO 031108Z 0312/0418 33006KT 9999 FEW030",
          "offset_h": -5,
          "wdir": 330,
          "wspd": 6
        },
        {
          "text": "BECMG 0320/0322 06006KT",
          "offset_h": 3,
          "wdir": 60,
          "wspd": 6
        },
        {
          "text": "TEMPO 0400/0403 4000 -SHRA BR FEW005 BKN008 BKN012",
          "offset_h": 7,
          "wdir": null,
          "wspd": null
        },
        {
          "text": "TEMPO 0403/0412 2000 SHRA BR FEW003 SCT005 BKN008",
          "offset_h": 10,
          "wdir": null,
          "wspd": null
        }
      ],
      "metar_raw": "METAR RJOO 031700Z AUTO 05004KT 9999 NSC 24/17 Q1011",
      "metar_wdir": 50,
      "metar_wspd": 4,
      "metar_oat": 24,
      "metar_qnh": 1011,
      "hourly_oat": [
        23,
        22,
        22,
        22,
        22,
        22,
        23,
        24,
        24,
        24,
        24,
        24,
        24,
        23,
        23,
        23,
        23,
        22,
        22,
        21,
        21,
        21,
        22,
        21,
        21
      ]
    },
    "KIX": {
      "icao": "RJBB",
      "issued": "2026-07-03T11:08:00.000Z",
      "raw": "TAF RJBB 031108Z 0312/0418 16004KT 9999 FEW020 BECMG 0400/0403 04010KT TEMPO 0400/0406 4000 SHRA BR TEMPO 0406/0412 3000 SHRA BR BECMG 0415/0418 20004KT",
      "groups": [
        {
          "text": "TAF RJBB 031108Z 0312/0418 16004KT 9999 FEW020",
          "offset_h": -5,
          "wdir": 160,
          "wspd": 4
        },
        {
          "text": "BECMG 0400/0403 04010KT",
          "offset_h": 7,
          "wdir": 40,
          "wspd": 10
        },
        {
          "text": "TEMPO 0400/0406 4000 SHRA BR",
          "offset_h": 7,
          "wdir": null,
          "wspd": null
        },
        {
          "text": "TEMPO 0406/0412 3000 SHRA BR",
          "offset_h": 13,
          "wdir": null,
          "wspd": null
        },
        {
          "text": "BECMG 0415/0418 20004KT",
          "offset_h": 22,
          "wdir": 200,
          "wspd": 4
        }
      ],
      "metar_raw": "METAR RJBB 031700Z AUTO 23003KT 9999 NSC 25/21 Q1011 BECMG 14005KT",
      "metar_wdir": 230,
      "metar_wspd": 3,
      "metar_oat": 25,
      "metar_qnh": 1011,
      "hourly_oat": [
        24,
        24,
        24,
        24,
        24,
        23,
        23,
        23,
        23,
        23,
        23,
        23,
        23,
        23,
        23,
        23,
        23,
        23,
        23,
        23,
        22,
        23,
        23,
        23,
        23
      ]
    },
    "NRT": {
      "icao": "RJAA",
      "issued": "2026-07-03T11:05:00.000Z",
      "raw": "TAF RJAA 031105Z 0312/0418 05004KT 6000 FEW005 BKN012 TEMPO 0312/0314 FEW001 BKN003 TEMPO 0314/0322 3000 BR FEW001 BKN003 TEMPO 0322/0400 FEW001 BKN003 BECMG 0400/0403 14010KT TEMPO 0415/0418 4000 BR FEW003 BKN008",
      "groups": [
        {
          "text": "TAF RJAA 031105Z 0312/0418 05004KT 6000 FEW005 BKN012",
          "offset_h": -5,
          "wdir": 50,
          "wspd": 4
        },
        {
          "text": "TEMPO 0312/0314 FEW001 BKN003",
          "offset_h": -5,
          "wdir": null,
          "wspd": null
        },
        {
          "text": "TEMPO 0314/0322 3000 BR FEW001 BKN003",
          "offset_h": -3,
          "wdir": null,
          "wspd": null
        },
        {
          "text": "TEMPO 0322/0400 FEW001 BKN003",
          "offset_h": 5,
          "wdir": null,
          "wspd": null
        },
        {
          "text": "BECMG 0400/0403 14010KT",
          "offset_h": 7,
          "wdir": 140,
          "wspd": 10
        },
        {
          "text": "TEMPO 0415/0418 4000 BR FEW003 BKN008",
          "offset_h": 22,
          "wdir": null,
          "wspd": null
        }
      ],
      "metar_raw": "METAR RJAA 031700Z AUTO 07004KT 7000 OVC005 20/19 Q1012 TEMPO 3000 BR",
      "metar_wdir": 70,
      "metar_wspd": 4,
      "metar_oat": 20,
      "metar_qnh": 1012,
      "hourly_oat": [
        20,
        19,
        19,
        19,
        20,
        20,
        20,
        21,
        21,
        22,
        23,
        24,
        24,
        24,
        24,
        23,
        23,
        23,
        22,
        22,
        22,
        21,
        21,
        21,
        21
      ]
    },
    "HND": {
      "icao": "RJTT",
      "issued": "2026-07-03T11:05:00.000Z",
      "raw": "TAF RJTT 031105Z 0312/0418 12008KT 9999 FEW012 BKN020 BECMG 0403/0406 18012KT BECMG 0415/0418 11006KT",
      "groups": [
        {
          "text": "TAF RJTT 031105Z 0312/0418 12008KT 9999 FEW012 BKN020",
          "offset_h": -5,
          "wdir": 120,
          "wspd": 8
        },
        {
          "text": "BECMG 0403/0406 18012KT",
          "offset_h": 10,
          "wdir": 180,
          "wspd": 12
        },
        {
          "text": "BECMG 0415/0418 11006KT",
          "offset_h": 22,
          "wdir": 110,
          "wspd": 6
        }
      ],
      "metar_raw": "METAR RJTT 031700Z 08006KT 8000 -SHRA FEW009 BKN010 BKN090 22/20 Q1012 NOSIG",
      "metar_wdir": 80,
      "metar_wspd": 6,
      "metar_oat": 22,
      "metar_qnh": 1012,
      "hourly_oat": [
        21,
        21,
        21,
        21,
        21,
        21,
        21,
        21,
        22,
        22,
        23,
        23,
        24,
        24,
        24,
        24,
        24,
        24,
        23,
        23,
        23,
        23,
        23,
        22,
        22
      ]
    },
    "OKA": {
      "icao": "ROAH",
      "issued": "2026-07-03T11:05:00.000Z",
      "raw": "TAF ROAH 031105Z 0312/0418 20006KT 9999 FEW012",
      "groups": [
        {
          "text": "TAF ROAH 031105Z 0312/0418 20006KT 9999 FEW012",
          "offset_h": -5,
          "wdir": 200,
          "wspd": 6
        }
      ],
      "metar_raw": "METAR ROAH 031700Z AUTO 20006KT 9999 NCD 27/26 Q1013",
      "metar_wdir": 200,
      "metar_wspd": 6,
      "metar_oat": 27,
      "metar_qnh": 1013,
      "hourly_oat": [
        27,
        27,
        27,
        27,
        27,
        28,
        28,
        29,
        29,
        29,
        30,
        30,
        30,
        30,
        30,
        29,
        28,
        28,
        27,
        27,
        27,
        27,
        27,
        27,
        27
      ]
    },
    "NGO": {
      "icao": "RJGG",
      "issued": "2026-07-03T11:05:00.000Z",
      "raw": "TAF RJGG 031105Z 0312/0418 13012KT 9999 FEW030 TEMPO 0409/0415 4000 SHRA BR FEW003 BKN008 BECMG 0415/0418 06004KT",
      "groups": [
        {
          "text": "TAF RJGG 031105Z 0312/0418 13012KT 9999 FEW030",
          "offset_h": -5,
          "wdir": 130,
          "wspd": 12
        },
        {
          "text": "TEMPO 0409/0415 4000 SHRA BR FEW003 BKN008",
          "offset_h": 16,
          "wdir": null,
          "wspd": null
        },
        {
          "text": "BECMG 0415/0418 06004KT",
          "offset_h": 22,
          "wdir": 60,
          "wspd": 4
        }
      ],
      "metar_raw": "METAR RJGG 031700Z AUTO 14007KT 9999 BKN026 BKN042 OVC200 23/21 Q1012 NOSIG",
      "metar_wdir": 140,
      "metar_wspd": 7,
      "metar_oat": 23,
      "metar_qnh": 1012,
      "hourly_oat": [
        23,
        23,
        23,
        23,
        23,
        23,
        23,
        24,
        24,
        24,
        24,
        24,
        23,
        23,
        23,
        23,
        23,
        23,
        23,
        23,
        22,
        22,
        22,
        22,
        22
      ]
    },
    "FUK": {
      "icao": "RJFF",
      "issued": "2026-07-03T11:05:00.000Z",
      "raw": "TAF RJFF 031105Z 0312/0418 15010KT 7000 -SHRA FEW005 SCT007 BKN015 TEMPO 0315/0318 4000 TSRA BR FEW007 SCT010 BKN015 FEW015CB TEMPO 0318/0403 3000 TSRA BR FEW008 SCT010 BKN015 FEW015CB BECMG 0400/0403 30008KT TEMPO 0403/0406 4000 -TSRA BR FEW007 BKN015 FEW015CB BECMG 0412/0415 18004KT",
      "groups": [
        {
          "text": "TAF RJFF 031105Z 0312/0418 15010KT 7000 -SHRA FEW005 SCT007 BKN015",
          "offset_h": -5,
          "wdir": 150,
          "wspd": 10
        },
        {
          "text": "TEMPO 0315/0318 4000 TSRA BR FEW007 SCT010 BKN015 FEW015CB",
          "offset_h": -2,
          "wdir": null,
          "wspd": null
        },
        {
          "text": "TEMPO 0318/0403 3000 TSRA BR FEW008 SCT010 BKN015 FEW015CB",
          "offset_h": 1,
          "wdir": null,
          "wspd": null
        },
        {
          "text": "BECMG 0400/0403 30008KT",
          "offset_h": 7,
          "wdir": 300,
          "wspd": 8
        },
        {
          "text": "TEMPO 0403/0406 4000 -TSRA BR FEW007 BKN015 FEW015CB",
          "offset_h": 10,
          "wdir": null,
          "wspd": null
        },
        {
          "text": "BECMG 0412/0415 18004KT",
          "offset_h": 19,
          "wdir": 180,
          "wspd": 4
        }
      ],
      "metar_raw": "METAR RJFF 031700Z AUTO 15009KT 9999 FEW046 SCT050 BKN080 24/21 Q1010 NOSIG",
      "metar_wdir": 150,
      "metar_wspd": 9,
      "metar_oat": 24,
      "metar_qnh": 1010,
      "hourly_oat": [
        22,
        22,
        23,
        23,
        23,
        24,
        24,
        25,
        26,
        27,
        26,
        27,
        27,
        27,
        27,
        26,
        25,
        25,
        24,
        24,
        24,
        24,
        24,
        24,
        24
      ]
    },
    "CTS": {
      "icao": "RJCC",
      "issued": "2026-07-03T11:05:00.000Z",
      "raw": "TAF RJCC 031105Z 0312/0418 16006KT 9999 FEW003 BKN012 TEMPO 0312/0318 3000 BR FEW001 BKN003 TEMPO 0318/0321 FEW003 BKN005 TEMPO 0321/0323 FEW005 BKN008 TEMPO 0412/0415 FEW003 BKN008 TEMPO 0415/0418 4000 BR FEW003 BKN005",
      "groups": [
        {
          "text": "TAF RJCC 031105Z 0312/0418 16006KT 9999 FEW003 BKN012",
          "offset_h": -5,
          "wdir": 160,
          "wspd": 6
        },
        {
          "text": "TEMPO 0312/0318 3000 BR FEW001 BKN003",
          "offset_h": -5,
          "wdir": null,
          "wspd": null
        },
        {
          "text": "TEMPO 0318/0321 FEW003 BKN005",
          "offset_h": 1,
          "wdir": null,
          "wspd": null
        },
        {
          "text": "TEMPO 0321/0323 FEW005 BKN008",
          "offset_h": 4,
          "wdir": null,
          "wspd": null
        },
        {
          "text": "TEMPO 0412/0415 FEW003 BKN008",
          "offset_h": 19,
          "wdir": null,
          "wspd": null
        },
        {
          "text": "TEMPO 0415/0418 4000 BR FEW003 BKN005",
          "offset_h": 22,
          "wdir": null,
          "wspd": null
        }
      ],
      "metar_raw": "METAR RJCC 031700Z 14007KT 9999 FEW006 SCT012 13/13 Q1013",
      "metar_wdir": 140,
      "metar_wspd": 7,
      "metar_oat": 13,
      "metar_qnh": 1013,
      "hourly_oat": [
        13,
        13,
        13,
        13,
        15,
        16,
        17,
        18,
        18,
        19,
        20,
        20,
        20,
        19,
        19,
        18,
        17,
        16,
        15,
        15,
        15,
        15,
        15,
        15,
        15
      ]
    },
    "SGN": {
      "icao": "VVTS",
      "issued": "2026-07-03T11:00:00.000Z",
      "raw": "TAF VVTS 031100Z 0312/0418 23010KT 9999 SCT017 SCT040 TEMPO 0313/0317 5000 SHRA SCT015 FEW017CB SCT040 TEMPO 0404/0408 23015G28KT 4000 SHRA SCT015 FEW017CB SCT040",
      "groups": [
        {
          "text": "TAF VVTS 031100Z 0312/0418 23010KT 9999 SCT017 SCT040",
          "offset_h": -5,
          "wdir": 230,
          "wspd": 10
        },
        {
          "text": "TEMPO 0313/0317 5000 SHRA SCT015 FEW017CB SCT040",
          "offset_h": -4,
          "wdir": null,
          "wspd": null
        },
        {
          "text": "TEMPO 0404/0408 23015G28KT 4000 SHRA SCT015 FEW017CB SCT040",
          "offset_h": 11,
          "wdir": 230,
          "wspd": 15
        }
      ],
      "metar_raw": "METAR VVTS 031700Z 19008KT 170V240 9999 -RA FEW022 SCT049 28/26 Q1010 NOSIG",
      "metar_wdir": 190,
      "metar_wspd": 8,
      "metar_oat": 28,
      "metar_qnh": 1010,
      "hourly_oat": [
        25,
        25,
        25,
        25,
        25,
        25,
        25,
        25,
        26,
        26,
        26,
        28,
        26,
        26,
        27,
        27,
        27,
        26,
        26,
        26,
        26,
        25,
        25,
        25,
        25
      ]
    },
    "KUL": {
      "icao": "WMKK",
      "issued": "2026-07-03T11:00:00.000Z",
      "raw": "TAF WMKK 031100Z 0312/0418 VRB03KT 9999 FEW030 PROB40 TEMPO 0400/0404 5000 TSRA FEW010 FEW017CB",
      "groups": [
        {
          "text": "TAF WMKK 031100Z 0312/0418 VRB03KT 9999 FEW030",
          "offset_h": -5,
          "wdir": "VRB",
          "wspd": 3
        },
        {
          "text": "PROB40",
          "offset_h": 0,
          "wdir": null,
          "wspd": null
        },
        {
          "text": "TEMPO 0400/0404 5000 TSRA FEW010 FEW017CB",
          "offset_h": 7,
          "wdir": null,
          "wspd": null
        }
      ],
      "metar_raw": "METAR WMKK 031700Z VRB03KT 9000 FEW030 27/24 Q1010 NOSIG",
      "metar_wdir": "VRB",
      "metar_wspd": 3,
      "metar_oat": 27,
      "metar_qnh": 1010,
      "hourly_oat": [
        26,
        26,
        26,
        26,
        26,
        26,
        26,
        26,
        27,
        28,
        29,
        29,
        30,
        30,
        30,
        30,
        29,
        29,
        28,
        27,
        27,
        26,
        25,
        24,
        24
      ]
    },
    "CGK": {
      "icao": "WIII",
      "issued": "2026-07-03T11:00:00.000Z",
      "raw": "TAF WIII 031100Z 0312/0418 06010KT 5000 HZ FEW020 BECMG 0315/0317 16005KT",
      "groups": [
        {
          "text": "TAF WIII 031100Z 0312/0418 06010KT 5000 HZ FEW020",
          "offset_h": -5,
          "wdir": 60,
          "wspd": 10
        },
        {
          "text": "BECMG 0315/0317 16005KT",
          "offset_h": -2,
          "wdir": 160,
          "wspd": 5
        }
      ],
      "metar_raw": "METAR WIII 031700Z 10008KT 7000 SCT020 28/24 Q1012 NOSIG",
      "metar_wdir": 100,
      "metar_wspd": 8,
      "metar_oat": 28,
      "metar_qnh": 1012,
      "hourly_oat": [
        27,
        27,
        26,
        26,
        26,
        25,
        25,
        26,
        28,
        30,
        31,
        33,
        34,
        34,
        32,
        31,
        31,
        30,
        29,
        29,
        29,
        28,
        28,
        27,
        26
      ]
    },
    "BKK": {
      "icao": "VTBS",
      "issued": "2026-07-03T11:00:00.000Z",
      "raw": "TAF VTBS 031100Z 0312/0418 22008KT 9999 FEW020 TEMPO 0322/0402 -TSRA FEW018CB SCT020 BKN080 TEMPO 0410/0414 VRB15KT 4000 TSRA FEW018CB SCT020 BKN080",
      "groups": [
        {
          "text": "TAF VTBS 031100Z 0312/0418 22008KT 9999 FEW020",
          "offset_h": -5,
          "wdir": 220,
          "wspd": 8
        },
        {
          "text": "TEMPO 0322/0402 -TSRA FEW018CB SCT020 BKN080",
          "offset_h": 5,
          "wdir": null,
          "wspd": null
        },
        {
          "text": "TEMPO 0410/0414 VRB15KT 4000 TSRA FEW018CB SCT020 BKN080",
          "offset_h": 17,
          "wdir": "VRB",
          "wspd": 15
        }
      ],
      "metar_raw": "METAR VTBS 031700Z 25004KT 9999 FEW020 30/23 Q1008 NOSIG",
      "metar_wdir": 250,
      "metar_wspd": 4,
      "metar_oat": 30,
      "metar_qnh": 1008,
      "hourly_oat": [
        26,
        26,
        27,
        26,
        27,
        25,
        25,
        25,
        26,
        27,
        28,
        28,
        29,
        30,
        29,
        30,
        30,
        29,
        28,
        28,
        28,
        28,
        28,
        28,
        28
      ]
    },
    "SIN": {
      "icao": "WSSS",
      "issued": "2026-07-03T11:00:00.000Z",
      "raw": "TAF WSSS 031100Z 0312/0418 14007KT 9999 FEW015 SCT020",
      "groups": [
        {
          "text": "TAF WSSS 031100Z 0312/0418 14007KT 9999 FEW015 SCT020",
          "offset_h": -5,
          "wdir": 140,
          "wspd": 7
        }
      ],
      "metar_raw": "METAR WSSS 031700Z 11008KT 080V140 9999 FEW018 BKN300 29/25 Q1011 NOSIG",
      "metar_wdir": 110,
      "metar_wspd": 8,
      "metar_oat": 29,
      "metar_qnh": 1011,
      "hourly_oat": [
        28,
        28,
        28,
        28,
        27,
        27,
        27,
        27,
        28,
        29,
        30,
        30,
        31,
        29,
        28,
        29,
        29,
        28,
        28,
        28,
        28,
        28,
        28,
        28,
        27
      ]
    },
    "HAN": {
      "icao": "VVNB",
      "issued": "2026-07-03T11:00:00.000Z",
      "raw": "TAF VVNB 031100Z 0312/0412 32008KT 9999 SCT025 TEMPO 0313/0316 4000 TSRA SCT012 FEW027CB TEMPO 0406/0411 3000 +TSRA BKN010 FEW027CB",
      "groups": [
        {
          "text": "TAF VVNB 031100Z 0312/0412 32008KT 9999 SCT025",
          "offset_h": -5,
          "wdir": 320,
          "wspd": 8
        },
        {
          "text": "TEMPO 0313/0316 4000 TSRA SCT012 FEW027CB",
          "offset_h": -4,
          "wdir": null,
          "wspd": null
        },
        {
          "text": "TEMPO 0406/0411 3000 +TSRA BKN010 FEW027CB",
          "offset_h": 13,
          "wdir": null,
          "wspd": null
        }
      ],
      "metar_raw": "METAR VVNB 031700Z 36003KT 330V030 CAVOK 28/26 Q1004 NOSIG",
      "metar_wdir": 360,
      "metar_wspd": 3,
      "metar_oat": 28,
      "metar_qnh": 1004,
      "hourly_oat": [
        26,
        26,
        26,
        26,
        26,
        26,
        26,
        27,
        28,
        30,
        31,
        32,
        30,
        31,
        32,
        28,
        27,
        27,
        27,
        26,
        26,
        26,
        26,
        26,
        26
      ]
    }
  }
}