{
  "updated": "2026-06-20T18:04:37Z",
  "tafs": {
    "LAX": {
      "icao": "KLAX",
      "issued": "2026-06-20T17:35:00.000Z",
      "raw": "TAF KLAX 201735Z 2018/2124 24010KT P6SM SCT020 FM202100 25011KT P6SM SCT250 FM210500 26006KT P6SM BKN020 FM212000 23008KT P6SM SCT020",
      "groups": [
        {
          "text": "TAF KLAX 201735Z 2018/2124 24010KT P6SM SCT020",
          "offset_h": 0,
          "wdir": 240,
          "wspd": 10
        },
        {
          "text": "FM202100 25011KT P6SM SCT250",
          "offset_h": 3,
          "wdir": 250,
          "wspd": 11
        },
        {
          "text": "FM210500 26006KT P6SM BKN020",
          "offset_h": 11,
          "wdir": 260,
          "wspd": 6
        },
        {
          "text": "FM212000 23008KT P6SM SCT020",
          "offset_h": 26,
          "wdir": 230,
          "wspd": 8
        }
      ],
      "metar_raw": "METAR KLAX 201753Z 22010KT 10SM FEW016 FEW020 SCT025 20/13 A3001 RMK AO2 SLP160 T02000128 10200 20144 51008",
      "metar_wdir": 220,
      "metar_wspd": 10,
      "metar_oat": 20,
      "metar_qnh": 1016,
      "hourly_oat": [
        20,
        21,
        21,
        21,
        21,
        20,
        20,
        19,
        18,
        17,
        16,
        16,
        15,
        15,
        14,
        14,
        14,
        14,
        15,
        15,
        16,
        16,
        18,
        19,
        18
      ]
    },
    "SAN": {
      "icao": "KSAN",
      "issued": "2026-06-20T17:29:00.000Z",
      "raw": "TAF KSAN 201729Z 2018/2124 30013KT P6SM FEW028 FM210100 31008KT P6SM SCT022 FM210200 VRB05KT P6SM BKN018 FM211200 VRB03KT P6SM OVC022 FM211800 30011KT P6SM SCT026",
      "groups": [
        {
          "text": "TAF KSAN 201729Z 2018/2124 30013KT P6SM FEW028",
          "offset_h": 0,
          "wdir": 300,
          "wspd": 13
        },
        {
          "text": "FM210100 31008KT P6SM SCT022",
          "offset_h": 7,
          "wdir": 310,
          "wspd": 8
        },
        {
          "text": "FM210200 VRB05KT P6SM BKN018",
          "offset_h": 8,
          "wdir": "VRB",
          "wspd": 5
        },
        {
          "text": "FM211200 VRB03KT P6SM OVC022",
          "offset_h": 18,
          "wdir": "VRB",
          "wspd": 3
        },
        {
          "text": "FM211800 30011KT P6SM SCT026",
          "offset_h": 24,
          "wdir": 300,
          "wspd": 11
        }
      ],
      "metar_raw": "METAR KSAN 201751Z 29009G15KT 10SM SCT029 22/13 A3002 RMK AO2 SLP164 T02170128 10217 20178 50004 $",
      "metar_wdir": 290,
      "metar_wspd": 9,
      "metar_oat": 22,
      "metar_qnh": 1017,
      "hourly_oat": [
        21,
        22,
        22,
        22,
        21,
        21,
        20,
        19,
        18,
        18,
        18,
        18,
        18,
        18,
        17,
        18,
        17,
        17,
        17,
        16,
        17,
        17,
        17,
        18,
        19
      ]
    },
    "HNL": {
      "icao": "PHNL",
      "issued": "2026-06-20T17:20:00.000Z",
      "raw": "TAF PHNL 201720Z 2018/2124 VRB05KT P6SM FEW025 FEW045 FM202000 09010KT P6SM FEW025 SCT045 FM210000 07010KT P6SM FEW025 SCT045 FM210900 VRB06KT P6SM FEW025 SCT045 FM212000 09010KT P6SM FEW025 SCT045",
      "groups": [
        {
          "text": "TAF PHNL 201720Z 2018/2124 VRB05KT P6SM FEW025 FEW045",
          "offset_h": 0,
          "wdir": "VRB",
          "wspd": 5
        },
        {
          "text": "FM202000 09010KT P6SM FEW025 SCT045",
          "offset_h": 2,
          "wdir": 90,
          "wspd": 10
        },
        {
          "text": "FM210000 07010KT P6SM FEW025 SCT045",
          "offset_h": 6,
          "wdir": 70,
          "wspd": 10
        },
        {
          "text": "FM210900 VRB06KT P6SM FEW025 SCT045",
          "offset_h": 15,
          "wdir": "VRB",
          "wspd": 6
        },
        {
          "text": "FM212000 09010KT P6SM FEW025 SCT045",
          "offset_h": 26,
          "wdir": 90,
          "wspd": 10
        }
      ],
      "metar_raw": "METAR PHNL 201753Z 07005KT 10SM FEW023 FEW040 27/21 A3007 RMK AO2 SLP182 T02720206 10272 20244 53011 $",
      "metar_wdir": 70,
      "metar_wspd": 5,
      "metar_oat": 27,
      "metar_qnh": 1018,
      "hourly_oat": [
        26,
        28,
        29,
        30,
        30,
        30,
        30,
        29,
        29,
        28,
        27,
        26,
        24,
        24,
        24,
        24,
        23,
        23,
        23,
        23,
        23,
        22,
        22,
        24,
        26
      ]
    },
    "ITM": {
      "icao": "RJOO",
      "issued": "2026-06-20T17:05:00.000Z",
      "raw": "TAF RJOO 201705Z 2018/2200 26010KT 9999 FEW015 SCT020 BKN030 BECMG 2121/2200 32012KT",
      "groups": [
        {
          "text": "TAF RJOO 201705Z 2018/2200 26010KT 9999 FEW015 SCT020 BKN030",
          "offset_h": 0,
          "wdir": 260,
          "wspd": 10
        },
        {
          "text": "BECMG 2121/2200 32012KT",
          "offset_h": 27,
          "wdir": 320,
          "wspd": 12
        }
      ],
      "metar_raw": "METAR RJOO 201700Z AUTO 24005KT 190V300 9999 FEW008 BKN014 OVC049 25/23 Q1003",
      "metar_wdir": 240,
      "metar_wspd": 5,
      "metar_oat": 25,
      "metar_qnh": 1003,
      "hourly_oat": [
        24,
        24,
        24,
        24,
        24,
        26,
        27,
        27,
        27,
        27,
        27,
        27,
        28,
        27,
        27,
        26,
        25,
        25,
        24,
        24,
        24,
        23,
        23,
        23,
        22
      ]
    },
    "OKA": {
      "icao": "ROAH",
      "issued": "2026-06-20T17:05:00.000Z",
      "raw": "TAF ROAH 201705Z 2018/2200 20010KT 9999 FEW005 BKN010 TEMPO 2018/2022 FEW003 BKN005 TEMPO 2022/2100 FEW005 BKN008 TEMPO 2112/2115 FEW005 BKN008 TEMPO 2115/2200 FEW003 BKN005",
      "groups": [
        {
          "text": "TAF ROAH 201705Z 2018/2200 20010KT 9999 FEW005 BKN010",
          "offset_h": 0,
          "wdir": 200,
          "wspd": 10
        },
        {
          "text": "TEMPO 2018/2022 FEW003 BKN005",
          "offset_h": 0,
          "wdir": null,
          "wspd": null
        },
        {
          "text": "TEMPO 2022/2100 FEW005 BKN008",
          "offset_h": 4,
          "wdir": null,
          "wspd": null
        },
        {
          "text": "TEMPO 2112/2115 FEW005 BKN008",
          "offset_h": 18,
          "wdir": null,
          "wspd": null
        },
        {
          "text": "TEMPO 2115/2200 FEW003 BKN005",
          "offset_h": 21,
          "wdir": null,
          "wspd": null
        }
      ],
      "metar_raw": "METAR ROAH 201730Z AUTO 19007KT 9999 BKN010 BKN012 26/26 Q1011",
      "metar_wdir": 190,
      "metar_wspd": 7,
      "metar_oat": 26,
      "metar_qnh": 1011,
      "hourly_oat": [
        26,
        26,
        25,
        25,
        26,
        27,
        28,
        28,
        29,
        29,
        29,
        29,
        29,
        28,
        28,
        28,
        27,
        26,
        26,
        26,
        26,
        26,
        25,
        25,
        25
      ]
    },
    "NGO": {
      "icao": "RJGG",
      "issued": "2026-06-20T17:05:00.000Z",
      "raw": "TAF RJGG 201705Z 2018/2200 16006KT 9999 FEW010 BKN020 BECMG 2100/2102 24012KT BECMG 2106/2109 29014KT",
      "groups": [
        {
          "text": "TAF RJGG 201705Z 2018/2200 16006KT 9999 FEW010 BKN020",
          "offset_h": 0,
          "wdir": 160,
          "wspd": 6
        },
        {
          "text": "BECMG 2100/2102 24012KT",
          "offset_h": 6,
          "wdir": 240,
          "wspd": 12
        },
        {
          "text": "BECMG 2106/2109 29014KT",
          "offset_h": 12,
          "wdir": 290,
          "wspd": 14
        }
      ],
      "metar_raw": "METAR RJGG 201730Z AUTO VRB02KT 9999 NSC 23/22 Q1002 BECMG 18005KT",
      "metar_wdir": "VRB",
      "metar_wspd": 2,
      "metar_oat": 23,
      "metar_qnh": 1002,
      "hourly_oat": [
        23,
        23,
        23,
        23,
        23,
        23,
        23,
        24,
        25,
        26,
        26,
        26,
        26,
        25,
        25,
        25,
        24,
        24,
        24,
        24,
        24,
        24,
        24,
        23,
        23
      ]
    },
    "FUK": {
      "icao": "RJFF",
      "issued": "2026-06-20T17:05:00.000Z",
      "raw": "TAF RJFF 201705Z 2018/2200 29010KT 9999 FEW015 SCT025 BKN030 BECMG 2109/2112 35008KT BECMG 2115/2118 13004KT BECMG 2121/2200 01006KT",
      "groups": [
        {
          "text": "TAF RJFF 201705Z 2018/2200 29010KT 9999 FEW015 SCT025 BKN030",
          "offset_h": 0,
          "wdir": 290,
          "wspd": 10
        },
        {
          "text": "BECMG 2109/2112 35008KT",
          "offset_h": 15,
          "wdir": 350,
          "wspd": 8
        },
        {
          "text": "BECMG 2115/2118 13004KT",
          "offset_h": 21,
          "wdir": 130,
          "wspd": 4
        },
        {
          "text": "BECMG 2121/2200 01006KT",
          "offset_h": 27,
          "wdir": 10,
          "wspd": 6
        }
      ],
      "metar_raw": "METAR RJFF 201730Z AUTO 29006KT 9999 FEW024 25/20 Q1006 NOSIG",
      "metar_wdir": 290,
      "metar_wspd": 6,
      "metar_oat": 25,
      "metar_qnh": 1006,
      "hourly_oat": [
        23,
        23,
        22,
        22,
        23,
        23,
        24,
        24,
        25,
        25,
        25,
        25,
        24,
        25,
        25,
        24,
        24,
        23,
        22,
        22,
        22,
        21,
        21,
        21,
        21
      ]
    },
    "CTS": {
      "icao": "RJCC",
      "issued": "2026-06-20T17:05:00.000Z",
      "raw": "TAF RJCC 201705Z 2018/2200 17006KT 9999 FEW015 SCT050 BECMG 2101/2103 17016KT BECMG 2112/2115 33004KT BECMG 2121/2200 21006KT",
      "groups": [
        {
          "text": "TAF RJCC 201705Z 2018/2200 17006KT 9999 FEW015 SCT050",
          "offset_h": 0,
          "wdir": 170,
          "wspd": 6
        },
        {
          "text": "BECMG 2101/2103 17016KT",
          "offset_h": 7,
          "wdir": 170,
          "wspd": 16
        },
        {
          "text": "BECMG 2112/2115 33004KT",
          "offset_h": 18,
          "wdir": 330,
          "wspd": 4
        },
        {
          "text": "BECMG 2121/2200 21006KT",
          "offset_h": 27,
          "wdir": 210,
          "wspd": 6
        }
      ],
      "metar_raw": "METAR RJCC 201730Z 18003KT 9999 FEW010 BKN028 15/13 Q1013",
      "metar_wdir": 180,
      "metar_wspd": 3,
      "metar_oat": 15,
      "metar_qnh": 1013,
      "hourly_oat": [
        14,
        14,
        15,
        16,
        17,
        18,
        19,
        20,
        20,
        20,
        19,
        19,
        18,
        17,
        17,
        16,
        16,
        15,
        15,
        15,
        14,
        14,
        14,
        13,
        13
      ]
    },
    "NRT": {
      "icao": "RJAA",
      "issued": "2026-06-20T17:05:00.000Z",
      "raw": "TAF RJAA 201705Z 2018/2200 14008KT 9999 FEW010 BKN020 TEMPO 2018/2021 3000 -SHRA BR FEW001 BKN003 TEMPO 2021/2100 FEW001 BKN003 BECMG 2022/2100 22012KT BECMG 2106/2109 02006KT TEMPO 2109/2115 FEW003 BKN008 TEMPO 2118/2200 FEW001 BKN003",
      "groups": [
        {
          "text": "TAF RJAA 201705Z 2018/2200 14008KT 9999 FEW010 BKN020",
          "offset_h": 0,
          "wdir": 140,
          "wspd": 8
        },
        {
          "text": "TEMPO 2018/2021 3000 -SHRA BR FEW001 BKN003",
          "offset_h": 0,
          "wdir": null,
          "wspd": null
        },
        {
          "text": "TEMPO 2021/2100 FEW001 BKN003",
          "offset_h": 3,
          "wdir": null,
          "wspd": null
        },
        {
          "text": "BECMG 2022/2100 22012KT",
          "offset_h": 4,
          "wdir": 220,
          "wspd": 12
        },
        {
          "text": "BECMG 2106/2109 02006KT",
          "offset_h": 12,
          "wdir": 20,
          "wspd": 6
        },
        {
          "text": "TEMPO 2109/2115 FEW003 BKN008",
          "offset_h": 15,
          "wdir": null,
          "wspd": null
        },
        {
          "text": "TEMPO 2118/2200 FEW001 BKN003",
          "offset_h": 24,
          "wdir": null,
          "wspd": null
        }
      ],
      "metar_raw": "METAR RJAA 201730Z AUTO 14012KT 4500 RA BR FEW003 BKN005 BKN007 //////TCU 21/20 Q1006 NOSIG",
      "metar_wdir": 140,
      "metar_wspd": 12,
      "metar_oat": 21,
      "metar_qnh": 1006,
      "hourly_oat": [
        20,
        20,
        21,
        22,
        22,
        23,
        25,
        26,
        27,
        28,
        29,
        29,
        29,
        28,
        28,
        27,
        24,
        22,
        22,
        22,
        22,
        22,
        21,
        20,
        20
      ]
    },
    "KIX": {
      "icao": "RJBB",
      "issued": "2026-06-20T17:05:00.000Z",
      "raw": "TAF RJBB 201705Z 2018/2200 20014KT 9999 FEW030 BKN050 BECMG 2022/2100 26012KT",
      "groups": [
        {
          "text": "TAF RJBB 201705Z 2018/2200 20014KT 9999 FEW030 BKN050",
          "offset_h": 0,
          "wdir": 200,
          "wspd": 14
        },
        {
          "text": "BECMG 2022/2100 26012KT",
          "offset_h": 4,
          "wdir": 260,
          "wspd": 12
        }
      ],
      "metar_raw": "METAR RJBB 201730Z AUTO 20021KT 9999 BKN010 BKN050 OVC080 //////TCU 25/23 Q1002 NOSIG",
      "metar_wdir": 200,
      "metar_wspd": 21,
      "metar_oat": 25,
      "metar_qnh": 1002,
      "hourly_oat": [
        24,
        24,
        24,
        24,
        24,
        24,
        24,
        24,
        24,
        24,
        24,
        24,
        24,
        24,
        24,
        24,
        24,
        24,
        24,
        23,
        23,
        23,
        23,
        23,
        23
      ]
    },
    "HND": {
      "icao": "RJTT",
      "issued": "2026-06-20T17:05:00.000Z",
      "raw": "TAF RJTT 201705Z 2018/2200 19012KT 8000 -SHRA FEW005 BKN012 TEMPO 2018/2100 4000 SHRA BR FEW003 BKN005 BECMG 2106/2109 01008KT BECMG 2121/2200 07006KT",
      "groups": [
        {
          "text": "TAF RJTT 201705Z 2018/2200 19012KT 8000 -SHRA FEW005 BKN012",
          "offset_h": 0,
          "wdir": 190,
          "wspd": 12
        },
        {
          "text": "TEMPO 2018/2100 4000 SHRA BR FEW003 BKN005",
          "offset_h": 0,
          "wdir": null,
          "wspd": null
        },
        {
          "text": "BECMG 2106/2109 01008KT",
          "offset_h": 12,
          "wdir": 10,
          "wspd": 8
        },
        {
          "text": "BECMG 2121/2200 07006KT",
          "offset_h": 27,
          "wdir": 70,
          "wspd": 6
        }
      ],
      "metar_raw": "METAR RJTT 201730Z 13008KT 8000 -RA BR FEW004 SCT006 BKN008 22/22 Q1005 TEMPO 4000 SHRA BR FEW003 BKN005",
      "metar_wdir": 130,
      "metar_wspd": 8,
      "metar_oat": 22,
      "metar_qnh": 1005,
      "hourly_oat": [
        22,
        22,
        23,
        23,
        23,
        25,
        25,
        26,
        26,
        28,
        28,
        28,
        28,
        28,
        27,
        26,
        25,
        25,
        24,
        24,
        23,
        23,
        22,
        22,
        21
      ]
    },
    "SGN": {
      "icao": "VVTS",
      "issued": "2026-06-20T17:00:00.000Z",
      "raw": "TAF VVTS 201700Z 2018/2124 22008KT 9999 SCT017 TEMPO 2108/2112 22015G25KT 5000 TSRA BKN015 FEW017CB",
      "groups": [
        {
          "text": "TAF VVTS 201700Z 2018/2124 22008KT 9999 SCT017",
          "offset_h": 0,
          "wdir": 220,
          "wspd": 8
        },
        {
          "text": "TEMPO 2108/2112 22015G25KT 5000 TSRA BKN015 FEW017CB",
          "offset_h": 14,
          "wdir": 220,
          "wspd": 15
        }
      ],
      "metar_raw": "METAR VVTS 201730Z 22006KT 200V280 9999 FEW018 29/26 Q1011 NOSIG",
      "metar_wdir": 220,
      "metar_wspd": 6,
      "metar_oat": 29,
      "metar_qnh": 1011,
      "hourly_oat": [
        25,
        25,
        25,
        25,
        25,
        25,
        27,
        28,
        30,
        31,
        32,
        33,
        33,
        33,
        33,
        28,
        26,
        26,
        26,
        26,
        26,
        26,
        26,
        26,
        26
      ]
    },
    "SIN": {
      "icao": "WSSS",
      "issued": "2026-06-20T17:00:00.000Z",
      "raw": "TAF WSSS 201700Z 2018/2200 20003KT 9999 FEW015 SCT020 PROB30 TEMPO 2104/2107 3000 TSRA FEW012CB BKN015",
      "groups": [
        {
          "text": "TAF WSSS 201700Z 2018/2200 20003KT 9999 FEW015 SCT020",
          "offset_h": 0,
          "wdir": 200,
          "wspd": 3
        },
        {
          "text": "PROB30",
          "offset_h": 0,
          "wdir": null,
          "wspd": null
        },
        {
          "text": "TEMPO 2104/2107 3000 TSRA FEW012CB BKN015",
          "offset_h": 10,
          "wdir": null,
          "wspd": null
        }
      ],
      "metar_raw": "METAR WSSS 201800Z 20002KT 9999 FEW018 BKN300 28/25 Q1011 NOSIG",
      "metar_wdir": 200,
      "metar_wspd": 2,
      "metar_oat": 28,
      "metar_qnh": 1011,
      "hourly_oat": [
        27,
        27,
        25,
        25,
        25,
        25,
        25,
        24,
        25,
        27,
        28,
        29,
        28,
        29,
        29,
        29,
        28,
        27,
        27,
        26,
        26,
        26,
        26,
        25,
        25
      ]
    },
    "CGK": {
      "icao": "WIII",
      "issued": "2026-06-20T17:00:00.000Z",
      "raw": "TAF WIII 201700Z 2018/2200 VRB05KT 5000 HZ SCT020 BECMG 2102/2104 05012KT 7000 NSW",
      "groups": [
        {
          "text": "TAF WIII 201700Z 2018/2200 VRB05KT 5000 HZ SCT020",
          "offset_h": 0,
          "wdir": "VRB",
          "wspd": 5
        },
        {
          "text": "BECMG 2102/2104 05012KT 7000 NSW",
          "offset_h": 8,
          "wdir": 50,
          "wspd": 12
        }
      ],
      "metar_raw": "METAR WIII 201730Z 18004KT 6000 SCT020 27/24 Q1012 NOSIG",
      "metar_wdir": 180,
      "metar_wspd": 4,
      "metar_oat": 27,
      "metar_qnh": 1012,
      "hourly_oat": [
        25,
        25,
        25,
        24,
        24,
        24,
        25,
        27,
        29,
        30,
        32,
        32,
        33,
        30,
        28,
        29,
        28,
        25,
        25,
        25,
        25,
        25,
        25,
        25,
        24
      ]
    },
    "KUL": {
      "icao": "WMKK",
      "issued": "2026-06-20T17:00:00.000Z",
      "raw": "TAF WMKK 201700Z 2018/2200 VRB03KT 9999 FEW030 PROB30 TEMPO 2022/2102 5000 TSRA FEW017CB PROB40 TEMPO 2109/2113 5000 TSRA FEW017CB",
      "groups": [
        {
          "text": "TAF WMKK 201700Z 2018/2200 VRB03KT 9999 FEW030",
          "offset_h": 0,
          "wdir": "VRB",
          "wspd": 3
        },
        {
          "text": "PROB30",
          "offset_h": 0,
          "wdir": null,
          "wspd": null
        },
        {
          "text": "TEMPO 2022/2102 5000 TSRA FEW017CB",
          "offset_h": 4,
          "wdir": null,
          "wspd": null
        },
        {
          "text": "PROB40",
          "offset_h": 0,
          "wdir": null,
          "wspd": null
        },
        {
          "text": "TEMPO 2109/2113 5000 TSRA FEW017CB",
          "offset_h": 15,
          "wdir": null,
          "wspd": null
        }
      ],
      "metar_raw": "METAR WMKK 201730Z VRB02KT 9999 FEW030 27/24 Q1011 NOSIG",
      "metar_wdir": "VRB",
      "metar_wspd": 2,
      "metar_oat": 27,
      "metar_qnh": 1011,
      "hourly_oat": [
        23,
        23,
        23,
        23,
        22,
        22,
        22,
        24,
        25,
        26,
        28,
        28,
        29,
        28,
        28,
        29,
        26,
        25,
        25,
        24,
        24,
        24,
        24,
        24,
        23
      ]
    },
    "HAN": {
      "icao": "VVNB",
      "issued": "2026-06-20T17:00:00.000Z",
      "raw": "TAF VVNB 201700Z 2018/2118 08006KT 6000 FEW030 PROB40 TEMPO 2111/2114 4000 TSRA SCT012 FEW027CB",
      "groups": [
        {
          "text": "TAF VVNB 201700Z 2018/2118 08006KT 6000 FEW030",
          "offset_h": 0,
          "wdir": 80,
          "wspd": 6
        },
        {
          "text": "PROB40",
          "offset_h": 0,
          "wdir": null,
          "wspd": null
        },
        {
          "text": "TEMPO 2111/2114 4000 TSRA SCT012 FEW027CB",
          "offset_h": 17,
          "wdir": null,
          "wspd": null
        }
      ],
      "metar_raw": "METAR VVNB 201730Z 08004KT 050V110 CAVOK 26/25 Q1006 NOSIG",
      "metar_wdir": 80,
      "metar_wspd": 4,
      "metar_oat": 26,
      "metar_qnh": 1006,
      "hourly_oat": [
        29,
        29,
        29,
        28,
        28,
        28,
        29,
        31,
        32,
        34,
        35,
        36,
        36,
        35,
        36,
        35,
        34,
        33,
        32,
        31,
        31,
        30,
        30,
        29,
        29
      ]
    },
    "TSA": {
      "icao": "RCSS",
      "issued": "2026-06-20T17:00:00.000Z",
      "raw": "TAF RCSS 201700Z 2018/2118 30005KT 9999 FEW015 TEMPO 2106/2112 09007KT",
      "groups": [
        {
          "text": "TAF RCSS 201700Z 2018/2118 30005KT 9999 FEW015",
          "offset_h": 0,
          "wdir": 300,
          "wspd": 5
        },
        {
          "text": "TEMPO 2106/2112 09007KT",
          "offset_h": 12,
          "wdir": 90,
          "wspd": 7
        }
      ],
      "metar_raw": "METAR RCSS 201700Z VRB02KT 9999 FEW025 27/24 Q1010 NOSIG RMK A2984",
      "metar_wdir": "VRB",
      "metar_wspd": 2,
      "metar_oat": 27,
      "metar_qnh": 1010,
      "hourly_oat": [
        24,
        24,
        24,
        24,
        24,
        27,
        29,
        30,
        32,
        32,
        33,
        33,
        33,
        33,
        33,
        32,
        31,
        29,
        28,
        27,
        27,
        26,
        26,
        25,
        25
      ]
    },
    "TPE": {
      "icao": "RCTP",
      "issued": "2026-06-20T17:00:00.000Z",
      "raw": "TAF RCTP 201700Z 2018/2124 23005KT 9999 FEW015 TEMPO 2018/2023 16005KT BECMG 2023/2101 24010KT TEMPO 2104/2109 25015KT BECMG 2109/2111 22005KT TEMPO 2118/2124 17005KT",
      "groups": [
        {
          "text": "TAF RCTP 201700Z 2018/2124 23005KT 9999 FEW015",
          "offset_h": 0,
          "wdir": 230,
          "wspd": 5
        },
        {
          "text": "TEMPO 2018/2023 16005KT",
          "offset_h": 0,
          "wdir": 160,
          "wspd": 5
        },
        {
          "text": "BECMG 2023/2101 24010KT",
          "offset_h": 5,
          "wdir": 240,
          "wspd": 10
        },
        {
          "text": "TEMPO 2104/2109 25015KT",
          "offset_h": 10,
          "wdir": 250,
          "wspd": 15
        },
        {
          "text": "BECMG 2109/2111 22005KT",
          "offset_h": 15,
          "wdir": 220,
          "wspd": 5
        },
        {
          "text": "TEMPO 2118/2124 17005KT",
          "offset_h": 24,
          "wdir": 170,
          "wspd": 5
        }
      ],
      "metar_raw": "METAR RCTP 201730Z 24007KT 9999 FEW008 27/25 Q1010 NOSIG RMK A2984",
      "metar_wdir": 240,
      "metar_wspd": 7,
      "metar_oat": 27,
      "metar_qnh": 1010,
      "hourly_oat": [
        25,
        25,
        25,
        25,
        25,
        27,
        29,
        30,
        30,
        30,
        30,
        30,
        30,
        30,
        30,
        30,
        29,
        27,
        27,
        26,
        26,
        26,
        26,
        26,
        26
      ]
    },
    "HKG": {
      "icao": "VHHH",
      "issued": "2026-06-20T17:00:00.000Z",
      "raw": "TAF VHHH 201700Z 2018/2124 18010KT 9999 FEW010 SCT025 TX34/2106Z TN29/2022Z TN29/2122Z",
      "groups": [
        {
          "text": "TAF VHHH 201700Z 2018/2124 18010KT 9999 FEW010 SCT025 TX34/2106Z TN29/2022Z TN29/2122Z",
          "offset_h": 0,
          "wdir": 180,
          "wspd": 10
        }
      ],
      "metar_raw": "METAR VHHH 201800Z 19009KT 9999 FEW010 29/24 Q1010 NOSIG",
      "metar_wdir": 190,
      "metar_wspd": 9,
      "metar_oat": 29,
      "metar_qnh": 1010,
      "hourly_oat": [
        28,
        28,
        28,
        28,
        28,
        28,
        29,
        29,
        30,
        30,
        30,
        30,
        30,
        30,
        30,
        29,
        29,
        29,
        28,
        28,
        28,
        28,
        28,
        28,
        28
      ]
    },
    "GMP": {
      "icao": "RKSS",
      "issued": "2026-06-20T17:00:00.000Z",
      "raw": "TAF RKSS 201700Z 2018/2124 36007KT CAVOK TN19/2020Z TX30/2106Z TN20/2120Z BECMG 2112/2114 06005KT",
      "groups": [
        {
          "text": "TAF RKSS 201700Z 2018/2124 36007KT CAVOK TN19/2020Z TX30/2106Z TN20/2120Z",
          "offset_h": 0,
          "wdir": 360,
          "wspd": 7
        },
        {
          "text": "BECMG 2112/2114 06005KT",
          "offset_h": 18,
          "wdir": 60,
          "wspd": 5
        }
      ],
      "metar_raw": "METAR RKSS 201800Z 02005KT CAVOK 21/17 Q1007 NOSIG",
      "metar_wdir": 20,
      "metar_wspd": 5,
      "metar_oat": 21,
      "metar_qnh": 1007,
      "hourly_oat": [
        18,
        18,
        17,
        17,
        18,
        20,
        22,
        24,
        25,
        27,
        28,
        28,
        28,
        28,
        27,
        25,
        24,
        22,
        22,
        21,
        21,
        21,
        20,
        20,
        20
      ]
    },
    "BKK": {
      "icao": "VTBS",
      "issued": "2026-06-20T17:00:00.000Z",
      "raw": "TAF VTBS 201700Z 2018/2124 20008KT 9999 FEW020 TEMPO 2110/2114 VRB15KT 4000 TSRA FEW018CB SCT030 BKN100",
      "groups": [
        {
          "text": "TAF VTBS 201700Z 2018/2124 20008KT 9999 FEW020",
          "offset_h": 0,
          "wdir": 200,
          "wspd": 8
        },
        {
          "text": "TEMPO 2110/2114 VRB15KT 4000 TSRA FEW018CB SCT030 BKN100",
          "offset_h": 16,
          "wdir": "VRB",
          "wspd": 15
        }
      ],
      "metar_raw": "METAR VTBS 201730Z 20005KT 9999 FEW020 29/25 Q1010 NOSIG",
      "metar_wdir": 200,
      "metar_wspd": 5,
      "metar_oat": 29,
      "metar_qnh": 1010,
      "hourly_oat": [
        28,
        28,
        27,
        27,
        27,
        26,
        28,
        29,
        30,
        31,
        32,
        33,
        33,
        28,
        29,
        31,
        30,
        28,
        28,
        27,
        27,
        27,
        27,
        27,
        27
      ]
    },
    "PVG": {
      "icao": "ZSPD",
      "issued": "2026-06-20T15:05:00.000Z",
      "raw": "TAF ZSPD 201505Z 2018/2124 10004MPS 6000 BKN010 TX27/2106Z TN23/2021Z TN21/2121Z TEMPO 2019/2023 BKN004 BECMG 2020/2021 -SHRA TEMPO 2109/2112 SHRA BKN008 FEW030CB",
      "groups": [
        {
          "text": "TAF ZSPD 201505Z 2018/2124 10004MPS 6000 BKN010 TX27/2106Z TN23/2021Z TN21/2121Z",
          "offset_h": 0,
          "wdir": null,
          "wspd": null
        },
        {
          "text": "TEMPO 2019/2023 BKN004",
          "offset_h": 1,
          "wdir": null,
          "wspd": null
        },
        {
          "text": "BECMG 2020/2021 -SHRA",
          "offset_h": 2,
          "wdir": null,
          "wspd": null
        },
        {
          "text": "TEMPO 2109/2112 SHRA BKN008 FEW030CB",
          "offset_h": 15,
          "wdir": null,
          "wspd": null
        }
      ],
      "metar_raw": "METAR ZSPD 201730Z 14003MPS 9999 BKN012 24/24 Q1008 NOSIG",
      "metar_wdir": null,
      "metar_wspd": null,
      "metar_oat": 24,
      "metar_qnh": 1008,
      "hourly_oat": [
        24,
        24,
        24,
        24,
        24,
        24,
        24,
        26,
        26,
        26,
        27,
        25,
        24,
        24,
        24,
        24,
        23,
        23,
        23,
        23,
        23,
        23,
        22,
        22,
        23
      ]
    },
    "SHA": {
      "icao": "ZSSS",
      "issued": "2026-06-20T15:04:00.000Z",
      "raw": "TAF ZSSS 201504Z 2018/2124 10004MPS 6000 BKN015 TX28/2106Z TN24/2021Z TN22/2121Z BECMG 2019/2020 -SHRA BKN011 TEMPO 2108/2111 SHRA BKN008 FEW030CB",
      "groups": [
        {
          "text": "TAF ZSSS 201504Z 2018/2124 10004MPS 6000 BKN015 TX28/2106Z TN24/2021Z TN22/2121Z",
          "offset_h": 0,
          "wdir": null,
          "wspd": null
        },
        {
          "text": "BECMG 2019/2020 -SHRA BKN011",
          "offset_h": 1,
          "wdir": null,
          "wspd": null
        },
        {
          "text": "TEMPO 2108/2111 SHRA BKN008 FEW030CB",
          "offset_h": 14,
          "wdir": null,
          "wspd": null
        }
      ],
      "metar_raw": "METAR ZSSS 201730Z 14002MPS 110V170 8000 BKN011 25/23 Q1008 NOSIG",
      "metar_wdir": null,
      "metar_wspd": null,
      "metar_oat": 25,
      "metar_qnh": 1008,
      "hourly_oat": [
        24,
        24,
        24,
        24,
        24,
        24,
        25,
        27,
        28,
        28,
        28,
        27,
        27,
        26,
        26,
        25,
        24,
        24,
        23,
        23,
        23,
        23,
        23,
        23,
        23
      ]
    },
    "PEK": {
      "icao": "ZBAA",
      "issued": "2026-06-20T15:02:00.000Z",
      "raw": "TAF ZBAA 201502Z 2018/2124 18004MPS CAVOK TX30/2107Z TN14/2021Z TN16/2121Z",
      "groups": [
        {
          "text": "TAF ZBAA 201502Z 2018/2124 18004MPS CAVOK TX30/2107Z TN14/2021Z TN16/2121Z",
          "offset_h": 0,
          "wdir": null,
          "wspd": null
        }
      ],
      "metar_raw": "METAR ZBAA 201730Z 34003MPS CAVOK 16/11 Q1010 NOSIG",
      "metar_wdir": null,
      "metar_wspd": null,
      "metar_oat": 16,
      "metar_qnh": 1010,
      "hourly_oat": [
        17,
        17,
        15,
        14,
        15,
        17,
        20,
        22,
        24,
        26,
        27,
        28,
        28,
        28,
        28,
        27,
        25,
        24,
        22,
        22,
        21,
        20,
        20,
        19,
        18
      ]
    },
    "DLC": {
      "icao": "ZYTL",
      "issued": "2026-06-20T15:02:00.000Z",
      "raw": "TAF ZYTL 201502Z 2018/2118 33004MPS 5000 BR FEW033 TX28/2106Z TN19/2020Z",
      "groups": [
        {
          "text": "TAF ZYTL 201502Z 2018/2118 33004MPS 5000 BR FEW033 TX28/2106Z TN19/2020Z",
          "offset_h": 0,
          "wdir": null,
          "wspd": null
        }
      ],
      "metar_raw": "METAR ZYTL 201730Z VRB01MPS 7000 NSC 21/19 Q1008 NOSIG",
      "metar_wdir": null,
      "metar_wspd": null,
      "metar_oat": 21,
      "metar_qnh": 1008,
      "hourly_oat": [
        20,
        21,
        21,
        21,
        21,
        22,
        24,
        26,
        26,
        26,
        28,
        27,
        27,
        27,
        25,
        24,
        24,
        23,
        22,
        22,
        21,
        21,
        21,
        21,
        20
      ]
    },
    "CAN": {
      "icao": "ZGGG",
      "issued": "2026-06-20T15:01:00.000Z",
      "raw": "TAF ZGGG 201501Z 2018/2124 18004MPS 8000 SCT040 TX37/2107Z TN26/2022Z TN27/2122Z TEMPO 2107/2111 TSRA SCT026CB BKN033",
      "groups": [
        {
          "text": "TAF ZGGG 201501Z 2018/2124 18004MPS 8000 SCT040 TX37/2107Z TN26/2022Z TN27/2122Z",
          "offset_h": 0,
          "wdir": null,
          "wspd": null
        },
        {
          "text": "TEMPO 2107/2111 TSRA SCT026CB BKN033",
          "offset_h": 13,
          "wdir": null,
          "wspd": null
        }
      ],
      "metar_raw": "METAR ZGGG 201730Z 16003MPS 9999 FEW033 29/26 Q1010 NOSIG",
      "metar_wdir": null,
      "metar_wspd": null,
      "metar_oat": 29,
      "metar_qnh": 1010,
      "hourly_oat": [
        27,
        27,
        26,
        26,
        26,
        27,
        28,
        30,
        31,
        32,
        32,
        32,
        33,
        33,
        33,
        33,
        32,
        31,
        30,
        29,
        28,
        27,
        27,
        26,
        26
      ]
    }
  }
}