{
  "updated": "2026-06-24T06:35:47Z",
  "tafs": {
    "LAX": {
      "icao": "KLAX",
      "issued": "2026-06-24T05:39:00.000Z",
      "raw": "TAF KLAX 240539Z 2406/2512 27006KT P6SM OVC008 FM241900 26008KT P6SM SCT250 FM242200 26012KT P6SM SKC FM250300 26008KT P6SM BKN250 FM250700 27006KT P6SM OVC008",
      "groups": [
        {
          "text": "TAF KLAX 240539Z 2406/2512 27006KT P6SM OVC008",
          "offset_h": 0,
          "wdir": 270,
          "wspd": 6
        },
        {
          "text": "FM241900 26008KT P6SM SCT250",
          "offset_h": 13,
          "wdir": 260,
          "wspd": 8
        },
        {
          "text": "FM242200 26012KT P6SM SKC",
          "offset_h": 16,
          "wdir": 260,
          "wspd": 12
        },
        {
          "text": "FM250300 26008KT P6SM BKN250",
          "offset_h": 21,
          "wdir": 260,
          "wspd": 8
        },
        {
          "text": "FM250700 27006KT P6SM OVC008",
          "offset_h": 25,
          "wdir": 270,
          "wspd": 6
        }
      ],
      "metar_raw": "METAR KLAX 240553Z 26009KT 10SM FEW007 SCT009 BKN011 18/16 A3003 RMK AO2 SLP167 T01780156 10211 20178 52012 $",
      "metar_wdir": 260,
      "metar_wspd": 9,
      "metar_oat": 18,
      "metar_qnh": 1017,
      "hourly_oat": [
        16,
        16,
        16,
        17,
        17,
        16,
        16,
        16,
        17,
        18,
        19,
        20,
        21,
        21,
        22,
        21,
        20,
        20,
        19,
        18,
        18,
        17,
        16,
        16,
        16
      ]
    },
    "SAN": {
      "icao": "KSAN",
      "issued": "2026-06-24T05:34:00.000Z",
      "raw": "TAF KSAN 240534Z 2406/2512 31005KT P6SM SCT017 FM240800 VRB04KT P6SM BKN017 FM241700 29009KT P6SM SCT018 FM250400 VRB04KT P6SM BKN017",
      "groups": [
        {
          "text": "TAF KSAN 240534Z 2406/2512 31005KT P6SM SCT017",
          "offset_h": 0,
          "wdir": 310,
          "wspd": 5
        },
        {
          "text": "FM240800 VRB04KT P6SM BKN017",
          "offset_h": 2,
          "wdir": "VRB",
          "wspd": 4
        },
        {
          "text": "FM241700 29009KT P6SM SCT018",
          "offset_h": 11,
          "wdir": 290,
          "wspd": 9
        },
        {
          "text": "FM250400 VRB04KT P6SM BKN017",
          "offset_h": 22,
          "wdir": "VRB",
          "wspd": 4
        }
      ],
      "metar_raw": "METAR KSAN 240551Z 00000KT 10SM BKN200 19/16 A3004 RMK AO2 SLP173 T01890156 10217 20189 51009 $",
      "metar_wdir": 0,
      "metar_wspd": 0,
      "metar_oat": 19,
      "metar_qnh": 1017,
      "hourly_oat": [
        19,
        18,
        18,
        17,
        17,
        17,
        18,
        18,
        19,
        19,
        20,
        21,
        23,
        23,
        23,
        23,
        21,
        21,
        20,
        19,
        19,
        18,
        18,
        18,
        18
      ]
    },
    "HNL": {
      "icao": "PHNL",
      "issued": "2026-06-24T05:20:00.000Z",
      "raw": "TAF PHNL 240520Z 2406/2512 VRB06KT P6SM VCSH FEW015 BKN025 TEMPO 2406/2410 5SM SHRA BR BKN025 FM242000 06016G28KT P6SM SCT025 BKN040 FM250600 05013KT P6SM FEW025 SCT050",
      "groups": [
        {
          "text": "TAF PHNL 240520Z 2406/2512 VRB06KT P6SM VCSH FEW015 BKN025",
          "offset_h": 0,
          "wdir": "VRB",
          "wspd": 6
        },
        {
          "text": "TEMPO 2406/2410 5SM SHRA BR BKN025",
          "offset_h": 0,
          "wdir": null,
          "wspd": null
        },
        {
          "text": "FM242000 06016G28KT P6SM SCT025 BKN040",
          "offset_h": 14,
          "wdir": 60,
          "wspd": 16
        },
        {
          "text": "FM250600 05013KT P6SM FEW025 SCT050",
          "offset_h": 24,
          "wdir": 50,
          "wspd": 13
        }
      ],
      "metar_raw": "METAR PHNL 240553Z VRB05KT 7SM -RA FEW020 BKN030 BKN045 24/23 A3002 RMK AO2 RAB06E15B45 SLP165 P0000 60023 T02440228 10294 20239 53015 $",
      "metar_wdir": "VRB",
      "metar_wspd": 5,
      "metar_oat": 24,
      "metar_qnh": 1017,
      "hourly_oat": [
        24,
        24,
        24,
        23,
        23,
        23,
        23,
        23,
        23,
        23,
        23,
        24,
        25,
        26,
        27,
        28,
        28,
        28,
        28,
        28,
        27,
        26,
        25,
        24,
        23
      ]
    },
    "KIX": {
      "icao": "RJBB",
      "issued": "2026-06-24T05:05:00.000Z",
      "raw": "TAF RJBB 240505Z 2406/2512 05008KT 8000 -SHRA FEW005 SCT020 BKN030 TEMPO 2406/2412 4000 SHRA BR TEMPO 2412/2418 1500 +SHRA BR FEW001 BKN005 BKN008 BECMG 2418/2421 25008KT BECMG 2500/2503 07012KT TEMPO 2503/2509 3000 SHRA BR BECMG 2506/2509 22014KT",
      "groups": [
        {
          "text": "TAF RJBB 240505Z 2406/2512 05008KT 8000 -SHRA FEW005 SCT020 BKN030",
          "offset_h": 0,
          "wdir": 50,
          "wspd": 8
        },
        {
          "text": "TEMPO 2406/2412 4000 SHRA BR",
          "offset_h": 0,
          "wdir": null,
          "wspd": null
        },
        {
          "text": "TEMPO 2412/2418 1500 +SHRA BR FEW001 BKN005 BKN008",
          "offset_h": 6,
          "wdir": null,
          "wspd": null
        },
        {
          "text": "BECMG 2418/2421 25008KT",
          "offset_h": 12,
          "wdir": 250,
          "wspd": 8
        },
        {
          "text": "BECMG 2500/2503 07012KT",
          "offset_h": 18,
          "wdir": 70,
          "wspd": 12
        },
        {
          "text": "TEMPO 2503/2509 3000 SHRA BR",
          "offset_h": 21,
          "wdir": null,
          "wspd": null
        },
        {
          "text": "BECMG 2506/2509 22014KT",
          "offset_h": 24,
          "wdir": 220,
          "wspd": 14
        }
      ],
      "metar_raw": "METAR RJBB 240600Z 04007KT 8000 SHRA FEW003 SCT015 BKN100 21/20 Q1010 TEMPO 4000 SHRA BR",
      "metar_wdir": 40,
      "metar_wspd": 7,
      "metar_oat": 21,
      "metar_qnh": 1010,
      "hourly_oat": [
        22,
        22,
        22,
        22,
        22,
        22,
        22,
        22,
        22,
        22,
        22,
        22,
        22,
        22,
        22,
        22,
        22,
        22,
        22,
        22,
        22,
        24,
        25,
        25,
        25
      ]
    },
    "NRT": {
      "icao": "RJAA",
      "issued": "2026-06-24T05:05:00.000Z",
      "raw": "TAF RJAA 240505Z 2406/2512 12010KT 9999 FEW015 SCT030 BECMG 2416/2418 04004KT TEMPO 2418/2421 FEW005 BKN008 BECMG 2421/2500 08006KT TEMPO 2421/2509 3000 -SHRA BR FEW003 BKN005 BECMG 2503/2506 04010KT TEMPO 2509/2512 FEW003 BKN005",
      "groups": [
        {
          "text": "TAF RJAA 240505Z 2406/2512 12010KT 9999 FEW015 SCT030",
          "offset_h": 0,
          "wdir": 120,
          "wspd": 10
        },
        {
          "text": "BECMG 2416/2418 04004KT",
          "offset_h": 10,
          "wdir": 40,
          "wspd": 4
        },
        {
          "text": "TEMPO 2418/2421 FEW005 BKN008",
          "offset_h": 12,
          "wdir": null,
          "wspd": null
        },
        {
          "text": "BECMG 2421/2500 08006KT",
          "offset_h": 15,
          "wdir": 80,
          "wspd": 6
        },
        {
          "text": "TEMPO 2421/2509 3000 -SHRA BR FEW003 BKN005",
          "offset_h": 15,
          "wdir": null,
          "wspd": null
        },
        {
          "text": "BECMG 2503/2506 04010KT",
          "offset_h": 21,
          "wdir": 40,
          "wspd": 10
        },
        {
          "text": "TEMPO 2509/2512 FEW003 BKN005",
          "offset_h": 27,
          "wdir": null,
          "wspd": null
        }
      ],
      "metar_raw": "METAR RJAA 240600Z 10009KT 9999 FEW020 BKN/// 23/19 Q1012 NOSIG",
      "metar_wdir": 100,
      "metar_wspd": 9,
      "metar_oat": 23,
      "metar_qnh": 1012,
      "hourly_oat": [
        24,
        23,
        23,
        22,
        22,
        21,
        21,
        21,
        20,
        20,
        20,
        20,
        20,
        20,
        20,
        20,
        20,
        20,
        21,
        21,
        21,
        21,
        20,
        20,
        21
      ]
    },
    "HND": {
      "icao": "RJTT",
      "issued": "2026-06-24T05:05:00.000Z",
      "raw": "TAF RJTT 240505Z 2406/2512 16012KT 9999 FEW020 BKN040 BECMG 2414/2416 09006KT BECMG 2421/2500 03016KT TEMPO 2421/2506 4000 RA BR FEW005 BKN008 TEMPO 2506/2509 FEW005 BKN008",
      "groups": [
        {
          "text": "TAF RJTT 240505Z 2406/2512 16012KT 9999 FEW020 BKN040",
          "offset_h": 0,
          "wdir": 160,
          "wspd": 12
        },
        {
          "text": "BECMG 2414/2416 09006KT",
          "offset_h": 8,
          "wdir": 90,
          "wspd": 6
        },
        {
          "text": "BECMG 2421/2500 03016KT",
          "offset_h": 15,
          "wdir": 30,
          "wspd": 16
        },
        {
          "text": "TEMPO 2421/2506 4000 RA BR FEW005 BKN008",
          "offset_h": 15,
          "wdir": null,
          "wspd": null
        },
        {
          "text": "TEMPO 2506/2509 FEW005 BKN008",
          "offset_h": 24,
          "wdir": null,
          "wspd": null
        }
      ],
      "metar_raw": "METAR RJTT 240600Z 12005KT 9999 FEW030 SCT070 BKN/// 25/19 Q1012 NOSIG",
      "metar_wdir": 120,
      "metar_wspd": 5,
      "metar_oat": 25,
      "metar_qnh": 1012,
      "hourly_oat": [
        25,
        24,
        23,
        23,
        23,
        23,
        22,
        22,
        22,
        22,
        22,
        22,
        21,
        21,
        21,
        21,
        21,
        21,
        21,
        21,
        21,
        21,
        21,
        21,
        21
      ]
    },
    "FUK": {
      "icao": "RJFF",
      "issued": "2026-06-24T05:05:00.000Z",
      "raw": "TAF RJFF 240505Z 2406/2512 14012KT 9000 -SHRA FEW007 SCT011 BKN030 TEMPO 2409/2416 4000 -SHRA BR TEMPO 2416/2500 1500 +TSRA BR FEW007 SCT010 BKN015 FEW015CB",
      "groups": [
        {
          "text": "TAF RJFF 240505Z 2406/2512 14012KT 9000 -SHRA FEW007 SCT011 BKN030",
          "offset_h": 0,
          "wdir": 140,
          "wspd": 12
        },
        {
          "text": "TEMPO 2409/2416 4000 -SHRA BR",
          "offset_h": 3,
          "wdir": null,
          "wspd": null
        },
        {
          "text": "TEMPO 2416/2500 1500 +TSRA BR FEW007 SCT010 BKN015 FEW015CB",
          "offset_h": 10,
          "wdir": null,
          "wspd": null
        }
      ],
      "metar_raw": "METAR RJFF 240600Z 13005KT 090V160 9999 VCSH FEW002 SCT040 BKN060 23/21 Q1005 NOSIG",
      "metar_wdir": 130,
      "metar_wspd": 5,
      "metar_oat": 23,
      "metar_qnh": 1005,
      "hourly_oat": [
        23,
        23,
        23,
        23,
        24,
        24,
        24,
        23,
        23,
        24,
        24,
        24,
        24,
        24,
        24,
        24,
        25,
        25,
        26,
        26,
        27,
        26,
        26,
        24,
        24
      ]
    },
    "CTS": {
      "icao": "RJCC",
      "issued": "2026-06-24T05:05:00.000Z",
      "raw": "TAF RJCC 240505Z 2406/2512 17012KT 9999 FEW030 TEMPO 2409/2412 FEW003 BKN006 TEMPO 2412/2421 2000 BR FEW001 BKN003 TEMPO 2509/2512 FEW003 BKN006",
      "groups": [
        {
          "text": "TAF RJCC 240505Z 2406/2512 17012KT 9999 FEW030",
          "offset_h": 0,
          "wdir": 170,
          "wspd": 12
        },
        {
          "text": "TEMPO 2409/2412 FEW003 BKN006",
          "offset_h": 3,
          "wdir": null,
          "wspd": null
        },
        {
          "text": "TEMPO 2412/2421 2000 BR FEW001 BKN003",
          "offset_h": 6,
          "wdir": null,
          "wspd": null
        },
        {
          "text": "TEMPO 2509/2512 FEW003 BKN006",
          "offset_h": 27,
          "wdir": null,
          "wspd": null
        }
      ],
      "metar_raw": "METAR RJCC 240600Z 16012KT 9999 FEW020 SCT060 BKN080 20/13 Q1012",
      "metar_wdir": 160,
      "metar_wspd": 12,
      "metar_oat": 20,
      "metar_qnh": 1012,
      "hourly_oat": [
        19,
        18,
        17,
        16,
        14,
        13,
        13,
        13,
        13,
        13,
        12,
        12,
        13,
        13,
        14,
        15,
        16,
        18,
        19,
        19,
        19,
        20,
        20,
        20,
        19
      ]
    },
    "OKA": {
      "icao": "ROAH",
      "issued": "2026-06-24T05:05:00.000Z",
      "raw": "TAF ROAH 240505Z 2406/2512 15016KT 9999 FEW015",
      "groups": [
        {
          "text": "TAF ROAH 240505Z 2406/2512 15016KT 9999 FEW015",
          "offset_h": 0,
          "wdir": 150,
          "wspd": 16
        }
      ],
      "metar_raw": "METAR ROAH 240600Z 15018KT 9999 FEW020 BKN/// 33/25 Q1004",
      "metar_wdir": 150,
      "metar_wspd": 18,
      "metar_oat": 33,
      "metar_qnh": 1004,
      "hourly_oat": [
        30,
        30,
        30,
        29,
        28,
        28,
        28,
        28,
        28,
        28,
        28,
        28,
        28,
        28,
        28,
        28,
        28,
        29,
        29,
        29,
        30,
        30,
        30,
        29,
        29
      ]
    },
    "NGO": {
      "icao": "RJGG",
      "issued": "2026-06-24T05:05:00.000Z",
      "raw": "TAF RJGG 240505Z 2406/2512 12012KT 8000 -RA FEW015 BKN030 TEMPO 2414/2416 4000 -RA BR FEW004 BKN008 TEMPO 2416/2421 3000 SHRA BR FEW004 BKN008 TEMPO 2421/2500 4000 SHRA BR TEMPO 2506/2512 4000 SHRA BR",
      "groups": [
        {
          "text": "TAF RJGG 240505Z 2406/2512 12012KT 8000 -RA FEW015 BKN030",
          "offset_h": 0,
          "wdir": 120,
          "wspd": 12
        },
        {
          "text": "TEMPO 2414/2416 4000 -RA BR FEW004 BKN008",
          "offset_h": 8,
          "wdir": null,
          "wspd": null
        },
        {
          "text": "TEMPO 2416/2421 3000 SHRA BR FEW004 BKN008",
          "offset_h": 10,
          "wdir": null,
          "wspd": null
        },
        {
          "text": "TEMPO 2421/2500 4000 SHRA BR",
          "offset_h": 15,
          "wdir": null,
          "wspd": null
        },
        {
          "text": "TEMPO 2506/2512 4000 SHRA BR",
          "offset_h": 24,
          "wdir": null,
          "wspd": null
        }
      ],
      "metar_raw": "METAR RJGG 240600Z 18010KT 9999 VCSH FEW015 BKN060 BKN100 23/20 Q1011 NOSIG",
      "metar_wdir": 180,
      "metar_wspd": 10,
      "metar_oat": 23,
      "metar_qnh": 1011,
      "hourly_oat": [
        23,
        23,
        23,
        23,
        23,
        23,
        23,
        22,
        22,
        22,
        22,
        22,
        21,
        21,
        21,
        21,
        21,
        21,
        22,
        22,
        22,
        22,
        22,
        22,
        22
      ]
    },
    "ITM": {
      "icao": "RJOO",
      "issued": "2026-06-24T05:05:00.000Z",
      "raw": "TAF RJOO 240505Z 2406/2512 07010KT 8000 -SHRA FEW005 SCT008 BKN020 TEMPO 2408/2414 4000 SHRA BR TEMPO 2414/2418 1500 +SHRA BR FEW003 BKN008 BKN015 TEMPO 2418/2421 4000 SHRA BR FEW003 BKN008 BKN015",
      "groups": [
        {
          "text": "TAF RJOO 240505Z 2406/2512 07010KT 8000 -SHRA FEW005 SCT008 BKN020",
          "offset_h": 0,
          "wdir": 70,
          "wspd": 10
        },
        {
          "text": "TEMPO 2408/2414 4000 SHRA BR",
          "offset_h": 2,
          "wdir": null,
          "wspd": null
        },
        {
          "text": "TEMPO 2414/2418 1500 +SHRA BR FEW003 BKN008 BKN015",
          "offset_h": 8,
          "wdir": null,
          "wspd": null
        },
        {
          "text": "TEMPO 2418/2421 4000 SHRA BR FEW003 BKN008 BKN015",
          "offset_h": 12,
          "wdir": null,
          "wspd": null
        }
      ],
      "metar_raw": "METAR RJOO 240600Z 08005KT 050V130 9999 VCSH FEW020 BKN035 BKN100 23/18 Q1010",
      "metar_wdir": 80,
      "metar_wspd": 5,
      "metar_oat": 23,
      "metar_qnh": 1010,
      "hourly_oat": [
        22,
        22,
        22,
        21,
        21,
        21,
        21,
        21,
        21,
        21,
        21,
        21,
        21,
        21,
        21,
        21,
        21,
        21,
        21,
        21,
        21,
        22,
        22,
        22,
        23
      ]
    },
    "HKG": {
      "icao": "VHHH",
      "issued": "2026-06-24T05:00:00.000Z",
      "raw": "TAF VHHH 240500Z 2406/2512 22010KT 9999 FEW010 SCT025 TX34/2406Z TX34/2506Z TN29/2422Z",
      "groups": [
        {
          "text": "TAF VHHH 240500Z 2406/2512 22010KT 9999 FEW010 SCT025 TX34/2406Z TX34/2506Z TN29/2422Z",
          "offset_h": 0,
          "wdir": 220,
          "wspd": 10
        }
      ],
      "metar_raw": "METAR VHHH 240630Z 22016KT 9999 FEW010 SCT025 34/27 Q1002 NOSIG",
      "metar_wdir": 220,
      "metar_wspd": 16,
      "metar_oat": 34,
      "metar_qnh": 1002,
      "hourly_oat": [
        30,
        30,
        30,
        30,
        30,
        29,
        29,
        29,
        29,
        29,
        29,
        29,
        29,
        29,
        29,
        29,
        29,
        29,
        28,
        28,
        29,
        30,
        30,
        30,
        30
      ]
    },
    "BKK": {
      "icao": "VTBS",
      "issued": "2026-06-24T05:00:00.000Z",
      "raw": "TAF VTBS 240500Z 2406/2512 21008KT 9999 FEW020 TEMPO 2409/2413 VRB10G25KT 4000 TSRA FEW018CB SCT030 BKN100 BECMG 2418/2420 27008KT",
      "groups": [
        {
          "text": "TAF VTBS 240500Z 2406/2512 21008KT 9999 FEW020",
          "offset_h": 0,
          "wdir": 210,
          "wspd": 8
        },
        {
          "text": "TEMPO 2409/2413 VRB10G25KT 4000 TSRA FEW018CB SCT030 BKN100",
          "offset_h": 3,
          "wdir": "VRB",
          "wspd": 10
        },
        {
          "text": "BECMG 2418/2420 27008KT",
          "offset_h": 12,
          "wdir": 270,
          "wspd": 8
        }
      ],
      "metar_raw": "METAR VTBS 240600Z 18010KT 9999 FEW020 34/23 Q1006 NOSIG",
      "metar_wdir": 180,
      "metar_wspd": 10,
      "metar_oat": 34,
      "metar_qnh": 1006,
      "hourly_oat": [
        33,
        32,
        32,
        32,
        32,
        31,
        30,
        30,
        30,
        29,
        29,
        28,
        27,
        28,
        27,
        27,
        27,
        26,
        28,
        30,
        31,
        32,
        33,
        34,
        33
      ]
    },
    "KUL": {
      "icao": "WMKK",
      "issued": "2026-06-24T05:00:00.000Z",
      "raw": "TAF WMKK 240500Z 2406/2512 28005KT 9999 FEW018 PROB40 TEMPO 2406/2410 5000 TSRA FEW017 SCT018",
      "groups": [
        {
          "text": "TAF WMKK 240500Z 2406/2512 28005KT 9999 FEW018",
          "offset_h": 0,
          "wdir": 280,
          "wspd": 5
        },
        {
          "text": "PROB40",
          "offset_h": 0,
          "wdir": null,
          "wspd": null
        },
        {
          "text": "TEMPO 2406/2410 5000 TSRA FEW017 SCT018",
          "offset_h": 0,
          "wdir": null,
          "wspd": null
        }
      ],
      "metar_raw": "METAR WMKK 240600Z VRB03KT 9000 VCSH FEW017CB SCT018 30/27 Q1009 TEMPO 7000 -TSRA",
      "metar_wdir": "VRB",
      "metar_wspd": 3,
      "metar_oat": 30,
      "metar_qnh": 1009,
      "hourly_oat": [
        26,
        26,
        26,
        27,
        26,
        24,
        24,
        24,
        24,
        23,
        23,
        23,
        23,
        23,
        23,
        23,
        23,
        23,
        23,
        25,
        26,
        28,
        27,
        27,
        27
      ]
    },
    "SIN": {
      "icao": "WSSS",
      "issued": "2026-06-24T05:00:00.000Z",
      "raw": "TAF WSSS 240500Z 2406/2512 12006KT 9999 FEW015 SCT020 TEMPO 2406/2408 3000 TSRA FEW012CB BKN015",
      "groups": [
        {
          "text": "TAF WSSS 240500Z 2406/2512 12006KT 9999 FEW015 SCT020",
          "offset_h": 0,
          "wdir": 120,
          "wspd": 6
        },
        {
          "text": "TEMPO 2406/2408 3000 TSRA FEW012CB BKN015",
          "offset_h": 0,
          "wdir": null,
          "wspd": null
        }
      ],
      "metar_raw": "METAR WSSS 240630Z 18007KT 150V210 9999 FEW018TCU FEW020CB SCT040 BKN270 30/25 Q1009 NOSIG",
      "metar_wdir": 180,
      "metar_wspd": 7,
      "metar_oat": 30,
      "metar_qnh": 1009,
      "hourly_oat": [
        29,
        28,
        28,
        29,
        28,
        26,
        25,
        25,
        25,
        25,
        25,
        25,
        25,
        26,
        26,
        26,
        27,
        27,
        27,
        28,
        29,
        29,
        30,
        31,
        30
      ]
    },
    "HAN": {
      "icao": "VVNB",
      "issued": "2026-06-24T05:00:00.000Z",
      "raw": "TAF VVNB 240500Z 2406/2506 26008KT 9999 FEW030",
      "groups": [
        {
          "text": "TAF VVNB 240500Z 2406/2506 26008KT 9999 FEW030",
          "offset_h": 0,
          "wdir": 260,
          "wspd": 8
        }
      ],
      "metar_raw": "METAR VVNB 240630Z 28005KT 180V340 CAVOK 39/25 Q0999 NOSIG",
      "metar_wdir": 280,
      "metar_wspd": 5,
      "metar_oat": 39,
      "metar_qnh": 999,
      "hourly_oat": [
        37,
        36,
        37,
        36,
        35,
        34,
        32,
        32,
        31,
        31,
        31,
        30,
        29,
        29,
        28,
        28,
        28,
        28,
        28,
        29,
        31,
        32,
        32,
        33,
        33
      ]
    },
    "SGN": {
      "icao": "VVTS",
      "issued": "2026-06-24T05:00:00.000Z",
      "raw": "TAF VVTS 240500Z 2406/2512 26006KT 9999 SCT017 TEMPO 2406/2409 5000 TSRA BKN015 FEW017CB TEMPO 2509/2512 24016G26KT 4000 TSRA BKN015 SCT017CB",
      "groups": [
        {
          "text": "TAF VVTS 240500Z 2406/2512 26006KT 9999 SCT017",
          "offset_h": 0,
          "wdir": 260,
          "wspd": 6
        },
        {
          "text": "TEMPO 2406/2409 5000 TSRA BKN015 FEW017CB",
          "offset_h": 0,
          "wdir": null,
          "wspd": null
        },
        {
          "text": "TEMPO 2509/2512 24016G26KT 4000 TSRA BKN015 SCT017CB",
          "offset_h": 27,
          "wdir": 240,
          "wspd": 16
        }
      ],
      "metar_raw": "METAR VVTS 240630Z 25012KT 9999 SCT030 34/25 Q1006 NOSIG",
      "metar_wdir": 250,
      "metar_wspd": 12,
      "metar_oat": 34,
      "metar_qnh": 1006,
      "hourly_oat": [
        29,
        30,
        31,
        30,
        30,
        28,
        28,
        27,
        27,
        26,
        26,
        26,
        26,
        26,
        25,
        25,
        25,
        26,
        27,
        28,
        27,
        30,
        31,
        32,
        32
      ]
    },
    "TSA": {
      "icao": "RCSS",
      "issued": "2026-06-24T05:00:00.000Z",
      "raw": "TAF RCSS 240500Z 2406/2506 09005KT 9999 FEW012 BKN032 TEMPO 2406/2412 28005KT TEMPO 2412/2418 FEW012 BKN020 BECMG 2422/2424 30005KT TEMPO 2500/2506 5000 SHRA FEW012 BKN018",
      "groups": [
        {
          "text": "TAF RCSS 240500Z 2406/2506 09005KT 9999 FEW012 BKN032",
          "offset_h": 0,
          "wdir": 90,
          "wspd": 5
        },
        {
          "text": "TEMPO 2406/2412 28005KT",
          "offset_h": 0,
          "wdir": 280,
          "wspd": 5
        },
        {
          "text": "TEMPO 2412/2418 FEW012 BKN020",
          "offset_h": 6,
          "wdir": null,
          "wspd": null
        },
        {
          "text": "BECMG 2422/2424 30005KT",
          "offset_h": 16,
          "wdir": 300,
          "wspd": 5
        },
        {
          "text": "TEMPO 2500/2506 5000 SHRA FEW012 BKN018",
          "offset_h": 18,
          "wdir": null,
          "wspd": null
        }
      ],
      "metar_raw": "METAR RCSS 240600Z 30008KT 240V330 9999 FEW016 SCT200 36/28 Q1001 NOSIG RMK 34007KT/R10 A2957",
      "metar_wdir": 300,
      "metar_wspd": 8,
      "metar_oat": 36,
      "metar_qnh": 1001,
      "hourly_oat": [
        34,
        33,
        32,
        31,
        30,
        28,
        27,
        26,
        26,
        26,
        25,
        25,
        25,
        25,
        25,
        25,
        26,
        27,
        28,
        29,
        28,
        29,
        28,
        29,
        28
      ]
    },
    "TPE": {
      "icao": "RCTP",
      "issued": "2026-06-24T05:00:00.000Z",
      "raw": "TAF RCTP 240500Z 2406/2512 26005KT 9999 FEW012 BKN032 TEMPO 2408/2412 36005KT TEMPO 2412/2418 23005KT SCT004 BKN006 TEMPO 2420/2502 24010KT 5000 SHRA FEW010 BKN017 BECMG 2502/2504 33010KT TEMPO 2506/2512 02010KT",
      "groups": [
        {
          "text": "TAF RCTP 240500Z 2406/2512 26005KT 9999 FEW012 BKN032",
          "offset_h": 0,
          "wdir": 260,
          "wspd": 5
        },
        {
          "text": "TEMPO 2408/2412 36005KT",
          "offset_h": 2,
          "wdir": 360,
          "wspd": 5
        },
        {
          "text": "TEMPO 2412/2418 23005KT SCT004 BKN006",
          "offset_h": 6,
          "wdir": 230,
          "wspd": 5
        },
        {
          "text": "TEMPO 2420/2502 24010KT 5000 SHRA FEW010 BKN017",
          "offset_h": 14,
          "wdir": 240,
          "wspd": 10
        },
        {
          "text": "BECMG 2502/2504 33010KT",
          "offset_h": 20,
          "wdir": 330,
          "wspd": 10
        },
        {
          "text": "TEMPO 2506/2512 02010KT",
          "offset_h": 24,
          "wdir": 20,
          "wspd": 10
        }
      ],
      "metar_raw": "METAR RCTP 240600Z 29012KT 9999 FEW020 BKN180 33/26 Q1001 NOSIG RMK A2958",
      "metar_wdir": 290,
      "metar_wspd": 12,
      "metar_oat": 33,
      "metar_qnh": 1001,
      "hourly_oat": [
        31,
        30,
        29,
        28,
        28,
        27,
        27,
        27,
        27,
        27,
        26,
        26,
        26,
        26,
        26,
        26,
        26,
        26,
        26,
        26,
        27,
        26,
        27,
        27,
        27
      ]
    },
    "GMP": {
      "icao": "RKSS",
      "issued": "2026-06-24T05:00:00.000Z",
      "raw": "TAF RKSS 240500Z 2406/2512 10007KT CAVOK TN19/2420Z TX28/2505Z BECMG 2409/2411 27007KT BECMG 2413/2415 18005KT 9999 SCT040 BECMG 2500/2502 29006KT TEMPO 2506/2509 33008KT 6000 -SHRA FEW010 BKN030 OVC080",
      "groups": [
        {
          "text": "TAF RKSS 240500Z 2406/2512 10007KT CAVOK TN19/2420Z TX28/2505Z",
          "offset_h": 0,
          "wdir": 100,
          "wspd": 7
        },
        {
          "text": "BECMG 2409/2411 27007KT",
          "offset_h": 3,
          "wdir": 270,
          "wspd": 7
        },
        {
          "text": "BECMG 2413/2415 18005KT 9999 SCT040",
          "offset_h": 7,
          "wdir": 180,
          "wspd": 5
        },
        {
          "text": "BECMG 2500/2502 29006KT",
          "offset_h": 18,
          "wdir": 290,
          "wspd": 6
        },
        {
          "text": "TEMPO 2506/2509 33008KT 6000 -SHRA FEW010 BKN030 OVC080",
          "offset_h": 24,
          "wdir": 330,
          "wspd": 8
        }
      ],
      "metar_raw": "METAR RKSS 240600Z 04008KT CAVOK 28/15 Q1007 NOSIG",
      "metar_wdir": 40,
      "metar_wspd": 8,
      "metar_oat": 28,
      "metar_qnh": 1007,
      "hourly_oat": [
        29,
        29,
        29,
        28,
        26,
        24,
        23,
        22,
        22,
        21,
        20,
        20,
        19,
        18,
        18,
        18,
        19,
        20,
        22,
        23,
        24,
        25,
        25,
        26,
        26
      ]
    },
    "CGK": {
      "icao": "WIII",
      "issued": "2026-06-24T05:00:00.000Z",
      "raw": "TAF WIII 240500Z 2406/2512 05012KT 8000 SCT020 BECMG 2414/2416 15005KT 4000 HZ BECMG 2501/2503 05010KT 8000 NSW",
      "groups": [
        {
          "text": "TAF WIII 240500Z 2406/2512 05012KT 8000 SCT020",
          "offset_h": 0,
          "wdir": 50,
          "wspd": 12
        },
        {
          "text": "BECMG 2414/2416 15005KT 4000 HZ",
          "offset_h": 8,
          "wdir": 150,
          "wspd": 5
        },
        {
          "text": "BECMG 2501/2503 05010KT 8000 NSW",
          "offset_h": 19,
          "wdir": 50,
          "wspd": 10
        }
      ],
      "metar_raw": "METAR WIII 240630Z 05012KT 020V080 8000 FEW020 31/25 Q1008 NOSIG",
      "metar_wdir": 50,
      "metar_wspd": 12,
      "metar_oat": 31,
      "metar_qnh": 1008,
      "hourly_oat": [
        32,
        31,
        30,
        29,
        28,
        27,
        27,
        26,
        26,
        26,
        26,
        25,
        25,
        25,
        25,
        25,
        24,
        24,
        24,
        25,
        27,
        29,
        29,
        31,
        32
      ]
    },
    "SHA": {
      "icao": "ZSSS",
      "issued": "2026-06-24T03:08:00.000Z",
      "raw": "TAF ZSSS 240308Z 2406/2512 02004MPS 6000 BKN015 TX25/2406Z TX26/2506Z TN22/2421Z",
      "groups": [
        {
          "text": "TAF ZSSS 240308Z 2406/2512 02004MPS 6000 BKN015 TX25/2406Z TX26/2506Z TN22/2421Z",
          "offset_h": 0,
          "wdir": null,
          "wspd": null
        }
      ],
      "metar_raw": "METAR ZSSS 240630Z 01005MPS 9999 BKN016 24/21 Q1004 NOSIG",
      "metar_wdir": null,
      "metar_wspd": null,
      "metar_oat": 24,
      "metar_qnh": 1004,
      "hourly_oat": [
        25,
        25,
        25,
        25,
        24,
        24,
        23,
        23,
        22,
        22,
        22,
        22,
        22,
        21,
        21,
        21,
        22,
        23,
        24,
        24,
        25,
        25,
        25,
        26,
        26
      ]
    },
    "PVG": {
      "icao": "ZSPD",
      "issued": "2026-06-24T03:07:00.000Z",
      "raw": "TAF ZSPD 240307Z 2406/2512 01004MPS 6000 BKN010 TX25/2406Z TX25/2506Z TN21/2421Z",
      "groups": [
        {
          "text": "TAF ZSPD 240307Z 2406/2512 01004MPS 6000 BKN010 TX25/2406Z TX25/2506Z TN21/2421Z",
          "offset_h": 0,
          "wdir": null,
          "wspd": null
        }
      ],
      "metar_raw": "METAR ZSPD 240630Z 02005MPS 9999 BKN012 24/22 Q1004 NOSIG",
      "metar_wdir": null,
      "metar_wspd": null,
      "metar_oat": 24,
      "metar_qnh": 1004,
      "hourly_oat": [
        25,
        25,
        25,
        24,
        24,
        23,
        23,
        22,
        22,
        22,
        22,
        22,
        22,
        22,
        22,
        22,
        22,
        23,
        23,
        23,
        23,
        24,
        24,
        25,
        25
      ]
    },
    "DLC": {
      "icao": "ZYTL",
      "issued": "2026-06-24T03:04:00.000Z",
      "raw": "TAF ZYTL 240304Z 2406/2506 14004MPS 5000 BR FEW040 TX27/2506Z TN18/2421Z TEMPO 2413/2415 2000 -TSRA BR BKN010 BKN026 FEW033CB",
      "groups": [
        {
          "text": "TAF ZYTL 240304Z 2406/2506 14004MPS 5000 BR FEW040 TX27/2506Z TN18/2421Z",
          "offset_h": 0,
          "wdir": null,
          "wspd": null
        },
        {
          "text": "TEMPO 2413/2415 2000 -TSRA BR BKN010 BKN026 FEW033CB",
          "offset_h": 7,
          "wdir": null,
          "wspd": null
        }
      ],
      "metar_raw": "METAR ZYTL 240630Z 32005MPS 270V350 9999 FEW033TCU 25/20 Q1008 NOSIG",
      "metar_wdir": null,
      "metar_wspd": null,
      "metar_oat": 25,
      "metar_qnh": 1008,
      "hourly_oat": [
        27,
        27,
        26,
        26,
        24,
        23,
        22,
        22,
        21,
        21,
        21,
        21,
        20,
        20,
        19,
        19,
        20,
        21,
        22,
        24,
        24,
        23,
        22,
        23,
        25
      ]
    },
    "PEK": {
      "icao": "ZBAA",
      "issued": "2026-06-24T03:01:00.000Z",
      "raw": "TAF ZBAA 240301Z 2406/2512 16003MPS CAVOK TX30/2406Z TX33/2506Z TN17/2421Z TEMPO 2411/2414 -TSRA FEW030CB BKN040",
      "groups": [
        {
          "text": "TAF ZBAA 240301Z 2406/2512 16003MPS CAVOK TX30/2406Z TX33/2506Z TN17/2421Z",
          "offset_h": 0,
          "wdir": null,
          "wspd": null
        },
        {
          "text": "TEMPO 2411/2414 -TSRA FEW030CB BKN040",
          "offset_h": 5,
          "wdir": null,
          "wspd": null
        }
      ],
      "metar_raw": "METAR ZBAA 240630Z 17003MPS 110V230 CAVOK 29/20 Q1006 NOSIG",
      "metar_wdir": null,
      "metar_wspd": null,
      "metar_oat": 29,
      "metar_qnh": 1006,
      "hourly_oat": [
        29,
        29,
        29,
        29,
        28,
        26,
        25,
        22,
        20,
        19,
        19,
        18,
        18,
        18,
        17,
        16,
        17,
        19,
        22,
        24,
        26,
        27,
        29,
        30,
        30
      ]
    },
    "CAN": {
      "icao": "ZGGG",
      "issued": "2026-06-24T03:01:00.000Z",
      "raw": "TAF ZGGG 240301Z 2406/2512 20003MPS 8000 BKN030 TX35/2407Z TX34/2507Z TN26/2422Z TEMPO 2409/2413 TSRA SCT026CB BKN030 TEMPO 2418/2422 SHRA FEW026CB BKN030 TEMPO 2506/2510 TSRA SCT026CB BKN030",
      "groups": [
        {
          "text": "TAF ZGGG 240301Z 2406/2512 20003MPS 8000 BKN030 TX35/2407Z TX34/2507Z TN26/2422Z",
          "offset_h": 0,
          "wdir": null,
          "wspd": null
        },
        {
          "text": "TEMPO 2409/2413 TSRA SCT026CB BKN030",
          "offset_h": 3,
          "wdir": null,
          "wspd": null
        },
        {
          "text": "TEMPO 2418/2422 SHRA FEW026CB BKN030",
          "offset_h": 12,
          "wdir": null,
          "wspd": null
        },
        {
          "text": "TEMPO 2506/2510 TSRA SCT026CB BKN030",
          "offset_h": 24,
          "wdir": null,
          "wspd": null
        }
      ],
      "metar_raw": "METAR ZGGG 240630Z 22003MPS 170V250 9999 FEW046 36/25 Q1001 NOSIG",
      "metar_wdir": null,
      "metar_wspd": null,
      "metar_oat": 36,
      "metar_qnh": 1001,
      "hourly_oat": [
        33,
        31,
        29,
        29,
        29,
        29,
        28,
        28,
        28,
        28,
        27,
        26,
        25,
        25,
        25,
        26,
        26,
        26,
        28,
        29,
        30,
        30,
        31,
        32,
        32
      ]
    }
  }
}