{
  "updated": "2026-06-30T22:07:47Z",
  "tafs": {
    "LAX": {
      "icao": "KLAX",
      "issued": "2026-06-30T21:35:00.000Z",
      "raw": "TAF KLAX 302135Z 3022/0124 26012G18KT P6SM FEW020 SCT035 FM010300 26010KT P6SM BKN022 FM010700 24005KT P6SM OVC015 FM011700 25010KT P6SM BKN025",
      "groups": [
        {
          "text": "TAF KLAX 302135Z 3022/0124 26012G18KT P6SM FEW020 SCT035",
          "offset_h": 0,
          "wdir": 260,
          "wspd": 12
        },
        {
          "text": "FM010300 26010KT P6SM BKN022",
          "offset_h": 5,
          "wdir": 260,
          "wspd": 10
        },
        {
          "text": "FM010700 24005KT P6SM OVC015",
          "offset_h": 9,
          "wdir": 240,
          "wspd": 5
        },
        {
          "text": "FM011700 25010KT P6SM BKN025",
          "offset_h": 19,
          "wdir": 250,
          "wspd": 10
        }
      ],
      "metar_raw": "METAR KLAX 302153Z 27014KT 10SM FEW018 SCT046 21/14 A2994 RMK AO2 SLP138 T02060139 $",
      "metar_wdir": 270,
      "metar_wspd": 14,
      "metar_oat": 21,
      "metar_qnh": 1014,
      "hourly_oat": [
        21,
        21,
        20,
        19,
        18,
        17,
        17,
        17,
        16,
        16,
        16,
        16,
        16,
        16,
        16,
        16,
        17,
        16,
        17,
        18,
        18,
        19,
        20,
        19,
        20
      ]
    },
    "CTS": {
      "icao": "RJCC",
      "issued": "2026-06-30T21:13:00.000Z",
      "raw": "TAF AMD RJCC 302113Z 3021/0200 36006KT 9999 FEW020 SCT030 TEMPO 3021/3023 3000 BR FEW002 BKN005 BECMG 0112/0115 17010KT TEMPO 0112/0115 FEW005 BKN008 TEMPO 0115/0121 3000 BR FEW002 BKN005",
      "groups": [
        {
          "text": "TAF AMD RJCC 302113Z 3021/0200 36006KT 9999 FEW020 SCT030",
          "offset_h": -1,
          "wdir": 360,
          "wspd": 6
        },
        {
          "text": "TEMPO 3021/3023 3000 BR FEW002 BKN005",
          "offset_h": -1,
          "wdir": null,
          "wspd": null
        },
        {
          "text": "BECMG 0112/0115 17010KT",
          "offset_h": 14,
          "wdir": 170,
          "wspd": 10
        },
        {
          "text": "TEMPO 0112/0115 FEW005 BKN008",
          "offset_h": 14,
          "wdir": null,
          "wspd": null
        },
        {
          "text": "TEMPO 0115/0121 3000 BR FEW002 BKN005",
          "offset_h": 17,
          "wdir": null,
          "wspd": null
        }
      ],
      "metar_raw": "METAR RJCC 302200Z VRB01KT 5000 BR FEW003 SCT006 BKN007 16/14 Q1012",
      "metar_wdir": "VRB",
      "metar_wspd": 1,
      "metar_oat": 16,
      "metar_qnh": 1012,
      "hourly_oat": [
        17,
        19,
        21,
        22,
        24,
        25,
        26,
        26,
        24,
        23,
        21,
        20,
        18,
        18,
        17,
        17,
        16,
        16,
        16,
        16,
        16,
        16,
        17,
        17,
        17
      ]
    },
    "PEK": {
      "icao": "ZBAA",
      "issued": "2026-06-30T21:12:00.000Z",
      "raw": "TAF ZBAA 302112Z 0100/0206 15004MPS CAVOK TX30/0107Z TX33/0206Z TN21/0121Z",
      "groups": [
        {
          "text": "TAF ZBAA 302112Z 0100/0206 15004MPS CAVOK TX30/0107Z TX33/0206Z TN21/0121Z",
          "offset_h": 2,
          "wdir": null,
          "wspd": null
        }
      ],
      "metar_raw": "METAR ZBAA 302200Z 00000MPS CAVOK 21/21 Q1006 NOSIG",
      "metar_wdir": null,
      "metar_wspd": null,
      "metar_oat": 21,
      "metar_qnh": 1006,
      "hourly_oat": [
        20,
        21,
        23,
        24,
        25,
        26,
        27,
        29,
        30,
        30,
        30,
        30,
        29,
        28,
        26,
        26,
        25,
        24,
        23,
        23,
        22,
        22,
        21,
        21,
        22
      ]
    },
    "SHA": {
      "icao": "ZSSS",
      "issued": "2026-06-30T21:05:00.000Z",
      "raw": "TAF ZSSS 302105Z 0100/0206 19004MPS 6000 -SHRA BKN020 TX26/0106Z TX28/0206Z TN23/0121Z TEMPO 0100/0103 33004MPS TSRA BKN008 SCT030CB",
      "groups": [
        {
          "text": "TAF ZSSS 302105Z 0100/0206 19004MPS 6000 -SHRA BKN020 TX26/0106Z TX28/0206Z TN23/0121Z",
          "offset_h": 2,
          "wdir": null,
          "wspd": null
        },
        {
          "text": "TEMPO 0100/0103 33004MPS TSRA BKN008 SCT030CB",
          "offset_h": 2,
          "wdir": null,
          "wspd": null
        }
      ],
      "metar_raw": "METAR ZSSS 302200Z 31002MPS 8000 -SHRA FEW007 BKN040 23/22 Q1006 NOSIG",
      "metar_wdir": null,
      "metar_wspd": null,
      "metar_oat": 23,
      "metar_qnh": 1006,
      "hourly_oat": [
        24,
        24,
        24,
        24,
        24,
        24,
        24,
        24,
        24,
        25,
        25,
        26,
        25,
        25,
        24,
        24,
        24,
        24,
        24,
        24,
        23,
        23,
        23,
        24,
        24
      ]
    },
    "PVG": {
      "icao": "ZSPD",
      "issued": "2026-06-30T21:04:00.000Z",
      "raw": "TAF ZSPD 302104Z 0100/0206 19004MPS 6000 -SHRA BKN015 TX26/0106Z TX27/0206Z TN23/0121Z TEMPO 0100/0104 33004MPS TSRA BKN008 SCT030CB",
      "groups": [
        {
          "text": "TAF ZSPD 302104Z 0100/0206 19004MPS 6000 -SHRA BKN015 TX26/0106Z TX27/0206Z TN23/0121Z",
          "offset_h": 2,
          "wdir": null,
          "wspd": null
        },
        {
          "text": "TEMPO 0100/0104 33004MPS TSRA BKN008 SCT030CB",
          "offset_h": 2,
          "wdir": null,
          "wspd": null
        }
      ],
      "metar_raw": "METAR ZSPD 302200Z VRB01MPS 9999 -SHRA NSC 24/24 Q1006 NOSIG",
      "metar_wdir": null,
      "metar_wspd": null,
      "metar_oat": 24,
      "metar_qnh": 1006,
      "hourly_oat": [
        24,
        24,
        24,
        24,
        24,
        24,
        24,
        24,
        24,
        25,
        24,
        25,
        25,
        24,
        24,
        24,
        24,
        23,
        23,
        23,
        23,
        23,
        23,
        23,
        24
      ]
    },
    "DLC": {
      "icao": "ZYTL",
      "issued": "2026-06-30T21:03:00.000Z",
      "raw": "TAF ZYTL 302103Z 0100/0124 14004MPS 5000 BR BKN026 TX26/0106Z TN20/0121Z TEMPO 0114/0118 2000 TSRA BR BKN008 BKN026 SCT033CB",
      "groups": [
        {
          "text": "TAF ZYTL 302103Z 0100/0124 14004MPS 5000 BR BKN026 TX26/0106Z TN20/0121Z",
          "offset_h": 2,
          "wdir": null,
          "wspd": null
        },
        {
          "text": "TEMPO 0114/0118 2000 TSRA BR BKN008 BKN026 SCT033CB",
          "offset_h": 16,
          "wdir": null,
          "wspd": null
        }
      ],
      "metar_raw": "METAR ZYTL 302200Z 14003MPS 7000 FEW010 SCT020 23/21 Q1007 NOSIG",
      "metar_wdir": null,
      "metar_wspd": null,
      "metar_oat": 23,
      "metar_qnh": 1007,
      "hourly_oat": [
        21,
        22,
        23,
        24,
        23,
        23,
        24,
        25,
        26,
        27,
        26,
        26,
        25,
        23,
        22,
        22,
        21,
        21,
        21,
        21,
        21,
        20,
        20,
        20,
        21
      ]
    },
    "CAN": {
      "icao": "ZGGG",
      "issued": "2026-06-30T21:01:00.000Z",
      "raw": "TAF ZGGG 302101Z 0100/0206 12003MPS 8000 BKN033 TX36/0107Z TX35/0206Z TN26/0122Z TEMPO 0110/0114 TSRA SCT026CB BKN033",
      "groups": [
        {
          "text": "TAF ZGGG 302101Z 0100/0206 12003MPS 8000 BKN033 TX36/0107Z TX35/0206Z TN26/0122Z",
          "offset_h": 2,
          "wdir": null,
          "wspd": null
        },
        {
          "text": "TEMPO 0110/0114 TSRA SCT026CB BKN033",
          "offset_h": 12,
          "wdir": null,
          "wspd": null
        }
      ],
      "metar_raw": "METAR ZGGG 302200Z 04002MPS 9999 FEW036 SCT053 27/25 Q1007 NOSIG",
      "metar_wdir": null,
      "metar_wspd": null,
      "metar_oat": 27,
      "metar_qnh": 1007,
      "hourly_oat": [
        26,
        26,
        27,
        29,
        30,
        32,
        32,
        33,
        33,
        33,
        34,
        32,
        31,
        30,
        30,
        29,
        29,
        28,
        28,
        27,
        27,
        26,
        26,
        26,
        26
      ]
    },
    "HNL": {
      "icao": "PHNL",
      "issued": "2026-06-30T20:59:00.000Z",
      "raw": "TAF PHNL 302059Z 3021/0124 06013G21KT P6SM FEW025 SCT045 FM010500 05009KT P6SM VCSH FEW025 SCT045",
      "groups": [
        {
          "text": "TAF PHNL 302059Z 3021/0124 06013G21KT P6SM FEW025 SCT045",
          "offset_h": -1,
          "wdir": 60,
          "wspd": 13
        },
        {
          "text": "FM010500 05009KT P6SM VCSH FEW025 SCT045",
          "offset_h": 7,
          "wdir": 50,
          "wspd": 9
        }
      ],
      "metar_raw": "METAR PHNL 302153Z 05010G17KT 10SM FEW025 FEW040 SCT150 31/19 A3002 RMK AO2 SLP165 T03060194 $",
      "metar_wdir": 50,
      "metar_wspd": 10,
      "metar_oat": 31,
      "metar_qnh": 1017,
      "hourly_oat": [
        31,
        30,
        31,
        30,
        29,
        28,
        27,
        26,
        24,
        25,
        25,
        25,
        24,
        24,
        24,
        24,
        24,
        24,
        23,
        24,
        25,
        27,
        28,
        28,
        29
      ]
    },
    "SAN": {
      "icao": "KSAN",
      "issued": "2026-06-30T20:08:00.000Z",
      "raw": "TAF KSAN 302008Z 3020/0124 27010G18KT P6SM FEW035 FM010100 27009KT P6SM BKN025 FM010300 VRB05KT P6SM OVC022 FM011800 27010KT P6SM SCT025",
      "groups": [
        {
          "text": "TAF KSAN 302008Z 3020/0124 27010G18KT P6SM FEW035",
          "offset_h": -2,
          "wdir": 270,
          "wspd": 10
        },
        {
          "text": "FM010100 27009KT P6SM BKN025",
          "offset_h": 3,
          "wdir": 270,
          "wspd": 9
        },
        {
          "text": "FM010300 VRB05KT P6SM OVC022",
          "offset_h": 5,
          "wdir": "VRB",
          "wspd": 5
        },
        {
          "text": "FM011800 27010KT P6SM SCT025",
          "offset_h": 20,
          "wdir": 270,
          "wspd": 10
        }
      ],
      "metar_raw": "METAR KSAN 302151Z 26010G18KT 10SM BKN028 22/14 A2996 RMK AO2 SLP145 T02170139",
      "metar_wdir": 260,
      "metar_wspd": 10,
      "metar_oat": 22,
      "metar_qnh": 1015,
      "hourly_oat": [
        22,
        22,
        21,
        20,
        19,
        19,
        18,
        18,
        18,
        18,
        18,
        18,
        18,
        18,
        17,
        17,
        17,
        18,
        18,
        18,
        18,
        19,
        20,
        21,
        20
      ]
    },
    "HKG": {
      "icao": "VHHH",
      "issued": "2026-06-30T20:00:00.000Z",
      "raw": "TAF VHHH 302000Z 3021/0203 12010KT 9999 FEW015 SCT025 TX34/0106Z TN28/3022Z TN29/0122Z TEMPO 0103/0109 24010KT TEMPO 0121/0203 3000 SHRA FEW010CB SCT020",
      "groups": [
        {
          "text": "TAF VHHH 302000Z 3021/0203 12010KT 9999 FEW015 SCT025 TX34/0106Z TN28/3022Z TN29/0122Z",
          "offset_h": -1,
          "wdir": 120,
          "wspd": 10
        },
        {
          "text": "TEMPO 0103/0109 24010KT",
          "offset_h": 5,
          "wdir": 240,
          "wspd": 10
        },
        {
          "text": "TEMPO 0121/0203 3000 SHRA FEW010CB SCT020",
          "offset_h": 23,
          "wdir": null,
          "wspd": null
        }
      ],
      "metar_raw": "METAR VHHH 302200Z 08004KT 9999 -SHRA FEW012 SCT028 29/26 Q1007 NOSIG",
      "metar_wdir": 80,
      "metar_wspd": 4,
      "metar_oat": 29,
      "metar_qnh": 1007,
      "hourly_oat": [
        28,
        29,
        29,
        30,
        30,
        31,
        31,
        31,
        31,
        31,
        30,
        30,
        30,
        29,
        29,
        29,
        29,
        29,
        29,
        28,
        28,
        28,
        28,
        28,
        28
      ]
    },
    "HND": {
      "icao": "RJTT",
      "issued": "2026-06-30T19:44:00.000Z",
      "raw": "TAF AMD RJTT 301944Z 3019/0200 30006KT 9999 FEW015 BECMG 3021/3023 12004KT BECMG 0103/0105 20010KT TEMPO 0112/0118 4000 -RA BR FEW003 BKN008 BECMG 0115/0118 11008KT TEMPO 0118/0200 3000 SHRA BR FEW002 BKN005",
      "groups": [
        {
          "text": "TAF AMD RJTT 301944Z 3019/0200 30006KT 9999 FEW015",
          "offset_h": -3,
          "wdir": 300,
          "wspd": 6
        },
        {
          "text": "BECMG 3021/3023 12004KT",
          "offset_h": -1,
          "wdir": 120,
          "wspd": 4
        },
        {
          "text": "BECMG 0103/0105 20010KT",
          "offset_h": 5,
          "wdir": 200,
          "wspd": 10
        },
        {
          "text": "TEMPO 0112/0118 4000 -RA BR FEW003 BKN008",
          "offset_h": 14,
          "wdir": null,
          "wspd": null
        },
        {
          "text": "BECMG 0115/0118 11008KT",
          "offset_h": 17,
          "wdir": 110,
          "wspd": 8
        },
        {
          "text": "TEMPO 0118/0200 3000 SHRA BR FEW002 BKN005",
          "offset_h": 20,
          "wdir": null,
          "wspd": null
        }
      ],
      "metar_raw": "METAR RJTT 302200Z 05005KT 8000 FEW008 BKN/// 24/22 Q1012 BECMG 15005KT",
      "metar_wdir": 50,
      "metar_wspd": 5,
      "metar_oat": 24,
      "metar_qnh": 1012,
      "hourly_oat": [
        22,
        22,
        22,
        23,
        23,
        24,
        25,
        25,
        25,
        25,
        24,
        24,
        23,
        23,
        23,
        23,
        23,
        23,
        22,
        22,
        22,
        22,
        22,
        22,
        22
      ]
    },
    "NGO": {
      "icao": "RJGG",
      "issued": "2026-06-30T17:05:00.000Z",
      "raw": "TAF RJGG 301705Z 3018/0200 01004KT 9000 FEW020 TEMPO 3018/3021 3000 BR BECMG 3023/0101 17008KT TEMPO 0106/0112 2000 -RA BR FEW003 BKN008 TEMPO 0112/0200 2000 SHRA BR FEW003 BKN008",
      "groups": [
        {
          "text": "TAF RJGG 301705Z 3018/0200 01004KT 9000 FEW020",
          "offset_h": -4,
          "wdir": 10,
          "wspd": 4
        },
        {
          "text": "TEMPO 3018/3021 3000 BR",
          "offset_h": -4,
          "wdir": null,
          "wspd": null
        },
        {
          "text": "BECMG 3023/0101 17008KT",
          "offset_h": 1,
          "wdir": 170,
          "wspd": 8
        },
        {
          "text": "TEMPO 0106/0112 2000 -RA BR FEW003 BKN008",
          "offset_h": 8,
          "wdir": null,
          "wspd": null
        },
        {
          "text": "TEMPO 0112/0200 2000 SHRA BR FEW003 BKN008",
          "offset_h": 14,
          "wdir": null,
          "wspd": null
        }
      ],
      "metar_raw": "METAR RJGG 302200Z 11003KT 5000 BR FEW020 BKN/// 24/21 Q1012 NOSIG",
      "metar_wdir": 110,
      "metar_wspd": 3,
      "metar_oat": 24,
      "metar_qnh": 1012,
      "hourly_oat": [
        22,
        22,
        23,
        23,
        22,
        22,
        23,
        23,
        23,
        23,
        23,
        23,
        22,
        22,
        21,
        21,
        22,
        22,
        22,
        22,
        23,
        24,
        24,
        24,
        24
      ]
    },
    "NRT": {
      "icao": "RJAA",
      "issued": "2026-06-30T17:05:00.000Z",
      "raw": "TAF RJAA 301705Z 3018/0200 05004KT 6000 FEW005 BKN012 TEMPO 3018/3022 0300 FG VV001 TEMPO 3022/0100 3000 BR FEW001 BKN003 BECMG 0104/0106 14006KT TEMPO 0115/0200 2000 RA BR FEW001 BKN003",
      "groups": [
        {
          "text": "TAF RJAA 301705Z 3018/0200 05004KT 6000 FEW005 BKN012",
          "offset_h": -4,
          "wdir": 50,
          "wspd": 4
        },
        {
          "text": "TEMPO 3018/3022 0300 FG VV001",
          "offset_h": -4,
          "wdir": null,
          "wspd": null
        },
        {
          "text": "TEMPO 3022/0100 3000 BR FEW001 BKN003",
          "offset_h": 0,
          "wdir": null,
          "wspd": null
        },
        {
          "text": "BECMG 0104/0106 14006KT",
          "offset_h": 6,
          "wdir": 140,
          "wspd": 6
        },
        {
          "text": "TEMPO 0115/0200 2000 RA BR FEW001 BKN003",
          "offset_h": 17,
          "wdir": null,
          "wspd": null
        }
      ],
      "metar_raw": "METAR RJAA 302200Z 03003KT 350V060 2800 BR SCT002 BKN003 22/22 Q1012 BECMG 3500 BR FEW005 BKN008",
      "metar_wdir": 30,
      "metar_wspd": 3,
      "metar_oat": 22,
      "metar_qnh": 1012,
      "hourly_oat": [
        22,
        22,
        23,
        24,
        25,
        26,
        26,
        26,
        26,
        25,
        24,
        22,
        22,
        21,
        21,
        21,
        21,
        21,
        21,
        21,
        21,
        21,
        21,
        21,
        22
      ]
    },
    "KIX": {
      "icao": "RJBB",
      "issued": "2026-06-30T17:05:00.000Z",
      "raw": "TAF RJBB 301705Z 3018/0200 12004KT 9999 FEW005 SCT030 TEMPO 0105/0112 3000 SHRA BR BECMG 0109/0112 19023KT TEMPO 0112/0115 19025G35KT 3000 SHRA BR TEMPO 0115/0121 19028G38KT 3000 TSRA BR FEW003 BKN008 BKN015 FEW015CB",
      "groups": [
        {
          "text": "TAF RJBB 301705Z 3018/0200 12004KT 9999 FEW005 SCT030",
          "offset_h": -4,
          "wdir": 120,
          "wspd": 4
        },
        {
          "text": "TEMPO 0105/0112 3000 SHRA BR",
          "offset_h": 7,
          "wdir": null,
          "wspd": null
        },
        {
          "text": "BECMG 0109/0112 19023KT",
          "offset_h": 11,
          "wdir": 190,
          "wspd": 23
        },
        {
          "text": "TEMPO 0112/0115 19025G35KT 3000 SHRA BR",
          "offset_h": 14,
          "wdir": 190,
          "wspd": 25
        },
        {
          "text": "TEMPO 0115/0121 19028G38KT 3000 TSRA BR FEW003 BKN008 BKN015 FEW015CB",
          "offset_h": 17,
          "wdir": 190,
          "wspd": 28
        }
      ],
      "metar_raw": "METAR RJBB 302200Z 09004KT 9000 -RA FEW020 SCT060 BKN150 24/21 Q1012 NOSIG",
      "metar_wdir": 90,
      "metar_wspd": 4,
      "metar_oat": 24,
      "metar_qnh": 1012,
      "hourly_oat": [
        24,
        23,
        23,
        24,
        23,
        23,
        24,
        23,
        23,
        23,
        23,
        23,
        23,
        24,
        24,
        25,
        25,
        25,
        25,
        25,
        26,
        26,
        26,
        25,
        25
      ]
    },
    "ITM": {
      "icao": "RJOO",
      "issued": "2026-06-30T17:05:00.000Z",
      "raw": "TAF RJOO 301705Z 3018/0200 10004KT 9999 FEW030 TEMPO 0106/0112 3000 SHRA BR FEW003 BKN008 TEMPO 0112/0121 1500 +TSRA BR FEW003 BKN008 FEW015CB BECMG 0118/0121 25010KT TEMPO 0121/0200 3000 -SHRA BR FEW003 BKN008",
      "groups": [
        {
          "text": "TAF RJOO 301705Z 3018/0200 10004KT 9999 FEW030",
          "offset_h": -4,
          "wdir": 100,
          "wspd": 4
        },
        {
          "text": "TEMPO 0106/0112 3000 SHRA BR FEW003 BKN008",
          "offset_h": 8,
          "wdir": null,
          "wspd": null
        },
        {
          "text": "TEMPO 0112/0121 1500 +TSRA BR FEW003 BKN008 FEW015CB",
          "offset_h": 14,
          "wdir": null,
          "wspd": null
        },
        {
          "text": "BECMG 0118/0121 25010KT",
          "offset_h": 20,
          "wdir": 250,
          "wspd": 10
        },
        {
          "text": "TEMPO 0121/0200 3000 -SHRA BR FEW003 BKN008",
          "offset_h": 23,
          "wdir": null,
          "wspd": null
        }
      ],
      "metar_raw": "METAR RJOO 302200Z 31001KT 9000 FEW020 BKN220 24/21 Q1012",
      "metar_wdir": 310,
      "metar_wspd": 1,
      "metar_oat": 24,
      "metar_qnh": 1012,
      "hourly_oat": [
        22,
        24,
        24,
        25,
        24,
        24,
        24,
        24,
        23,
        23,
        23,
        22,
        22,
        22,
        22,
        22,
        22,
        22,
        22,
        24,
        25,
        25,
        25,
        25,
        25
      ]
    },
    "FUK": {
      "icao": "RJFF",
      "issued": "2026-06-30T17:05:00.000Z",
      "raw": "TAF RJFF 301705Z 3018/0200 15014KT 7000 -SHRA FEW008 BKN020 TEMPO 3018/0100 4000 SHRA BR TEMPO 0100/0112 4000 TSRA BR FEW007 FEW015CB BKN020 BECMG 0112/0115 36004KT TEMPO 0112/0118 4000 -TSRA BR BKN005 BKN013 FEW015CB TEMPO 0118/0121 3000 -SHRA BR BKN005 BKN012",
      "groups": [
        {
          "text": "TAF RJFF 301705Z 3018/0200 15014KT 7000 -SHRA FEW008 BKN020",
          "offset_h": -4,
          "wdir": 150,
          "wspd": 14
        },
        {
          "text": "TEMPO 3018/0100 4000 SHRA BR",
          "offset_h": -4,
          "wdir": null,
          "wspd": null
        },
        {
          "text": "TEMPO 0100/0112 4000 TSRA BR FEW007 FEW015CB BKN020",
          "offset_h": 2,
          "wdir": null,
          "wspd": null
        },
        {
          "text": "BECMG 0112/0115 36004KT",
          "offset_h": 14,
          "wdir": 360,
          "wspd": 4
        },
        {
          "text": "TEMPO 0112/0118 4000 -TSRA BR BKN005 BKN013 FEW015CB",
          "offset_h": 14,
          "wdir": null,
          "wspd": null
        },
        {
          "text": "TEMPO 0118/0121 3000 -SHRA BR BKN005 BKN012",
          "offset_h": 20,
          "wdir": null,
          "wspd": null
        }
      ],
      "metar_raw": "METAR RJFF 302200Z 14009KT 9999 SHRA FEW001 SCT040 BKN060 24/23 Q1009 TEMPO 4000 SHRA BR",
      "metar_wdir": 140,
      "metar_wspd": 9,
      "metar_oat": 24,
      "metar_qnh": 1009,
      "hourly_oat": [
        24,
        24,
        24,
        25,
        25,
        26,
        25,
        25,
        26,
        26,
        26,
        25,
        25,
        25,
        25,
        23,
        23,
        22,
        22,
        22,
        22,
        22,
        22,
        22,
        22
      ]
    },
    "OKA": {
      "icao": "ROAH",
      "issued": "2026-06-30T17:05:00.000Z",
      "raw": "TAF ROAH 301705Z 3018/0200 17010KT 9999 FEW008 SCT012 TEMPO 3018/3021 FEW005 BKN008 TEMPO 0115/0200 FEW005 BKN008",
      "groups": [
        {
          "text": "TAF ROAH 301705Z 3018/0200 17010KT 9999 FEW008 SCT012",
          "offset_h": -4,
          "wdir": 170,
          "wspd": 10
        },
        {
          "text": "TEMPO 3018/3021 FEW005 BKN008",
          "offset_h": -4,
          "wdir": null,
          "wspd": null
        },
        {
          "text": "TEMPO 0115/0200 FEW005 BKN008",
          "offset_h": 17,
          "wdir": null,
          "wspd": null
        }
      ],
      "metar_raw": "METAR ROAH 302200Z 17007KT 9999 FEW007 28/27 Q1012",
      "metar_wdir": 170,
      "metar_wspd": 7,
      "metar_oat": 28,
      "metar_qnh": 1012,
      "hourly_oat": [
        27,
        28,
        29,
        29,
        30,
        30,
        30,
        30,
        30,
        29,
        29,
        28,
        28,
        27,
        27,
        27,
        27,
        27,
        27,
        27,
        27,
        27,
        27,
        27,
        28
      ]
    },
    "KUL": {
      "icao": "WMKK",
      "issued": "2026-06-30T17:00:00.000Z",
      "raw": "TAF WMKK 301700Z 3018/0200 VRB03KT 9999 FEW030",
      "groups": [
        {
          "text": "TAF WMKK 301700Z 3018/0200 VRB03KT 9999 FEW030",
          "offset_h": -4,
          "wdir": "VRB",
          "wspd": 3
        }
      ],
      "metar_raw": "METAR WMKK 302130Z 00000KT 9000 FEW010 26/25 Q1008 NOSIG",
      "metar_wdir": 0,
      "metar_wspd": 0,
      "metar_oat": 26,
      "metar_qnh": 1008,
      "hourly_oat": [
        25,
        24,
        25,
        26,
        28,
        29,
        30,
        31,
        30,
        30,
        30,
        30,
        30,
        28,
        25,
        25,
        25,
        24,
        24,
        24,
        24,
        24,
        24,
        24,
        23
      ]
    },
    "GMP": {
      "icao": "RKSS",
      "issued": "2026-06-30T17:00:00.000Z",
      "raw": "TAF RKSS 301700Z 3018/0124 01005KT CAVOK TN22/3019Z TX32/0105Z TN22/0120Z BECMG 3021/3023 09005KT 9999 SCT040 BECMG 0103/0105 22007KT TEMPO 0109/0111 29007KT BECMG 0112/0114 35005KT BECMG 0117/0119 16005KT",
      "groups": [
        {
          "text": "TAF RKSS 301700Z 3018/0124 01005KT CAVOK TN22/3019Z TX32/0105Z TN22/0120Z",
          "offset_h": -4,
          "wdir": 10,
          "wspd": 5
        },
        {
          "text": "BECMG 3021/3023 09005KT 9999 SCT040",
          "offset_h": -1,
          "wdir": 90,
          "wspd": 5
        },
        {
          "text": "BECMG 0103/0105 22007KT",
          "offset_h": 5,
          "wdir": 220,
          "wspd": 7
        },
        {
          "text": "TEMPO 0109/0111 29007KT",
          "offset_h": 11,
          "wdir": 290,
          "wspd": 7
        },
        {
          "text": "BECMG 0112/0114 35005KT",
          "offset_h": 14,
          "wdir": 350,
          "wspd": 5
        },
        {
          "text": "BECMG 0117/0119 16005KT",
          "offset_h": 19,
          "wdir": 160,
          "wspd": 5
        }
      ],
      "metar_raw": "METAR RKSS 302200Z 03002KT CAVOK 24/21 Q1008 NOSIG",
      "metar_wdir": 30,
      "metar_wspd": 2,
      "metar_oat": 24,
      "metar_qnh": 1008,
      "hourly_oat": [
        22,
        23,
        24,
        26,
        28,
        29,
        30,
        30,
        30,
        30,
        28,
        27,
        26,
        25,
        24,
        24,
        24,
        23,
        23,
        23,
        22,
        22,
        22,
        22,
        22
      ]
    },
    "TSA": {
      "icao": "RCSS",
      "issued": "2026-06-30T17:00:00.000Z",
      "raw": "TAF RCSS 301700Z 3018/0118 09005KT 9999 FEW015 BKN032 BECMG 0100/0102 30005KT TEMPO 0106/0110 28010KT 5000 RA FEW010 FEW015CB BKN020 BECMG 0112/0114 10005KT",
      "groups": [
        {
          "text": "TAF RCSS 301700Z 3018/0118 09005KT 9999 FEW015 BKN032",
          "offset_h": -4,
          "wdir": 90,
          "wspd": 5
        },
        {
          "text": "BECMG 0100/0102 30005KT",
          "offset_h": 2,
          "wdir": 300,
          "wspd": 5
        },
        {
          "text": "TEMPO 0106/0110 28010KT 5000 RA FEW010 FEW015CB BKN020",
          "offset_h": 8,
          "wdir": 280,
          "wspd": 10
        },
        {
          "text": "BECMG 0112/0114 10005KT",
          "offset_h": 14,
          "wdir": 100,
          "wspd": 5
        }
      ],
      "metar_raw": "METAR RCSS 302100Z VRB02KT 9999 FEW020 SCT070 27/26 Q1009 NOSIG RMK A2981",
      "metar_wdir": "VRB",
      "metar_wspd": 2,
      "metar_oat": 27,
      "metar_qnh": 1009,
      "hourly_oat": [
        26,
        28,
        29,
        31,
        32,
        33,
        34,
        34,
        34,
        32,
        31,
        31,
        30,
        29,
        29,
        28,
        28,
        27,
        26,
        26,
        26,
        25,
        25,
        25,
        26
      ]
    },
    "BKK": {
      "icao": "VTBS",
      "issued": "2026-06-30T17:00:00.000Z",
      "raw": "TAF VTBS 301700Z 3018/0124 24008KT 9999 FEW020 TEMPO 0110/0114 VRB10G25KT 4000 TSRA FEW018CB SCT030 BKN100",
      "groups": [
        {
          "text": "TAF VTBS 301700Z 3018/0124 24008KT 9999 FEW020",
          "offset_h": -4,
          "wdir": 240,
          "wspd": 8
        },
        {
          "text": "TEMPO 0110/0114 VRB10G25KT 4000 TSRA FEW018CB SCT030 BKN100",
          "offset_h": 12,
          "wdir": "VRB",
          "wspd": 10
        }
      ],
      "metar_raw": "METAR VTBS 302200Z 22003KT 200V260 9999 FEW020 29/22 Q1006 NOSIG",
      "metar_wdir": 220,
      "metar_wspd": 3,
      "metar_oat": 29,
      "metar_qnh": 1006,
      "hourly_oat": [
        27,
        27,
        27,
        26,
        27,
        30,
        31,
        31,
        31,
        31,
        30,
        28,
        29,
        29,
        26,
        26,
        26,
        26,
        26,
        27,
        26,
        26,
        26,
        26,
        26
      ]
    },
    "TPE": {
      "icao": "RCTP",
      "issued": "2026-06-30T17:00:00.000Z",
      "raw": "TAF RCTP 301700Z 3018/0124 13005KT 9999 FEW015 BKN032 TEMPO 3018/3024 18005KT BECMG 0100/0102 33005KT TEMPO 0105/0110 36010KT FEW010 BKN020 BECMG 0112/0114 15005KT",
      "groups": [
        {
          "text": "TAF RCTP 301700Z 3018/0124 13005KT 9999 FEW015 BKN032",
          "offset_h": -4,
          "wdir": 130,
          "wspd": 5
        },
        {
          "text": "TEMPO 3018/3024 18005KT",
          "offset_h": -4,
          "wdir": 180,
          "wspd": 5
        },
        {
          "text": "BECMG 0100/0102 33005KT",
          "offset_h": 2,
          "wdir": 330,
          "wspd": 5
        },
        {
          "text": "TEMPO 0105/0110 36010KT FEW010 BKN020",
          "offset_h": 7,
          "wdir": 360,
          "wspd": 10
        },
        {
          "text": "BECMG 0112/0114 15005KT",
          "offset_h": 14,
          "wdir": 150,
          "wspd": 5
        }
      ],
      "metar_raw": "METAR RCTP 302200Z 16003KT 120V200 9999 FEW020 BKN200 29/25 Q1009 NOSIG RMK A2982",
      "metar_wdir": 160,
      "metar_wspd": 3,
      "metar_oat": 29,
      "metar_qnh": 1009,
      "hourly_oat": [
        26,
        28,
        29,
        30,
        30,
        30,
        30,
        30,
        30,
        30,
        30,
        29,
        29,
        28,
        27,
        27,
        27,
        27,
        27,
        27,
        27,
        26,
        26,
        26,
        26
      ]
    },
    "CGK": {
      "icao": "WIII",
      "issued": "2026-06-30T17:00:00.000Z",
      "raw": "TAF WIII 301700Z 3018/0200 VRB04KT 5000 HZ SCT020 BECMG 0101/0103 06011KT 8000 NSW",
      "groups": [
        {
          "text": "TAF WIII 301700Z 3018/0200 VRB04KT 5000 HZ SCT020",
          "offset_h": -4,
          "wdir": "VRB",
          "wspd": 4
        },
        {
          "text": "BECMG 0101/0103 06011KT 8000 NSW",
          "offset_h": 3,
          "wdir": 60,
          "wspd": 11
        }
      ],
      "metar_raw": "METAR WIII 302200Z 19002KT 5000 HZ FEW020 25/21 Q1010 NOSIG",
      "metar_wdir": 190,
      "metar_wspd": 2,
      "metar_oat": 25,
      "metar_qnh": 1010,
      "hourly_oat": [
        24,
        23,
        24,
        27,
        29,
        31,
        32,
        33,
        34,
        34,
        32,
        31,
        30,
        29,
        28,
        28,
        28,
        27,
        27,
        26,
        26,
        26,
        25,
        24,
        24
      ]
    },
    "SIN": {
      "icao": "WSSS",
      "issued": "2026-06-30T17:00:00.000Z",
      "raw": "TAF WSSS 301700Z 3018/0200 17006KT 9999 FEW015 SCT020",
      "groups": [
        {
          "text": "TAF WSSS 301700Z 3018/0200 17006KT 9999 FEW015 SCT020",
          "offset_h": -4,
          "wdir": 170,
          "wspd": 6
        }
      ],
      "metar_raw": "METAR WSSS 302200Z 19005KT 9999 FEW018 BKN300 26/24 Q1009 NOSIG",
      "metar_wdir": 190,
      "metar_wspd": 5,
      "metar_oat": 26,
      "metar_qnh": 1009,
      "hourly_oat": [
        27,
        27,
        28,
        28,
        29,
        29,
        29,
        29,
        29,
        29,
        30,
        30,
        30,
        29,
        28,
        28,
        28,
        28,
        26,
        24,
        25,
        25,
        26,
        26,
        26
      ]
    },
    "SGN": {
      "icao": "VVTS",
      "issued": "2026-06-30T17:00:00.000Z",
      "raw": "TAF VVTS 301700Z 3018/0124 27010KT 9999 SCT017 TEMPO 0105/0109 27015G28KT 2000 +TSRA BKN013 SCT015CB TEMPO 0109/0114 3500 SHRA SCT015 FEW017CB",
      "groups": [
        {
          "text": "TAF VVTS 301700Z 3018/0124 27010KT 9999 SCT017",
          "offset_h": -4,
          "wdir": 270,
          "wspd": 10
        },
        {
          "text": "TEMPO 0105/0109 27015G28KT 2000 +TSRA BKN013 SCT015CB",
          "offset_h": 7,
          "wdir": 270,
          "wspd": 15
        },
        {
          "text": "TEMPO 0109/0114 3500 SHRA SCT015 FEW017CB",
          "offset_h": 11,
          "wdir": null,
          "wspd": null
        }
      ],
      "metar_raw": "METAR VVTS 302200Z 25008KT CAVOK 27/27 Q1006 NOSIG",
      "metar_wdir": 250,
      "metar_wspd": 8,
      "metar_oat": 27,
      "metar_qnh": 1006,
      "hourly_oat": [
        26,
        26,
        27,
        29,
        30,
        30,
        31,
        30,
        31,
        28,
        27,
        27,
        26,
        26,
        26,
        26,
        26,
        26,
        26,
        25,
        25,
        25,
        25,
        25,
        25
      ]
    },
    "HAN": {
      "icao": "VVNB",
      "issued": "2026-06-30T17:00:00.000Z",
      "raw": "TAF VVNB 301700Z 3018/0118 07008KT 9999 SCT020 TEMPO 3020/0102 3000 TSRA SCT010 FEW027CB TEMPO 0104/0107 3000 TSRA BKN010 FEW027CB TEMPO 0110/0114 3500 TSRA SCT010 FEW027CB",
      "groups": [
        {
          "text": "TAF VVNB 301700Z 3018/0118 07008KT 9999 SCT020",
          "offset_h": -4,
          "wdir": 70,
          "wspd": 8
        },
        {
          "text": "TEMPO 3020/0102 3000 TSRA SCT010 FEW027CB",
          "offset_h": -2,
          "wdir": null,
          "wspd": null
        },
        {
          "text": "TEMPO 0104/0107 3000 TSRA BKN010 FEW027CB",
          "offset_h": 6,
          "wdir": null,
          "wspd": null
        },
        {
          "text": "TEMPO 0110/0114 3500 TSRA SCT010 FEW027CB",
          "offset_h": 12,
          "wdir": null,
          "wspd": null
        }
      ],
      "metar_raw": "METAR VVNB 302200Z 07006KT 010V080 9999 BKN016 27/26 Q1004 TEMPO FM2240 4000 SHRA BKN010 FEW027CB",
      "metar_wdir": 70,
      "metar_wspd": 6,
      "metar_oat": 27,
      "metar_qnh": 1004,
      "hourly_oat": [
        25,
        25,
        25,
        27,
        28,
        29,
        30,
        31,
        31,
        30,
        31,
        30,
        29,
        29,
        28,
        28,
        27,
        26,
        26,
        25,
        25,
        25,
        25,
        25,
        25
      ]
    }
  }
}