{
  "updated": "2026-05-23T11:45:20Z",
  "tafs": {
    "OKA": {
      "icao": "ROAH",
      "issued": "2026-05-23T11:34:00.000Z",
      "raw": "TAF AMD ROAH 231134Z 2312/2418 31016KT 7000 -SHRA FEW005 BKN010 TEMPO 2312/2315 2000 +TSRA BR FEW003 BKN005 SCT015CB BECMG 2313/2315 24012KT TEMPO 2315/2318 FEW003 BKN005 TEMPO 2318/2321 4000 TSRA BR FEW003 BKN005 FEW015CB TEMPO 2321/2418 FEW003 BKN005",
      "groups": [
        {
          "text": "TAF AMD ROAH 231134Z 2312/2418 31016KT 7000 -SHRA FEW005 BKN010",
          "offset_h": 1,
          "wdir": 310,
          "wspd": 16
        },
        {
          "text": "TEMPO 2312/2315 2000 +TSRA BR FEW003 BKN005 SCT015CB",
          "offset_h": 1,
          "wdir": null,
          "wspd": null
        },
        {
          "text": "BECMG 2313/2315 24012KT",
          "offset_h": 2,
          "wdir": 240,
          "wspd": 12
        },
        {
          "text": "TEMPO 2315/2318 FEW003 BKN005",
          "offset_h": 4,
          "wdir": null,
          "wspd": null
        },
        {
          "text": "TEMPO 2318/2321 4000 TSRA BR FEW003 BKN005 FEW015CB",
          "offset_h": 7,
          "wdir": null,
          "wspd": null
        },
        {
          "text": "TEMPO 2321/2418 FEW003 BKN005",
          "offset_h": 10,
          "wdir": null,
          "wspd": null
        }
      ],
      "metar_raw": "METAR ROAH 231130Z 34010KT 310V040 1000 R18L/1000VP2000D R36L/1100VP2000D +TSRA BR BKN002 BKN005 BKN015 SCT025CB 24/24 Q1010",
      "metar_wdir": 340,
      "metar_wspd": 10,
      "metar_oat": 24,
      "metar_qnh": 1010,
      "hourly_oat": [
        24,
        24,
        24,
        24,
        24,
        24,
        25,
        25,
        25,
        25,
        25,
        26,
        26,
        27,
        27,
        27,
        28,
        28,
        27,
        28,
        27,
        27,
        27,
        26,
        26
      ]
    },
    "LAX": {
      "icao": "KLAX",
      "issued": "2026-05-23T11:21:00.000Z",
      "raw": "TAF KLAX 231121Z 2312/2418 VRB03KT P6SM OVC022 FM231500 24006KT P6SM OVC025 FM232000 26012KT P6SM FEW025 FM240500 26007KT P6SM BKN018 FM240700 VRB03KT P6SM OVC018 FM241500 VRB03KT P6SM OVC022",
      "groups": [
        {
          "text": "TAF KLAX 231121Z 2312/2418 VRB03KT P6SM OVC022",
          "offset_h": 1,
          "wdir": "VRB",
          "wspd": 3
        },
        {
          "text": "FM231500 24006KT P6SM OVC025",
          "offset_h": 4,
          "wdir": 240,
          "wspd": 6
        },
        {
          "text": "FM232000 26012KT P6SM FEW025",
          "offset_h": 9,
          "wdir": 260,
          "wspd": 12
        },
        {
          "text": "FM240500 26007KT P6SM BKN018",
          "offset_h": 18,
          "wdir": 260,
          "wspd": 7
        },
        {
          "text": "FM240700 VRB03KT P6SM OVC018",
          "offset_h": 20,
          "wdir": "VRB",
          "wspd": 3
        },
        {
          "text": "FM241500 VRB03KT P6SM OVC022",
          "offset_h": 28,
          "wdir": "VRB",
          "wspd": 3
        }
      ],
      "metar_raw": "METAR KLAX 231053Z 00000KT 10SM OVC021 17/12 A2991 RMK AO2 SLP126 T01670122",
      "metar_wdir": 0,
      "metar_wspd": 0,
      "metar_oat": 17,
      "metar_qnh": 1013,
      "hourly_oat": [
        16,
        16,
        16,
        16,
        16,
        17,
        17,
        18,
        18,
        18,
        18,
        18,
        18,
        17,
        17,
        16,
        15,
        15,
        15,
        15,
        15,
        15,
        15,
        14,
        14
      ]
    },
    "HNL": {
      "icao": "PHNL",
      "issued": "2026-05-23T11:20:00.000Z",
      "raw": "TAF PHNL 231120Z 2312/2418 05015G25KT P6SM FEW025 SCT040 FM232000 06020G30KT P6SM VCSH SCT025 BKN040 FM240500 05015G25KT P6SM FEW025 SCT040",
      "groups": [
        {
          "text": "TAF PHNL 231120Z 2312/2418 05015G25KT P6SM FEW025 SCT040",
          "offset_h": 1,
          "wdir": 50,
          "wspd": 15
        },
        {
          "text": "FM232000 06020G30KT P6SM VCSH SCT025 BKN040",
          "offset_h": 9,
          "wdir": 60,
          "wspd": 20
        },
        {
          "text": "FM240500 05015G25KT P6SM FEW025 SCT040",
          "offset_h": 18,
          "wdir": 50,
          "wspd": 15
        }
      ],
      "metar_raw": "METAR PHNL 231053Z 06014G23KT 10SM FEW025 FEW045 FEW060 24/17 A3005 RMK AO2 PK WND 05029/1038 RAB10E18 SLP176 P0000 T02390167 $",
      "metar_wdir": 60,
      "metar_wspd": 14,
      "metar_oat": 24,
      "metar_qnh": 1018,
      "hourly_oat": [
        22,
        22,
        22,
        21,
        21,
        20,
        21,
        22,
        23,
        25,
        26,
        26,
        26,
        26,
        26,
        25,
        25,
        24,
        23,
        23,
        22,
        22,
        22,
        22,
        21
      ]
    },
    "SAN": {
      "icao": "KSAN",
      "issued": "2026-05-23T11:20:00.000Z",
      "raw": "TAF KSAN 231120Z 2312/2418 VRB04KT P6SM OVC024 FM231700 28009KT P6SM FEW027 FM240100 VRB05KT P6SM BKN026 FM241700 30009KT P6SM SCT030",
      "groups": [
        {
          "text": "TAF KSAN 231120Z 2312/2418 VRB04KT P6SM OVC024",
          "offset_h": 1,
          "wdir": "VRB",
          "wspd": 4
        },
        {
          "text": "FM231700 28009KT P6SM FEW027",
          "offset_h": 6,
          "wdir": 280,
          "wspd": 9
        },
        {
          "text": "FM240100 VRB05KT P6SM BKN026",
          "offset_h": 14,
          "wdir": "VRB",
          "wspd": 5
        },
        {
          "text": "FM241700 30009KT P6SM SCT030",
          "offset_h": 30,
          "wdir": 300,
          "wspd": 9
        }
      ],
      "metar_raw": "METAR KSAN 231051Z 30004KT 10SM OVC025 18/12 A2992 RMK AO2 SLP131 T01780117",
      "metar_wdir": 300,
      "metar_wspd": 4,
      "metar_oat": 18,
      "metar_qnh": 1013,
      "hourly_oat": [
        16,
        16,
        16,
        16,
        17,
        17,
        18,
        18,
        20,
        21,
        21,
        20,
        19,
        18,
        18,
        17,
        17,
        17,
        16,
        16,
        16,
        16,
        16,
        16,
        16
      ]
    },
    "NRT": {
      "icao": "RJAA",
      "issued": "2026-05-23T11:05:00.000Z",
      "raw": "TAF RJAA 231105Z 2312/2418 36008KT 9999 FEW012 BKN020 BECMG 2400/2403 12010KT BECMG 2412/2415 02006KT TEMPO 2412/2418 FEW003 BKN008",
      "groups": [
        {
          "text": "TAF RJAA 231105Z 2312/2418 36008KT 9999 FEW012 BKN020",
          "offset_h": 1,
          "wdir": 360,
          "wspd": 8
        },
        {
          "text": "BECMG 2400/2403 12010KT",
          "offset_h": 13,
          "wdir": 120,
          "wspd": 10
        },
        {
          "text": "BECMG 2412/2415 02006KT",
          "offset_h": 25,
          "wdir": 20,
          "wspd": 6
        },
        {
          "text": "TEMPO 2412/2418 FEW003 BKN008",
          "offset_h": 25,
          "wdir": null,
          "wspd": null
        }
      ],
      "metar_raw": "METAR RJAA 231130Z 01009KT 9999 BKN008 BKN100 14/12 Q1021 NOSIG",
      "metar_wdir": 10,
      "metar_wspd": 9,
      "metar_oat": 14,
      "metar_qnh": 1021,
      "hourly_oat": [
        15,
        14,
        14,
        14,
        14,
        14,
        15,
        15,
        14,
        14,
        14,
        14,
        15,
        16,
        19,
        21,
        21,
        21,
        21,
        21,
        20,
        20,
        20,
        19,
        18
      ]
    },
    "ITM": {
      "icao": "RJOO",
      "issued": "2026-05-23T11:05:00.000Z",
      "raw": "TAF RJOO 231105Z 2312/2418 07012KT 9999 FEW030 BKN040 BECMG 2415/2418 04006KT",
      "groups": [
        {
          "text": "TAF RJOO 231105Z 2312/2418 07012KT 9999 FEW030 BKN040",
          "offset_h": 1,
          "wdir": 70,
          "wspd": 12
        },
        {
          "text": "BECMG 2415/2418 04006KT",
          "offset_h": 28,
          "wdir": 40,
          "wspd": 6
        }
      ],
      "metar_raw": "METAR RJOO 231100Z 08014KT 030V110 9999 FEW030 SCT050 BKN080 20/14 Q1014",
      "metar_wdir": 80,
      "metar_wspd": 14,
      "metar_oat": 20,
      "metar_qnh": 1014,
      "hourly_oat": [
        19,
        19,
        19,
        19,
        19,
        19,
        19,
        19,
        18,
        18,
        18,
        19,
        20,
        22,
        23,
        24,
        25,
        26,
        26,
        26,
        26,
        25,
        24,
        23,
        22
      ]
    },
    "HND": {
      "icao": "RJTT",
      "issued": "2026-05-23T11:05:00.000Z",
      "raw": "TAF RJTT 231105Z 2312/2418 35014KT 9999 FEW008 BKN015 BECMG 2403/2406 09010KT BECMG 2412/2415 36010KT",
      "groups": [
        {
          "text": "TAF RJTT 231105Z 2312/2418 35014KT 9999 FEW008 BKN015",
          "offset_h": 1,
          "wdir": 350,
          "wspd": 14
        },
        {
          "text": "BECMG 2403/2406 09010KT",
          "offset_h": 16,
          "wdir": 90,
          "wspd": 10
        },
        {
          "text": "BECMG 2412/2415 36010KT",
          "offset_h": 25,
          "wdir": 360,
          "wspd": 10
        }
      ],
      "metar_raw": "METAR RJTT 231130Z 02012KT 9999 BKN017 15/12 Q1021 TEMPO FM1200 BKN014",
      "metar_wdir": 20,
      "metar_wspd": 12,
      "metar_oat": 15,
      "metar_qnh": 1021,
      "hourly_oat": [
        16,
        16,
        16,
        15,
        15,
        15,
        14,
        14,
        14,
        14,
        14,
        15,
        15,
        16,
        17,
        18,
        19,
        20,
        20,
        20,
        20,
        20,
        20,
        20,
        20
      ]
    },
    "KIX": {
      "icao": "RJBB",
      "issued": "2026-05-23T11:05:00.000Z",
      "raw": "TAF RJBB 231105Z 2312/2418 06010KT 9999 FEW015 BKN030",
      "groups": [
        {
          "text": "TAF RJBB 231105Z 2312/2418 06010KT 9999 FEW015 BKN030",
          "offset_h": 1,
          "wdir": 60,
          "wspd": 10
        }
      ],
      "metar_raw": "METAR RJBB 231130Z 08013KT 9999 FEW020 SCT060 BKN100 21/15 Q1014 NOSIG",
      "metar_wdir": 80,
      "metar_wspd": 13,
      "metar_oat": 21,
      "metar_qnh": 1014,
      "hourly_oat": [
        21,
        21,
        21,
        21,
        21,
        20,
        20,
        20,
        20,
        20,
        20,
        20,
        20,
        21,
        21,
        21,
        22,
        22,
        22,
        23,
        23,
        23,
        23,
        23,
        22
      ]
    },
    "FUK": {
      "icao": "RJFF",
      "issued": "2026-05-23T11:05:00.000Z",
      "raw": "TAF RJFF 231105Z 2312/2418 16004KT 9999 FEW030 BECMG 2400/2403 32008KT BECMG 2412/2415 15006KT",
      "groups": [
        {
          "text": "TAF RJFF 231105Z 2312/2418 16004KT 9999 FEW030",
          "offset_h": 1,
          "wdir": 160,
          "wspd": 4
        },
        {
          "text": "BECMG 2400/2403 32008KT",
          "offset_h": 13,
          "wdir": 320,
          "wspd": 8
        },
        {
          "text": "BECMG 2412/2415 15006KT",
          "offset_h": 25,
          "wdir": 150,
          "wspd": 6
        }
      ],
      "metar_raw": "METAR RJFF 231130Z 28006KT 210V330 9999 FEW030 BKN050 22/18 Q1011 BECMG 20004KT",
      "metar_wdir": 280,
      "metar_wspd": 6,
      "metar_oat": 22,
      "metar_qnh": 1011,
      "hourly_oat": [
        21,
        21,
        20,
        20,
        20,
        20,
        19,
        19,
        19,
        19,
        19,
        20,
        22,
        24,
        25,
        26,
        27,
        26,
        27,
        27,
        27,
        26,
        24,
        23,
        23
      ]
    },
    "NGO": {
      "icao": "RJGG",
      "issued": "2026-05-23T11:05:00.000Z",
      "raw": "TAF RJGG 231105Z 2312/2418 11016KT 9999 FEW015 BKN030 BECMG 2400/2403 17008KT BECMG 2415/2418 01004KT",
      "groups": [
        {
          "text": "TAF RJGG 231105Z 2312/2418 11016KT 9999 FEW015 BKN030",
          "offset_h": 1,
          "wdir": 110,
          "wspd": 16
        },
        {
          "text": "BECMG 2400/2403 17008KT",
          "offset_h": 13,
          "wdir": 170,
          "wspd": 8
        },
        {
          "text": "BECMG 2415/2418 01004KT",
          "offset_h": 28,
          "wdir": 10,
          "wspd": 4
        }
      ],
      "metar_raw": "METAR RJGG 231130Z 12023KT 9999 -RA FEW015 BKN030 BKN040 20/14 Q1017 NOSIG",
      "metar_wdir": 120,
      "metar_wspd": 23,
      "metar_oat": 20,
      "metar_qnh": 1017,
      "hourly_oat": [
        19,
        19,
        19,
        19,
        19,
        19,
        19,
        19,
        19,
        19,
        19,
        20,
        20,
        20,
        21,
        21,
        22,
        21,
        21,
        21,
        21,
        22,
        22,
        21,
        21
      ]
    },
    "CTS": {
      "icao": "RJCC",
      "issued": "2026-05-23T11:05:00.000Z",
      "raw": "TAF RJCC 231105Z 2312/2418 15016KT 9999 FEW005 BKN015 TEMPO 2316/2321 FEW003 BKN008 TEMPO 2323/2406 16026G36KT TEMPO 2406/2409 15024G34KT 3000 SHRA BR FEW002 BKN005 TEMPO 2409/2412 3000 SHRA BR FEW002 BKN005 TEMPO 2412/2418 2000 -SHRA BR FEW002 BKN005",
      "groups": [
        {
          "text": "TAF RJCC 231105Z 2312/2418 15016KT 9999 FEW005 BKN015",
          "offset_h": 1,
          "wdir": 150,
          "wspd": 16
        },
        {
          "text": "TEMPO 2316/2321 FEW003 BKN008",
          "offset_h": 5,
          "wdir": null,
          "wspd": null
        },
        {
          "text": "TEMPO 2323/2406 16026G36KT",
          "offset_h": 12,
          "wdir": 160,
          "wspd": 26
        },
        {
          "text": "TEMPO 2406/2409 15024G34KT 3000 SHRA BR FEW002 BKN005",
          "offset_h": 19,
          "wdir": 150,
          "wspd": 24
        },
        {
          "text": "TEMPO 2409/2412 3000 SHRA BR FEW002 BKN005",
          "offset_h": 22,
          "wdir": null,
          "wspd": null
        },
        {
          "text": "TEMPO 2412/2418 2000 -SHRA BR FEW002 BKN005",
          "offset_h": 25,
          "wdir": null,
          "wspd": null
        }
      ],
      "metar_raw": "METAR RJCC 231130Z 16008KT 9999 FEW020 BKN/// 07/05 Q1023",
      "metar_wdir": 160,
      "metar_wspd": 8,
      "metar_oat": 7,
      "metar_qnh": 1023,
      "hourly_oat": [
        8,
        7,
        7,
        7,
        7,
        8,
        8,
        8,
        9,
        9,
        10,
        11,
        12,
        13,
        14,
        14,
        15,
        15,
        13,
        12,
        12,
        11,
        11,
        11,
        11
      ]
    },
    "SGN": {
      "icao": "VVTS",
      "issued": "2026-05-23T11:00:00.000Z",
      "raw": "TAF VVTS 231100Z 2312/2418 16008KT 9999 SCT017 TEMPO 2407/2410 08015G27KT 3000 TSRA SCT015 SCT017CB",
      "groups": [
        {
          "text": "TAF VVTS 231100Z 2312/2418 16008KT 9999 SCT017",
          "offset_h": 1,
          "wdir": 160,
          "wspd": 8
        },
        {
          "text": "TEMPO 2407/2410 08015G27KT 3000 TSRA SCT015 SCT017CB",
          "offset_h": 20,
          "wdir": 80,
          "wspd": 15
        }
      ],
      "metar_raw": "METAR VVTS 231130Z 17007KT 020V190 9999 SCT039 32/24 Q1008 NOSIG",
      "metar_wdir": 170,
      "metar_wspd": 7,
      "metar_oat": 32,
      "metar_qnh": 1008,
      "hourly_oat": [
        30,
        29,
        29,
        28,
        28,
        28,
        27,
        27,
        27,
        27,
        27,
        26,
        26,
        28,
        29,
        31,
        32,
        33,
        34,
        34,
        34,
        35,
        32,
        27,
        27
      ]
    },
    "TSA": {
      "icao": "RCSS",
      "issued": "2026-05-23T11:00:00.000Z",
      "raw": "TAF RCSS 231100Z 2312/2412 27010KT 9999 FEW010 BKN032 TEMPO 2318/2324 27005KT TEMPO 2406/2412 09005KT",
      "groups": [
        {
          "text": "TAF RCSS 231100Z 2312/2412 27010KT 9999 FEW010 BKN032",
          "offset_h": 1,
          "wdir": 270,
          "wspd": 10
        },
        {
          "text": "TEMPO 2318/2324 27005KT",
          "offset_h": 7,
          "wdir": 270,
          "wspd": 5
        },
        {
          "text": "TEMPO 2406/2412 09005KT",
          "offset_h": 19,
          "wdir": 90,
          "wspd": 5
        }
      ],
      "metar_raw": "SPECI RCSS 231138Z 29008KT 9999 FEW025 BKN060 BKN180 31/22 Q1008 NOSIG RMK A2978",
      "metar_wdir": 290,
      "metar_wspd": 8,
      "metar_oat": 31,
      "metar_qnh": 1008,
      "hourly_oat": [
        28,
        28,
        27,
        26,
        26,
        26,
        25,
        25,
        24,
        24,
        24,
        25,
        27,
        29,
        30,
        31,
        31,
        31,
        32,
        32,
        32,
        32,
        31,
        30,
        29
      ]
    },
    "TPE": {
      "icao": "RCTP",
      "issued": "2026-05-23T11:00:00.000Z",
      "raw": "TAF RCTP 231100Z 2312/2418 24012KT 9999 FEW010 BKN032 TEMPO 2312/2316 24017KT TEMPO 2400/2406 24021KT TEMPO 2406/2412 24022KT",
      "groups": [
        {
          "text": "TAF RCTP 231100Z 2312/2418 24012KT 9999 FEW010 BKN032",
          "offset_h": 1,
          "wdir": 240,
          "wspd": 12
        },
        {
          "text": "TEMPO 2312/2316 24017KT",
          "offset_h": 1,
          "wdir": 240,
          "wspd": 17
        },
        {
          "text": "TEMPO 2400/2406 24021KT",
          "offset_h": 13,
          "wdir": 240,
          "wspd": 21
        },
        {
          "text": "TEMPO 2406/2412 24022KT",
          "offset_h": 19,
          "wdir": 240,
          "wspd": 22
        }
      ],
      "metar_raw": "METAR RCTP 231130Z 23012KT 9999 FEW015 BKN160 28/22 Q1008 NOSIG RMK A2978",
      "metar_wdir": 230,
      "metar_wspd": 12,
      "metar_oat": 28,
      "metar_qnh": 1008,
      "hourly_oat": [
        28,
        27,
        27,
        26,
        26,
        26,
        26,
        26,
        26,
        26,
        26,
        26,
        28,
        29,
        30,
        30,
        30,
        30,
        30,
        31,
        30,
        30,
        29,
        28,
        28
      ]
    },
    "HKG": {
      "icao": "VHHH",
      "issued": "2026-05-23T11:00:00.000Z",
      "raw": "TAF VHHH 231100Z 2312/2418 20010KT 9999 FEW010 SCT025 TX33/2406Z TN28/2322Z",
      "groups": [
        {
          "text": "TAF VHHH 231100Z 2312/2418 20010KT 9999 FEW010 SCT025 TX33/2406Z TN28/2322Z",
          "offset_h": 1,
          "wdir": 200,
          "wspd": 10
        }
      ],
      "metar_raw": "METAR VHHH 231130Z 19009KT 150V210 9999 FEW010 SCT025 30/24 Q1008 NOSIG",
      "metar_wdir": 190,
      "metar_wspd": 9,
      "metar_oat": 30,
      "metar_qnh": 1008,
      "hourly_oat": [
        28,
        28,
        28,
        28,
        28,
        28,
        28,
        27,
        27,
        27,
        28,
        27,
        28,
        28,
        29,
        29,
        29,
        29,
        30,
        29,
        29,
        29,
        29,
        28,
        28
      ]
    },
    "CGK": {
      "icao": "WIII",
      "issued": "2026-05-23T11:00:00.000Z",
      "raw": "TAF WIII 231100Z 2312/2418 06010KT 9000 FEW020 TEMPO 2312/2315 3000 TSRA FEW015CB SCT020 BECMG 2315/2317 VRB03KT 5000 HZ",
      "groups": [
        {
          "text": "TAF WIII 231100Z 2312/2418 06010KT 9000 FEW020",
          "offset_h": 1,
          "wdir": 60,
          "wspd": 10
        },
        {
          "text": "TEMPO 2312/2315 3000 TSRA FEW015CB SCT020",
          "offset_h": 1,
          "wdir": null,
          "wspd": null
        },
        {
          "text": "BECMG 2315/2317 VRB03KT 5000 HZ",
          "offset_h": 4,
          "wdir": "VRB",
          "wspd": 3
        }
      ],
      "metar_raw": "METAR WIII 231130Z 02005KT 8000 FEW020 28/25 Q1010 NOSIG",
      "metar_wdir": 20,
      "metar_wspd": 5,
      "metar_oat": 28,
      "metar_qnh": 1010,
      "hourly_oat": [
        26,
        25,
        25,
        25,
        25,
        25,
        25,
        24,
        24,
        24,
        24,
        24,
        24,
        25,
        26,
        27,
        29,
        30,
        30,
        28,
        28,
        27,
        27,
        27,
        26
      ]
    },
    "BKK": {
      "icao": "VTBS",
      "issued": "2026-05-23T11:00:00.000Z",
      "raw": "TAF VTBS 231100Z 2312/2418 19008KT 9999 FEW020 PROB30 TEMPO 2318/2322 VRB15KT 4000 TSRA FEW018CB SCT030 BKN100 TEMPO 2407/2413 VRB10G25KT 4000 TSRA FEW018CB SCT030 BKN100",
      "groups": [
        {
          "text": "TAF VTBS 231100Z 2312/2418 19008KT 9999 FEW020",
          "offset_h": 1,
          "wdir": 190,
          "wspd": 8
        },
        {
          "text": "PROB30",
          "offset_h": 0,
          "wdir": null,
          "wspd": null
        },
        {
          "text": "TEMPO 2318/2322 VRB15KT 4000 TSRA FEW018CB SCT030 BKN100",
          "offset_h": 7,
          "wdir": "VRB",
          "wspd": 15
        },
        {
          "text": "TEMPO 2407/2413 VRB10G25KT 4000 TSRA FEW018CB SCT030 BKN100",
          "offset_h": 20,
          "wdir": "VRB",
          "wspd": 10
        }
      ],
      "metar_raw": "METAR VTBS 231130Z 19011KT 9999 FEW020 32/24 Q1007 NOSIG",
      "metar_wdir": 190,
      "metar_wspd": 11,
      "metar_oat": 32,
      "metar_qnh": 1007,
      "hourly_oat": [
        31,
        30,
        30,
        30,
        30,
        29,
        29,
        29,
        29,
        28,
        28,
        28,
        28,
        29,
        31,
        32,
        33,
        33,
        33,
        32,
        33,
        32,
        32,
        31,
        30
      ]
    },
    "KUL": {
      "icao": "WMKK",
      "issued": "2026-05-23T11:00:00.000Z",
      "raw": "TAF WMKK 231100Z 2312/2418 VRB03KT 9999 FEW030",
      "groups": [
        {
          "text": "TAF WMKK 231100Z 2312/2418 VRB03KT 9999 FEW030",
          "offset_h": 1,
          "wdir": "VRB",
          "wspd": 3
        }
      ],
      "metar_raw": "METAR WMKK 231130Z 04007KT 350V080 9999 FEW030 26/24 Q1009 NOSIG",
      "metar_wdir": 40,
      "metar_wspd": 7,
      "metar_oat": 26,
      "metar_qnh": 1009,
      "hourly_oat": [
        27,
        26,
        26,
        26,
        26,
        25,
        25,
        25,
        25,
        25,
        25,
        25,
        24,
        25,
        27,
        28,
        29,
        30,
        31,
        30,
        28,
        29,
        28,
        27,
        26
      ]
    },
    "SIN": {
      "icao": "WSSS",
      "issued": "2026-05-23T11:00:00.000Z",
      "raw": "TAF WSSS 231100Z 2312/2418 18007KT 9999 FEW015 SCT020 TEMPO 2404/2407 3000 TSRA FEW012CB BKN015",
      "groups": [
        {
          "text": "TAF WSSS 231100Z 2312/2418 18007KT 9999 FEW015 SCT020",
          "offset_h": 1,
          "wdir": 180,
          "wspd": 7
        },
        {
          "text": "TEMPO 2404/2407 3000 TSRA FEW012CB BKN015",
          "offset_h": 17,
          "wdir": null,
          "wspd": null
        }
      ],
      "metar_raw": "METAR WSSS 231130Z 33002KT 9999 FEW018 SCT160 BKN300 27/25 Q1011 NOSIG",
      "metar_wdir": 330,
      "metar_wspd": 2,
      "metar_oat": 27,
      "metar_qnh": 1011,
      "hourly_oat": [
        28,
        28,
        27,
        27,
        27,
        27,
        26,
        26,
        26,
        26,
        26,
        25,
        25,
        25,
        26,
        28,
        28,
        30,
        30,
        30,
        29,
        30,
        30,
        30,
        28
      ]
    },
    "HAN": {
      "icao": "VVNB",
      "issued": "2026-05-23T11:00:00.000Z",
      "raw": "TAF VVNB 231100Z 2312/2412 18008KT CAVOK",
      "groups": [
        {
          "text": "TAF VVNB 231100Z 2312/2412 18008KT CAVOK",
          "offset_h": 1,
          "wdir": 180,
          "wspd": 8
        }
      ],
      "metar_raw": "METAR VVNB 231130Z 16010KT CAVOK 34/26 Q1002 NOSIG",
      "metar_wdir": 160,
      "metar_wspd": 10,
      "metar_oat": 34,
      "metar_qnh": 1002,
      "hourly_oat": [
        32,
        31,
        31,
        30,
        30,
        30,
        29,
        29,
        28,
        28,
        28,
        28,
        28,
        29,
        31,
        32,
        33,
        34,
        35,
        36,
        36,
        36,
        36,
        34,
        33
      ]
    },
    "GMP": {
      "icao": "RKSS",
      "issued": "2026-05-23T11:00:00.000Z",
      "raw": "TAF RKSS 231100Z 2312/2418 29005KT CAVOK TN14/2320Z TX29/2406Z BECMG 2315/2317 06005KT 6000 NSC BECMG 2319/2321 16005KT 4000 BR BECMG 2322/2324 29006KT CAVOK BECMG 2415/2417 06005KT 6000 NSC",
      "groups": [
        {
          "text": "TAF RKSS 231100Z 2312/2418 29005KT CAVOK TN14/2320Z TX29/2406Z",
          "offset_h": 1,
          "wdir": 290,
          "wspd": 5
        },
        {
          "text": "BECMG 2315/2317 06005KT 6000 NSC",
          "offset_h": 4,
          "wdir": 60,
          "wspd": 5
        },
        {
          "text": "BECMG 2319/2321 16005KT 4000 BR",
          "offset_h": 8,
          "wdir": 160,
          "wspd": 5
        },
        {
          "text": "BECMG 2322/2324 29006KT CAVOK",
          "offset_h": 11,
          "wdir": 290,
          "wspd": 6
        },
        {
          "text": "BECMG 2415/2417 06005KT 6000 NSC",
          "offset_h": 28,
          "wdir": 60,
          "wspd": 5
        }
      ],
      "metar_raw": "METAR RKSS 231100Z 26007KT CAVOK 19/15 Q1013 NOSIG",
      "metar_wdir": 260,
      "metar_wspd": 7,
      "metar_oat": 19,
      "metar_qnh": 1013,
      "hourly_oat": [
        19,
        18,
        17,
        16,
        16,
        16,
        15,
        15,
        14,
        14,
        14,
        15,
        18,
        20,
        22,
        24,
        25,
        26,
        26,
        27,
        27,
        26,
        25,
        23,
        20
      ]
    },
    "PVG": {
      "icao": "ZSPD",
      "issued": "2026-05-23T09:05:00.000Z",
      "raw": "TAF ZSPD 230905Z 2312/2418 12004MPS 6000 BKN020 TX24/2312Z TX27/2406Z TN21/2321Z TEMPO 2317/2322 2000 BR BKN003 TEMPO 2322/2401 SHRA BKN008 FEW030CB BECMG 2407/2408 07004MPS",
      "groups": [
        {
          "text": "TAF ZSPD 230905Z 2312/2418 12004MPS 6000 BKN020 TX24/2312Z TX27/2406Z TN21/2321Z",
          "offset_h": 1,
          "wdir": null,
          "wspd": null
        },
        {
          "text": "TEMPO 2317/2322 2000 BR BKN003",
          "offset_h": 6,
          "wdir": null,
          "wspd": null
        },
        {
          "text": "TEMPO 2322/2401 SHRA BKN008 FEW030CB",
          "offset_h": 11,
          "wdir": null,
          "wspd": null
        },
        {
          "text": "BECMG 2407/2408 07004MPS",
          "offset_h": 20,
          "wdir": null,
          "wspd": null
        }
      ],
      "metar_raw": "METAR ZSPD 231130Z 09004MPS 9999 SCT006 24/23 Q1007 NOSIG",
      "metar_wdir": null,
      "metar_wspd": null,
      "metar_oat": 24,
      "metar_qnh": 1007,
      "hourly_oat": [
        23,
        22,
        22,
        22,
        22,
        22,
        22,
        22,
        22,
        22,
        22,
        23,
        23,
        22,
        24,
        24,
        24,
        23,
        24,
        24,
        24,
        24,
        23,
        23,
        23
      ]
    },
    "DLC": {
      "icao": "ZYTL",
      "issued": "2026-05-23T09:05:00.000Z",
      "raw": "TAF ZYTL 230905Z 2312/2412 15004MPS 5000 BR SCT033 TX20/2406Z TN15/2320Z BECMG 2319/2320 2500 TEMPO 2320/2401 1400 SCT002 BKN008 BECMG 2400/2401 3000",
      "groups": [
        {
          "text": "TAF ZYTL 230905Z 2312/2412 15004MPS 5000 BR SCT033 TX20/2406Z TN15/2320Z",
          "offset_h": 1,
          "wdir": null,
          "wspd": null
        },
        {
          "text": "BECMG 2319/2320 2500",
          "offset_h": 8,
          "wdir": null,
          "wspd": null
        },
        {
          "text": "TEMPO 2320/2401 1400 SCT002 BKN008",
          "offset_h": 9,
          "wdir": null,
          "wspd": null
        },
        {
          "text": "BECMG 2400/2401 3000",
          "offset_h": 13,
          "wdir": null,
          "wspd": null
        }
      ],
      "metar_raw": "METAR ZYTL 231130Z 14004MPS 110V180 6000 FEW009 SCT033 18/16 Q1009 NOSIG",
      "metar_wdir": null,
      "metar_wspd": null,
      "metar_oat": 18,
      "metar_qnh": 1009,
      "hourly_oat": [
        18,
        16,
        15,
        15,
        15,
        15,
        16,
        16,
        16,
        15,
        15,
        16,
        18,
        19,
        19,
        19,
        19,
        20,
        20,
        20,
        21,
        20,
        19,
        18,
        17
      ]
    },
    "SHA": {
      "icao": "ZSSS",
      "issued": "2026-05-23T09:04:00.000Z",
      "raw": "TAF ZSSS 230904Z 2312/2418 12004MPS 6000 BKN030 TX26/2312Z TX28/2406Z TN22/2321Z TEMPO 2322/2401 SHRA BKN010 FEW030CB BECMG 2407/2408 07004MPS",
      "groups": [
        {
          "text": "TAF ZSSS 230904Z 2312/2418 12004MPS 6000 BKN030 TX26/2312Z TX28/2406Z TN22/2321Z",
          "offset_h": 1,
          "wdir": null,
          "wspd": null
        },
        {
          "text": "TEMPO 2322/2401 SHRA BKN010 FEW030CB",
          "offset_h": 11,
          "wdir": null,
          "wspd": null
        },
        {
          "text": "BECMG 2407/2408 07004MPS",
          "offset_h": 20,
          "wdir": null,
          "wspd": null
        }
      ],
      "metar_raw": "METAR ZSSS 231130Z 11004MPS 080V140 9999 BKN026 26/22 Q1007 NOSIG",
      "metar_wdir": null,
      "metar_wspd": null,
      "metar_oat": 26,
      "metar_qnh": 1007,
      "hourly_oat": [
        27,
        26,
        25,
        24,
        24,
        24,
        23,
        23,
        23,
        23,
        23,
        23,
        23,
        26,
        25,
        26,
        26,
        26,
        25,
        26,
        26,
        26,
        25,
        24,
        24
      ]
    },
    "CAN": {
      "icao": "ZGGG",
      "issued": "2026-05-23T09:01:00.000Z",
      "raw": "TAF ZGGG 230901Z 2312/2418 16004MPS 8000 BKN033 TX26/2312Z TX34/2407Z TN25/2322Z",
      "groups": [
        {
          "text": "TAF ZGGG 230901Z 2312/2418 16004MPS 8000 BKN033 TX26/2312Z TX34/2407Z TN25/2322Z",
          "offset_h": 1,
          "wdir": null,
          "wspd": null
        }
      ],
      "metar_raw": "METAR ZGGG 231130Z 09003MPS 9999 OVC030 27/25 Q1008 NOSIG",
      "metar_wdir": null,
      "metar_wspd": null,
      "metar_oat": 27,
      "metar_qnh": 1008,
      "hourly_oat": [
        28,
        28,
        28,
        27,
        27,
        27,
        27,
        27,
        26,
        26,
        26,
        26,
        27,
        28,
        30,
        31,
        32,
        33,
        33,
        33,
        33,
        33,
        32,
        31,
        30
      ]
    },
    "PEK": {
      "icao": "ZBAA",
      "issued": "2026-05-23T09:00:00.000Z",
      "raw": "TAF ZBAA 230900Z 2312/2418 17004MPS 5000 BR NSC TX29/2407Z TN18/2321Z TN19/2418Z",
      "groups": [
        {
          "text": "TAF ZBAA 230900Z 2312/2418 17004MPS 5000 BR NSC TX29/2407Z TN18/2321Z TN19/2418Z",
          "offset_h": 1,
          "wdir": null,
          "wspd": null
        }
      ],
      "metar_raw": "METAR ZBAA 231130Z 16001MPS CAVOK 23/19 Q1006 NOSIG",
      "metar_wdir": null,
      "metar_wspd": null,
      "metar_oat": 23,
      "metar_qnh": 1006,
      "hourly_oat": [
        24,
        22,
        21,
        21,
        20,
        20,
        19,
        19,
        18,
        18,
        18,
        18,
        19,
        21,
        23,
        24,
        25,
        27,
        28,
        28,
        28,
        28,
        28,
        27,
        25
      ]
    }
  }
}