{
  "updated": "2026-06-10T21:27:45Z",
  "tafs": {
    "HNL": {
      "icao": "PHNL",
      "issued": "2026-06-10T21:06:00.000Z",
      "raw": "TAF PHNL 102106Z 1021/1124 07013G21KT P6SM VCSH FEW025 SCT040 FM110600 06008KT P6SM FEW025 SCT035 FM112000 06013G21KT P6SM FEW025 SCT040",
      "groups": [
        {
          "text": "TAF PHNL 102106Z 1021/1124 07013G21KT P6SM VCSH FEW025 SCT040",
          "offset_h": 0,
          "wdir": 70,
          "wspd": 13
        },
        {
          "text": "FM110600 06008KT P6SM FEW025 SCT035",
          "offset_h": 9,
          "wdir": 60,
          "wspd": 8
        },
        {
          "text": "FM112000 06013G21KT P6SM FEW025 SCT040",
          "offset_h": 23,
          "wdir": 60,
          "wspd": 13
        }
      ],
      "metar_raw": "METAR PHNL 102053Z 06014G22KT 10SM FEW024 SCT035 BKN045 29/20 A3008 RMK AO2 SLP187 T02890200 58005 $",
      "metar_wdir": 60,
      "metar_wspd": 14,
      "metar_oat": 29,
      "metar_qnh": 1019,
      "hourly_oat": [
        27,
        27,
        27,
        27,
        27,
        27,
        26,
        25,
        24,
        23,
        23,
        23,
        22,
        22,
        22,
        22,
        22,
        22,
        22,
        22,
        23,
        24,
        25,
        26,
        28
      ]
    },
    "LAX": {
      "icao": "KLAX",
      "issued": "2026-06-10T20:58:00.000Z",
      "raw": "TAF KLAX 102058Z 1021/1124 25012KT P6SM SCT015 FM110300 25007KT P6SM BKN015 FM110700 15005KT P6SM OVC012 FM111800 25008KT P6SM SCT015 FM112100 25012G18KT P6SM FEW015",
      "groups": [
        {
          "text": "TAF KLAX 102058Z 1021/1124 25012KT P6SM SCT015",
          "offset_h": 0,
          "wdir": 250,
          "wspd": 12
        },
        {
          "text": "FM110300 25007KT P6SM BKN015",
          "offset_h": 6,
          "wdir": 250,
          "wspd": 7
        },
        {
          "text": "FM110700 15005KT P6SM OVC012",
          "offset_h": 10,
          "wdir": 150,
          "wspd": 5
        },
        {
          "text": "FM111800 25008KT P6SM SCT015",
          "offset_h": 21,
          "wdir": 250,
          "wspd": 8
        },
        {
          "text": "FM112100 25012G18KT P6SM FEW015",
          "offset_h": 24,
          "wdir": 250,
          "wspd": 12
        }
      ],
      "metar_raw": "METAR KLAX 102053Z 25011KT 10SM CLR 22/16 A2983 RMK AO2 SLP099 T02220161 58005",
      "metar_wdir": 250,
      "metar_wspd": 11,
      "metar_oat": 22,
      "metar_qnh": 1010,
      "hourly_oat": [
        23,
        23,
        22,
        21,
        21,
        19,
        17,
        17,
        17,
        18,
        18,
        18,
        17,
        17,
        17,
        16,
        16,
        17,
        18,
        20,
        21,
        22,
        24,
        25,
        23
      ]
    },
    "OKA": {
      "icao": "ROAH",
      "issued": "2026-06-10T20:42:00.000Z",
      "raw": "TAF AMD ROAH 102042Z 1020/1200 02014KT 9999 FEW008 BKN012 TEMPO 1020/1100 4000 -SHRA BR FEW005 BKN008",
      "groups": [
        {
          "text": "TAF AMD ROAH 102042Z 1020/1200 02014KT 9999 FEW008 BKN012",
          "offset_h": -1,
          "wdir": 20,
          "wspd": 14
        },
        {
          "text": "TEMPO 1020/1100 4000 -SHRA BR FEW005 BKN008",
          "offset_h": -1,
          "wdir": null,
          "wspd": null
        }
      ],
      "metar_raw": "METAR ROAH 102100Z 02015KT 4000 -DZ BR FEW005 SCT007 BKN009 23/23 Q1009",
      "metar_wdir": 20,
      "metar_wspd": 15,
      "metar_oat": 23,
      "metar_qnh": 1009,
      "hourly_oat": [
        23,
        24,
        24,
        25,
        26,
        27,
        27,
        27,
        27,
        27,
        26,
        26,
        25,
        24,
        23,
        23,
        23,
        23,
        22,
        22,
        22,
        22,
        22,
        23,
        23
      ]
    },
    "SAN": {
      "icao": "KSAN",
      "issued": "2026-06-10T20:34:00.000Z",
      "raw": "TAF KSAN 102034Z 1021/1124 22010G18KT P6SM FEW016 FM110230 22006KT P6SM SCT015 FM110300 VRB04KT P6SM BKN010 FM111800 22009KT P6SM SCT015",
      "groups": [
        {
          "text": "TAF KSAN 102034Z 1021/1124 22010G18KT P6SM FEW016",
          "offset_h": 0,
          "wdir": 220,
          "wspd": 10
        },
        {
          "text": "FM110230 22006KT P6SM SCT015",
          "offset_h": 5,
          "wdir": 220,
          "wspd": 6
        },
        {
          "text": "FM110300 VRB04KT P6SM BKN010",
          "offset_h": 6,
          "wdir": "VRB",
          "wspd": 4
        },
        {
          "text": "FM111800 22009KT P6SM SCT015",
          "offset_h": 21,
          "wdir": 220,
          "wspd": 9
        }
      ],
      "metar_raw": "METAR KSAN 102051Z 22009G19KT 210V280 10SM FEW016 22/16 A2985 RMK AO2 SLP109 T02170156 56007",
      "metar_wdir": 220,
      "metar_wspd": 9,
      "metar_oat": 22,
      "metar_qnh": 1011,
      "hourly_oat": [
        23,
        22,
        22,
        22,
        20,
        19,
        19,
        18,
        17,
        17,
        18,
        17,
        17,
        16,
        16,
        16,
        17,
        17,
        17,
        18,
        20,
        22,
        20,
        21,
        23
      ]
    },
    "HKG": {
      "icao": "VHHH",
      "issued": "2026-06-10T20:00:00.000Z",
      "raw": "TAF VHHH 102000Z 1021/1203 09010KT 9999 FEW020 TX30/1106Z TN26/1022Z TN26/1122Z TEMPO 1103/1109 3500 SHRA FEW010CB SCT025",
      "groups": [
        {
          "text": "TAF VHHH 102000Z 1021/1203 09010KT 9999 FEW020 TX30/1106Z TN26/1022Z TN26/1122Z",
          "offset_h": 0,
          "wdir": 90,
          "wspd": 10
        },
        {
          "text": "TEMPO 1103/1109 3500 SHRA FEW010CB SCT025",
          "offset_h": 6,
          "wdir": null,
          "wspd": null
        }
      ],
      "metar_raw": "METAR VHHH 102100Z 07006KT 9999 FEW015 SCT040 26/22 Q1010 NOSIG",
      "metar_wdir": 70,
      "metar_wspd": 6,
      "metar_oat": 26,
      "metar_qnh": 1010,
      "hourly_oat": [
        25,
        25,
        25,
        26,
        26,
        27,
        28,
        29,
        29,
        29,
        29,
        29,
        28,
        28,
        28,
        27,
        27,
        27,
        27,
        27,
        27,
        27,
        27,
        26,
        26
      ]
    },
    "ITM": {
      "icao": "RJOO",
      "issued": "2026-06-10T17:05:00.000Z",
      "raw": "TAF RJOO 101705Z 1018/1200 32004KT 9999 FEW030 BECMG 1100/1102 17006KT BECMG 1106/1109 24008KT",
      "groups": [
        {
          "text": "TAF RJOO 101705Z 1018/1200 32004KT 9999 FEW030",
          "offset_h": -3,
          "wdir": 320,
          "wspd": 4
        },
        {
          "text": "BECMG 1100/1102 17006KT",
          "offset_h": 3,
          "wdir": 170,
          "wspd": 6
        },
        {
          "text": "BECMG 1106/1109 24008KT",
          "offset_h": 9,
          "wdir": 240,
          "wspd": 8
        }
      ],
      "metar_raw": "METAR RJOO 102100Z AUTO 33003KT 310V030 9999 NCD 18/12 Q1011",
      "metar_wdir": 330,
      "metar_wspd": 3,
      "metar_oat": 18,
      "metar_qnh": 1011,
      "hourly_oat": [
        17,
        18,
        20,
        22,
        24,
        26,
        26,
        27,
        27,
        28,
        27,
        26,
        24,
        23,
        22,
        22,
        21,
        20,
        20,
        20,
        20,
        19,
        19,
        19,
        19
      ]
    },
    "NGO": {
      "icao": "RJGG",
      "issued": "2026-06-10T17:05:00.000Z",
      "raw": "TAF RJGG 101705Z 1018/1200 34004KT 9999 FEW030 BECMG 1100/1102 23006KT BECMG 1104/1106 17014KT BECMG 1118/1121 01004KT",
      "groups": [
        {
          "text": "TAF RJGG 101705Z 1018/1200 34004KT 9999 FEW030",
          "offset_h": -3,
          "wdir": 340,
          "wspd": 4
        },
        {
          "text": "BECMG 1100/1102 23006KT",
          "offset_h": 3,
          "wdir": 230,
          "wspd": 6
        },
        {
          "text": "BECMG 1104/1106 17014KT",
          "offset_h": 7,
          "wdir": 170,
          "wspd": 14
        },
        {
          "text": "BECMG 1118/1121 01004KT",
          "offset_h": 21,
          "wdir": 10,
          "wspd": 4
        }
      ],
      "metar_raw": "METAR RJGG 102100Z 36007KT 9999 FEW020 BKN/// 19/15 Q1011 NOSIG",
      "metar_wdir": 360,
      "metar_wspd": 7,
      "metar_oat": 19,
      "metar_qnh": 1011,
      "hourly_oat": [
        19,
        19,
        19,
        19,
        20,
        20,
        21,
        22,
        23,
        23,
        22,
        22,
        22,
        22,
        22,
        21,
        21,
        21,
        21,
        20,
        20,
        20,
        20,
        19,
        19
      ]
    },
    "FUK": {
      "icao": "RJFF",
      "issued": "2026-06-10T17:05:00.000Z",
      "raw": "TAF RJFF 101705Z 1018/1200 15006KT 9999 FEW030 BECMG 1100/1102 30012KT BECMG 1112/1115 15006KT BECMG 1121/1200 26006KT",
      "groups": [
        {
          "text": "TAF RJFF 101705Z 1018/1200 15006KT 9999 FEW030",
          "offset_h": -3,
          "wdir": 150,
          "wspd": 6
        },
        {
          "text": "BECMG 1100/1102 30012KT",
          "offset_h": 3,
          "wdir": 300,
          "wspd": 12
        },
        {
          "text": "BECMG 1112/1115 15006KT",
          "offset_h": 15,
          "wdir": 150,
          "wspd": 6
        },
        {
          "text": "BECMG 1121/1200 26006KT",
          "offset_h": 24,
          "wdir": 260,
          "wspd": 6
        }
      ],
      "metar_raw": "METAR RJFF 102100Z 15003KT 120V180 CAVOK 18/15 Q1011 NOSIG",
      "metar_wdir": 150,
      "metar_wspd": 3,
      "metar_oat": 18,
      "metar_qnh": 1011,
      "hourly_oat": [
        18,
        19,
        21,
        23,
        24,
        25,
        25,
        24,
        24,
        24,
        24,
        23,
        23,
        22,
        21,
        21,
        20,
        20,
        19,
        19,
        18,
        18,
        18,
        18,
        18
      ]
    },
    "HND": {
      "icao": "RJTT",
      "issued": "2026-06-10T17:05:00.000Z",
      "raw": "TAF RJTT 101705Z 1018/1200 10006KT 9999 FEW030 BKN050 BECMG 1102/1104 19016KT BECMG 1115/1118 35008KT",
      "groups": [
        {
          "text": "TAF RJTT 101705Z 1018/1200 10006KT 9999 FEW030 BKN050",
          "offset_h": -3,
          "wdir": 100,
          "wspd": 6
        },
        {
          "text": "BECMG 1102/1104 19016KT",
          "offset_h": 5,
          "wdir": 190,
          "wspd": 16
        },
        {
          "text": "BECMG 1115/1118 35008KT",
          "offset_h": 18,
          "wdir": 350,
          "wspd": 8
        }
      ],
      "metar_raw": "METAR RJTT 102100Z 11004KT 9999 FEW030 BKN070 BKN/// 19/15 Q1012 NOSIG",
      "metar_wdir": 110,
      "metar_wspd": 4,
      "metar_oat": 19,
      "metar_qnh": 1012,
      "hourly_oat": [
        19,
        19,
        20,
        20,
        20,
        21,
        22,
        23,
        23,
        23,
        23,
        22,
        22,
        22,
        22,
        22,
        21,
        21,
        21,
        21,
        20,
        19,
        19,
        18,
        19
      ]
    },
    "KIX": {
      "icao": "RJBB",
      "issued": "2026-06-10T17:05:00.000Z",
      "raw": "TAF RJBB 101705Z 1018/1200 10004KT 9999 FEW030 BECMG 1101/1103 29006KT BECMG 1106/1109 22012KT",
      "groups": [
        {
          "text": "TAF RJBB 101705Z 1018/1200 10004KT 9999 FEW030",
          "offset_h": -3,
          "wdir": 100,
          "wspd": 4
        },
        {
          "text": "BECMG 1101/1103 29006KT",
          "offset_h": 4,
          "wdir": 290,
          "wspd": 6
        },
        {
          "text": "BECMG 1106/1109 22012KT",
          "offset_h": 9,
          "wdir": 220,
          "wspd": 12
        }
      ],
      "metar_raw": "METAR RJBB 102100Z 10004KT CAVOK 20/16 Q1011 NOSIG",
      "metar_wdir": 100,
      "metar_wspd": 4,
      "metar_oat": 20,
      "metar_qnh": 1011,
      "hourly_oat": [
        20,
        20,
        20,
        20,
        21,
        21,
        21,
        21,
        21,
        22,
        23,
        23,
        23,
        23,
        23,
        22,
        22,
        22,
        22,
        21,
        21,
        21,
        21,
        21,
        21
      ]
    },
    "NRT": {
      "icao": "RJAA",
      "issued": "2026-06-10T17:05:00.000Z",
      "raw": "TAF RJAA 101705Z 1018/1200 04004KT 9999 FEW030 BECMG 1023/1101 15012KT TEMPO 1118/1200 4000 -SHRA BR FEW003 BKN008",
      "groups": [
        {
          "text": "TAF RJAA 101705Z 1018/1200 04004KT 9999 FEW030",
          "offset_h": -3,
          "wdir": 40,
          "wspd": 4
        },
        {
          "text": "BECMG 1023/1101 15012KT",
          "offset_h": 2,
          "wdir": 150,
          "wspd": 12
        },
        {
          "text": "TEMPO 1118/1200 4000 -SHRA BR FEW003 BKN008",
          "offset_h": 21,
          "wdir": null,
          "wspd": null
        }
      ],
      "metar_raw": "METAR RJAA 102100Z VRB01KT 9999 FEW030 BKN080 BKN/// 17/14 Q1012 NOSIG",
      "metar_wdir": "VRB",
      "metar_wspd": 1,
      "metar_oat": 17,
      "metar_qnh": 1012,
      "hourly_oat": [
        16,
        17,
        18,
        20,
        21,
        22,
        22,
        22,
        23,
        23,
        23,
        22,
        22,
        21,
        21,
        20,
        20,
        19,
        19,
        19,
        19,
        18,
        18,
        18,
        18
      ]
    },
    "CTS": {
      "icao": "RJCC",
      "issued": "2026-06-10T17:05:00.000Z",
      "raw": "TAF RJCC 101705Z 1018/1200 17012KT 9999 FEW008 SCT015 TEMPO 1018/1023 3000 BR FEW003 BKN005 TEMPO 1115/1121 FEW003 BKN005",
      "groups": [
        {
          "text": "TAF RJCC 101705Z 1018/1200 17012KT 9999 FEW008 SCT015",
          "offset_h": -3,
          "wdir": 170,
          "wspd": 12
        },
        {
          "text": "TEMPO 1018/1023 3000 BR FEW003 BKN005",
          "offset_h": -3,
          "wdir": null,
          "wspd": null
        },
        {
          "text": "TEMPO 1115/1121 FEW003 BKN005",
          "offset_h": 18,
          "wdir": null,
          "wspd": null
        }
      ],
      "metar_raw": "METAR RJCC 102100Z VRB02KT 9999 FEW020 11/10 Q1009",
      "metar_wdir": "VRB",
      "metar_wspd": 2,
      "metar_oat": 11,
      "metar_qnh": 1009,
      "hourly_oat": [
        11,
        13,
        16,
        17,
        18,
        19,
        19,
        19,
        19,
        18,
        18,
        17,
        16,
        14,
        13,
        13,
        12,
        12,
        12,
        12,
        12,
        12,
        12,
        13,
        14
      ]
    },
    "SGN": {
      "icao": "VVTS",
      "issued": "2026-06-10T17:00:00.000Z",
      "raw": "TAF VVTS 101700Z 1018/1124 26010KT 9999 SCT017 TEMPO 1108/1111 3000 TSRA SCT015 FEW017CB",
      "groups": [
        {
          "text": "TAF VVTS 101700Z 1018/1124 26010KT 9999 SCT017",
          "offset_h": -3,
          "wdir": 260,
          "wspd": 10
        },
        {
          "text": "TEMPO 1108/1111 3000 TSRA SCT015 FEW017CB",
          "offset_h": 11,
          "wdir": null,
          "wspd": null
        }
      ],
      "metar_raw": "METAR VVTS 102100Z 24005KT CAVOK 28/26 Q1010 NOSIG",
      "metar_wdir": 240,
      "metar_wspd": 5,
      "metar_oat": 28,
      "metar_qnh": 1010,
      "hourly_oat": [
        26,
        26,
        26,
        27,
        28,
        30,
        31,
        31,
        31,
        32,
        33,
        27,
        27,
        26,
        26,
        26,
        26,
        26,
        26,
        26,
        26,
        25,
        25,
        25,
        25
      ]
    },
    "GMP": {
      "icao": "RKSS",
      "issued": "2026-06-10T17:00:00.000Z",
      "raw": "TAF RKSS 101700Z 1018/1124 14005KT 6000 NSC TN14/1020Z TX27/1106Z TN16/1120Z BECMG 1019/1021 4000 BR BECMG 1022/1024 26007KT CAVOK TEMPO 1106/1108 9999 -SHRA FEW010 BKN035 OVC080 BECMG 1113/1115 20005KT 6000 NSC TEMPO 1119/1121 4000 BR",
      "groups": [
        {
          "text": "TAF RKSS 101700Z 1018/1124 14005KT 6000 NSC TN14/1020Z TX27/1106Z TN16/1120Z",
          "offset_h": -3,
          "wdir": 140,
          "wspd": 5
        },
        {
          "text": "BECMG 1019/1021 4000 BR",
          "offset_h": -2,
          "wdir": null,
          "wspd": null
        },
        {
          "text": "BECMG 1022/1024 26007KT CAVOK",
          "offset_h": 1,
          "wdir": 260,
          "wspd": 7
        },
        {
          "text": "TEMPO 1106/1108 9999 -SHRA FEW010 BKN035 OVC080",
          "offset_h": 9,
          "wdir": null,
          "wspd": null
        },
        {
          "text": "BECMG 1113/1115 20005KT 6000 NSC",
          "offset_h": 16,
          "wdir": 200,
          "wspd": 5
        },
        {
          "text": "TEMPO 1119/1121 4000 BR",
          "offset_h": 22,
          "wdir": null,
          "wspd": null
        }
      ],
      "metar_raw": "METAR RKSS 102100Z 15001KT 5000 BR NSC 15/15 Q1011 NOSIG",
      "metar_wdir": 150,
      "metar_wspd": 1,
      "metar_oat": 15,
      "metar_qnh": 1011,
      "hourly_oat": [
        15,
        16,
        17,
        19,
        21,
        23,
        24,
        24,
        24,
        23,
        22,
        21,
        20,
        20,
        19,
        18,
        18,
        17,
        17,
        16,
        16,
        15,
        15,
        15,
        15
      ]
    },
    "TSA": {
      "icao": "RCSS",
      "issued": "2026-06-10T17:00:00.000Z",
      "raw": "TAF RCSS 101700Z 1018/1118 10005KT 9999 FEW015 BKN032 TEMPO 1018/1024 5000 RA FEW010 BKN020 TEMPO 1100/1106 09012KT 4000 RA FEW010 BKN016 TEMPO 1112/1118 5000 RA FEW010 BKN020",
      "groups": [
        {
          "text": "TAF RCSS 101700Z 1018/1118 10005KT 9999 FEW015 BKN032",
          "offset_h": -3,
          "wdir": 100,
          "wspd": 5
        },
        {
          "text": "TEMPO 1018/1024 5000 RA FEW010 BKN020",
          "offset_h": -3,
          "wdir": null,
          "wspd": null
        },
        {
          "text": "TEMPO 1100/1106 09012KT 4000 RA FEW010 BKN016",
          "offset_h": 3,
          "wdir": 90,
          "wspd": 12
        },
        {
          "text": "TEMPO 1112/1118 5000 RA FEW010 BKN020",
          "offset_h": 15,
          "wdir": null,
          "wspd": null
        }
      ],
      "metar_raw": "METAR RCSS 102100Z 09004KT 9999 FEW010 SCT032 BKN050 22/21 Q1011 NOSIG RMK A2988",
      "metar_wdir": 90,
      "metar_wspd": 4,
      "metar_oat": 22,
      "metar_qnh": 1011,
      "hourly_oat": [
        22,
        22,
        24,
        25,
        25,
        26,
        25,
        26,
        26,
        26,
        26,
        26,
        26,
        25,
        24,
        24,
        24,
        24,
        24,
        23,
        23,
        23,
        23,
        23,
        22
      ]
    },
    "TPE": {
      "icao": "RCTP",
      "issued": "2026-06-10T17:00:00.000Z",
      "raw": "TAF RCTP 101700Z 1018/1124 08005KT 9999 FEW015 BKN032 TEMPO 1018/1024 11005KT 5000 RA FEW010 BKN020 TEMPO 1100/1106 06012KT 4000 RA FEW010 BKN012 TEMPO 1112/1118 09013KT 5000 RA FEW010 BKN018 TEMPO 1118/1124 10015KT",
      "groups": [
        {
          "text": "TAF RCTP 101700Z 1018/1124 08005KT 9999 FEW015 BKN032",
          "offset_h": -3,
          "wdir": 80,
          "wspd": 5
        },
        {
          "text": "TEMPO 1018/1024 11005KT 5000 RA FEW010 BKN020",
          "offset_h": -3,
          "wdir": 110,
          "wspd": 5
        },
        {
          "text": "TEMPO 1100/1106 06012KT 4000 RA FEW010 BKN012",
          "offset_h": 3,
          "wdir": 60,
          "wspd": 12
        },
        {
          "text": "TEMPO 1112/1118 09013KT 5000 RA FEW010 BKN018",
          "offset_h": 15,
          "wdir": 90,
          "wspd": 13
        },
        {
          "text": "TEMPO 1118/1124 10015KT",
          "offset_h": 21,
          "wdir": 100,
          "wspd": 15
        }
      ],
      "metar_raw": "METAR RCTP 102100Z 05011KT 9999 -RA FEW010 BKN015 BKN040 22/21 Q1011 NOSIG RMK A2987 RA AMT 0.2MM",
      "metar_wdir": 50,
      "metar_wspd": 11,
      "metar_oat": 22,
      "metar_qnh": 1011,
      "hourly_oat": [
        22,
        22,
        22,
        23,
        23,
        24,
        25,
        26,
        26,
        26,
        26,
        26,
        25,
        25,
        24,
        24,
        24,
        24,
        24,
        23,
        22,
        22,
        22,
        22,
        22
      ]
    },
    "BKK": {
      "icao": "VTBS",
      "issued": "2026-06-10T17:00:00.000Z",
      "raw": "TAF VTBS 101700Z 1018/1124 20010KT 9999 FEW020 TEMPO 1023/1103 -TSRA FEW018CB SCT020 BKN080 TEMPO 1109/1113 VRB15KT 4000 TSRA FEW018CB SCT020 BKN080",
      "groups": [
        {
          "text": "TAF VTBS 101700Z 1018/1124 20010KT 9999 FEW020",
          "offset_h": -3,
          "wdir": 200,
          "wspd": 10
        },
        {
          "text": "TEMPO 1023/1103 -TSRA FEW018CB SCT020 BKN080",
          "offset_h": 2,
          "wdir": null,
          "wspd": null
        },
        {
          "text": "TEMPO 1109/1113 VRB15KT 4000 TSRA FEW018CB SCT020 BKN080",
          "offset_h": 12,
          "wdir": "VRB",
          "wspd": 15
        }
      ],
      "metar_raw": "METAR VTBS 102100Z 10005KT 080V160 9999 FEW020 28/26 Q1009 NOSIG",
      "metar_wdir": 100,
      "metar_wspd": 5,
      "metar_oat": 28,
      "metar_qnh": 1009,
      "hourly_oat": [
        26,
        26,
        26,
        26,
        27,
        27,
        29,
        31,
        31,
        31,
        31,
        31,
        30,
        28,
        28,
        27,
        26,
        26,
        27,
        27,
        27,
        25,
        25,
        26,
        26
      ]
    },
    "SIN": {
      "icao": "WSSS",
      "issued": "2026-06-10T17:00:00.000Z",
      "raw": "TAF WSSS 101700Z 1018/1200 18008KT 9999 FEW015 SCT020",
      "groups": [
        {
          "text": "TAF WSSS 101700Z 1018/1200 18008KT 9999 FEW015 SCT020",
          "offset_h": -3,
          "wdir": 180,
          "wspd": 8
        }
      ],
      "metar_raw": "METAR WSSS 102100Z 18004KT 9999 FEW016 BKN160 28/26 Q1011 NOSIG",
      "metar_wdir": 180,
      "metar_wspd": 4,
      "metar_oat": 28,
      "metar_qnh": 1011,
      "hourly_oat": [
        28,
        27,
        26,
        27,
        28,
        29,
        29,
        29,
        30,
        30,
        30,
        29,
        29,
        29,
        29,
        29,
        28,
        28,
        26,
        25,
        25,
        25,
        25,
        26,
        26
      ]
    },
    "CGK": {
      "icao": "WIII",
      "issued": "2026-06-10T17:00:00.000Z",
      "raw": "TAF WIII 101700Z 1018/1200 14005KT 4000 HZ SCT020 BECMG 1101/1103 01011KT BECMG 1104/1106 7000 NSW",
      "groups": [
        {
          "text": "TAF WIII 101700Z 1018/1200 14005KT 4000 HZ SCT020",
          "offset_h": -3,
          "wdir": 140,
          "wspd": 5
        },
        {
          "text": "BECMG 1101/1103 01011KT",
          "offset_h": 4,
          "wdir": 10,
          "wspd": 11
        },
        {
          "text": "BECMG 1104/1106 7000 NSW",
          "offset_h": 7,
          "wdir": null,
          "wspd": null
        }
      ],
      "hourly_oat": [
        24,
        24,
        24,
        25,
        28,
        29,
        31,
        32,
        33,
        34,
        33,
        32,
        31,
        30,
        29,
        29,
        28,
        28,
        28,
        27,
        27,
        26,
        26,
        26,
        25
      ],
      "metar_oat": 24,
      "metar_qnh": 1013
    },
    "KUL": {
      "icao": "WMKK",
      "issued": "2026-06-10T17:00:00.000Z",
      "raw": "TAF WMKK 101700Z 1018/1200 VRB03KT 9999 FEW030 PROB30 TEMPO 1020/1023 6000 -TSRA FEW010 FEW017CB",
      "groups": [
        {
          "text": "TAF WMKK 101700Z 1018/1200 VRB03KT 9999 FEW030",
          "offset_h": -3,
          "wdir": "VRB",
          "wspd": 3
        },
        {
          "text": "PROB30",
          "offset_h": 0,
          "wdir": null,
          "wspd": null
        },
        {
          "text": "TEMPO 1020/1023 6000 -TSRA FEW010 FEW017CB",
          "offset_h": -1,
          "wdir": null,
          "wspd": null
        }
      ],
      "metar_raw": "METAR WMKK 102100Z 15004KT 050V210 9999 FEW017CB 27/25 Q1011 NOSIG",
      "metar_wdir": 150,
      "metar_wspd": 4,
      "metar_oat": 27,
      "metar_qnh": 1011,
      "hourly_oat": [
        23,
        23,
        23,
        24,
        26,
        27,
        29,
        30,
        31,
        32,
        32,
        29,
        29,
        29,
        27,
        26,
        25,
        25,
        25,
        25,
        24,
        25,
        24,
        24,
        24
      ]
    },
    "HAN": {
      "icao": "VVNB",
      "issued": "2026-06-10T17:00:00.000Z",
      "raw": "TAF VVNB 101700Z 1018/1118 30005KT 9999 FEW030",
      "groups": [
        {
          "text": "TAF VVNB 101700Z 1018/1118 30005KT 9999 FEW030",
          "offset_h": -3,
          "wdir": 300,
          "wspd": 5
        }
      ],
      "metar_raw": "METAR VVNB 102100Z VRB02KT 9000 NSC 27/24 Q1010 NOSIG",
      "metar_wdir": "VRB",
      "metar_wspd": 2,
      "metar_oat": 27,
      "metar_qnh": 1010,
      "hourly_oat": [
        26,
        26,
        26,
        27,
        28,
        28,
        29,
        29,
        30,
        30,
        30,
        30,
        30,
        30,
        28,
        28,
        27,
        27,
        27,
        27,
        27,
        26,
        26,
        26,
        26
      ]
    },
    "SHA": {
      "icao": "ZSSS",
      "issued": "2026-06-10T15:03:00.000Z",
      "raw": "TAF ZSSS 101503Z 1018/1124 16004MPS 8000 BKN030 TX33/1106Z TN20/1021Z TN21/1121Z",
      "groups": [
        {
          "text": "TAF ZSSS 101503Z 1018/1124 16004MPS 8000 BKN030 TX33/1106Z TN20/1021Z TN21/1121Z",
          "offset_h": -3,
          "wdir": null,
          "wspd": null
        }
      ],
      "metar_raw": "METAR ZSSS 102100Z 17002MPS CAVOK 22/18 Q1012 NOSIG",
      "metar_wdir": null,
      "metar_wspd": null,
      "metar_oat": 22,
      "metar_qnh": 1012,
      "hourly_oat": [
        21,
        21,
        23,
        26,
        28,
        30,
        32,
        33,
        34,
        33,
        32,
        31,
        30,
        29,
        27,
        26,
        25,
        24,
        24,
        24,
        23,
        23,
        23,
        22,
        22
      ]
    },
    "PVG": {
      "icao": "ZSPD",
      "issued": "2026-06-10T15:03:00.000Z",
      "raw": "TAF ZSPD 101503Z 1018/1124 17004MPS 8000 BKN030 TX30/1106Z TN19/1021Z TN20/1121Z",
      "groups": [
        {
          "text": "TAF ZSPD 101503Z 1018/1124 17004MPS 8000 BKN030 TX30/1106Z TN19/1021Z TN20/1121Z",
          "offset_h": -3,
          "wdir": null,
          "wspd": null
        }
      ],
      "metar_raw": "METAR ZSPD 102100Z 16002MPS CAVOK 21/19 Q1012 NOSIG",
      "metar_wdir": null,
      "metar_wspd": null,
      "metar_oat": 21,
      "metar_qnh": 1012,
      "hourly_oat": [
        19,
        20,
        23,
        25,
        27,
        28,
        29,
        29,
        29,
        29,
        29,
        28,
        27,
        26,
        24,
        23,
        23,
        22,
        22,
        22,
        22,
        21,
        21,
        21,
        21
      ]
    },
    "PEK": {
      "icao": "ZBAA",
      "issued": "2026-06-10T15:02:00.000Z",
      "raw": "TAF ZBAA 101502Z 1018/1124 35004MPS CAVOK TX30/1107Z TN14/1021Z TN19/1121Z",
      "groups": [
        {
          "text": "TAF ZBAA 101502Z 1018/1124 35004MPS CAVOK TX30/1107Z TN14/1021Z TN19/1121Z",
          "offset_h": -3,
          "wdir": null,
          "wspd": null
        }
      ],
      "metar_raw": "METAR ZBAA 102100Z 01002MPS CAVOK 14/13 Q1012 NOSIG",
      "metar_wdir": null,
      "metar_wspd": null,
      "metar_oat": 14,
      "metar_qnh": 1012,
      "hourly_oat": [
        13,
        14,
        16,
        20,
        22,
        25,
        27,
        28,
        29,
        30,
        30,
        30,
        30,
        30,
        28,
        26,
        25,
        25,
        25,
        25,
        24,
        22,
        21,
        19,
        18
      ]
    },
    "CAN": {
      "icao": "ZGGG",
      "issued": "2026-06-10T15:02:00.000Z",
      "raw": "TAF ZGGG 101502Z 1018/1124 07003MPS 8000 SCT040 TX34/1107Z TN24/1022Z TN25/1122Z",
      "groups": [
        {
          "text": "TAF ZGGG 101502Z 1018/1124 07003MPS 8000 SCT040 TX34/1107Z TN24/1022Z TN25/1122Z",
          "offset_h": -3,
          "wdir": null,
          "wspd": null
        }
      ],
      "metar_raw": "METAR ZGGG 102100Z 06002MPS CAVOK 24/21 Q1010 NOSIG",
      "metar_wdir": null,
      "metar_wspd": null,
      "metar_oat": 24,
      "metar_qnh": 1010,
      "hourly_oat": [
        23,
        23,
        24,
        25,
        26,
        28,
        29,
        30,
        31,
        32,
        32,
        31,
        31,
        30,
        29,
        28,
        28,
        27,
        26,
        26,
        26,
        26,
        25,
        24,
        25
      ]
    },
    "DLC": {
      "icao": "ZYTL",
      "issued": "2026-06-10T15:01:00.000Z",
      "raw": "TAF ZYTL 101501Z 1018/1118 26004MPS 5000 BR FEW040 TX26/1106Z TN17/1021Z",
      "groups": [
        {
          "text": "TAF ZYTL 101501Z 1018/1118 26004MPS 5000 BR FEW040 TX26/1106Z TN17/1021Z",
          "offset_h": -3,
          "wdir": null,
          "wspd": null
        }
      ],
      "metar_raw": "METAR ZYTL 102100Z VRB01MPS CAVOK 17/12 Q1010 NOSIG",
      "metar_wdir": null,
      "metar_wspd": null,
      "metar_oat": 17,
      "metar_qnh": 1010,
      "hourly_oat": [
        18,
        19,
        21,
        23,
        24,
        24,
        25,
        25,
        26,
        26,
        25,
        25,
        24,
        24,
        22,
        21,
        20,
        19,
        18,
        18,
        18,
        18,
        18,
        18,
        18
      ]
    }
  }
}