{
  "updated": "2026-06-11T21:30:57Z",
  "tafs": {
    "SAN": {
      "icao": "KSAN",
      "issued": "2026-06-11T21:21:00.000Z",
      "raw": "TAF KSAN 112121Z 1121/1224 23007KT P6SM FEW018 SCT023 SCT200 FM120500 VRB03KT P6SM BKN090 FM121500 VRB04KT P6SM SCT011 FM121800 28010KT P6SM BKN200",
      "groups": [
        {
          "text": "TAF KSAN 112121Z 1121/1224 23007KT P6SM FEW018 SCT023 SCT200",
          "offset_h": 0,
          "wdir": 230,
          "wspd": 7
        },
        {
          "text": "FM120500 VRB03KT P6SM BKN090",
          "offset_h": 8,
          "wdir": "VRB",
          "wspd": 3
        },
        {
          "text": "FM121500 VRB04KT P6SM SCT011",
          "offset_h": 18,
          "wdir": "VRB",
          "wspd": 4
        },
        {
          "text": "FM121800 28010KT P6SM BKN200",
          "offset_h": 21,
          "wdir": 280,
          "wspd": 10
        }
      ],
      "metar_raw": "METAR KSAN 112051Z 23007KT 10SM FEW018 SCT023 SCT200 22/17 A2989 RMK AO2 SLP120 T02220167 50006",
      "metar_wdir": 230,
      "metar_wspd": 7,
      "metar_oat": 22,
      "metar_qnh": 1012,
      "hourly_oat": [
        24,
        24,
        24,
        23,
        22,
        21,
        19,
        19,
        19,
        18,
        18,
        18,
        18,
        17,
        17,
        18,
        18,
        18,
        18,
        20,
        22,
        23,
        24,
        24,
        24
      ]
    },
    "LAX": {
      "icao": "KLAX",
      "issued": "2026-06-11T21:00:00.000Z",
      "raw": "TAF KLAX 112100Z 1121/1224 26012KT P6SM FEW025 FM120200 26008KT P6SM OVC010 FM120400 26006KT P6SM OVC008 FM120800 VRB03KT 4SM BR OVC005 FM121300 VRB03KT 6SM BR OVC008 FM121700 25010KT P6SM SCT012",
      "groups": [
        {
          "text": "TAF KLAX 112100Z 1121/1224 26012KT P6SM FEW025",
          "offset_h": 0,
          "wdir": 260,
          "wspd": 12
        },
        {
          "text": "FM120200 26008KT P6SM OVC010",
          "offset_h": 5,
          "wdir": 260,
          "wspd": 8
        },
        {
          "text": "FM120400 26006KT P6SM OVC008",
          "offset_h": 7,
          "wdir": 260,
          "wspd": 6
        },
        {
          "text": "FM120800 VRB03KT 4SM BR OVC005",
          "offset_h": 11,
          "wdir": "VRB",
          "wspd": 3
        },
        {
          "text": "FM121300 VRB03KT 6SM BR OVC008",
          "offset_h": 16,
          "wdir": "VRB",
          "wspd": 3
        },
        {
          "text": "FM121700 25010KT P6SM SCT012",
          "offset_h": 20,
          "wdir": 250,
          "wspd": 10
        }
      ],
      "metar_raw": "METAR KLAX 112053Z 24010KT 10SM FEW025 23/17 A2986 RMK AO2 SLP111 T02280167 58001",
      "metar_wdir": 240,
      "metar_wspd": 10,
      "metar_oat": 23,
      "metar_qnh": 1011,
      "hourly_oat": [
        24,
        23,
        21,
        20,
        20,
        19,
        18,
        18,
        18,
        18,
        17,
        17,
        17,
        17,
        17,
        16,
        16,
        16,
        17,
        18,
        19,
        20,
        21,
        22,
        22
      ]
    },
    "HNL": {
      "icao": "PHNL",
      "issued": "2026-06-11T20:55:00.000Z",
      "raw": "TAF PHNL 112055Z 1121/1224 06011KT P6SM FEW025 SCT045 FM120700 VRB06KT P6SM FEW025 FEW045 FM122000 07009KT P6SM SCT040",
      "groups": [
        {
          "text": "TAF PHNL 112055Z 1121/1224 06011KT P6SM FEW025 SCT045",
          "offset_h": 0,
          "wdir": 60,
          "wspd": 11
        },
        {
          "text": "FM120700 VRB06KT P6SM FEW025 FEW045",
          "offset_h": 10,
          "wdir": "VRB",
          "wspd": 6
        },
        {
          "text": "FM122000 07009KT P6SM SCT040",
          "offset_h": 23,
          "wdir": 70,
          "wspd": 9
        }
      ],
      "metar_raw": "METAR PHNL 112053Z 03012G18KT 10SM FEW025 FEW035 FEW085 29/19 A3002 RMK AO2 SLP164 T02890194 58005 $",
      "metar_wdir": 30,
      "metar_wspd": 12,
      "metar_oat": 29,
      "metar_qnh": 1017,
      "hourly_oat": [
        28,
        28,
        28,
        28,
        28,
        27,
        26,
        26,
        24,
        23,
        23,
        23,
        23,
        22,
        22,
        21,
        21,
        21,
        21,
        21,
        22,
        24,
        26,
        27,
        28
      ]
    },
    "HKG": {
      "icao": "VHHH",
      "issued": "2026-06-11T20:00:00.000Z",
      "raw": "TAF VHHH 112000Z 1121/1303 09010KT 9999 FEW015 TX30/1206Z TN26/1122Z TN27/1222Z TEMPO 1203/1209 3500 SHRA FEW010CB SCT025 BECMG 1209/1211 18010KT TEMPO 1221/1303 3500 SHRA FEW010CB SCT025",
      "groups": [
        {
          "text": "TAF VHHH 112000Z 1121/1303 09010KT 9999 FEW015 TX30/1206Z TN26/1122Z TN27/1222Z",
          "offset_h": 0,
          "wdir": 90,
          "wspd": 10
        },
        {
          "text": "TEMPO 1203/1209 3500 SHRA FEW010CB SCT025",
          "offset_h": 6,
          "wdir": null,
          "wspd": null
        },
        {
          "text": "BECMG 1209/1211 18010KT",
          "offset_h": 12,
          "wdir": 180,
          "wspd": 10
        },
        {
          "text": "TEMPO 1221/1303 3500 SHRA FEW010CB SCT025",
          "offset_h": 24,
          "wdir": null,
          "wspd": null
        }
      ],
      "metar_raw": "METAR VHHH 112100Z 08008KT 9999 FEW015 26/23 Q1012 NOSIG",
      "metar_wdir": 80,
      "metar_wspd": 8,
      "metar_oat": 26,
      "metar_qnh": 1012,
      "hourly_oat": [
        26,
        26,
        26,
        27,
        28,
        28,
        28,
        28,
        28,
        28,
        28,
        28,
        28,
        28,
        27,
        27,
        27,
        28,
        28,
        28,
        27,
        26,
        26,
        25,
        26
      ]
    },
    "CTS": {
      "icao": "RJCC",
      "issued": "2026-06-11T19:44:00.000Z",
      "raw": "TAF AMD RJCC 111944Z 1119/1300 17006KT 9999 FEW020 SCT030 BECMG 1123/1201 17016KT TEMPO 1212/1300 2000 BR FEW001 BKN003",
      "groups": [
        {
          "text": "TAF AMD RJCC 111944Z 1119/1300 17006KT 9999 FEW020 SCT030",
          "offset_h": -2,
          "wdir": 170,
          "wspd": 6
        },
        {
          "text": "BECMG 1123/1201 17016KT",
          "offset_h": 2,
          "wdir": 170,
          "wspd": 16
        },
        {
          "text": "TEMPO 1212/1300 2000 BR FEW001 BKN003",
          "offset_h": 15,
          "wdir": null,
          "wspd": null
        }
      ],
      "metar_raw": "METAR RJCC 112100Z 16009KT 9999 FEW007 15/13 Q1012",
      "metar_wdir": 160,
      "metar_wspd": 9,
      "metar_oat": 15,
      "metar_qnh": 1012,
      "hourly_oat": [
        14,
        16,
        17,
        18,
        19,
        19,
        20,
        20,
        20,
        19,
        18,
        18,
        16,
        14,
        13,
        12,
        12,
        12,
        12,
        12,
        12,
        12,
        12,
        12,
        12
      ]
    },
    "KIX": {
      "icao": "RJBB",
      "issued": "2026-06-11T17:06:00.000Z",
      "raw": "TAF RJBB 111706Z 1118/1300 24006KT 9999 FEW030 BECMG 1215/1218 01006KT",
      "groups": [
        {
          "text": "TAF RJBB 111706Z 1118/1300 24006KT 9999 FEW030",
          "offset_h": -3,
          "wdir": 240,
          "wspd": 6
        },
        {
          "text": "BECMG 1215/1218 01006KT",
          "offset_h": 18,
          "wdir": 10,
          "wspd": 6
        }
      ],
      "metar_raw": "METAR RJBB 112100Z 23005KT 9999 FEW040 SCT080 22/18 Q1012 NOSIG",
      "metar_wdir": 230,
      "metar_wspd": 5,
      "metar_oat": 22,
      "metar_qnh": 1012,
      "hourly_oat": [
        22,
        21,
        21,
        21,
        21,
        21,
        22,
        22,
        22,
        22,
        23,
        23,
        23,
        23,
        23,
        22,
        22,
        22,
        22,
        21,
        21,
        21,
        21,
        21,
        21
      ]
    },
    "ITM": {
      "icao": "RJOO",
      "issued": "2026-06-11T17:06:00.000Z",
      "raw": "TAF RJOO 111706Z 1118/1300 32004KT 9999 FEW030 BECMG 1200/1202 22006KT BECMG 1206/1209 34008KT BECMG 1221/1300 09004KT",
      "groups": [
        {
          "text": "TAF RJOO 111706Z 1118/1300 32004KT 9999 FEW030",
          "offset_h": -3,
          "wdir": 320,
          "wspd": 4
        },
        {
          "text": "BECMG 1200/1202 22006KT",
          "offset_h": 3,
          "wdir": 220,
          "wspd": 6
        },
        {
          "text": "BECMG 1206/1209 34008KT",
          "offset_h": 9,
          "wdir": 340,
          "wspd": 8
        },
        {
          "text": "BECMG 1221/1300 09004KT",
          "offset_h": 24,
          "wdir": 90,
          "wspd": 4
        }
      ],
      "metar_raw": "METAR RJOO 112100Z AUTO 31002KT 9999 NSC 20/14 Q1012",
      "metar_wdir": 310,
      "metar_wspd": 2,
      "metar_oat": 20,
      "metar_qnh": 1012,
      "hourly_oat": [
        18,
        20,
        21,
        23,
        24,
        26,
        26,
        26,
        27,
        27,
        27,
        27,
        26,
        25,
        24,
        23,
        22,
        21,
        21,
        20,
        20,
        19,
        18,
        18,
        18
      ]
    },
    "FUK": {
      "icao": "RJFF",
      "issued": "2026-06-11T17:05:00.000Z",
      "raw": "TAF RJFF 111705Z 1118/1300 15004KT 9999 FEW007 SCT015 BKN020 BECMG 1122/1200 31012KT BECMG 1212/1215 16006KT",
      "groups": [
        {
          "text": "TAF RJFF 111705Z 1118/1300 15004KT 9999 FEW007 SCT015 BKN020",
          "offset_h": -3,
          "wdir": 150,
          "wspd": 4
        },
        {
          "text": "BECMG 1122/1200 31012KT",
          "offset_h": 1,
          "wdir": 310,
          "wspd": 12
        },
        {
          "text": "BECMG 1212/1215 16006KT",
          "offset_h": 15,
          "wdir": 160,
          "wspd": 6
        }
      ],
      "metar_raw": "METAR RJFF 112100Z 12005KT 9999 FEW025 19/15 Q1014 NOSIG",
      "metar_wdir": 120,
      "metar_wspd": 5,
      "metar_oat": 19,
      "metar_qnh": 1014,
      "hourly_oat": [
        18,
        19,
        21,
        22,
        23,
        24,
        24,
        24,
        24,
        24,
        24,
        23,
        23,
        22,
        22,
        21,
        20,
        20,
        20,
        19,
        18,
        18,
        18,
        18,
        18
      ]
    },
    "NRT": {
      "icao": "RJAA",
      "issued": "2026-06-11T17:05:00.000Z",
      "raw": "TAF RJAA 111705Z 1118/1300 36005KT 9999 FEW008 BKN015 TEMPO 1118/1201 FEW003 BKN005 BECMG 1121/1123 13010KT TEMPO 1201/1206 -TSRA FEW012 BKN020 FEW020CB BECMG 1218/1221 34006KT TEMPO 1218/1300 FEW003 BKN008",
      "groups": [
        {
          "text": "TAF RJAA 111705Z 1118/1300 36005KT 9999 FEW008 BKN015",
          "offset_h": -3,
          "wdir": 360,
          "wspd": 5
        },
        {
          "text": "TEMPO 1118/1201 FEW003 BKN005",
          "offset_h": -3,
          "wdir": null,
          "wspd": null
        },
        {
          "text": "BECMG 1121/1123 13010KT",
          "offset_h": 0,
          "wdir": 130,
          "wspd": 10
        },
        {
          "text": "TEMPO 1201/1206 -TSRA FEW012 BKN020 FEW020CB",
          "offset_h": 4,
          "wdir": null,
          "wspd": null
        },
        {
          "text": "BECMG 1218/1221 34006KT",
          "offset_h": 21,
          "wdir": 340,
          "wspd": 6
        },
        {
          "text": "TEMPO 1218/1300 FEW003 BKN008",
          "offset_h": 21,
          "wdir": null,
          "wspd": null
        }
      ],
      "metar_raw": "METAR RJAA 112100Z VRB02KT 9999 SCT004 BKN/// 19/18 Q1012 BECMG 15005KT TEMPO FEW003 BKN008",
      "metar_wdir": "VRB",
      "metar_wspd": 2,
      "metar_oat": 19,
      "metar_qnh": 1012,
      "hourly_oat": [
        19,
        20,
        21,
        22,
        23,
        24,
        24,
        24,
        23,
        23,
        23,
        22,
        21,
        21,
        20,
        20,
        20,
        19,
        19,
        19,
        19,
        18,
        18,
        18,
        19
      ]
    },
    "HND": {
      "icao": "RJTT",
      "issued": "2026-06-11T17:05:00.000Z",
      "raw": "TAF RJTT 111705Z 1118/1300 34004KT 9999 FEW020 SCT050 BECMG 1123/1201 08005KT BECMG 1204/1206 16012KT TEMPO 1204/1206 3000 TSRA BR FEW005 BKN015 FEW020CB TEMPO 1206/1215 -TSRA FEW008 BKN020 FEW020CB BECMG 1215/1218 36008KT",
      "groups": [
        {
          "text": "TAF RJTT 111705Z 1118/1300 34004KT 9999 FEW020 SCT050",
          "offset_h": -3,
          "wdir": 340,
          "wspd": 4
        },
        {
          "text": "BECMG 1123/1201 08005KT",
          "offset_h": 2,
          "wdir": 80,
          "wspd": 5
        },
        {
          "text": "BECMG 1204/1206 16012KT",
          "offset_h": 7,
          "wdir": 160,
          "wspd": 12
        },
        {
          "text": "TEMPO 1204/1206 3000 TSRA BR FEW005 BKN015 FEW020CB",
          "offset_h": 7,
          "wdir": null,
          "wspd": null
        },
        {
          "text": "TEMPO 1206/1215 -TSRA FEW008 BKN020 FEW020CB",
          "offset_h": 9,
          "wdir": null,
          "wspd": null
        },
        {
          "text": "BECMG 1215/1218 36008KT",
          "offset_h": 18,
          "wdir": 360,
          "wspd": 8
        }
      ],
      "metar_raw": "METAR RJTT 112100Z 02009KT 9999 FEW010 BKN015 20/17 Q1012 NOSIG",
      "metar_wdir": 20,
      "metar_wspd": 9,
      "metar_oat": 20,
      "metar_qnh": 1012,
      "hourly_oat": [
        19,
        19,
        20,
        21,
        22,
        23,
        25,
        26,
        26,
        25,
        24,
        24,
        23,
        22,
        22,
        22,
        21,
        21,
        21,
        21,
        20,
        20,
        19,
        19,
        19
      ]
    },
    "OKA": {
      "icao": "ROAH",
      "issued": "2026-06-11T17:05:00.000Z",
      "raw": "TAF ROAH 111705Z 1118/1300 06005KT 9999 FEW012 SCT040 BECMG 1118/1120 11006KT TEMPO 1203/1206 4000 SHRA BR TEMPO 1218/1300 4000 SHRA BR",
      "groups": [
        {
          "text": "TAF ROAH 111705Z 1118/1300 06005KT 9999 FEW012 SCT040",
          "offset_h": -3,
          "wdir": 60,
          "wspd": 5
        },
        {
          "text": "BECMG 1118/1120 11006KT",
          "offset_h": -3,
          "wdir": 110,
          "wspd": 6
        },
        {
          "text": "TEMPO 1203/1206 4000 SHRA BR",
          "offset_h": 6,
          "wdir": null,
          "wspd": null
        },
        {
          "text": "TEMPO 1218/1300 4000 SHRA BR",
          "offset_h": 21,
          "wdir": null,
          "wspd": null
        }
      ],
      "metar_raw": "METAR ROAH 112100Z 09006KT 9999 FEW015 SCT045 BKN070 23/19 Q1014",
      "metar_wdir": 90,
      "metar_wspd": 6,
      "metar_oat": 23,
      "metar_qnh": 1014,
      "hourly_oat": [
        23,
        23,
        24,
        23,
        23,
        23,
        24,
        23,
        22,
        21,
        20,
        21,
        20,
        20,
        20,
        20,
        20,
        20,
        20,
        20,
        20,
        20,
        20,
        21,
        21
      ]
    },
    "NGO": {
      "icao": "RJGG",
      "issued": "2026-06-11T17:05:00.000Z",
      "raw": "TAF RJGG 111705Z 1118/1300 35004KT 9999 FEW030 BECMG 1201/1203 21010KT BECMG 1209/1212 32008KT",
      "groups": [
        {
          "text": "TAF RJGG 111705Z 1118/1300 35004KT 9999 FEW030",
          "offset_h": -3,
          "wdir": 350,
          "wspd": 4
        },
        {
          "text": "BECMG 1201/1203 21010KT",
          "offset_h": 4,
          "wdir": 210,
          "wspd": 10
        },
        {
          "text": "BECMG 1209/1212 32008KT",
          "offset_h": 12,
          "wdir": 320,
          "wspd": 8
        }
      ],
      "metar_raw": "METAR RJGG 112100Z VRB01KT 8000 FEW014 20/17 Q1012 NOSIG",
      "metar_wdir": "VRB",
      "metar_wspd": 1,
      "metar_oat": 20,
      "metar_qnh": 1012,
      "hourly_oat": [
        20,
        20,
        20,
        20,
        20,
        21,
        22,
        22,
        22,
        23,
        23,
        23,
        23,
        23,
        23,
        22,
        22,
        22,
        22,
        21,
        21,
        21,
        20,
        20,
        20
      ]
    },
    "SIN": {
      "icao": "WSSS",
      "issued": "2026-06-11T17:00:00.000Z",
      "raw": "TAF WSSS 111700Z 1118/1300 12007KT 9999 FEW015 SCT020",
      "groups": [
        {
          "text": "TAF WSSS 111700Z 1118/1300 12007KT 9999 FEW015 SCT020",
          "offset_h": -3,
          "wdir": 120,
          "wspd": 7
        }
      ],
      "metar_raw": "METAR WSSS 112130Z 32002KT 8000 FEW016 BKN150 27/25 Q1012 NOSIG",
      "metar_wdir": 320,
      "metar_wspd": 2,
      "metar_oat": 27,
      "metar_qnh": 1012,
      "hourly_oat": [
        26,
        26,
        26,
        27,
        27,
        28,
        29,
        30,
        30,
        31,
        31,
        31,
        30,
        30,
        29,
        29,
        29,
        28,
        28,
        28,
        28,
        28,
        28,
        26,
        26
      ]
    },
    "CGK": {
      "icao": "WIII",
      "issued": "2026-06-11T17:00:00.000Z",
      "raw": "TAF WIII 111700Z 1118/1300 VRB05KT 4000 HZ SCT020 BECMG 1200/1202 04011KT BECMG 1204/1206 7000 NSW",
      "groups": [
        {
          "text": "TAF WIII 111700Z 1118/1300 VRB05KT 4000 HZ SCT020",
          "offset_h": -3,
          "wdir": "VRB",
          "wspd": 5
        },
        {
          "text": "BECMG 1200/1202 04011KT",
          "offset_h": 3,
          "wdir": 40,
          "wspd": 11
        },
        {
          "text": "BECMG 1204/1206 7000 NSW",
          "offset_h": 7,
          "wdir": null,
          "wspd": null
        }
      ],
      "metar_raw": "METAR WIII 112100Z 20004KT 3000 HZ SCT020 27/24 Q1012 NOSIG",
      "metar_wdir": 200,
      "metar_wspd": 4,
      "metar_oat": 27,
      "metar_qnh": 1012,
      "hourly_oat": [
        25,
        25,
        25,
        26,
        28,
        30,
        31,
        33,
        33,
        33,
        33,
        32,
        31,
        30,
        29,
        29,
        29,
        28,
        28,
        27,
        26,
        26,
        26,
        26,
        26
      ]
    },
    "HAN": {
      "icao": "VVNB",
      "issued": "2026-06-11T17:00:00.000Z",
      "raw": "TAF VVNB 111700Z 1118/1218 30005KT 4000 BR FEW025 TEMPO 1120/1124 2500 RA BR SCT010 FEW025TCU BECMG 1201/1202 6000 NSW TEMPO 1209/1212 4000 SHRA SCT015 FEW025TCU",
      "groups": [
        {
          "text": "TAF VVNB 111700Z 1118/1218 30005KT 4000 BR FEW025",
          "offset_h": -3,
          "wdir": 300,
          "wspd": 5
        },
        {
          "text": "TEMPO 1120/1124 2500 RA BR SCT010 FEW025TCU",
          "offset_h": -1,
          "wdir": null,
          "wspd": null
        },
        {
          "text": "BECMG 1201/1202 6000 NSW",
          "offset_h": 4,
          "wdir": null,
          "wspd": null
        },
        {
          "text": "TEMPO 1209/1212 4000 SHRA SCT015 FEW025TCU",
          "offset_h": 12,
          "wdir": null,
          "wspd": null
        }
      ],
      "metar_raw": "METAR VVNB 112100Z 00000KT 7000 BKN031 BKN063 26/24 Q1012 TEMPO FM2200 4000 SHRA",
      "metar_wdir": 0,
      "metar_wspd": 0,
      "metar_oat": 26,
      "metar_qnh": 1012,
      "hourly_oat": [
        25,
        25,
        25,
        26,
        28,
        29,
        30,
        31,
        32,
        32,
        33,
        33,
        32,
        32,
        31,
        30,
        29,
        29,
        29,
        28,
        28,
        28,
        28,
        27,
        27
      ]
    },
    "SGN": {
      "icao": "VVTS",
      "issued": "2026-06-11T17:00:00.000Z",
      "raw": "TAF VVTS 111700Z 1118/1224 VRB03KT 9999 SCT017 SCT040 TEMPO 1118/1121 5000 SHRA SCT015 FEW017CB BKN040 BECMG 1121/1122 5000 BR BECMG 1200/1201 24010KT 9999 NSW TEMPO 1208/1212 24016G28KT 3000 TSRA BKN015 SCT017CB BKN040",
      "groups": [
        {
          "text": "TAF VVTS 111700Z 1118/1224 VRB03KT 9999 SCT017 SCT040",
          "offset_h": -3,
          "wdir": "VRB",
          "wspd": 3
        },
        {
          "text": "TEMPO 1118/1121 5000 SHRA SCT015 FEW017CB BKN040",
          "offset_h": -3,
          "wdir": null,
          "wspd": null
        },
        {
          "text": "BECMG 1121/1122 5000 BR",
          "offset_h": 0,
          "wdir": null,
          "wspd": null
        },
        {
          "text": "BECMG 1200/1201 24010KT 9999 NSW",
          "offset_h": 3,
          "wdir": 240,
          "wspd": 10
        },
        {
          "text": "TEMPO 1208/1212 24016G28KT 3000 TSRA BKN015 SCT017CB BKN040",
          "offset_h": 11,
          "wdir": 240,
          "wspd": 16
        }
      ],
      "metar_raw": "METAR VVTS 112100Z 04004KT 9000 NSC 25/25 Q1012 NOSIG",
      "metar_wdir": 40,
      "metar_wspd": 4,
      "metar_oat": 25,
      "metar_qnh": 1012,
      "hourly_oat": [
        25,
        25,
        25,
        26,
        27,
        29,
        30,
        31,
        32,
        32,
        30,
        28,
        28,
        28,
        28,
        27,
        27,
        27,
        27,
        26,
        26,
        26,
        26,
        25,
        24
      ]
    },
    "TSA": {
      "icao": "RCSS",
      "issued": "2026-06-11T17:00:00.000Z",
      "raw": "TAF RCSS 111700Z 1118/1218 09008KT 7000 FEW012 BKN032 TEMPO 1118/1124 5000 RA FEW010 BKN020 TEMPO 1200/1206 09013KT 4000 SHRA SCT008 FEW010CB BKN014 TEMPO 1215/1218 VRB05KT 4000 SHRA SCT008 FEW010CB BKN016",
      "groups": [
        {
          "text": "TAF RCSS 111700Z 1118/1218 09008KT 7000 FEW012 BKN032",
          "offset_h": -3,
          "wdir": 90,
          "wspd": 8
        },
        {
          "text": "TEMPO 1118/1124 5000 RA FEW010 BKN020",
          "offset_h": -3,
          "wdir": null,
          "wspd": null
        },
        {
          "text": "TEMPO 1200/1206 09013KT 4000 SHRA SCT008 FEW010CB BKN014",
          "offset_h": 3,
          "wdir": 90,
          "wspd": 13
        },
        {
          "text": "TEMPO 1215/1218 VRB05KT 4000 SHRA SCT008 FEW010CB BKN016",
          "offset_h": 18,
          "wdir": "VRB",
          "wspd": 5
        }
      ],
      "metar_raw": "METAR RCSS 112100Z 11008KT 9999 -RA FEW012 SCT035 BKN050 24/23 Q1011 NOSIG RMK A2988",
      "metar_wdir": 110,
      "metar_wspd": 8,
      "metar_oat": 24,
      "metar_qnh": 1011,
      "hourly_oat": [
        23,
        23,
        23,
        24,
        24,
        25,
        26,
        26,
        26,
        26,
        25,
        26,
        25,
        25,
        24,
        24,
        24,
        23,
        23,
        23,
        22,
        22,
        23,
        23,
        23
      ]
    },
    "TPE": {
      "icao": "RCTP",
      "issued": "2026-06-11T17:00:00.000Z",
      "raw": "TAF RCTP 111700Z 1118/1224 07008KT 9999 FEW012 BKN032 TEMPO 1120/1202 4000 SHRA SCT008 FEW012CB BKN014 TEMPO 1202/1208 09013KT 5000 RA FEW010 BKN018 BECMG 1214/1216 17005KT TEMPO 1216/1222 4000 SHRA FEW008 FEW012TCU BKN016",
      "groups": [
        {
          "text": "TAF RCTP 111700Z 1118/1224 07008KT 9999 FEW012 BKN032",
          "offset_h": -3,
          "wdir": 70,
          "wspd": 8
        },
        {
          "text": "TEMPO 1120/1202 4000 SHRA SCT008 FEW012CB BKN014",
          "offset_h": -1,
          "wdir": null,
          "wspd": null
        },
        {
          "text": "TEMPO 1202/1208 09013KT 5000 RA FEW010 BKN018",
          "offset_h": 5,
          "wdir": 90,
          "wspd": 13
        },
        {
          "text": "BECMG 1214/1216 17005KT",
          "offset_h": 17,
          "wdir": 170,
          "wspd": 5
        },
        {
          "text": "TEMPO 1216/1222 4000 SHRA FEW008 FEW012TCU BKN016",
          "offset_h": 19,
          "wdir": null,
          "wspd": null
        }
      ],
      "metar_raw": "METAR RCTP 112100Z VRB02KT 9999 FEW012 SCT030 BKN040 24/23 Q1012 NOSIG RMK A2989",
      "metar_wdir": "VRB",
      "metar_wspd": 2,
      "metar_oat": 24,
      "metar_qnh": 1012,
      "hourly_oat": [
        22,
        23,
        23,
        24,
        24,
        25,
        26,
        26,
        26,
        26,
        26,
        25,
        25,
        25,
        24,
        24,
        23,
        23,
        23,
        23,
        23,
        23,
        23,
        23,
        23
      ]
    },
    "GMP": {
      "icao": "RKSS",
      "issued": "2026-06-11T17:00:00.000Z",
      "raw": "TAF RKSS 111700Z 1118/1224 24007KT 6000 NSC TN16/1120Z TX27/1206Z TN16/1220Z BECMG 1119/1121 4000 BR FEW010 BECMG 1122/1124 CAVOK BECMG 1213/1215 14005KT 6000 NSC BECMG 1219/1221 4000 BR FEW010 BECMG 1222/1224 18005KT 6000 NSW NSC",
      "groups": [
        {
          "text": "TAF RKSS 111700Z 1118/1224 24007KT 6000 NSC TN16/1120Z TX27/1206Z TN16/1220Z",
          "offset_h": -3,
          "wdir": 240,
          "wspd": 7
        },
        {
          "text": "BECMG 1119/1121 4000 BR FEW010",
          "offset_h": -2,
          "wdir": null,
          "wspd": null
        },
        {
          "text": "BECMG 1122/1124 CAVOK",
          "offset_h": 1,
          "wdir": null,
          "wspd": null
        },
        {
          "text": "BECMG 1213/1215 14005KT 6000 NSC",
          "offset_h": 16,
          "wdir": 140,
          "wspd": 5
        },
        {
          "text": "BECMG 1219/1221 4000 BR FEW010",
          "offset_h": 22,
          "wdir": null,
          "wspd": null
        },
        {
          "text": "BECMG 1222/1224 18005KT 6000 NSW NSC",
          "offset_h": 25,
          "wdir": 180,
          "wspd": 5
        }
      ],
      "metar_raw": "METAR RKSS 112100Z 22005KT 7000 FEW015 18/18 Q1014 NOSIG",
      "metar_wdir": 220,
      "metar_wspd": 5,
      "metar_oat": 18,
      "metar_qnh": 1014,
      "hourly_oat": [
        15,
        17,
        19,
        21,
        23,
        25,
        26,
        26,
        26,
        25,
        24,
        24,
        23,
        22,
        20,
        19,
        18,
        17,
        16,
        16,
        16,
        16,
        16,
        16,
        16
      ]
    },
    "KUL": {
      "icao": "WMKK",
      "issued": "2026-06-11T17:00:00.000Z",
      "raw": "TAF WMKK 111700Z 1118/1300 VRB02KT 9999 FEW030 PROB30 TEMPO 1119/1123 6000 -TSRA FEW010 FEW017CB",
      "groups": [
        {
          "text": "TAF WMKK 111700Z 1118/1300 VRB02KT 9999 FEW030",
          "offset_h": -3,
          "wdir": "VRB",
          "wspd": 2
        },
        {
          "text": "PROB30",
          "offset_h": 0,
          "wdir": null,
          "wspd": null
        },
        {
          "text": "TEMPO 1119/1123 6000 -TSRA FEW010 FEW017CB",
          "offset_h": -2,
          "wdir": null,
          "wspd": null
        }
      ],
      "metar_raw": "METAR WMKK 112100Z VRB01KT 9999 FEW017CB 26/24 Q1011 NOSIG",
      "metar_wdir": "VRB",
      "metar_wspd": 1,
      "metar_oat": 26,
      "metar_qnh": 1011,
      "hourly_oat": [
        25,
        25,
        24,
        25,
        26,
        28,
        29,
        30,
        31,
        31,
        31,
        30,
        30,
        29,
        28,
        25,
        24,
        24,
        24,
        24,
        24,
        24,
        24,
        24,
        24
      ]
    },
    "BKK": {
      "icao": "VTBS",
      "issued": "2026-06-11T17:00:00.000Z",
      "raw": "TAF VTBS 111700Z 1118/1224 14005KT 9999 FEW020 BECMG 1200/1202 20008KT TEMPO 1209/1215 VRB15G25KT 4000 TSRA FEW018CB SCT030 BKN100 BECMG 1218/1220 13005KT",
      "groups": [
        {
          "text": "TAF VTBS 111700Z 1118/1224 14005KT 9999 FEW020",
          "offset_h": -3,
          "wdir": 140,
          "wspd": 5
        },
        {
          "text": "BECMG 1200/1202 20008KT",
          "offset_h": 3,
          "wdir": 200,
          "wspd": 8
        },
        {
          "text": "TEMPO 1209/1215 VRB15G25KT 4000 TSRA FEW018CB SCT030 BKN100",
          "offset_h": 12,
          "wdir": "VRB",
          "wspd": 15
        },
        {
          "text": "BECMG 1218/1220 13005KT",
          "offset_h": 21,
          "wdir": 130,
          "wspd": 5
        }
      ],
      "metar_raw": "METAR VTBS 112100Z 11005KT 090V180 9999 -RA FEW020 26/26 Q1013 NOSIG",
      "metar_wdir": 110,
      "metar_wspd": 5,
      "metar_oat": 26,
      "metar_qnh": 1013,
      "hourly_oat": [
        26,
        26,
        26,
        27,
        29,
        30,
        30,
        30,
        32,
        32,
        32,
        32,
        31,
        30,
        28,
        27,
        27,
        27,
        27,
        27,
        27,
        27,
        27,
        27,
        27
      ]
    },
    "PVG": {
      "icao": "ZSPD",
      "issued": "2026-06-11T15:05:00.000Z",
      "raw": "TAF ZSPD 111505Z 1118/1224 17004MPS 8000 SCT030 TX31/1206Z TN21/1121Z TN21/1221Z",
      "groups": [
        {
          "text": "TAF ZSPD 111505Z 1118/1224 17004MPS 8000 SCT030 TX31/1206Z TN21/1121Z TN21/1221Z",
          "offset_h": -3,
          "wdir": null,
          "wspd": null
        }
      ],
      "metar_raw": "METAR ZSPD 112100Z 19002MPS CAVOK 21/18 Q1013 NOSIG",
      "metar_wdir": null,
      "metar_wspd": null,
      "metar_oat": 21,
      "metar_qnh": 1013,
      "hourly_oat": [
        21,
        22,
        24,
        26,
        28,
        30,
        30,
        31,
        32,
        32,
        31,
        28,
        27,
        26,
        25,
        24,
        24,
        24,
        24,
        24,
        24,
        24,
        24,
        24,
        24
      ]
    },
    "CAN": {
      "icao": "ZGGG",
      "issued": "2026-06-11T15:04:00.000Z",
      "raw": "TAF ZGGG 111504Z 1118/1224 19003MPS 8000 BKN040 TX32/1207Z TN26/1122Z TN27/1222Z TEMPO 1207/1211 TSRA SCT026CB BKN030",
      "groups": [
        {
          "text": "TAF ZGGG 111504Z 1118/1224 19003MPS 8000 BKN040 TX32/1207Z TN26/1122Z TN27/1222Z",
          "offset_h": -3,
          "wdir": null,
          "wspd": null
        },
        {
          "text": "TEMPO 1207/1211 TSRA SCT026CB BKN030",
          "offset_h": 10,
          "wdir": null,
          "wspd": null
        }
      ],
      "metar_raw": "METAR ZGGG 112100Z 08004MPS 9999 -SHRA FEW023CB BKN030 27/24 Q1012 BECMG AT2115 SHRA",
      "metar_wdir": null,
      "metar_wspd": null,
      "metar_oat": 27,
      "metar_qnh": 1012,
      "hourly_oat": [
        24,
        24,
        25,
        26,
        27,
        29,
        30,
        30,
        31,
        32,
        28,
        28,
        27,
        28,
        27,
        26,
        26,
        26,
        26,
        26,
        26,
        26,
        25,
        25,
        25
      ]
    },
    "DLC": {
      "icao": "ZYTL",
      "issued": "2026-06-11T15:04:00.000Z",
      "raw": "TAF ZYTL 111504Z 1118/1218 21004MPS 5000 BR FEW040 TX28/1206Z TN17/1121Z",
      "groups": [
        {
          "text": "TAF ZYTL 111504Z 1118/1218 21004MPS 5000 BR FEW040 TX28/1206Z TN17/1121Z",
          "offset_h": -3,
          "wdir": null,
          "wspd": null
        }
      ],
      "metar_raw": "METAR ZYTL 112100Z VRB01MPS 7000 NSC 17/14 Q1010 NOSIG",
      "metar_wdir": null,
      "metar_wspd": null,
      "metar_oat": 17,
      "metar_qnh": 1010,
      "hourly_oat": [
        19,
        20,
        24,
        26,
        28,
        30,
        30,
        31,
        31,
        31,
        30,
        30,
        29,
        27,
        23,
        22,
        22,
        22,
        22,
        21,
        21,
        21,
        20,
        20,
        20
      ]
    },
    "SHA": {
      "icao": "ZSSS",
      "issued": "2026-06-11T15:03:00.000Z",
      "raw": "TAF ZSSS 111503Z 1118/1224 18004MPS 8000 SCT030 TX33/1206Z TN22/1121Z TN22/1221Z",
      "groups": [
        {
          "text": "TAF ZSSS 111503Z 1118/1224 18004MPS 8000 SCT030 TX33/1206Z TN22/1121Z TN22/1221Z",
          "offset_h": -3,
          "wdir": null,
          "wspd": null
        }
      ],
      "metar_raw": "METAR ZSSS 112100Z 16002MPS CAVOK 23/17 Q1013 NOSIG",
      "metar_wdir": null,
      "metar_wspd": null,
      "metar_oat": 23,
      "metar_qnh": 1013,
      "hourly_oat": [
        22,
        23,
        25,
        27,
        30,
        32,
        33,
        34,
        34,
        34,
        34,
        31,
        29,
        28,
        26,
        26,
        25,
        25,
        25,
        25,
        25,
        24,
        24,
        24,
        24
      ]
    },
    "PEK": {
      "icao": "ZBAA",
      "issued": "2026-06-11T15:02:00.000Z",
      "raw": "TAF ZBAA 111502Z 1118/1224 18004MPS CAVOK TX34/1207Z TN18/1121Z TN19/1218Z TEMPO 1210/1214 -TSRA FEW040CB BKN040",
      "groups": [
        {
          "text": "TAF ZBAA 111502Z 1118/1224 18004MPS CAVOK TX34/1207Z TN18/1121Z TN19/1218Z",
          "offset_h": -3,
          "wdir": null,
          "wspd": null
        },
        {
          "text": "TEMPO 1210/1214 -TSRA FEW040CB BKN040",
          "offset_h": 13,
          "wdir": null,
          "wspd": null
        }
      ],
      "metar_raw": "METAR ZBAA 112100Z 36002MPS CAVOK 16/14 Q1009 NOSIG",
      "metar_wdir": null,
      "metar_wspd": null,
      "metar_oat": 16,
      "metar_qnh": 1009,
      "hourly_oat": [
        18,
        19,
        21,
        24,
        26,
        28,
        30,
        32,
        34,
        35,
        34,
        34,
        34,
        33,
        31,
        30,
        28,
        26,
        23,
        22,
        21,
        21,
        20,
        19,
        18
      ]
    }
  }
}