{
  "updated": "2026-07-14T15:15:19Z",
  "tafs": {
    "HNL": {
      "icao": "PHNL",
      "issued": "2026-07-14T14:56:00.000Z",
      "raw": "TAF PHNL 141456Z 1415/1518 VRB05KT P6SM FEW025 SCT040 FM142000 07012G20KT P6SM VCSH SCT025 BKN040 FM150500 04008KT P6SM VCSH SCT025 BKN040",
      "groups": [
        {
          "text": "TAF PHNL 141456Z 1415/1518 VRB05KT P6SM FEW025 SCT040",
          "offset_h": 0,
          "wdir": "VRB",
          "wspd": 5
        },
        {
          "text": "FM142000 07012G20KT P6SM VCSH SCT025 BKN040",
          "offset_h": 5,
          "wdir": 70,
          "wspd": 12
        },
        {
          "text": "FM150500 04008KT P6SM VCSH SCT025 BKN040",
          "offset_h": 14,
          "wdir": 40,
          "wspd": 8
        }
      ],
      "metar_raw": "METAR PHNL 141453Z 06004KT 10SM FEW026 SCT037 BKN047 24/19 A2994 RMK AO2 SLP139 T02390194 56006 $",
      "metar_wdir": 60,
      "metar_wspd": 4,
      "metar_oat": 24,
      "metar_qnh": 1014,
      "hourly_oat": [
        22,
        22,
        24,
        26,
        27,
        28,
        28,
        28,
        28,
        28,
        28,
        28,
        26,
        26,
        24,
        24,
        23,
        23,
        23,
        23,
        22,
        22,
        22,
        22,
        22
      ]
    },
    "HKG": {
      "icao": "VHHH",
      "issued": "2026-07-14T14:00:00.000Z",
      "raw": "TAF VHHH 141400Z 1415/1521 18010KT 9999 FEW015 SCT025 TX30/1506Z TN26/1422Z TEMPO 1416/1421 20020G30KT 2000 +SHRA FEW010CB SCT020 TEMPO 1421/1503 20020G30KT 1500 TSRA +SHRA FEW008CB SCT015 TEMPO 1503/1506 3000 SHRA FEW010CB SCT020",
      "groups": [
        {
          "text": "TAF VHHH 141400Z 1415/1521 18010KT 9999 FEW015 SCT025 TX30/1506Z TN26/1422Z",
          "offset_h": 0,
          "wdir": 180,
          "wspd": 10
        },
        {
          "text": "TEMPO 1416/1421 20020G30KT 2000 +SHRA FEW010CB SCT020",
          "offset_h": 1,
          "wdir": 200,
          "wspd": 20
        },
        {
          "text": "TEMPO 1421/1503 20020G30KT 1500 TSRA +SHRA FEW008CB SCT015",
          "offset_h": 6,
          "wdir": 200,
          "wspd": 20
        },
        {
          "text": "TEMPO 1503/1506 3000 SHRA FEW010CB SCT020",
          "offset_h": 12,
          "wdir": null,
          "wspd": null
        }
      ],
      "metar_raw": "METAR VHHH 141500Z 18007KT 110V210 9999 FEW015 SCT045 28/24 Q1005 NOSIG",
      "metar_wdir": 180,
      "metar_wspd": 7,
      "metar_oat": 28,
      "metar_qnh": 1005,
      "hourly_oat": [
        28,
        27,
        26,
        26,
        26,
        26,
        26,
        26,
        26,
        27,
        26,
        26,
        26,
        28,
        28,
        29,
        29,
        28,
        28,
        29,
        28,
        26,
        27,
        27,
        27
      ]
    },
    "LAX": {
      "icao": "KLAX",
      "issued": "2026-07-14T13:57:00.000Z",
      "raw": "TAF KLAX 141357Z 1414/1518 26005KT P6SM SCT007 TEMPO 1414/1415 BKN007 FM141700 26006KT P6SM SCT008 FM141900 26012KT P6SM SCT250 FM150300 26006KT P6SM SCT250 FM150700 24005KT P6SM BKN008 FM151000 VRB03KT P6SM OVC006",
      "groups": [
        {
          "text": "TAF KLAX 141357Z 1414/1518 26005KT P6SM SCT007",
          "offset_h": -1,
          "wdir": 260,
          "wspd": 5
        },
        {
          "text": "TEMPO 1414/1415 BKN007",
          "offset_h": -1,
          "wdir": null,
          "wspd": null
        },
        {
          "text": "FM141700 26006KT P6SM SCT008",
          "offset_h": 2,
          "wdir": 260,
          "wspd": 6
        },
        {
          "text": "FM141900 26012KT P6SM SCT250",
          "offset_h": 4,
          "wdir": 260,
          "wspd": 12
        },
        {
          "text": "FM150300 26006KT P6SM SCT250",
          "offset_h": 12,
          "wdir": 260,
          "wspd": 6
        },
        {
          "text": "FM150700 24005KT P6SM BKN008",
          "offset_h": 16,
          "wdir": 240,
          "wspd": 5
        },
        {
          "text": "FM151000 VRB03KT P6SM OVC006",
          "offset_h": 19,
          "wdir": "VRB",
          "wspd": 3
        }
      ],
      "metar_raw": "METAR KLAX 141453Z 28004KT 8SM FEW008 SCT180 21/18 A2998 RMK AO2 SLP151 T02110178 53006 $",
      "metar_wdir": 280,
      "metar_wspd": 4,
      "metar_oat": 21,
      "metar_qnh": 1015,
      "hourly_oat": [
        21,
        22,
        22,
        22,
        23,
        24,
        24,
        24,
        24,
        23,
        23,
        22,
        21,
        20,
        20,
        19,
        19,
        18,
        18,
        17,
        17,
        16,
        16,
        18,
        21
      ]
    },
    "SAN": {
      "icao": "KSAN",
      "issued": "2026-07-14T13:41:00.000Z",
      "raw": "TAF KSAN 141341Z 1414/1518 VRB04KT P6SM SCT012 TEMPO 1414/1416 BKN010 FM141700 28005KT P6SM SCT015 FM141900 30011KT P6SM FEW200 FM150300 VRB04KT P6SM FEW010 FM151100 VRB03KT P6SM BKN010 FM151600 27005KT P6SM FEW015",
      "groups": [
        {
          "text": "TAF KSAN 141341Z 1414/1518 VRB04KT P6SM SCT012",
          "offset_h": -1,
          "wdir": "VRB",
          "wspd": 4
        },
        {
          "text": "TEMPO 1414/1416 BKN010",
          "offset_h": -1,
          "wdir": null,
          "wspd": null
        },
        {
          "text": "FM141700 28005KT P6SM SCT015",
          "offset_h": 2,
          "wdir": 280,
          "wspd": 5
        },
        {
          "text": "FM141900 30011KT P6SM FEW200",
          "offset_h": 4,
          "wdir": 300,
          "wspd": 11
        },
        {
          "text": "FM150300 VRB04KT P6SM FEW010",
          "offset_h": 12,
          "wdir": "VRB",
          "wspd": 4
        },
        {
          "text": "FM151100 VRB03KT P6SM BKN010",
          "offset_h": 20,
          "wdir": "VRB",
          "wspd": 3
        },
        {
          "text": "FM151600 27005KT P6SM FEW015",
          "offset_h": 25,
          "wdir": 270,
          "wspd": 5
        }
      ],
      "metar_raw": "METAR KSAN 141451Z 33004KT 10SM FEW012 FEW100 23/18 A2999 RMK AO2 SLP154 T02280183 50002 $",
      "metar_wdir": 330,
      "metar_wspd": 4,
      "metar_oat": 23,
      "metar_qnh": 1016,
      "hourly_oat": [
        22,
        24,
        25,
        25,
        25,
        26,
        25,
        25,
        25,
        25,
        24,
        22,
        21,
        21,
        21,
        20,
        20,
        20,
        20,
        19,
        19,
        19,
        18,
        19,
        20
      ]
    },
    "KIX": {
      "icao": "RJBB",
      "issued": "2026-07-14T11:05:00.000Z",
      "raw": "TAF RJBB 141105Z 1412/1518 21006KT 9999 FEW030",
      "groups": [
        {
          "text": "TAF RJBB 141105Z 1412/1518 21006KT 9999 FEW030",
          "offset_h": -3,
          "wdir": 210,
          "wspd": 6
        }
      ],
      "metar_raw": "METAR RJBB 141500Z AUTO 23007KT 9999 NCD 28/24 Q1006 NOSIG",
      "metar_wdir": 230,
      "metar_wspd": 7,
      "metar_oat": 28,
      "metar_qnh": 1006,
      "hourly_oat": [
        27,
        27,
        27,
        27,
        26,
        26,
        26,
        27,
        27,
        27,
        27,
        27,
        27,
        27,
        27,
        27,
        27,
        27,
        28,
        27,
        27,
        27,
        27,
        27,
        27
      ]
    },
    "HND": {
      "icao": "RJTT",
      "issued": "2026-07-14T11:05:00.000Z",
      "raw": "TAF RJTT 141105Z 1412/1518 19010KT 9999 FEW008 SCT012",
      "groups": [
        {
          "text": "TAF RJTT 141105Z 1412/1518 19010KT 9999 FEW008 SCT012",
          "offset_h": -3,
          "wdir": 190,
          "wspd": 10
        }
      ],
      "metar_raw": "METAR RJTT 141500Z 20012KT 9999 FEW010 BKN080 27/25 Q1006 TEMPO FM1600 FEW008 BKN012",
      "metar_wdir": 200,
      "metar_wspd": 12,
      "metar_oat": 27,
      "metar_qnh": 1006,
      "hourly_oat": [
        26,
        25,
        25,
        25,
        25,
        25,
        25,
        26,
        27,
        28,
        29,
        30,
        30,
        31,
        31,
        30,
        29,
        28,
        27,
        27,
        27,
        27,
        26,
        26,
        26
      ]
    },
    "ITM": {
      "icao": "RJOO",
      "issued": "2026-07-14T11:05:00.000Z",
      "raw": "TAF RJOO 141105Z 1412/1518 32004KT 9999 FEW030 BECMG 1422/1500 21007KT BECMG 1503/1506 25006KT",
      "groups": [
        {
          "text": "TAF RJOO 141105Z 1412/1518 32004KT 9999 FEW030",
          "offset_h": -3,
          "wdir": 320,
          "wspd": 4
        },
        {
          "text": "BECMG 1422/1500 21007KT",
          "offset_h": 7,
          "wdir": 210,
          "wspd": 7
        },
        {
          "text": "BECMG 1503/1506 25006KT",
          "offset_h": 12,
          "wdir": 250,
          "wspd": 6
        }
      ],
      "metar_raw": "METAR RJOO 141500Z AUTO 18005KT 150V230 9999 NCD 29/24 Q1006",
      "metar_wdir": 180,
      "metar_wspd": 5,
      "metar_oat": 29,
      "metar_qnh": 1006,
      "hourly_oat": [
        27,
        26,
        26,
        26,
        25,
        25,
        25,
        26,
        28,
        29,
        30,
        31,
        32,
        32,
        32,
        31,
        31,
        31,
        29,
        28,
        28,
        28,
        28,
        27,
        27
      ]
    },
    "OKA": {
      "icao": "ROAH",
      "issued": "2026-07-14T11:05:00.000Z",
      "raw": "TAF ROAH 141105Z 1412/1518 20010KT 9999 FEW008 BKN012 TEMPO 1415/1421 FEW005 BKN008 TEMPO 1515/1518 FEW005 BKN008",
      "groups": [
        {
          "text": "TAF ROAH 141105Z 1412/1518 20010KT 9999 FEW008 BKN012",
          "offset_h": -3,
          "wdir": 200,
          "wspd": 10
        },
        {
          "text": "TEMPO 1415/1421 FEW005 BKN008",
          "offset_h": 0,
          "wdir": null,
          "wspd": null
        },
        {
          "text": "TEMPO 1515/1518 FEW005 BKN008",
          "offset_h": 24,
          "wdir": null,
          "wspd": null
        }
      ],
      "metar_raw": "METAR ROAH 141500Z AUTO 18012KT 9999 FEW005 SCT007 26/26 Q1012",
      "metar_wdir": 180,
      "metar_wspd": 12,
      "metar_oat": 26,
      "metar_qnh": 1012,
      "hourly_oat": [
        26,
        26,
        26,
        26,
        26,
        26,
        26,
        27,
        27,
        28,
        28,
        29,
        29,
        29,
        29,
        30,
        29,
        29,
        28,
        28,
        28,
        27,
        27,
        27,
        27
      ]
    },
    "NGO": {
      "icao": "RJGG",
      "issued": "2026-07-14T11:05:00.000Z",
      "raw": "TAF RJGG 141105Z 1412/1518 28006KT 9999 FEW030 BECMG 1422/1500 20008KT BECMG 1515/1518 27006KT",
      "groups": [
        {
          "text": "TAF RJGG 141105Z 1412/1518 28006KT 9999 FEW030",
          "offset_h": -3,
          "wdir": 280,
          "wspd": 6
        },
        {
          "text": "BECMG 1422/1500 20008KT",
          "offset_h": 7,
          "wdir": 200,
          "wspd": 8
        },
        {
          "text": "BECMG 1515/1518 27006KT",
          "offset_h": 24,
          "wdir": 270,
          "wspd": 6
        }
      ],
      "metar_raw": "METAR RJGG 141500Z AUTO 29005KT 9999 NCD 26/24 Q1005 NOSIG",
      "metar_wdir": 290,
      "metar_wspd": 5,
      "metar_oat": 26,
      "metar_qnh": 1005,
      "hourly_oat": [
        27,
        27,
        27,
        27,
        26,
        26,
        26,
        26,
        26,
        27,
        27,
        28,
        28,
        29,
        29,
        29,
        29,
        28,
        28,
        28,
        28,
        28,
        28,
        28,
        28
      ]
    },
    "NRT": {
      "icao": "RJAA",
      "issued": "2026-07-14T11:05:00.000Z",
      "raw": "TAF RJAA 141105Z 1412/1518 16004KT 9999 FEW030",
      "groups": [
        {
          "text": "TAF RJAA 141105Z 1412/1518 16004KT 9999 FEW030",
          "offset_h": -3,
          "wdir": 160,
          "wspd": 4
        }
      ],
      "metar_raw": "METAR RJAA 141500Z AUTO 16003KT 9999 NSC 25/23 Q1006 NOSIG",
      "metar_wdir": 160,
      "metar_wspd": 3,
      "metar_oat": 25,
      "metar_qnh": 1006,
      "hourly_oat": [
        25,
        24,
        24,
        24,
        24,
        24,
        25,
        26,
        27,
        28,
        30,
        31,
        32,
        32,
        32,
        31,
        30,
        30,
        29,
        29,
        28,
        27,
        27,
        26,
        26
      ]
    },
    "CTS": {
      "icao": "RJCC",
      "issued": "2026-07-14T11:05:00.000Z",
      "raw": "TAF RJCC 141105Z 1412/1518 16008KT 6000 FEW005 BKN012 TEMPO 1412/1500 0700 FG VV001 TEMPO 1500/1503 3000 BR FEW002 BKN005 TEMPO 1503/1506 FEW003 BKN008 BECMG 1509/1512 15024KT TEMPO 1512/1518 15028G38KT 3000 SHRA BR FEW002 BKN004",
      "groups": [
        {
          "text": "TAF RJCC 141105Z 1412/1518 16008KT 6000 FEW005 BKN012",
          "offset_h": -3,
          "wdir": 160,
          "wspd": 8
        },
        {
          "text": "TEMPO 1412/1500 0700 FG VV001",
          "offset_h": -3,
          "wdir": null,
          "wspd": null
        },
        {
          "text": "TEMPO 1500/1503 3000 BR FEW002 BKN005",
          "offset_h": 9,
          "wdir": null,
          "wspd": null
        },
        {
          "text": "TEMPO 1503/1506 FEW003 BKN008",
          "offset_h": 12,
          "wdir": null,
          "wspd": null
        },
        {
          "text": "BECMG 1509/1512 15024KT",
          "offset_h": 18,
          "wdir": 150,
          "wspd": 24
        },
        {
          "text": "TEMPO 1512/1518 15028G38KT 3000 SHRA BR FEW002 BKN004",
          "offset_h": 21,
          "wdir": 150,
          "wspd": 28
        }
      ],
      "metar_raw": "METAR RJCC 141500Z 17009KT 0200 R01L/1100N R01R/1200N FG VV001 21/21 Q1003",
      "metar_wdir": 170,
      "metar_wspd": 9,
      "metar_oat": 21,
      "metar_qnh": 1003,
      "hourly_oat": [
        20,
        20,
        20,
        21,
        20,
        20,
        21,
        21,
        21,
        22,
        23,
        24,
        25,
        25,
        25,
        25,
        24,
        23,
        22,
        22,
        22,
        22,
        21,
        21,
        21
      ]
    },
    "FUK": {
      "icao": "RJFF",
      "issued": "2026-07-14T11:05:00.000Z",
      "raw": "TAF RJFF 141105Z 1412/1518 16010KT 9999 FEW030",
      "groups": [
        {
          "text": "TAF RJFF 141105Z 1412/1518 16010KT 9999 FEW030",
          "offset_h": -3,
          "wdir": 160,
          "wspd": 10
        }
      ],
      "metar_raw": "METAR RJFF 141500Z AUTO 17014KT 9999 FEW036 SCT041 BKN044 29/24 Q1007 NOSIG",
      "metar_wdir": 170,
      "metar_wspd": 14,
      "metar_oat": 29,
      "metar_qnh": 1007,
      "hourly_oat": [
        27,
        27,
        27,
        27,
        27,
        27,
        28,
        28,
        29,
        29,
        30,
        31,
        31,
        32,
        30,
        31,
        31,
        31,
        30,
        30,
        29,
        28,
        28,
        28,
        27
      ]
    },
    "HAN": {
      "icao": "VVNB",
      "issued": "2026-07-14T11:00:00.000Z",
      "raw": "TAF VVNB 141100Z 1412/1512 12006KT 9999 FEW025 PROB40 TEMPO 1415/1418 4000 TSRA SCT012 FEW027CB TEMPO 1509/1512 4000 TSRA SCT012 FEW027CB",
      "groups": [
        {
          "text": "TAF VVNB 141100Z 1412/1512 12006KT 9999 FEW025",
          "offset_h": -3,
          "wdir": 120,
          "wspd": 6
        },
        {
          "text": "PROB40",
          "offset_h": 0,
          "wdir": null,
          "wspd": null
        },
        {
          "text": "TEMPO 1415/1418 4000 TSRA SCT012 FEW027CB",
          "offset_h": 0,
          "wdir": null,
          "wspd": null
        },
        {
          "text": "TEMPO 1509/1512 4000 TSRA SCT012 FEW027CB",
          "offset_h": 18,
          "wdir": null,
          "wspd": null
        }
      ],
      "metar_raw": "METAR VVNB 141500Z 13009KT 100V160 CAVOK 31/28 Q1002 NOSIG",
      "metar_wdir": 130,
      "metar_wspd": 9,
      "metar_oat": 31,
      "metar_qnh": 1002,
      "hourly_oat": [
        28,
        28,
        28,
        27,
        27,
        27,
        27,
        27,
        27,
        28,
        30,
        31,
        32,
        33,
        34,
        34,
        34,
        34,
        34,
        33,
        32,
        32,
        31,
        31,
        30
      ]
    },
    "SGN": {
      "icao": "VVTS",
      "issued": "2026-07-14T11:00:00.000Z",
      "raw": "TAF VVTS 141100Z 1412/1518 26010KT 9999 SCT017 TEMPO 1506/1509 26015G26KT 2000 +TSRA SCT013 SCT015CB",
      "groups": [
        {
          "text": "TAF VVTS 141100Z 1412/1518 26010KT 9999 SCT017",
          "offset_h": -3,
          "wdir": 260,
          "wspd": 10
        },
        {
          "text": "TEMPO 1506/1509 26015G26KT 2000 +TSRA SCT013 SCT015CB",
          "offset_h": 15,
          "wdir": 260,
          "wspd": 15
        }
      ],
      "metar_raw": "METAR VVTS 141500Z 25008KT CAVOK 28/25 Q1010 NOSIG",
      "metar_wdir": 250,
      "metar_wspd": 8,
      "metar_oat": 28,
      "metar_qnh": 1010,
      "hourly_oat": [
        27,
        26,
        26,
        26,
        26,
        26,
        25,
        25,
        25,
        26,
        28,
        30,
        31,
        32,
        28,
        28,
        30,
        31,
        26,
        25,
        25,
        25,
        25,
        25,
        25
      ]
    },
    "BKK": {
      "icao": "VTBS",
      "issued": "2026-07-14T11:00:00.000Z",
      "raw": "TAF VTBS 141100Z 1412/1518 21008KT 9999 FEW020 TEMPO 1412/1416 VRB15G25KT 4000 TSRA FEW018CB SCT030 BKN100 TEMPO 1508/1514 VRB15G25KT 4000 TSRA FEW018CB SCT030 BKN100",
      "groups": [
        {
          "text": "TAF VTBS 141100Z 1412/1518 21008KT 9999 FEW020",
          "offset_h": -3,
          "wdir": 210,
          "wspd": 8
        },
        {
          "text": "TEMPO 1412/1416 VRB15G25KT 4000 TSRA FEW018CB SCT030 BKN100",
          "offset_h": -3,
          "wdir": "VRB",
          "wspd": 15
        },
        {
          "text": "TEMPO 1508/1514 VRB15G25KT 4000 TSRA FEW018CB SCT030 BKN100",
          "offset_h": 17,
          "wdir": "VRB",
          "wspd": 15
        }
      ],
      "metar_raw": "METAR VTBS 141500Z 22010KT 9999 FEW020 30/24 Q1009 NOSIG",
      "metar_wdir": 220,
      "metar_wspd": 10,
      "metar_oat": 30,
      "metar_qnh": 1009,
      "hourly_oat": [
        28,
        28,
        27,
        27,
        27,
        27,
        27,
        27,
        27,
        28,
        29,
        29,
        30,
        31,
        32,
        30,
        30,
        29,
        30,
        27,
        28,
        27,
        27,
        27,
        27
      ]
    },
    "TSA": {
      "icao": "RCSS",
      "issued": "2026-07-14T11:00:00.000Z",
      "raw": "TAF RCSS 141100Z 1412/1512 09005KT 9999 FEW010 BKN032 TEMPO 1412/1418 15005KT TEMPO 1418/1424 16005KT TEMPO 1502/1508 28005KT TEMPO 1508/1512 30005KT 4000 SHRA FEW010 BKN017",
      "groups": [
        {
          "text": "TAF RCSS 141100Z 1412/1512 09005KT 9999 FEW010 BKN032",
          "offset_h": -3,
          "wdir": 90,
          "wspd": 5
        },
        {
          "text": "TEMPO 1412/1418 15005KT",
          "offset_h": -3,
          "wdir": 150,
          "wspd": 5
        },
        {
          "text": "TEMPO 1418/1424 16005KT",
          "offset_h": 3,
          "wdir": 160,
          "wspd": 5
        },
        {
          "text": "TEMPO 1502/1508 28005KT",
          "offset_h": 11,
          "wdir": 280,
          "wspd": 5
        },
        {
          "text": "TEMPO 1508/1512 30005KT 4000 SHRA FEW010 BKN017",
          "offset_h": 17,
          "wdir": 300,
          "wspd": 5
        }
      ],
      "metar_raw": "METAR RCSS 141500Z VRB01KT 9999 FEW016 SCT060 28/27 Q1010 NOSIG RMK A2983",
      "metar_wdir": "VRB",
      "metar_wspd": 1,
      "metar_oat": 28,
      "metar_qnh": 1010,
      "hourly_oat": [
        27,
        27,
        27,
        27,
        26,
        26,
        26,
        26,
        28,
        30,
        31,
        33,
        34,
        34,
        34,
        30,
        28,
        29,
        30,
        30,
        29,
        28,
        28,
        28,
        27
      ]
    },
    "TPE": {
      "icao": "RCTP",
      "issued": "2026-07-14T11:00:00.000Z",
      "raw": "TAF RCTP 141100Z 1412/1518 14005KT 9999 FEW010 BKN032 TEMPO 1412/1418 20005KT TEMPO 1418/1424 21005KT TEMPO 1500/1503 24005KT BECMG 1503/1504 36005KT TEMPO 1506/1512 13005KT",
      "groups": [
        {
          "text": "TAF RCTP 141100Z 1412/1518 14005KT 9999 FEW010 BKN032",
          "offset_h": -3,
          "wdir": 140,
          "wspd": 5
        },
        {
          "text": "TEMPO 1412/1418 20005KT",
          "offset_h": -3,
          "wdir": 200,
          "wspd": 5
        },
        {
          "text": "TEMPO 1418/1424 21005KT",
          "offset_h": 3,
          "wdir": 210,
          "wspd": 5
        },
        {
          "text": "TEMPO 1500/1503 24005KT",
          "offset_h": 9,
          "wdir": 240,
          "wspd": 5
        },
        {
          "text": "BECMG 1503/1504 36005KT",
          "offset_h": 12,
          "wdir": 360,
          "wspd": 5
        },
        {
          "text": "TEMPO 1506/1512 13005KT",
          "offset_h": 15,
          "wdir": 130,
          "wspd": 5
        }
      ],
      "metar_raw": "METAR RCTP 141500Z 15004KT 110V180 9999 FEW015 SCT040 BKN080 29/25 Q1010 NOSIG RMK A2984",
      "metar_wdir": 150,
      "metar_wspd": 4,
      "metar_oat": 29,
      "metar_qnh": 1010,
      "hourly_oat": [
        27,
        27,
        27,
        26,
        26,
        26,
        26,
        26,
        27,
        29,
        30,
        31,
        31,
        31,
        31,
        29,
        30,
        29,
        29,
        29,
        28,
        28,
        27,
        27,
        27
      ]
    },
    "GMP": {
      "icao": "RKSS",
      "issued": "2026-07-14T11:00:00.000Z",
      "raw": "TAF RKSS 141100Z 1412/1518 20016G35KT 6000 -RA SCT010 BKN025 OVC070 TN25/1420Z TX30/1506Z TEMPO 1412/1415 3500 RA SCT008CB BKN020 OVC060 BECMG 1416/1418 23015G25KT BECMG 1419/1421 25008KT 9999 NSW BKN030 BECMG 1502/1504 SCT035 BECMG 1514/1516 19005KT 6000 SCT010",
      "groups": [
        {
          "text": "TAF RKSS 141100Z 1412/1518 20016G35KT 6000 -RA SCT010 BKN025 OVC070 TN25/1420Z TX30/1506Z",
          "offset_h": -3,
          "wdir": 200,
          "wspd": 16
        },
        {
          "text": "TEMPO 1412/1415 3500 RA SCT008CB BKN020 OVC060",
          "offset_h": -3,
          "wdir": null,
          "wspd": null
        },
        {
          "text": "BECMG 1416/1418 23015G25KT",
          "offset_h": 1,
          "wdir": 230,
          "wspd": 15
        },
        {
          "text": "BECMG 1419/1421 25008KT 9999 NSW BKN030",
          "offset_h": 4,
          "wdir": 250,
          "wspd": 8
        },
        {
          "text": "BECMG 1502/1504 SCT035",
          "offset_h": 11,
          "wdir": null,
          "wspd": null
        },
        {
          "text": "BECMG 1514/1516 19005KT 6000 SCT010",
          "offset_h": 23,
          "wdir": 190,
          "wspd": 5
        }
      ],
      "metar_raw": "METAR RKSS 141500Z 22018G30KT 200V260 5000 -RA SCT008 BKN025 OVC060 25/25 Q0998 NOSIG",
      "metar_wdir": 220,
      "metar_wspd": 18,
      "metar_oat": 25,
      "metar_qnh": 998,
      "hourly_oat": [
        25,
        25,
        25,
        25,
        25,
        25,
        25,
        25,
        25,
        25,
        25,
        26,
        27,
        28,
        27,
        28,
        28,
        27,
        26,
        25,
        24,
        24,
        23,
        23,
        22
      ]
    },
    "SIN": {
      "icao": "WSSS",
      "issued": "2026-07-14T11:00:00.000Z",
      "raw": "TAF WSSS 141100Z 1412/1518 15009KT 9999 FEW015 SCT020",
      "groups": [
        {
          "text": "TAF WSSS 141100Z 1412/1518 15009KT 9999 FEW015 SCT020",
          "offset_h": -3,
          "wdir": 150,
          "wspd": 9
        }
      ],
      "metar_raw": "METAR WSSS 141500Z 12007KT 9999 FEW018 BKN300 29/25 Q1011 NOSIG",
      "metar_wdir": 120,
      "metar_wspd": 7,
      "metar_oat": 29,
      "metar_qnh": 1011,
      "hourly_oat": [
        29,
        29,
        29,
        29,
        29,
        29,
        28,
        28,
        28,
        29,
        29,
        30,
        31,
        31,
        29,
        30,
        30,
        30,
        30,
        29,
        28,
        28,
        28,
        28,
        28
      ]
    },
    "CGK": {
      "icao": "WIII",
      "issued": "2026-07-14T11:00:00.000Z",
      "raw": "TAF WIII 141100Z 1412/1518 06010KT 8000 FEW020 BECMG 1415/1417 15005KT 4000 HZ BECMG 1501/1503 05012KT 8000 NSW",
      "groups": [
        {
          "text": "TAF WIII 141100Z 1412/1518 06010KT 8000 FEW020",
          "offset_h": -3,
          "wdir": 60,
          "wspd": 10
        },
        {
          "text": "BECMG 1415/1417 15005KT 4000 HZ",
          "offset_h": 0,
          "wdir": 150,
          "wspd": 5
        },
        {
          "text": "BECMG 1501/1503 05012KT 8000 NSW",
          "offset_h": 10,
          "wdir": 50,
          "wspd": 12
        }
      ],
      "metar_raw": "METAR WIII 141500Z 08006KT 9999 FEW020 27/23 Q1013 NOSIG",
      "metar_wdir": 80,
      "metar_wspd": 6,
      "metar_oat": 27,
      "metar_qnh": 1013,
      "hourly_oat": [
        27,
        26,
        26,
        26,
        26,
        25,
        25,
        25,
        24,
        25,
        27,
        29,
        31,
        33,
        34,
        34,
        33,
        32,
        31,
        30,
        30,
        29,
        28,
        28,
        27
      ]
    },
    "KUL": {
      "icao": "WMKK",
      "issued": "2026-07-14T11:00:00.000Z",
      "raw": "TAF WMKK 141100Z 1412/1518 12006KT 9999 FEW030",
      "groups": [
        {
          "text": "TAF WMKK 141100Z 1412/1518 12006KT 9999 FEW030",
          "offset_h": -3,
          "wdir": 120,
          "wspd": 6
        }
      ],
      "metar_raw": "METAR WMKK 141500Z 11006KT 020V160 9000 FEW030 29/25 Q1010 NOSIG",
      "metar_wdir": 110,
      "metar_wspd": 6,
      "metar_oat": 29,
      "metar_qnh": 1010,
      "hourly_oat": [
        27,
        27,
        27,
        27,
        27,
        26,
        26,
        26,
        25,
        26,
        27,
        29,
        30,
        31,
        30,
        30,
        31,
        31,
        30,
        30,
        29,
        28,
        27,
        27,
        27
      ]
    },
    "DLC": {
      "icao": "ZYTL",
      "issued": "2026-07-14T09:05:00.000Z",
      "raw": "TAF ZYTL 140905Z 1412/1512 29004MPS 5000 BR SCT030 TX30/1506Z TN23/1421Z",
      "groups": [
        {
          "text": "TAF ZYTL 140905Z 1412/1512 29004MPS 5000 BR SCT030 TX30/1506Z TN23/1421Z",
          "offset_h": -3,
          "wdir": null,
          "wspd": null
        }
      ],
      "metar_raw": "METAR ZYTL 141500Z 29004MPS CAVOK 24/21 Q0999 NOSIG",
      "metar_wdir": null,
      "metar_wspd": null,
      "metar_oat": 24,
      "metar_qnh": 999,
      "hourly_oat": [
        24,
        24,
        24,
        24,
        24,
        24,
        24,
        25,
        26,
        28,
        29,
        30,
        30,
        31,
        31,
        31,
        30,
        30,
        29,
        28,
        27,
        26,
        26,
        25,
        25
      ]
    },
    "PVG": {
      "icao": "ZSPD",
      "issued": "2026-07-14T09:05:00.000Z",
      "raw": "TAF ZSPD 140905Z 1412/1518 18004MPS 8000 SCT030 TX32/1412Z TX35/1506Z TN28/1421Z TEMPO 1505/1509 TSRA BKN008 SCT030CB",
      "groups": [
        {
          "text": "TAF ZSPD 140905Z 1412/1518 18004MPS 8000 SCT030 TX32/1412Z TX35/1506Z TN28/1421Z",
          "offset_h": -3,
          "wdir": null,
          "wspd": null
        },
        {
          "text": "TEMPO 1505/1509 TSRA BKN008 SCT030CB",
          "offset_h": 14,
          "wdir": null,
          "wspd": null
        }
      ],
      "metar_raw": "METAR ZSPD 141500Z 18004MPS CAVOK 30/27 Q1004 NOSIG",
      "metar_wdir": null,
      "metar_wspd": null,
      "metar_oat": 30,
      "metar_qnh": 1004,
      "hourly_oat": [
        30,
        29,
        28,
        28,
        28,
        28,
        28,
        28,
        30,
        31,
        33,
        34,
        35,
        36,
        36,
        36,
        36,
        35,
        34,
        33,
        32,
        31,
        30,
        30,
        30
      ]
    },
    "SHA": {
      "icao": "ZSSS",
      "issued": "2026-07-14T09:04:00.000Z",
      "raw": "TAF ZSSS 140904Z 1412/1518 18004MPS 8000 SCT030 TX34/1412Z TX37/1506Z TN29/1421Z TEMPO 1506/1509 TSRA BKN008 SCT030CB",
      "groups": [
        {
          "text": "TAF ZSSS 140904Z 1412/1518 18004MPS 8000 SCT030 TX34/1412Z TX37/1506Z TN29/1421Z",
          "offset_h": -3,
          "wdir": null,
          "wspd": null
        },
        {
          "text": "TEMPO 1506/1509 TSRA BKN008 SCT030CB",
          "offset_h": 15,
          "wdir": null,
          "wspd": null
        }
      ],
      "metar_raw": "METAR ZSSS 141500Z 18004MPS CAVOK 32/27 Q1003 NOSIG",
      "metar_wdir": null,
      "metar_wspd": null,
      "metar_oat": 32,
      "metar_qnh": 1003,
      "hourly_oat": [
        31,
        30,
        30,
        29,
        29,
        28,
        28,
        29,
        30,
        32,
        33,
        34,
        36,
        36,
        37,
        37,
        37,
        37,
        36,
        36,
        35,
        34,
        32,
        31,
        31
      ]
    },
    "CAN": {
      "icao": "ZGGG",
      "issued": "2026-07-14T09:02:00.000Z",
      "raw": "TAF ZGGG 140902Z 1412/1518 14004MPS 8000 BKN033 TX29/1412Z TX35/1507Z TN27/1422Z TEMPO 1412/1415 SHRA FEW026CB BKN033 TEMPO 1421/1501 SHRA FEW026CB BKN033 TEMPO 1505/1509 TSRA SCT026CB BKN033",
      "groups": [
        {
          "text": "TAF ZGGG 140902Z 1412/1518 14004MPS 8000 BKN033 TX29/1412Z TX35/1507Z TN27/1422Z",
          "offset_h": -3,
          "wdir": null,
          "wspd": null
        },
        {
          "text": "TEMPO 1412/1415 SHRA FEW026CB BKN033",
          "offset_h": -3,
          "wdir": null,
          "wspd": null
        },
        {
          "text": "TEMPO 1421/1501 SHRA FEW026CB BKN033",
          "offset_h": 6,
          "wdir": null,
          "wspd": null
        },
        {
          "text": "TEMPO 1505/1509 TSRA SCT026CB BKN033",
          "offset_h": 14,
          "wdir": null,
          "wspd": null
        }
      ],
      "metar_raw": "METAR ZGGG 141500Z 14005MPS 9999 SCT013 BKN020 26/25 Q1004 NOSIG",
      "metar_wdir": null,
      "metar_wspd": null,
      "metar_oat": 26,
      "metar_qnh": 1004,
      "hourly_oat": [
        26,
        26,
        26,
        25,
        25,
        25,
        25,
        25,
        26,
        26,
        28,
        29,
        30,
        31,
        27,
        28,
        30,
        30,
        28,
        28,
        26,
        26,
        25,
        26,
        26
      ]
    },
    "PEK": {
      "icao": "ZBAA",
      "issued": "2026-07-14T09:01:00.000Z",
      "raw": "TAF ZBAA 140901Z 1412/1518 17004MPS CAVOK TX36/1506Z TN23/1421Z TN25/1518Z",
      "groups": [
        {
          "text": "TAF ZBAA 140901Z 1412/1518 17004MPS CAVOK TX36/1506Z TN23/1421Z TN25/1518Z",
          "offset_h": -3,
          "wdir": null,
          "wspd": null
        }
      ],
      "metar_raw": "METAR ZBAA 141500Z 05001MPS CAVOK 25/24 Q1000 NOSIG",
      "metar_wdir": null,
      "metar_wspd": null,
      "metar_oat": 25,
      "metar_qnh": 1000,
      "hourly_oat": [
        27,
        26,
        26,
        25,
        24,
        24,
        23,
        23,
        25,
        27,
        28,
        30,
        32,
        33,
        34,
        34,
        34,
        34,
        34,
        32,
        30,
        29,
        28,
        27,
        26
      ]
    }
  }
}