{
  "updated": "2026-07-10T17:39:32Z",
  "tafs": {
    "KIX": {
      "icao": "RJBB",
      "issued": "2026-07-10T17:35:00.000Z",
      "raw": "TAF AMD RJBB 101735Z 1018/1200 20006KT 9999 FEW020 SCT030 BECMG 1019/1021 08004KT BECMG 1100/1102 25012KT BECMG 1112/1115 19012KT",
      "groups": [
        {
          "text": "TAF AMD RJBB 101735Z 1018/1200 20006KT 9999 FEW020 SCT030",
          "offset_h": 1,
          "wdir": 200,
          "wspd": 6
        },
        {
          "text": "BECMG 1019/1021 08004KT",
          "offset_h": 2,
          "wdir": 80,
          "wspd": 4
        },
        {
          "text": "BECMG 1100/1102 25012KT",
          "offset_h": 7,
          "wdir": 250,
          "wspd": 12
        },
        {
          "text": "BECMG 1112/1115 19012KT",
          "offset_h": 19,
          "wdir": 190,
          "wspd": 12
        }
      ],
      "metar_raw": "METAR RJBB 101730Z AUTO 21007KT 9999 FEW042 25/22 Q1015 NOSIG",
      "metar_wdir": 210,
      "metar_wspd": 7,
      "metar_oat": 25,
      "metar_qnh": 1015,
      "hourly_oat": [
        25,
        25,
        25,
        25,
        25,
        25,
        25,
        26,
        26,
        26,
        26,
        26,
        26,
        26,
        26,
        26,
        26,
        26,
        26,
        26,
        26,
        26,
        26,
        26,
        25
      ]
    },
    "SAN": {
      "icao": "KSAN",
      "issued": "2026-07-10T17:27:00.000Z",
      "raw": "TAF KSAN 101727Z 1018/1124 19007KT P6SM BKN012 FM101930 20010KT P6SM FEW015 FM110300 20006KT P6SM OVC012 FM110700 VRB04KT P6SM OVC008 FM111300 VRB04KT P6SM OVC013 FM111800 20009KT P6SM SCT015",
      "groups": [
        {
          "text": "TAF KSAN 101727Z 1018/1124 19007KT P6SM BKN012",
          "offset_h": 1,
          "wdir": 190,
          "wspd": 7
        },
        {
          "text": "FM101930 20010KT P6SM FEW015",
          "offset_h": 2,
          "wdir": 200,
          "wspd": 10
        },
        {
          "text": "FM110300 20006KT P6SM OVC012",
          "offset_h": 10,
          "wdir": 200,
          "wspd": 6
        },
        {
          "text": "FM110700 VRB04KT P6SM OVC008",
          "offset_h": 14,
          "wdir": "VRB",
          "wspd": 4
        },
        {
          "text": "FM111300 VRB04KT P6SM OVC013",
          "offset_h": 20,
          "wdir": "VRB",
          "wspd": 4
        },
        {
          "text": "FM111800 20009KT P6SM SCT015",
          "offset_h": 25,
          "wdir": 200,
          "wspd": 9
        }
      ],
      "metar_raw": "METAR KSAN 101651Z 18007KT 140V210 8SM OVC012 20/16 A2993 RMK AO2 SLP135 T02000156 $",
      "metar_wdir": 180,
      "metar_wspd": 7,
      "metar_oat": 20,
      "metar_qnh": 1014,
      "hourly_oat": [
        19,
        21,
        23,
        23,
        23,
        23,
        22,
        21,
        20,
        19,
        18,
        18,
        18,
        18,
        18,
        17,
        18,
        18,
        17,
        17,
        17,
        17,
        18,
        18,
        19
      ]
    },
    "LAX": {
      "icao": "KLAX",
      "issued": "2026-07-10T17:21:00.000Z",
      "raw": "TAF KLAX 101721Z 1018/1124 28006KT P6SM FEW007 SCT013 FM102100 25012KT P6SM SKC FM110400 25006KT P6SM OVC008 FM111100 13005KT 4SM BR FEW005 OVC007 FM111700 25008KT P6SM SCT010",
      "groups": [
        {
          "text": "TAF KLAX 101721Z 1018/1124 28006KT P6SM FEW007 SCT013",
          "offset_h": 1,
          "wdir": 280,
          "wspd": 6
        },
        {
          "text": "FM102100 25012KT P6SM SKC",
          "offset_h": 4,
          "wdir": 250,
          "wspd": 12
        },
        {
          "text": "FM110400 25006KT P6SM OVC008",
          "offset_h": 11,
          "wdir": 250,
          "wspd": 6
        },
        {
          "text": "FM111100 13005KT 4SM BR FEW005 OVC007",
          "offset_h": 18,
          "wdir": 130,
          "wspd": 5
        },
        {
          "text": "FM111700 25008KT P6SM SCT010",
          "offset_h": 24,
          "wdir": 250,
          "wspd": 8
        }
      ],
      "metar_raw": "METAR KLAX 101653Z 00000KT 7SM FEW008 SCT014 22/17 A2987 RMK AO2 SLP114 T02220167 $",
      "metar_wdir": 0,
      "metar_wspd": 0,
      "metar_oat": 22,
      "metar_qnh": 1012,
      "hourly_oat": [
        22,
        23,
        23,
        23,
        23,
        24,
        23,
        22,
        21,
        19,
        19,
        18,
        18,
        18,
        18,
        18,
        18,
        18,
        18,
        18,
        18,
        18,
        18,
        19,
        20
      ]
    },
    "HNL": {
      "icao": "PHNL",
      "issued": "2026-07-10T17:20:00.000Z",
      "raw": "TAF PHNL 101720Z 1018/1124 05008KT P6SM FEW025 SCT040 BKN090 FM102000 06015G25KT P6SM FEW025 SCT040 FM110600 06012KT P6SM FEW025 SCT040 FM112000 06015G25KT P6SM FEW025 SCT040",
      "groups": [
        {
          "text": "TAF PHNL 101720Z 1018/1124 05008KT P6SM FEW025 SCT040 BKN090",
          "offset_h": 1,
          "wdir": 50,
          "wspd": 8
        },
        {
          "text": "FM102000 06015G25KT P6SM FEW025 SCT040",
          "offset_h": 3,
          "wdir": 60,
          "wspd": 15
        },
        {
          "text": "FM110600 06012KT P6SM FEW025 SCT040",
          "offset_h": 13,
          "wdir": 60,
          "wspd": 12
        },
        {
          "text": "FM112000 06015G25KT P6SM FEW025 SCT040",
          "offset_h": 27,
          "wdir": 60,
          "wspd": 15
        }
      ],
      "metar_raw": "METAR PHNL 101653Z 06005KT 10SM FEW025 SCT090 26/19 A3009 RMK AO2 SLP187 T02610194 $",
      "metar_wdir": 60,
      "metar_wspd": 5,
      "metar_oat": 26,
      "metar_qnh": 1019,
      "hourly_oat": [
        25,
        26,
        27,
        28,
        29,
        29,
        29,
        29,
        29,
        28,
        27,
        26,
        25,
        25,
        25,
        25,
        24,
        24,
        24,
        24,
        24,
        23,
        23,
        23,
        24
      ]
    },
    "OKA": {
      "icao": "ROAH",
      "issued": "2026-07-10T17:13:00.000Z",
      "raw": "TAF ROAH 101713Z 1018/1200 12040KT 6000 -SHRA FEW008 BKN012 TEMPO 1018/1103 12045G60KT 2000 +SHRA BR FEW005 BKN008 SCT015CB TEMPO 1103/1109 14045G60KT 4000 SHRA BR FEW005 BKN008 FEW015CB TEMPO 1109/1115 15035G50KT BECMG 1112/1115 17026KT",
      "groups": [
        {
          "text": "TAF ROAH 101713Z 1018/1200 12040KT 6000 -SHRA FEW008 BKN012",
          "offset_h": 1,
          "wdir": 120,
          "wspd": 40
        },
        {
          "text": "TEMPO 1018/1103 12045G60KT 2000 +SHRA BR FEW005 BKN008 SCT015CB",
          "offset_h": 1,
          "wdir": 120,
          "wspd": 45
        },
        {
          "text": "TEMPO 1103/1109 14045G60KT 4000 SHRA BR FEW005 BKN008 FEW015CB",
          "offset_h": 10,
          "wdir": 140,
          "wspd": 45
        },
        {
          "text": "TEMPO 1109/1115 15035G50KT",
          "offset_h": 16,
          "wdir": 150,
          "wspd": 35
        },
        {
          "text": "BECMG 1112/1115 17026KT",
          "offset_h": 19,
          "wdir": 170,
          "wspd": 26
        }
      ],
      "metar_raw": "METAR ROAH 101730Z AUTO 11040G54KT 3300 -RA BR FEW019 SCT024 BKN050 //////TCU 28/26 Q0993",
      "metar_wdir": 110,
      "metar_wspd": 40,
      "metar_oat": 28,
      "metar_qnh": 993,
      "hourly_oat": [
        28,
        28,
        28,
        28,
        28,
        27,
        28,
        28,
        27,
        28,
        28,
        28,
        28,
        28,
        28,
        28,
        28,
        28,
        28,
        28,
        28,
        28,
        27,
        27,
        27
      ]
    },
    "HND": {
      "icao": "RJTT",
      "issued": "2026-07-10T17:05:00.000Z",
      "raw": "TAF RJTT 101705Z 1018/1200 19014KT 9999 FEW015",
      "groups": [
        {
          "text": "TAF RJTT 101705Z 1018/1200 19014KT 9999 FEW015",
          "offset_h": 1,
          "wdir": 190,
          "wspd": 14
        }
      ],
      "metar_raw": "METAR RJTT 101730Z 19010KT 9999 FEW013 BKN018 25/22 Q1015 NOSIG",
      "metar_wdir": 190,
      "metar_wspd": 10,
      "metar_oat": 25,
      "metar_qnh": 1015,
      "hourly_oat": [
        24,
        24,
        24,
        24,
        24,
        25,
        26,
        27,
        27,
        27,
        27,
        28,
        27,
        27,
        26,
        26,
        25,
        25,
        25,
        25,
        25,
        25,
        24,
        24,
        24
      ]
    },
    "ITM": {
      "icao": "RJOO",
      "issued": "2026-07-10T17:05:00.000Z",
      "raw": "TAF RJOO 101705Z 1018/1200 36004KT 9999 FEW015 SCT030 BECMG 1022/1100 22006KT BECMG 1106/1109 26006KT BECMG 1121/1200 22006KT",
      "groups": [
        {
          "text": "TAF RJOO 101705Z 1018/1200 36004KT 9999 FEW015 SCT030",
          "offset_h": 1,
          "wdir": 360,
          "wspd": 4
        },
        {
          "text": "BECMG 1022/1100 22006KT",
          "offset_h": 5,
          "wdir": 220,
          "wspd": 6
        },
        {
          "text": "BECMG 1106/1109 26006KT",
          "offset_h": 13,
          "wdir": 260,
          "wspd": 6
        },
        {
          "text": "BECMG 1121/1200 22006KT",
          "offset_h": 28,
          "wdir": 220,
          "wspd": 6
        }
      ],
      "metar_raw": "METAR RJOO 101700Z AUTO 26006KT 210V310 9999 OVC024 27/22 Q1015",
      "metar_wdir": 260,
      "metar_wspd": 6,
      "metar_oat": 27,
      "metar_qnh": 1015,
      "hourly_oat": [
        24,
        24,
        24,
        24,
        24,
        25,
        26,
        27,
        28,
        29,
        30,
        30,
        31,
        31,
        30,
        29,
        28,
        26,
        26,
        26,
        26,
        25,
        25,
        25,
        25
      ]
    },
    "NGO": {
      "icao": "RJGG",
      "issued": "2026-07-10T17:05:00.000Z",
      "raw": "TAF RJGG 101705Z 1018/1200 20006KT 9999 FEW015 BKN030 BECMG 1109/1112 14012KT BECMG 1115/1118 01004KT",
      "groups": [
        {
          "text": "TAF RJGG 101705Z 1018/1200 20006KT 9999 FEW015 BKN030",
          "offset_h": 1,
          "wdir": 200,
          "wspd": 6
        },
        {
          "text": "BECMG 1109/1112 14012KT",
          "offset_h": 16,
          "wdir": 140,
          "wspd": 12
        },
        {
          "text": "BECMG 1115/1118 01004KT",
          "offset_h": 22,
          "wdir": 10,
          "wspd": 4
        }
      ],
      "metar_raw": "METAR RJGG 101730Z AUTO 12005KT 9999 NCD 24/23 Q1015 NOSIG",
      "metar_wdir": 120,
      "metar_wspd": 5,
      "metar_oat": 24,
      "metar_qnh": 1015,
      "hourly_oat": [
        24,
        24,
        24,
        24,
        23,
        24,
        24,
        24,
        24,
        24,
        25,
        26,
        26,
        26,
        26,
        26,
        26,
        26,
        25,
        25,
        25,
        25,
        25,
        24,
        24
      ]
    },
    "NRT": {
      "icao": "RJAA",
      "issued": "2026-07-10T17:05:00.000Z",
      "raw": "TAF RJAA 101705Z 1018/1200 16008KT 9999 FEW015 SCT030",
      "groups": [
        {
          "text": "TAF RJAA 101705Z 1018/1200 16008KT 9999 FEW015 SCT030",
          "offset_h": 1,
          "wdir": 160,
          "wspd": 8
        }
      ],
      "metar_raw": "METAR RJAA 101730Z AUTO 17003KT 9999 NCD 21/21 Q1015 NOSIG",
      "metar_wdir": 170,
      "metar_wspd": 3,
      "metar_oat": 21,
      "metar_qnh": 1015,
      "hourly_oat": [
        21,
        21,
        21,
        21,
        22,
        24,
        25,
        27,
        28,
        29,
        29,
        28,
        29,
        28,
        28,
        27,
        27,
        26,
        25,
        24,
        24,
        23,
        23,
        23,
        23
      ]
    },
    "CTS": {
      "icao": "RJCC",
      "issued": "2026-07-10T17:05:00.000Z",
      "raw": "TAF RJCC 101705Z 1018/1200 17010KT 6000 FEW001 BKN012 TEMPO 1018/1100 0700 -SHRA FG VV001 TEMPO 1100/1106 2000 SHRA BR FEW002 BKN004 TEMPO 1106/1109 4000 -SHRA BR FEW002 BKN005 TEMPO 1109/1112 1500 -SHRA BR FEW001 BKN003 TEMPO 1112/1200 0700 -SHRA FG VV001",
      "groups": [
        {
          "text": "TAF RJCC 101705Z 1018/1200 17010KT 6000 FEW001 BKN012",
          "offset_h": 1,
          "wdir": 170,
          "wspd": 10
        },
        {
          "text": "TEMPO 1018/1100 0700 -SHRA FG VV001",
          "offset_h": 1,
          "wdir": null,
          "wspd": null
        },
        {
          "text": "TEMPO 1100/1106 2000 SHRA BR FEW002 BKN004",
          "offset_h": 7,
          "wdir": null,
          "wspd": null
        },
        {
          "text": "TEMPO 1106/1109 4000 -SHRA BR FEW002 BKN005",
          "offset_h": 13,
          "wdir": null,
          "wspd": null
        },
        {
          "text": "TEMPO 1109/1112 1500 -SHRA BR FEW001 BKN003",
          "offset_h": 16,
          "wdir": null,
          "wspd": null
        },
        {
          "text": "TEMPO 1112/1200 0700 -SHRA FG VV001",
          "offset_h": 19,
          "wdir": null,
          "wspd": null
        }
      ],
      "metar_raw": "METAR RJCC 101730Z 18007KT 0200 R01L/1200N R01R/1400D FG VV001 20/20 Q1012",
      "metar_wdir": 180,
      "metar_wspd": 7,
      "metar_oat": 20,
      "metar_qnh": 1012,
      "hourly_oat": [
        19,
        19,
        19,
        20,
        20,
        21,
        21,
        21,
        22,
        23,
        23,
        23,
        24,
        24,
        24,
        24,
        23,
        21,
        20,
        20,
        20,
        20,
        19,
        19,
        19
      ]
    },
    "FUK": {
      "icao": "RJFF",
      "issued": "2026-07-10T17:05:00.000Z",
      "raw": "TAF RJFF 101705Z 1018/1200 15008KT 9999 FEW025 BECMG 1101/1103 33011KT BECMG 1106/1109 15006KT",
      "groups": [
        {
          "text": "TAF RJFF 101705Z 1018/1200 15008KT 9999 FEW025",
          "offset_h": 1,
          "wdir": 150,
          "wspd": 8
        },
        {
          "text": "BECMG 1101/1103 33011KT",
          "offset_h": 8,
          "wdir": 330,
          "wspd": 11
        },
        {
          "text": "BECMG 1106/1109 15006KT",
          "offset_h": 13,
          "wdir": 150,
          "wspd": 6
        }
      ],
      "metar_raw": "METAR RJFF 101730Z AUTO 15009KT 9999 NCD 28/24 Q1012 NOSIG",
      "metar_wdir": 150,
      "metar_wspd": 9,
      "metar_oat": 28,
      "metar_qnh": 1012,
      "hourly_oat": [
        26,
        26,
        26,
        26,
        26,
        26,
        28,
        30,
        32,
        33,
        33,
        33,
        34,
        34,
        34,
        34,
        34,
        32,
        32,
        30,
        30,
        29,
        28,
        28,
        27
      ]
    },
    "BKK": {
      "icao": "VTBS",
      "issued": "2026-07-10T17:00:00.000Z",
      "raw": "TAF VTBS 101700Z 1018/1124 22008KT 9999 FEW020",
      "groups": [
        {
          "text": "TAF VTBS 101700Z 1018/1124 22008KT 9999 FEW020",
          "offset_h": 1,
          "wdir": 220,
          "wspd": 8
        }
      ],
      "metar_raw": "METAR VTBS 101730Z 25005KT 220V280 9999 FEW020 30/21 Q1008 NOSIG",
      "metar_wdir": 250,
      "metar_wspd": 5,
      "metar_oat": 30,
      "metar_qnh": 1008,
      "hourly_oat": [
        28,
        28,
        28,
        27,
        27,
        27,
        28,
        28,
        30,
        31,
        31,
        31,
        33,
        32,
        31,
        31,
        31,
        31,
        31,
        30,
        30,
        29,
        28,
        28,
        27
      ]
    },
    "SGN": {
      "icao": "VVTS",
      "issued": "2026-07-10T17:00:00.000Z",
      "raw": "TAF VVTS 101700Z 1018/1124 24012KT 9999 SCT017 TEMPO 1103/1107 24015G25KT TEMPO 1107/1111 24016G28KT 5000 TSRA BKN015 FEW017CB",
      "groups": [
        {
          "text": "TAF VVTS 101700Z 1018/1124 24012KT 9999 SCT017",
          "offset_h": 1,
          "wdir": 240,
          "wspd": 12
        },
        {
          "text": "TEMPO 1103/1107 24015G25KT",
          "offset_h": 10,
          "wdir": 240,
          "wspd": 15
        },
        {
          "text": "TEMPO 1107/1111 24016G28KT 5000 TSRA BKN015 FEW017CB",
          "offset_h": 14,
          "wdir": 240,
          "wspd": 16
        }
      ],
      "metar_raw": "METAR VVTS 101730Z 24010KT 9999 FEW019 28/26 Q1008 NOSIG",
      "metar_wdir": 240,
      "metar_wspd": 10,
      "metar_oat": 28,
      "metar_qnh": 1008,
      "hourly_oat": [
        27,
        27,
        26,
        26,
        26,
        26,
        26,
        27,
        29,
        30,
        32,
        33,
        33,
        30,
        28,
        30,
        30,
        30,
        27,
        28,
        28,
        28,
        28,
        27,
        27
      ]
    },
    "GMP": {
      "icao": "RKSS",
      "issued": "2026-07-10T17:00:00.000Z",
      "raw": "TAF RKSS 101700Z 1018/1124 20006KT 6000 BKN025 TN24/1020Z TX33/1106Z TN25/1120Z BECMG 1022/1024 SCT035 BECMG 1105/1107 28007KT 9999 BECMG 1112/1114 06005KT 6000",
      "groups": [
        {
          "text": "TAF RKSS 101700Z 1018/1124 20006KT 6000 BKN025 TN24/1020Z TX33/1106Z TN25/1120Z",
          "offset_h": 1,
          "wdir": 200,
          "wspd": 6
        },
        {
          "text": "BECMG 1022/1024 SCT035",
          "offset_h": 5,
          "wdir": null,
          "wspd": null
        },
        {
          "text": "BECMG 1105/1107 28007KT 9999",
          "offset_h": 12,
          "wdir": 280,
          "wspd": 7
        },
        {
          "text": "BECMG 1112/1114 06005KT 6000",
          "offset_h": 19,
          "wdir": 60,
          "wspd": 5
        }
      ],
      "metar_raw": "METAR RKSS 101700Z 05001KT 9999 SCT020 BKN200 24/24 Q1012 NOSIG",
      "metar_wdir": 50,
      "metar_wspd": 1,
      "metar_oat": 24,
      "metar_qnh": 1012,
      "hourly_oat": [
        24,
        23,
        23,
        23,
        23,
        24,
        26,
        27,
        29,
        30,
        31,
        32,
        32,
        31,
        31,
        31,
        30,
        29,
        28,
        27,
        27,
        26,
        26,
        26,
        25
      ]
    },
    "TSA": {
      "icao": "RCSS",
      "issued": "2026-07-10T17:00:00.000Z",
      "raw": "TAF RCSS 101700Z 1018/1118 03013G23KT 6000 FEW015 BKN032 TEMPO 1018/1024 VRB05G18KT 2500 SHRA FEW006 BKN015 TEMPO 1100/1106 33028G45KT 2000 SHRA FEW006 FEW010CB BKN012 TEMPO 1106/1112 25022G40KT 2200 SHRA FEW006 FEW010CB BKN012 TEMPO 1112/1118 27020G38KT 4000 RA FEW010 BKN020",
      "groups": [
        {
          "text": "TAF RCSS 101700Z 1018/1118 03013G23KT 6000 FEW015 BKN032",
          "offset_h": 1,
          "wdir": 30,
          "wspd": 13
        },
        {
          "text": "TEMPO 1018/1024 VRB05G18KT 2500 SHRA FEW006 BKN015",
          "offset_h": 1,
          "wdir": "VRB",
          "wspd": 5
        },
        {
          "text": "TEMPO 1100/1106 33028G45KT 2000 SHRA FEW006 FEW010CB BKN012",
          "offset_h": 7,
          "wdir": 330,
          "wspd": 28
        },
        {
          "text": "TEMPO 1106/1112 25022G40KT 2200 SHRA FEW006 FEW010CB BKN012",
          "offset_h": 13,
          "wdir": 250,
          "wspd": 22
        },
        {
          "text": "TEMPO 1112/1118 27020G38KT 4000 RA FEW010 BKN020",
          "offset_h": 19,
          "wdir": 270,
          "wspd": 20
        }
      ],
      "metar_raw": "METAR RCSS 101700Z 04008KT 340V110 2500 SHRA SCT006 BKN020 BKN035 27/26 Q0992 NOSIG RMK QFF 992.9HPA A2932 RA AMT 5.6MM",
      "metar_wdir": 40,
      "metar_wspd": 8,
      "metar_oat": 27,
      "metar_qnh": 992,
      "hourly_oat": [
        25,
        26,
        25,
        25,
        25,
        26,
        26,
        26,
        26,
        26,
        27,
        26,
        27,
        27,
        27,
        26,
        25,
        25,
        25,
        25,
        26,
        28,
        28,
        27,
        27
      ]
    },
    "TPE": {
      "icao": "RCTP",
      "issued": "2026-07-10T17:00:00.000Z",
      "raw": "TAF RCTP 101700Z 1018/1124 02018G35KT 6000 FEW015 BKN032 TEMPO 1018/1024 36028G42KT 4000 SHRA FEW006 BKN012 TEMPO 1100/1106 30035G45KT 2000 SHRA FEW003 BKN006 FEW010CB TEMPO 1106/1112 27036G46KT 2500 SHRA FEW004 BKN008 FEW010CB BECMG 1112/1114 23030G42KT TEMPO 1116/1122 23035G45KT 4000 RA FEW006 BKN012",
      "groups": [
        {
          "text": "TAF RCTP 101700Z 1018/1124 02018G35KT 6000 FEW015 BKN032",
          "offset_h": 1,
          "wdir": 20,
          "wspd": 18
        },
        {
          "text": "TEMPO 1018/1024 36028G42KT 4000 SHRA FEW006 BKN012",
          "offset_h": 1,
          "wdir": 360,
          "wspd": 28
        },
        {
          "text": "TEMPO 1100/1106 30035G45KT 2000 SHRA FEW003 BKN006 FEW010CB",
          "offset_h": 7,
          "wdir": 300,
          "wspd": 35
        },
        {
          "text": "TEMPO 1106/1112 27036G46KT 2500 SHRA FEW004 BKN008 FEW010CB",
          "offset_h": 13,
          "wdir": 270,
          "wspd": 36
        },
        {
          "text": "BECMG 1112/1114 23030G42KT",
          "offset_h": 19,
          "wdir": 230,
          "wspd": 30
        },
        {
          "text": "TEMPO 1116/1122 23035G45KT 4000 RA FEW006 BKN012",
          "offset_h": 23,
          "wdir": 230,
          "wspd": 35
        }
      ],
      "metar_raw": "METAR RCTP 101730Z 02018G33KT 350V050 3000 SHRA FEW010 BKN018 BKN035 27/26 Q0992 WS ALL RWY NOSIG RMK A2932",
      "metar_wdir": 20,
      "metar_wspd": 18,
      "metar_oat": 27,
      "metar_qnh": 992,
      "hourly_oat": [
        26,
        26,
        26,
        26,
        26,
        26,
        26,
        26,
        26,
        26,
        26,
        26,
        27,
        26,
        26,
        26,
        27,
        26,
        26,
        26,
        26,
        27,
        26,
        28,
        27
      ]
    },
    "HKG": {
      "icao": "VHHH",
      "issued": "2026-07-10T17:00:00.000Z",
      "raw": "TAF VHHH 101700Z 1018/1124 VRB05KT 9999 FEW015 TX34/1106Z TN28/1022Z TN29/1122Z BECMG 1100/1102 30010KT TEMPO 1103/1108 4000 HZ BECMG 1110/1112 24015KT",
      "groups": [
        {
          "text": "TAF VHHH 101700Z 1018/1124 VRB05KT 9999 FEW015 TX34/1106Z TN28/1022Z TN29/1122Z",
          "offset_h": 1,
          "wdir": "VRB",
          "wspd": 5
        },
        {
          "text": "BECMG 1100/1102 30010KT",
          "offset_h": 7,
          "wdir": 300,
          "wspd": 10
        },
        {
          "text": "TEMPO 1103/1108 4000 HZ",
          "offset_h": 10,
          "wdir": null,
          "wspd": null
        },
        {
          "text": "BECMG 1110/1112 24015KT",
          "offset_h": 17,
          "wdir": 240,
          "wspd": 15
        }
      ],
      "metar_raw": "METAR VHHH 101730Z 11003KT 080V140 9999 FEW015 29/24 Q1001 NOSIG",
      "metar_wdir": 110,
      "metar_wspd": 3,
      "metar_oat": 29,
      "metar_qnh": 1001,
      "hourly_oat": [
        29,
        29,
        28,
        28,
        28,
        28,
        28,
        28,
        29,
        29,
        30,
        30,
        30,
        31,
        31,
        31,
        30,
        29,
        29,
        29,
        29,
        29,
        29,
        29,
        29
      ]
    },
    "SIN": {
      "icao": "WSSS",
      "issued": "2026-07-10T17:00:00.000Z",
      "raw": "TAF WSSS 101700Z 1018/1200 17008KT 9999 FEW015 SCT020",
      "groups": [
        {
          "text": "TAF WSSS 101700Z 1018/1200 17008KT 9999 FEW015 SCT020",
          "offset_h": 1,
          "wdir": 170,
          "wspd": 8
        }
      ],
      "metar_raw": "METAR WSSS 101730Z 13006KT 9999 FEW016 BKN300 29/25 Q1011 NOSIG",
      "metar_wdir": 130,
      "metar_wspd": 6,
      "metar_oat": 29,
      "metar_qnh": 1011,
      "hourly_oat": [
        28,
        28,
        28,
        27,
        26,
        26,
        26,
        27,
        28,
        29,
        30,
        30,
        30,
        30,
        30,
        30,
        30,
        30,
        29,
        28,
        28,
        28,
        28,
        28,
        28
      ]
    },
    "CGK": {
      "icao": "WIII",
      "issued": "2026-07-10T17:00:00.000Z",
      "raw": "TAF WIII 101700Z 1018/1200 16005KT 4000 HZ FEW020 BECMG 1101/1103 05010KT 8000 NSW",
      "groups": [
        {
          "text": "TAF WIII 101700Z 1018/1200 16005KT 4000 HZ FEW020",
          "offset_h": 1,
          "wdir": 160,
          "wspd": 5
        },
        {
          "text": "BECMG 1101/1103 05010KT 8000 NSW",
          "offset_h": 8,
          "wdir": 50,
          "wspd": 10
        }
      ],
      "metar_raw": "METAR WIII 101730Z 36003KT 3000 HZ FEW020 26/22 Q1013 NOSIG",
      "metar_wdir": 360,
      "metar_wspd": 3,
      "metar_oat": 26,
      "metar_qnh": 1013,
      "hourly_oat": [
        26,
        25,
        25,
        24,
        24,
        23,
        23,
        24,
        27,
        29,
        31,
        32,
        33,
        34,
        34,
        32,
        31,
        30,
        29,
        28,
        28,
        27,
        27,
        26,
        26
      ]
    },
    "KUL": {
      "icao": "WMKK",
      "issued": "2026-07-10T17:00:00.000Z",
      "raw": "TAF WMKK 101700Z 1018/1200 VRB03KT 9000 FEW030",
      "groups": [
        {
          "text": "TAF WMKK 101700Z 1018/1200 VRB03KT 9000 FEW030",
          "offset_h": 1,
          "wdir": "VRB",
          "wspd": 3
        }
      ],
      "metar_raw": "METAR WMKK 101730Z 00000KT 9000 FEW030 26/24 Q1010 NOSIG",
      "metar_wdir": 0,
      "metar_wspd": 0,
      "metar_oat": 26,
      "metar_qnh": 1010,
      "hourly_oat": [
        26,
        25,
        23,
        23,
        24,
        24,
        24,
        24,
        25,
        26,
        27,
        28,
        28,
        29,
        29,
        30,
        29,
        29,
        28,
        27,
        26,
        26,
        26,
        25,
        25
      ]
    },
    "HAN": {
      "icao": "VVNB",
      "issued": "2026-07-10T17:00:00.000Z",
      "raw": "TAF VVNB 101700Z 1018/1118 17005KT 9000 SCT025 TEMPO 1020/1102 3500 SHRA BKN012 FEW025TCU TEMPO 1107/1112 2500 +TSRA BKN010 FEW027CB",
      "groups": [
        {
          "text": "TAF VVNB 101700Z 1018/1118 17005KT 9000 SCT025",
          "offset_h": 1,
          "wdir": 170,
          "wspd": 5
        },
        {
          "text": "TEMPO 1020/1102 3500 SHRA BKN012 FEW025TCU",
          "offset_h": 3,
          "wdir": null,
          "wspd": null
        },
        {
          "text": "TEMPO 1107/1112 2500 +TSRA BKN010 FEW027CB",
          "offset_h": 14,
          "wdir": null,
          "wspd": null
        }
      ],
      "metar_raw": "METAR VVNB 101730Z 07004KT 020V090 6000 FEW005 BKN047 BKN078 27/26 Q1000 NOSIG",
      "metar_wdir": 70,
      "metar_wspd": 4,
      "metar_oat": 27,
      "metar_qnh": 1000,
      "hourly_oat": [
        26,
        26,
        26,
        26,
        26,
        26,
        26,
        27,
        28,
        29,
        30,
        31,
        32,
        32,
        32,
        33,
        31,
        30,
        29,
        28,
        28,
        28,
        27,
        27,
        27
      ]
    },
    "PVG": {
      "icao": "ZSPD",
      "issued": "2026-07-10T15:17:00.000Z",
      "raw": "TAF ZSPD 101517Z 1018/1124 13004MPS 8000 BKN008 TX30/1106Z TN25/1021Z TN25/1121Z BECMG 1018/1019 07004MPS BECMG 1023/1024 08009G15MPS BKN010 BECMG 1105/1106 09015G20MPS TEMPO 1122/1124 SHRA BKN008 FEW030CB",
      "groups": [
        {
          "text": "TAF ZSPD 101517Z 1018/1124 13004MPS 8000 BKN008 TX30/1106Z TN25/1021Z TN25/1121Z",
          "offset_h": 1,
          "wdir": null,
          "wspd": null
        },
        {
          "text": "BECMG 1018/1019 07004MPS",
          "offset_h": 1,
          "wdir": null,
          "wspd": null
        },
        {
          "text": "BECMG 1023/1024 08009G15MPS BKN010",
          "offset_h": 6,
          "wdir": null,
          "wspd": null
        },
        {
          "text": "BECMG 1105/1106 09015G20MPS",
          "offset_h": 12,
          "wdir": null,
          "wspd": null
        },
        {
          "text": "TEMPO 1122/1124 SHRA BKN008 FEW030CB",
          "offset_h": 29,
          "wdir": null,
          "wspd": null
        }
      ],
      "metar_raw": "METAR ZSPD 101730Z 12005MPS 9999 BKN008 28/27 Q1005 NOSIG",
      "metar_wdir": null,
      "metar_wspd": null,
      "metar_oat": 28,
      "metar_qnh": 1005,
      "hourly_oat": [
        27,
        27,
        27,
        27,
        27,
        28,
        28,
        28,
        29,
        29,
        30,
        30,
        29,
        29,
        30,
        29,
        29,
        28,
        28,
        28,
        28,
        28,
        27,
        28,
        28
      ]
    },
    "SHA": {
      "icao": "ZSSS",
      "issued": "2026-07-10T15:15:00.000Z",
      "raw": "TAF ZSSS 101515Z 1018/1124 13004MPS 8000 BKN020 TX32/1106Z TN26/1021Z TN26/1121Z BECMG 1019/1020 08004MPS BECMG 1103/1104 09009G15MPS TEMPO 1122/1124 SHRA BKN010 FEW030CB",
      "groups": [
        {
          "text": "TAF ZSSS 101515Z 1018/1124 13004MPS 8000 BKN020 TX32/1106Z TN26/1021Z TN26/1121Z",
          "offset_h": 1,
          "wdir": null,
          "wspd": null
        },
        {
          "text": "BECMG 1019/1020 08004MPS",
          "offset_h": 2,
          "wdir": null,
          "wspd": null
        },
        {
          "text": "BECMG 1103/1104 09009G15MPS",
          "offset_h": 10,
          "wdir": null,
          "wspd": null
        },
        {
          "text": "TEMPO 1122/1124 SHRA BKN010 FEW030CB",
          "offset_h": 29,
          "wdir": null,
          "wspd": null
        }
      ],
      "metar_raw": "METAR ZSSS 101730Z 11004MPS 9999 FEW016 29/25 Q1005 NOSIG",
      "metar_wdir": null,
      "metar_wspd": null,
      "metar_oat": 29,
      "metar_qnh": 1005,
      "hourly_oat": [
        27,
        27,
        27,
        26,
        27,
        27,
        28,
        29,
        29,
        31,
        31,
        32,
        31,
        32,
        31,
        31,
        30,
        29,
        29,
        29,
        29,
        28,
        27,
        27,
        27
      ]
    },
    "CAN": {
      "icao": "ZGGG",
      "issued": "2026-07-10T15:05:00.000Z",
      "raw": "TAF ZGGG 101505Z 1018/1124 19003MPS 8000 SCT040 TX37/1107Z TN27/1022Z TN27/1122Z",
      "groups": [
        {
          "text": "TAF ZGGG 101505Z 1018/1124 19003MPS 8000 SCT040 TX37/1107Z TN27/1022Z TN27/1122Z",
          "offset_h": 1,
          "wdir": null,
          "wspd": null
        }
      ],
      "metar_raw": "METAR ZGGG 101730Z VRB01MPS CAVOK 29/25 Q1000 NOSIG",
      "metar_wdir": null,
      "metar_wspd": null,
      "metar_oat": 29,
      "metar_qnh": 1000,
      "hourly_oat": [
        27,
        27,
        27,
        26,
        26,
        26,
        27,
        29,
        30,
        32,
        33,
        34,
        35,
        36,
        36,
        36,
        35,
        34,
        32,
        31,
        30,
        30,
        30,
        29,
        28
      ]
    },
    "DLC": {
      "icao": "ZYTL",
      "issued": "2026-07-10T15:02:00.000Z",
      "raw": "TAF ZYTL 101502Z 1018/1118 15004MPS 5000 BR SCT020 TX29/1106Z TN24/1020Z",
      "groups": [
        {
          "text": "TAF ZYTL 101502Z 1018/1118 15004MPS 5000 BR SCT020 TX29/1106Z TN24/1020Z",
          "offset_h": 1,
          "wdir": null,
          "wspd": null
        }
      ],
      "metar_raw": "METAR ZYTL 101730Z 17005MPS 130V220 9999 SCT012 25/23 Q1005 NOSIG",
      "metar_wdir": null,
      "metar_wspd": null,
      "metar_oat": 25,
      "metar_qnh": 1005,
      "hourly_oat": [
        25,
        25,
        24,
        24,
        24,
        25,
        25,
        25,
        26,
        28,
        27,
        28,
        30,
        30,
        30,
        29,
        28,
        28,
        27,
        26,
        26,
        25,
        25,
        25,
        25
      ]
    },
    "PEK": {
      "icao": "ZBAA",
      "issued": "2026-07-10T15:01:00.000Z",
      "raw": "TAF ZBAA 101501Z 1018/1124 16003MPS 3500 BR NSC TX29/1106Z TN24/1021Z TN24/1121Z TEMPO 1112/1118 TSRA SCT040CB BKN040",
      "groups": [
        {
          "text": "TAF ZBAA 101501Z 1018/1124 16003MPS 3500 BR NSC TX29/1106Z TN24/1021Z TN24/1121Z",
          "offset_h": 1,
          "wdir": null,
          "wspd": null
        },
        {
          "text": "TEMPO 1112/1118 TSRA SCT040CB BKN040",
          "offset_h": 19,
          "wdir": null,
          "wspd": null
        }
      ],
      "metar_raw": "METAR ZBAA 101730Z 05001MPS 8000 SCT010 OVC040 25/25 Q1002 NOSIG",
      "metar_wdir": null,
      "metar_wspd": null,
      "metar_oat": 25,
      "metar_qnh": 1002,
      "hourly_oat": [
        24,
        24,
        24,
        24,
        24,
        24,
        24,
        25,
        27,
        28,
        28,
        29,
        30,
        30,
        30,
        30,
        28,
        28,
        27,
        26,
        26,
        26,
        25,
        25,
        25
      ]
    }
  }
}