{
  "updated": "2026-06-16T20:36:13Z",
  "tafs": {
    "SAN": {
      "icao": "KSAN",
      "issued": "2026-06-16T20:07:00.000Z",
      "raw": "TAF KSAN 162007Z 1620/1724 30011KT P6SM FEW018 SCT100 FM170400 VRB05KT P6SM OVC015 FM171800 29010KT P6SM FEW015",
      "groups": [
        {
          "text": "TAF KSAN 162007Z 1620/1724 30011KT P6SM FEW018 SCT100",
          "offset_h": 0,
          "wdir": 300,
          "wspd": 11
        },
        {
          "text": "FM170400 VRB05KT P6SM OVC015",
          "offset_h": 8,
          "wdir": "VRB",
          "wspd": 5
        },
        {
          "text": "FM171800 29010KT P6SM FEW015",
          "offset_h": 22,
          "wdir": 290,
          "wspd": 10
        }
      ],
      "metar_raw": "METAR KSAN 161951Z 31009G17KT 10SM FEW017 SCT050 22/16 A3000 RMK AO2 SLP158 T02220156",
      "metar_wdir": 310,
      "metar_wspd": 9,
      "metar_oat": 22,
      "metar_qnh": 1016,
      "hourly_oat": [
        22,
        23,
        22,
        22,
        21,
        20,
        19,
        18,
        18,
        18,
        18,
        18,
        18,
        18,
        17,
        17,
        17,
        17,
        17,
        18,
        19,
        20,
        22,
        21,
        22
      ]
    },
    "HKG": {
      "icao": "VHHH",
      "issued": "2026-06-16T20:00:00.000Z",
      "raw": "TAF VHHH 162000Z 1621/1803 22010KT 9999 FEW010 SCT025 TX29/1706Z TN25/1622Z TN26/1722Z TEMPO 1621/1623 24015G25KT 2500 TSRA SHRA FEW008CB SCT015 TEMPO 1623/1706 24020G30KT 1500 TSRA +SHRA FEW008CB SCT015 TEMPO 1706/1709 3500 SHRA FEW010CB SCT020 TEMPO 1718/1722 3500 SHRA FEW010CB SCT020 PROB30 TEMPO 1722/1803 24015G25KT 2500 TSRA SHRA FEW008CB SCT015",
      "groups": [
        {
          "text": "TAF VHHH 162000Z 1621/1803 22010KT 9999 FEW010 SCT025 TX29/1706Z TN25/1622Z TN26/1722Z",
          "offset_h": 1,
          "wdir": 220,
          "wspd": 10
        },
        {
          "text": "TEMPO 1621/1623 24015G25KT 2500 TSRA SHRA FEW008CB SCT015",
          "offset_h": 1,
          "wdir": 240,
          "wspd": 15
        },
        {
          "text": "TEMPO 1623/1706 24020G30KT 1500 TSRA +SHRA FEW008CB SCT015",
          "offset_h": 3,
          "wdir": 240,
          "wspd": 20
        },
        {
          "text": "TEMPO 1706/1709 3500 SHRA FEW010CB SCT020",
          "offset_h": 10,
          "wdir": null,
          "wspd": null
        },
        {
          "text": "TEMPO 1718/1722 3500 SHRA FEW010CB SCT020",
          "offset_h": 22,
          "wdir": null,
          "wspd": null
        },
        {
          "text": "PROB30",
          "offset_h": 0,
          "wdir": null,
          "wspd": null
        },
        {
          "text": "TEMPO 1722/1803 24015G25KT 2500 TSRA SHRA FEW008CB SCT015",
          "offset_h": 26,
          "wdir": 240,
          "wspd": 15
        }
      ],
      "metar_raw": "METAR VHHH 162030Z 21009KT 9999 -SHRA FEW010 FEW015CB SCT020 27/25 Q1007 TEMPO 24020G30KT 1500 TSRA +SHRA FEW008CB SCT015",
      "metar_wdir": 210,
      "metar_wspd": 9,
      "metar_oat": 27,
      "metar_qnh": 1007,
      "hourly_oat": [
        26,
        26,
        25,
        25,
        25,
        26,
        26,
        26,
        27,
        27,
        27,
        27,
        28,
        28,
        28,
        27,
        27,
        26,
        27,
        28,
        28,
        27,
        26,
        26,
        26
      ]
    },
    "KUL": {
      "icao": "WMKK",
      "issued": "2026-06-16T19:12:00.000Z",
      "raw": "TAF AMD WMKK 161912Z 1619/1800 VRB03KT 9999 FEW030 TEMPO 1620/1623 26010KT 3000 +TSRA FEW016CB SCT018",
      "groups": [
        {
          "text": "TAF AMD WMKK 161912Z 1619/1800 VRB03KT 9999 FEW030",
          "offset_h": -1,
          "wdir": "VRB",
          "wspd": 3
        },
        {
          "text": "TEMPO 1620/1623 26010KT 3000 +TSRA FEW016CB SCT018",
          "offset_h": 0,
          "wdir": 260,
          "wspd": 10
        }
      ],
      "metar_raw": "METAR WMKK 162000Z VRB01KT 9000 TS FEW017CB 27/24 Q1010 TEMPO 7000 -TSRA",
      "metar_wdir": "VRB",
      "metar_wspd": 1,
      "metar_oat": 27,
      "metar_qnh": 1010,
      "hourly_oat": [
        24,
        24,
        23,
        23,
        24,
        25,
        26,
        28,
        28,
        29,
        27,
        28,
        28,
        28,
        28,
        27,
        26,
        26,
        26,
        25,
        25,
        24,
        24,
        25,
        25
      ]
    },
    "PVG": {
      "icao": "ZSPD",
      "issued": "2026-06-16T19:10:00.000Z",
      "raw": "TAF AMD ZSPD 161910Z 1618/1724 33004MPS 5000 BR BKN015 TX28/1706Z TN21/1621Z TN21/1721Z BECMG 1706/1707 11004MPS",
      "groups": [
        {
          "text": "TAF AMD ZSPD 161910Z 1618/1724 33004MPS 5000 BR BKN015 TX28/1706Z TN21/1621Z TN21/1721Z",
          "offset_h": -2,
          "wdir": null,
          "wspd": null
        },
        {
          "text": "BECMG 1706/1707 11004MPS",
          "offset_h": 10,
          "wdir": null,
          "wspd": null
        }
      ],
      "metar_raw": "METAR ZSPD 162030Z 26002MPS 6000 BKN026 23/23 Q1008 NOSIG",
      "metar_wdir": null,
      "metar_wspd": null,
      "metar_oat": 23,
      "metar_qnh": 1008,
      "hourly_oat": [
        21,
        21,
        22,
        23,
        25,
        26,
        27,
        28,
        28,
        28,
        28,
        27,
        27,
        26,
        25,
        24,
        24,
        24,
        24,
        24,
        24,
        24,
        24,
        24,
        24
      ]
    },
    "LAX": {
      "icao": "KLAX",
      "issued": "2026-06-16T18:42:00.000Z",
      "raw": "TAF KLAX 161842Z 1619/1724 26008KT P6SM SCT015 FM162000 25012KT P6SM BKN100 FM170600 VRB04KT P6SM OVC011 FM171000 VRB04KT P6SM OVC008 FM171800 21008KT P6SM SCT018",
      "groups": [
        {
          "text": "TAF KLAX 161842Z 1619/1724 26008KT P6SM SCT015",
          "offset_h": -1,
          "wdir": 260,
          "wspd": 8
        },
        {
          "text": "FM162000 25012KT P6SM BKN100",
          "offset_h": 0,
          "wdir": 250,
          "wspd": 12
        },
        {
          "text": "FM170600 VRB04KT P6SM OVC011",
          "offset_h": 10,
          "wdir": "VRB",
          "wspd": 4
        },
        {
          "text": "FM171000 VRB04KT P6SM OVC008",
          "offset_h": 14,
          "wdir": "VRB",
          "wspd": 4
        },
        {
          "text": "FM171800 21008KT P6SM SCT018",
          "offset_h": 22,
          "wdir": 210,
          "wspd": 8
        }
      ],
      "metar_raw": "METAR KLAX 161953Z 26009KT 10SM SCT012 20/14 A2998 RMK AO2 SLP152 SCT V BKN T02000144 $",
      "metar_wdir": 260,
      "metar_wspd": 9,
      "metar_oat": 20,
      "metar_qnh": 1015,
      "hourly_oat": [
        20,
        20,
        20,
        20,
        19,
        19,
        18,
        17,
        17,
        17,
        17,
        17,
        17,
        17,
        16,
        16,
        16,
        16,
        16,
        16,
        17,
        18,
        18,
        19,
        20
      ]
    },
    "OKA": {
      "icao": "ROAH",
      "issued": "2026-06-16T18:10:00.000Z",
      "raw": "TAF AMD ROAH 161810Z 1618/1800 24012KT 9999 FEW005 BKN010 TEMPO 1618/1621 3000 +TSRA BR FEW003 BKN005 SCT015CB BECMG 1621/1623 18016KT TEMPO 1621/1700 4000 SHRA BR FEW003 BKN005 FEW015CB TEMPO 1700/1703 FEW005 BKN008 TEMPO 1712/1800 FEW003 BKN005",
      "groups": [
        {
          "text": "TAF AMD ROAH 161810Z 1618/1800 24012KT 9999 FEW005 BKN010",
          "offset_h": -2,
          "wdir": 240,
          "wspd": 12
        },
        {
          "text": "TEMPO 1618/1621 3000 +TSRA BR FEW003 BKN005 SCT015CB",
          "offset_h": -2,
          "wdir": null,
          "wspd": null
        },
        {
          "text": "BECMG 1621/1623 18016KT",
          "offset_h": 1,
          "wdir": 180,
          "wspd": 16
        },
        {
          "text": "TEMPO 1621/1700 4000 SHRA BR FEW003 BKN005 FEW015CB",
          "offset_h": 1,
          "wdir": null,
          "wspd": null
        },
        {
          "text": "TEMPO 1700/1703 FEW005 BKN008",
          "offset_h": 4,
          "wdir": null,
          "wspd": null
        },
        {
          "text": "TEMPO 1712/1800 FEW003 BKN005",
          "offset_h": 16,
          "wdir": null,
          "wspd": null
        }
      ],
      "metar_raw": "METAR ROAH 162000Z AUTO VRB02KT 4800 RA BR FEW002 SCT023 BKN032 //////TCU 24/24 Q1013",
      "metar_wdir": "VRB",
      "metar_wspd": 2,
      "metar_oat": 24,
      "metar_qnh": 1013,
      "hourly_oat": [
        26,
        25,
        25,
        26,
        27,
        27,
        27,
        28,
        27,
        28,
        27,
        27,
        27,
        26,
        26,
        26,
        26,
        26,
        26,
        26,
        26,
        26,
        26,
        26,
        26
      ]
    },
    "HNL": {
      "icao": "PHNL",
      "issued": "2026-06-16T17:24:00.000Z",
      "raw": "TAF PHNL 161724Z 1618/1724 VRB06KT P6SM FEW025 FEW035 FM162000 06014KT P6SM FEW030 SCT045 FM170600 VRB06KT P6SM FEW025 FEW035 FM172000 10011KT P6SM FEW030 SCT045",
      "groups": [
        {
          "text": "TAF PHNL 161724Z 1618/1724 VRB06KT P6SM FEW025 FEW035",
          "offset_h": -2,
          "wdir": "VRB",
          "wspd": 6
        },
        {
          "text": "FM162000 06014KT P6SM FEW030 SCT045",
          "offset_h": 0,
          "wdir": 60,
          "wspd": 14
        },
        {
          "text": "FM170600 VRB06KT P6SM FEW025 FEW035",
          "offset_h": 10,
          "wdir": "VRB",
          "wspd": 6
        },
        {
          "text": "FM172000 10011KT P6SM FEW030 SCT045",
          "offset_h": 24,
          "wdir": 100,
          "wspd": 11
        }
      ],
      "metar_raw": "METAR PHNL 161953Z 07014G21KT 10SM FEW025 SCT040 29/18 A3000 RMK AO2 SLP160 T02890183 $",
      "metar_wdir": 70,
      "metar_wspd": 14,
      "metar_oat": 29,
      "metar_qnh": 1016,
      "hourly_oat": [
        28,
        30,
        29,
        29,
        29,
        29,
        28,
        27,
        26,
        25,
        24,
        24,
        23,
        23,
        23,
        22,
        22,
        22,
        22,
        22,
        22,
        23,
        25,
        27,
        28
      ]
    },
    "FUK": {
      "icao": "RJFF",
      "issued": "2026-06-16T17:06:00.000Z",
      "raw": "TAF RJFF 161706Z 1618/1800 13008KT 9999 FEW020",
      "groups": [
        {
          "text": "TAF RJFF 161706Z 1618/1800 13008KT 9999 FEW020",
          "offset_h": -2,
          "wdir": 130,
          "wspd": 8
        }
      ],
      "metar_raw": "METAR RJFF 162000Z AUTO 13004KT 100V170 9999 NCD 22/18 Q1012 NOSIG",
      "metar_wdir": 130,
      "metar_wspd": 4,
      "metar_oat": 22,
      "metar_qnh": 1012,
      "hourly_oat": [
        21,
        22,
        23,
        24,
        26,
        27,
        28,
        28,
        28,
        29,
        29,
        29,
        28,
        28,
        27,
        26,
        25,
        24,
        24,
        24,
        23,
        23,
        23,
        23,
        23
      ]
    },
    "CTS": {
      "icao": "RJCC",
      "issued": "2026-06-16T17:05:00.000Z",
      "raw": "TAF RJCC 161705Z 1618/1800 17010KT 8000 FEW005 BKN012 TEMPO 1618/1623 0700 FG VV001 TEMPO 1623/1701 3000 BR FEW002 BKN005 TEMPO 1706/1709 FEW003 BKN006 TEMPO 1709/1712 2000 BR FEW002 BKN004 TEMPO 1712/1721 0700 FG VV001",
      "groups": [
        {
          "text": "TAF RJCC 161705Z 1618/1800 17010KT 8000 FEW005 BKN012",
          "offset_h": -2,
          "wdir": 170,
          "wspd": 10
        },
        {
          "text": "TEMPO 1618/1623 0700 FG VV001",
          "offset_h": -2,
          "wdir": null,
          "wspd": null
        },
        {
          "text": "TEMPO 1623/1701 3000 BR FEW002 BKN005",
          "offset_h": 3,
          "wdir": null,
          "wspd": null
        },
        {
          "text": "TEMPO 1706/1709 FEW003 BKN006",
          "offset_h": 10,
          "wdir": null,
          "wspd": null
        },
        {
          "text": "TEMPO 1709/1712 2000 BR FEW002 BKN004",
          "offset_h": 13,
          "wdir": null,
          "wspd": null
        },
        {
          "text": "TEMPO 1712/1721 0700 FG VV001",
          "offset_h": 16,
          "wdir": null,
          "wspd": null
        }
      ],
      "metar_raw": "METAR RJCC 162000Z 16004KT 2000 BR FEW001 BKN003 13/13 Q1018",
      "metar_wdir": 160,
      "metar_wspd": 4,
      "metar_oat": 13,
      "metar_qnh": 1018,
      "hourly_oat": [
        12,
        13,
        14,
        16,
        17,
        18,
        18,
        19,
        20,
        19,
        19,
        18,
        16,
        15,
        14,
        13,
        13,
        13,
        13,
        13,
        13,
        13,
        13,
        13,
        13
      ]
    },
    "NGO": {
      "icao": "RJGG",
      "issued": "2026-06-16T17:05:00.000Z",
      "raw": "TAF RJGG 161705Z 1618/1800 12012KT 9999 FEW030 BKN050 BECMG 1715/1718 02008KT",
      "groups": [
        {
          "text": "TAF RJGG 161705Z 1618/1800 12012KT 9999 FEW030 BKN050",
          "offset_h": -2,
          "wdir": 120,
          "wspd": 12
        },
        {
          "text": "BECMG 1715/1718 02008KT",
          "offset_h": 19,
          "wdir": 20,
          "wspd": 8
        }
      ],
      "metar_raw": "METAR RJGG 162000Z AUTO 10010KT 9999 FEW011 BKN090 BKN110 22/19 Q1018 NOSIG",
      "metar_wdir": 100,
      "metar_wspd": 10,
      "metar_oat": 22,
      "metar_qnh": 1018,
      "hourly_oat": [
        22,
        21,
        22,
        22,
        22,
        22,
        22,
        23,
        22,
        22,
        22,
        22,
        22,
        22,
        22,
        22,
        22,
        21,
        21,
        20,
        20,
        20,
        20,
        21,
        20
      ]
    },
    "ITM": {
      "icao": "RJOO",
      "issued": "2026-06-16T17:05:00.000Z",
      "raw": "TAF RJOO 161705Z 1618/1800 08012KT 9999 FEW020 SCT030",
      "groups": [
        {
          "text": "TAF RJOO 161705Z 1618/1800 08012KT 9999 FEW020 SCT030",
          "offset_h": -2,
          "wdir": 80,
          "wspd": 12
        }
      ],
      "metar_raw": "METAR RJOO 162000Z AUTO 07004KT 9999 FEW040 21/17 Q1016",
      "metar_wdir": 70,
      "metar_wspd": 4,
      "metar_oat": 21,
      "metar_qnh": 1016,
      "hourly_oat": [
        21,
        21,
        22,
        22,
        24,
        25,
        26,
        26,
        26,
        26,
        25,
        24,
        23,
        23,
        22,
        22,
        22,
        22,
        21,
        21,
        21,
        21,
        21,
        21,
        21
      ]
    },
    "HND": {
      "icao": "RJTT",
      "issued": "2026-06-16T17:05:00.000Z",
      "raw": "TAF RJTT 161705Z 1618/1800 18010KT 9999 FEW030 TEMPO 1715/1718 3000 SHRA BR FEW003 BKN005 BECMG 1715/1718 08008KT BECMG 1718/1721 03008KT TEMPO 1718/1800 FEW005 BKN008",
      "groups": [
        {
          "text": "TAF RJTT 161705Z 1618/1800 18010KT 9999 FEW030",
          "offset_h": -2,
          "wdir": 180,
          "wspd": 10
        },
        {
          "text": "TEMPO 1715/1718 3000 SHRA BR FEW003 BKN005",
          "offset_h": 19,
          "wdir": null,
          "wspd": null
        },
        {
          "text": "BECMG 1715/1718 08008KT",
          "offset_h": 19,
          "wdir": 80,
          "wspd": 8
        },
        {
          "text": "BECMG 1718/1721 03008KT",
          "offset_h": 22,
          "wdir": 30,
          "wspd": 8
        },
        {
          "text": "TEMPO 1718/1800 FEW005 BKN008",
          "offset_h": 22,
          "wdir": null,
          "wspd": null
        }
      ],
      "metar_raw": "METAR RJTT 162000Z 16004KT 9999 FEW030 BKN/// 20/17 Q1019 NOSIG",
      "metar_wdir": 160,
      "metar_wspd": 4,
      "metar_oat": 20,
      "metar_qnh": 1019,
      "hourly_oat": [
        19,
        20,
        21,
        22,
        23,
        23,
        24,
        25,
        26,
        26,
        25,
        24,
        23,
        22,
        22,
        22,
        21,
        21,
        21,
        21,
        21,
        20,
        20,
        20,
        20
      ]
    },
    "KIX": {
      "icao": "RJBB",
      "issued": "2026-06-16T17:05:00.000Z",
      "raw": "TAF RJBB 161705Z 1618/1800 06006KT 9999 FEW020 SCT045 BECMG 1701/1703 27008KT BECMG 1709/1712 05012KT",
      "groups": [
        {
          "text": "TAF RJBB 161705Z 1618/1800 06006KT 9999 FEW020 SCT045",
          "offset_h": -2,
          "wdir": 60,
          "wspd": 6
        },
        {
          "text": "BECMG 1701/1703 27008KT",
          "offset_h": 5,
          "wdir": 270,
          "wspd": 8
        },
        {
          "text": "BECMG 1709/1712 05012KT",
          "offset_h": 13,
          "wdir": 50,
          "wspd": 12
        }
      ],
      "metar_raw": "METAR RJBB 162000Z AUTO 10003KT 360V140 9999 BKN024 BKN029 OVC043 21/20 Q1016 NOSIG",
      "metar_wdir": 100,
      "metar_wspd": 3,
      "metar_oat": 21,
      "metar_qnh": 1016,
      "hourly_oat": [
        22,
        22,
        22,
        22,
        22,
        23,
        23,
        23,
        23,
        23,
        23,
        23,
        23,
        23,
        23,
        23,
        23,
        23,
        22,
        22,
        22,
        22,
        22,
        22,
        22
      ]
    },
    "NRT": {
      "icao": "RJAA",
      "issued": "2026-06-16T17:05:00.000Z",
      "raw": "TAF RJAA 161705Z 1618/1800 17004KT 9999 FEW030 BECMG 1715/1718 03006KT TEMPO 1715/1721 2000 SHRA BR FEW001 BKN003 TEMPO 1721/1800 FEW003 BKN005",
      "groups": [
        {
          "text": "TAF RJAA 161705Z 1618/1800 17004KT 9999 FEW030",
          "offset_h": -2,
          "wdir": 170,
          "wspd": 4
        },
        {
          "text": "BECMG 1715/1718 03006KT",
          "offset_h": 19,
          "wdir": 30,
          "wspd": 6
        },
        {
          "text": "TEMPO 1715/1721 2000 SHRA BR FEW001 BKN003",
          "offset_h": 19,
          "wdir": null,
          "wspd": null
        },
        {
          "text": "TEMPO 1721/1800 FEW003 BKN005",
          "offset_h": 25,
          "wdir": null,
          "wspd": null
        }
      ],
      "metar_raw": "METAR RJAA 162000Z AUTO 14002KT 9999 NCD 15/13 Q1019 NOSIG",
      "metar_wdir": 140,
      "metar_wspd": 2,
      "metar_oat": 15,
      "metar_qnh": 1019,
      "hourly_oat": [
        16,
        18,
        21,
        22,
        24,
        25,
        25,
        25,
        25,
        25,
        24,
        24,
        23,
        22,
        21,
        21,
        20,
        20,
        20,
        20,
        20,
        20,
        20,
        19,
        19
      ]
    },
    "CGK": {
      "icao": "WIII",
      "issued": "2026-06-16T17:00:00.000Z",
      "raw": "TAF WIII 161700Z 1618/1800 14005KT 7000 SCT020 BECMG 1619/1621 5000 HZ BECMG 1701/1703 05012KT 8000 NSW",
      "groups": [
        {
          "text": "TAF WIII 161700Z 1618/1800 14005KT 7000 SCT020",
          "offset_h": -2,
          "wdir": 140,
          "wspd": 5
        },
        {
          "text": "BECMG 1619/1621 5000 HZ",
          "offset_h": -1,
          "wdir": null,
          "wspd": null
        },
        {
          "text": "BECMG 1701/1703 05012KT 8000 NSW",
          "offset_h": 5,
          "wdir": 50,
          "wspd": 12
        }
      ],
      "metar_raw": "METAR WIII 162030Z 15003KT 5000 HZ FEW020 27/24 Q1010 NOSIG",
      "metar_wdir": 150,
      "metar_wspd": 3,
      "metar_oat": 27,
      "metar_qnh": 1010,
      "hourly_oat": [
        25,
        25,
        25,
        24,
        25,
        27,
        29,
        30,
        32,
        32,
        32,
        31,
        31,
        30,
        29,
        28,
        28,
        27,
        26,
        26,
        26,
        26,
        25,
        25,
        24
      ]
    },
    "SGN": {
      "icao": "VVTS",
      "issued": "2026-06-16T17:00:00.000Z",
      "raw": "TAF VVTS 161700Z 1618/1724 VRB03KT 9999 SCT017 BECMG 1701/1702 26010KT TEMPO 1708/1712 26015G26KT 2000 +TSRA SCT013 SCT015CB TEMPO 1712/1715 5000 SHRA SCT015 FEW017CB BKN040",
      "groups": [
        {
          "text": "TAF VVTS 161700Z 1618/1724 VRB03KT 9999 SCT017",
          "offset_h": -2,
          "wdir": "VRB",
          "wspd": 3
        },
        {
          "text": "BECMG 1701/1702 26010KT",
          "offset_h": 5,
          "wdir": 260,
          "wspd": 10
        },
        {
          "text": "TEMPO 1708/1712 26015G26KT 2000 +TSRA SCT013 SCT015CB",
          "offset_h": 12,
          "wdir": 260,
          "wspd": 15
        },
        {
          "text": "TEMPO 1712/1715 5000 SHRA SCT015 FEW017CB BKN040",
          "offset_h": 16,
          "wdir": null,
          "wspd": null
        }
      ],
      "metar_raw": "METAR VVTS 162030Z 06003KT 9999 FEW027 SCT050 27/26 Q1010 NOSIG",
      "metar_wdir": 60,
      "metar_wspd": 3,
      "metar_oat": 27,
      "metar_qnh": 1010,
      "hourly_oat": [
        25,
        25,
        25,
        25,
        26,
        28,
        30,
        31,
        32,
        32,
        33,
        33,
        33,
        30,
        26,
        27,
        27,
        26,
        26,
        26,
        26,
        26,
        26,
        25,
        25
      ]
    },
    "TSA": {
      "icao": "RCSS",
      "issued": "2026-06-16T17:00:00.000Z",
      "raw": "TAF RCSS 161700Z 1618/1718 09005KT 9999 FEW015 BKN032 TEMPO 1700/1705 31005KT 4000 SHRA FEW008 FEW012CB BKN016 TEMPO 1705/1709 28010KT 3200 TSRA SCT006 FEW012CB BKN014 TEMPO 1709/1714 5000 -RA FEW010 BKN018",
      "groups": [
        {
          "text": "TAF RCSS 161700Z 1618/1718 09005KT 9999 FEW015 BKN032",
          "offset_h": -2,
          "wdir": 90,
          "wspd": 5
        },
        {
          "text": "TEMPO 1700/1705 31005KT 4000 SHRA FEW008 FEW012CB BKN016",
          "offset_h": 4,
          "wdir": 310,
          "wspd": 5
        },
        {
          "text": "TEMPO 1705/1709 28010KT 3200 TSRA SCT006 FEW012CB BKN014",
          "offset_h": 9,
          "wdir": 280,
          "wspd": 10
        },
        {
          "text": "TEMPO 1709/1714 5000 -RA FEW010 BKN018",
          "offset_h": 13,
          "wdir": null,
          "wspd": null
        }
      ],
      "metar_raw": "METAR RCSS 162000Z VRB01KT 9999 FEW008 BKN150 25/24 Q1010 NOSIG RMK A2983",
      "metar_wdir": "VRB",
      "metar_wspd": 1,
      "metar_oat": 25,
      "metar_qnh": 1010,
      "hourly_oat": [
        24,
        24,
        24,
        25,
        26,
        29,
        29,
        30,
        31,
        31,
        32,
        30,
        28,
        27,
        27,
        26,
        26,
        26,
        26,
        25,
        25,
        25,
        25,
        25,
        24
      ]
    },
    "TPE": {
      "icao": "RCTP",
      "issued": "2026-06-16T17:00:00.000Z",
      "raw": "TAF RCTP 161700Z 1618/1724 21010KT 9999 FEW015 BKN032 TEMPO 1618/1624 04005KT TEMPO 1703/1709 24015KT TEMPO 1706/1712 4000 SHRA FEW010 FEW012CB BKN018 TEMPO 1718/1724 12005KT",
      "groups": [
        {
          "text": "TAF RCTP 161700Z 1618/1724 21010KT 9999 FEW015 BKN032",
          "offset_h": -2,
          "wdir": 210,
          "wspd": 10
        },
        {
          "text": "TEMPO 1618/1624 04005KT",
          "offset_h": -2,
          "wdir": 40,
          "wspd": 5
        },
        {
          "text": "TEMPO 1703/1709 24015KT",
          "offset_h": 7,
          "wdir": 240,
          "wspd": 15
        },
        {
          "text": "TEMPO 1706/1712 4000 SHRA FEW010 FEW012CB BKN018",
          "offset_h": 10,
          "wdir": null,
          "wspd": null
        },
        {
          "text": "TEMPO 1718/1724 12005KT",
          "offset_h": 22,
          "wdir": 120,
          "wspd": 5
        }
      ],
      "metar_raw": "METAR RCTP 162000Z 12005KT 9999 FEW015 BKN160 26/24 Q1010 NOSIG RMK A2983",
      "metar_wdir": 120,
      "metar_wspd": 5,
      "metar_oat": 26,
      "metar_qnh": 1010,
      "hourly_oat": [
        24,
        23,
        23,
        24,
        26,
        28,
        28,
        29,
        29,
        29,
        29,
        27,
        28,
        27,
        26,
        26,
        26,
        26,
        25,
        25,
        25,
        24,
        24,
        25,
        25
      ]
    },
    "GMP": {
      "icao": "RKSS",
      "issued": "2026-06-16T17:00:00.000Z",
      "raw": "TAF RKSS 161700Z 1618/1724 04005KT 6000 NSC TN21/1620Z TX32/1705Z TN20/1720Z BECMG 1701/1702 20006KT SCT045 TEMPO 1706/1709 24007KT -SHRA FEW010CB BKN025 OVC080 BECMG 1710/1712 34005KT",
      "groups": [
        {
          "text": "TAF RKSS 161700Z 1618/1724 04005KT 6000 NSC TN21/1620Z TX32/1705Z TN20/1720Z",
          "offset_h": -2,
          "wdir": 40,
          "wspd": 5
        },
        {
          "text": "BECMG 1701/1702 20006KT SCT045",
          "offset_h": 5,
          "wdir": 200,
          "wspd": 6
        },
        {
          "text": "TEMPO 1706/1709 24007KT -SHRA FEW010CB BKN025 OVC080",
          "offset_h": 10,
          "wdir": 240,
          "wspd": 7
        },
        {
          "text": "BECMG 1710/1712 34005KT",
          "offset_h": 14,
          "wdir": 340,
          "wspd": 5
        }
      ],
      "metar_raw": "METAR RKSS 162000Z 32003KT 7000 NSC 20/20 Q1012 NOSIG",
      "metar_wdir": 320,
      "metar_wspd": 3,
      "metar_oat": 20,
      "metar_qnh": 1012,
      "hourly_oat": [
        19,
        19,
        21,
        22,
        24,
        25,
        26,
        27,
        28,
        29,
        29,
        28,
        28,
        27,
        25,
        24,
        23,
        23,
        22,
        22,
        21,
        21,
        21,
        20,
        20
      ]
    },
    "BKK": {
      "icao": "VTBS",
      "issued": "2026-06-16T17:00:00.000Z",
      "raw": "TAF VTBS 161700Z 1618/1724 14005KT 9999 FEW020 BECMG 1700/1702 21008KT TEMPO 1710/1714 VRB15KT 4000 TSRA FEW018CB SCT030 BKN100",
      "groups": [
        {
          "text": "TAF VTBS 161700Z 1618/1724 14005KT 9999 FEW020",
          "offset_h": -2,
          "wdir": 140,
          "wspd": 5
        },
        {
          "text": "BECMG 1700/1702 21008KT",
          "offset_h": 4,
          "wdir": 210,
          "wspd": 8
        },
        {
          "text": "TEMPO 1710/1714 VRB15KT 4000 TSRA FEW018CB SCT030 BKN100",
          "offset_h": 14,
          "wdir": "VRB",
          "wspd": 15
        }
      ],
      "metar_raw": "METAR VTBS 162030Z VRB01KT 9999 FEW020 27/26 Q1009 NOSIG",
      "metar_wdir": "VRB",
      "metar_wspd": 1,
      "metar_oat": 27,
      "metar_qnh": 1009,
      "hourly_oat": [
        28,
        27,
        27,
        27,
        28,
        30,
        31,
        32,
        33,
        34,
        34,
        33,
        32,
        32,
        32,
        31,
        26,
        26,
        26,
        26,
        27,
        27,
        27,
        27,
        27
      ]
    },
    "HAN": {
      "icao": "VVNB",
      "issued": "2026-06-16T17:00:00.000Z",
      "raw": "TAF VVNB 161700Z 1618/1718 11006KT 6000 SCT020 PROB40 TEMPO 1620/1624 3500 TSRA SCT012 FEW027CB TEMPO 1704/1708 4000 SHRA SCT015 FEW027TCU",
      "groups": [
        {
          "text": "TAF VVNB 161700Z 1618/1718 11006KT 6000 SCT020",
          "offset_h": -2,
          "wdir": 110,
          "wspd": 6
        },
        {
          "text": "PROB40",
          "offset_h": 0,
          "wdir": null,
          "wspd": null
        },
        {
          "text": "TEMPO 1620/1624 3500 TSRA SCT012 FEW027CB",
          "offset_h": 0,
          "wdir": null,
          "wspd": null
        },
        {
          "text": "TEMPO 1704/1708 4000 SHRA SCT015 FEW027TCU",
          "offset_h": 8,
          "wdir": null,
          "wspd": null
        }
      ],
      "metar_raw": "METAR VVNB 162030Z 09005KT 9999 BKN012 OVC019 28/27 Q1004 NOSIG",
      "metar_wdir": 90,
      "metar_wspd": 5,
      "metar_oat": 28,
      "metar_qnh": 1004,
      "hourly_oat": [
        27,
        26,
        26,
        26,
        27,
        28,
        29,
        31,
        31,
        32,
        32,
        33,
        33,
        32,
        32,
        31,
        30,
        30,
        30,
        30,
        30,
        29,
        29,
        29,
        26
      ]
    },
    "SIN": {
      "icao": "WSSS",
      "issued": "2026-06-16T17:00:00.000Z",
      "raw": "TAF WSSS 161700Z 1618/1800 15007KT 9999 FEW015 SCT020 TEMPO 1705/1709 3000 TSRA FEW012CB BKN015",
      "groups": [
        {
          "text": "TAF WSSS 161700Z 1618/1800 15007KT 9999 FEW015 SCT020",
          "offset_h": -2,
          "wdir": 150,
          "wspd": 7
        },
        {
          "text": "TEMPO 1705/1709 3000 TSRA FEW012CB BKN015",
          "offset_h": 9,
          "wdir": null,
          "wspd": null
        }
      ],
      "metar_raw": "METAR WSSS 162030Z 10004KT 9999 FEW018 BKN300 28/24 Q1011 NOSIG",
      "metar_wdir": 100,
      "metar_wspd": 4,
      "metar_oat": 28,
      "metar_qnh": 1011,
      "hourly_oat": [
        27,
        27,
        26,
        25,
        26,
        27,
        28,
        29,
        30,
        30,
        30,
        30,
        28,
        28,
        28,
        26,
        26,
        26,
        26,
        26,
        26,
        26,
        26,
        26,
        26
      ]
    },
    "SHA": {
      "icao": "ZSSS",
      "issued": "2026-06-16T15:11:00.000Z",
      "raw": "TAF ZSSS 161511Z 1618/1724 33004MPS 6000 BKN011 TX30/1706Z TN21/1621Z TN24/1721Z TEMPO 1620/1623 1500 BR BKN007 BECMG 1708/1709 10004MPS",
      "groups": [
        {
          "text": "TAF ZSSS 161511Z 1618/1724 33004MPS 6000 BKN011 TX30/1706Z TN21/1621Z TN24/1721Z",
          "offset_h": -2,
          "wdir": null,
          "wspd": null
        },
        {
          "text": "TEMPO 1620/1623 1500 BR BKN007",
          "offset_h": 0,
          "wdir": null,
          "wspd": null
        },
        {
          "text": "BECMG 1708/1709 10004MPS",
          "offset_h": 12,
          "wdir": null,
          "wspd": null
        }
      ],
      "metar_raw": "METAR ZSSS 162030Z 30001MPS 8000 BKN016 23/21 Q1008 NOSIG",
      "metar_wdir": null,
      "metar_wspd": null,
      "metar_oat": 23,
      "metar_qnh": 1008,
      "hourly_oat": [
        21,
        21,
        22,
        23,
        25,
        26,
        27,
        28,
        29,
        30,
        30,
        30,
        30,
        28,
        28,
        27,
        26,
        25,
        24,
        24,
        24,
        24,
        23,
        23,
        23
      ]
    },
    "CAN": {
      "icao": "ZGGG",
      "issued": "2026-06-16T15:07:00.000Z",
      "raw": "TAF ZGGG 161507Z 1618/1724 16003MPS 8000 BKN033 TX30/1707Z TN25/1622Z TN25/1722Z TEMPO 1620/1624 SHRA FEW026CB BKN030 TEMPO 1705/1709 2500 +TSRA SCT026CB BKN030 TEMPO 1718/1722 TSRA SCT026CB BKN030",
      "groups": [
        {
          "text": "TAF ZGGG 161507Z 1618/1724 16003MPS 8000 BKN033 TX30/1707Z TN25/1622Z TN25/1722Z",
          "offset_h": -2,
          "wdir": null,
          "wspd": null
        },
        {
          "text": "TEMPO 1620/1624 SHRA FEW026CB BKN030",
          "offset_h": 0,
          "wdir": null,
          "wspd": null
        },
        {
          "text": "TEMPO 1705/1709 2500 +TSRA SCT026CB BKN030",
          "offset_h": 9,
          "wdir": null,
          "wspd": null
        },
        {
          "text": "TEMPO 1718/1722 TSRA SCT026CB BKN030",
          "offset_h": 22,
          "wdir": null,
          "wspd": null
        }
      ],
      "metar_raw": "METAR ZGGG 162030Z 13002MPS 9999 -SHRA SCT010 BKN020 26/25 Q1007 NOSIG",
      "metar_wdir": null,
      "metar_wspd": null,
      "metar_oat": 26,
      "metar_qnh": 1007,
      "hourly_oat": [
        24,
        24,
        24,
        24,
        25,
        25,
        27,
        28,
        28,
        28,
        30,
        27,
        27,
        28,
        26,
        26,
        26,
        25,
        25,
        25,
        25,
        25,
        25,
        25,
        24
      ]
    },
    "DLC": {
      "icao": "ZYTL",
      "issued": "2026-06-16T15:07:00.000Z",
      "raw": "TAF ZYTL 161507Z 1618/1718 18004MPS 5000 BR SCT040 TX26/1706Z TN19/1621Z TEMPO 1621/1624 2000 -TSRA BR BKN008 BKN026 FEW033CB",
      "groups": [
        {
          "text": "TAF ZYTL 161507Z 1618/1718 18004MPS 5000 BR SCT040 TX26/1706Z TN19/1621Z",
          "offset_h": -2,
          "wdir": null,
          "wspd": null
        },
        {
          "text": "TEMPO 1621/1624 2000 -TSRA BR BKN008 BKN026 FEW033CB",
          "offset_h": 1,
          "wdir": null,
          "wspd": null
        }
      ],
      "metar_raw": "METAR ZYTL 162030Z VRB02MPS 9999 SCT040 21/17 Q1009 NOSIG",
      "metar_wdir": null,
      "metar_wspd": null,
      "metar_oat": 21,
      "metar_qnh": 1009,
      "hourly_oat": [
        20,
        20,
        21,
        22,
        22,
        23,
        24,
        26,
        27,
        28,
        28,
        29,
        28,
        27,
        26,
        24,
        23,
        23,
        22,
        22,
        22,
        21,
        21,
        21,
        20
      ]
    },
    "PEK": {
      "icao": "ZBAA",
      "issued": "2026-06-16T15:00:00.000Z",
      "raw": "TAF ZBAA 161500Z 1618/1724 35003MPS 3500 BR NSC TX30/1706Z TN19/1621Z TN21/1721Z",
      "groups": [
        {
          "text": "TAF ZBAA 161500Z 1618/1724 35003MPS 3500 BR NSC TX30/1706Z TN19/1621Z TN21/1721Z",
          "offset_h": -2,
          "wdir": null,
          "wspd": null
        }
      ],
      "metar_raw": "METAR ZBAA 162030Z VRB01MPS 5000 R36L/P2000N R36R/P2000N R01/1300D BR FEW020 19/18 Q1008 NOSIG",
      "metar_wdir": null,
      "metar_wspd": null,
      "metar_oat": 19,
      "metar_qnh": 1008,
      "hourly_oat": [
        19,
        19,
        19,
        20,
        22,
        24,
        25,
        27,
        28,
        29,
        30,
        30,
        30,
        29,
        29,
        27,
        26,
        25,
        24,
        22,
        22,
        21,
        21,
        20,
        20
      ]
    }
  }
}