{
  "updated": "2026-07-14T04:39:47Z",
  "tafs": {
    "DLC": {
      "icao": "ZYTL",
      "issued": "2026-07-14T04:08:00.000Z",
      "raw": "TAF AMD ZYTL 140408Z 1400/1424 14004MPS 4000 -SHRA BR SCT010 BKN033 TX27/1406Z TN24/1420Z TEMPO 1403/1409 2000 BR BKN004 OVC023 BECMG 1406/1407 02005MPS 2000 BR BECMG 1407/1408 32004G10MPS 4000",
      "groups": [
        {
          "text": "TAF AMD ZYTL 140408Z 1400/1424 14004MPS 4000 -SHRA BR SCT010 BKN033 TX27/1406Z TN24/1420Z",
          "offset_h": -4,
          "wdir": null,
          "wspd": null
        },
        {
          "text": "TEMPO 1403/1409 2000 BR BKN004 OVC023",
          "offset_h": -1,
          "wdir": null,
          "wspd": null
        },
        {
          "text": "BECMG 1406/1407 02005MPS 2000 BR",
          "offset_h": 2,
          "wdir": null,
          "wspd": null
        },
        {
          "text": "BECMG 1407/1408 32004G10MPS 4000",
          "offset_h": 3,
          "wdir": null,
          "wspd": null
        }
      ],
      "metar_raw": "METAR ZYTL 140430Z VRB01MPS 3000 -SHRA BR BKN004 OVC023 24/24 Q0996 NOSIG",
      "metar_wdir": null,
      "metar_wspd": null,
      "metar_oat": 24,
      "metar_qnh": 996,
      "hourly_oat": [
        25,
        25,
        27,
        28,
        28,
        27,
        26,
        25,
        25,
        25,
        25,
        25,
        25,
        24,
        24,
        24,
        24,
        24,
        25,
        26,
        28,
        29,
        30,
        30,
        31
      ]
    },
    "HNL": {
      "icao": "PHNL",
      "issued": "2026-07-14T03:14:00.000Z",
      "raw": "TAF PHNL 140314Z 1403/1506 05012G22KT P6SM FEW025 FEW045 FM140600 05010KT P6SM FEW025 SCT040 FM142000 06013G22KT P6SM FEW025 BKN040 FM150500 05008KT P6SM FEW025 SCT040",
      "groups": [
        {
          "text": "TAF PHNL 140314Z 1403/1506 05012G22KT P6SM FEW025 FEW045",
          "offset_h": -1,
          "wdir": 50,
          "wspd": 12
        },
        {
          "text": "FM140600 05010KT P6SM FEW025 SCT040",
          "offset_h": 2,
          "wdir": 50,
          "wspd": 10
        },
        {
          "text": "FM142000 06013G22KT P6SM FEW025 BKN040",
          "offset_h": 16,
          "wdir": 60,
          "wspd": 13
        },
        {
          "text": "FM150500 05008KT P6SM FEW025 SCT040",
          "offset_h": 25,
          "wdir": 50,
          "wspd": 8
        }
      ],
      "metar_raw": "METAR PHNL 140353Z 04011KT 10SM FEW025 FEW045 BKN220 27/18 A2996 RMK AO2 SLP143 T02720178 $",
      "metar_wdir": 40,
      "metar_wspd": 11,
      "metar_oat": 27,
      "metar_qnh": 1015,
      "hourly_oat": [
        26,
        25,
        24,
        23,
        23,
        22,
        22,
        22,
        22,
        22,
        22,
        22,
        22,
        23,
        25,
        26,
        26,
        27,
        28,
        28,
        28,
        28,
        27,
        26,
        25
      ]
    },
    "CAN": {
      "icao": "ZGGG",
      "issued": "2026-07-14T03:06:00.000Z",
      "raw": "TAF ZGGG 140306Z 1406/1512 14004MPS 8000 BKN040 TX35/1407Z TX35/1507Z TN28/1422Z TEMPO 1406/1412 2500 +TSRA SCT026CB BKN030 TEMPO 1422/1502 SHRA FEW026CB BKN030 TEMPO 1505/1509 TSRA SCT026CB BKN030",
      "groups": [
        {
          "text": "TAF ZGGG 140306Z 1406/1512 14004MPS 8000 BKN040 TX35/1407Z TX35/1507Z TN28/1422Z",
          "offset_h": 2,
          "wdir": null,
          "wspd": null
        },
        {
          "text": "TEMPO 1406/1412 2500 +TSRA SCT026CB BKN030",
          "offset_h": 2,
          "wdir": null,
          "wspd": null
        },
        {
          "text": "TEMPO 1422/1502 SHRA FEW026CB BKN030",
          "offset_h": 18,
          "wdir": null,
          "wspd": null
        },
        {
          "text": "TEMPO 1505/1509 TSRA SCT026CB BKN030",
          "offset_h": 25,
          "wdir": null,
          "wspd": null
        }
      ],
      "metar_raw": "METAR ZGGG 140430Z 09005MPS 9999 SCT020 SCT060 33/26 Q1001 NOSIG",
      "metar_wdir": null,
      "metar_wspd": null,
      "metar_oat": 33,
      "metar_qnh": 1001,
      "hourly_oat": [
        30,
        31,
        28,
        28,
        29,
        28,
        27,
        26,
        26,
        26,
        26,
        26,
        26,
        26,
        26,
        26,
        26,
        26,
        26,
        26,
        27,
        29,
        29,
        30,
        30
      ]
    },
    "LAX": {
      "icao": "KLAX",
      "issued": "2026-07-14T03:04:00.000Z",
      "raw": "TAF KLAX 140304Z 1403/1506 25012KT P6SM BKN009 BKN200 FM140600 VRB03KT P6SM OVC007 FM141400 VRB03KT P6SM BKN012 FM141600 26006KT P6SM SCT012 SCT250 FM141900 26012KT P6SM SCT250 FM150300 26008KT P6SM FEW250",
      "groups": [
        {
          "text": "TAF KLAX 140304Z 1403/1506 25012KT P6SM BKN009 BKN200",
          "offset_h": -1,
          "wdir": 250,
          "wspd": 12
        },
        {
          "text": "FM140600 VRB03KT P6SM OVC007",
          "offset_h": 2,
          "wdir": "VRB",
          "wspd": 3
        },
        {
          "text": "FM141400 VRB03KT P6SM BKN012",
          "offset_h": 10,
          "wdir": "VRB",
          "wspd": 3
        },
        {
          "text": "FM141600 26006KT P6SM SCT012 SCT250",
          "offset_h": 12,
          "wdir": 260,
          "wspd": 6
        },
        {
          "text": "FM141900 26012KT P6SM SCT250",
          "offset_h": 15,
          "wdir": 260,
          "wspd": 12
        },
        {
          "text": "FM150300 26008KT P6SM FEW250",
          "offset_h": 23,
          "wdir": 260,
          "wspd": 8
        }
      ],
      "metar_raw": "METAR KLAX 140353Z 25008KT 10SM BKN009 20/18 A2996 RMK AO2 SLP141 T02000178 $",
      "metar_wdir": 250,
      "metar_wspd": 8,
      "metar_oat": 20,
      "metar_qnh": 1015,
      "hourly_oat": [
        20,
        19,
        19,
        18,
        18,
        18,
        18,
        18,
        18,
        18,
        19,
        20,
        21,
        21,
        22,
        23,
        23,
        24,
        23,
        23,
        22,
        22,
        21,
        21,
        20
      ]
    },
    "SHA": {
      "icao": "ZSSS",
      "issued": "2026-07-14T03:03:00.000Z",
      "raw": "TAF ZSSS 140303Z 1406/1512 21004MPS 8000 SCT020 TX37/1406Z TX35/1506Z TN29/1421Z",
      "groups": [
        {
          "text": "TAF ZSSS 140303Z 1406/1512 21004MPS 8000 SCT020 TX37/1406Z TX35/1506Z TN29/1421Z",
          "offset_h": 2,
          "wdir": null,
          "wspd": null
        }
      ],
      "metar_raw": "METAR ZSSS 140430Z 22005MPS 190V250 CAVOK 36/25 Q1003 NOSIG",
      "metar_wdir": null,
      "metar_wspd": null,
      "metar_oat": 36,
      "metar_qnh": 1003,
      "hourly_oat": [
        35,
        36,
        36,
        36,
        35,
        34,
        33,
        32,
        31,
        31,
        30,
        30,
        30,
        30,
        29,
        29,
        28,
        28,
        28,
        30,
        31,
        33,
        34,
        35,
        36
      ]
    },
    "PVG": {
      "icao": "ZSPD",
      "issued": "2026-07-14T03:03:00.000Z",
      "raw": "TAF ZSPD 140303Z 1406/1512 20004MPS 8000 SCT020 TX36/1406Z TX34/1506Z TN28/1421Z",
      "groups": [
        {
          "text": "TAF ZSPD 140303Z 1406/1512 20004MPS 8000 SCT020 TX36/1406Z TX34/1506Z TN28/1421Z",
          "offset_h": 2,
          "wdir": null,
          "wspd": null
        }
      ],
      "metar_raw": "METAR ZSPD 140430Z 19006MPS CAVOK 35/26 Q1004 NOSIG",
      "metar_wdir": null,
      "metar_wspd": null,
      "metar_oat": 35,
      "metar_qnh": 1004,
      "hourly_oat": [
        34,
        34,
        35,
        34,
        34,
        33,
        32,
        30,
        30,
        30,
        30,
        30,
        29,
        29,
        29,
        28,
        28,
        28,
        28,
        30,
        31,
        33,
        34,
        35,
        36
      ]
    },
    "PEK": {
      "icao": "ZBAA",
      "issued": "2026-07-14T03:00:00.000Z",
      "raw": "TAF ZBAA 140300Z 1406/1512 17004MPS CAVOK TX34/1406Z TX36/1506Z TN23/1421Z",
      "groups": [
        {
          "text": "TAF ZBAA 140300Z 1406/1512 17004MPS CAVOK TX34/1406Z TX36/1506Z TN23/1421Z",
          "offset_h": 2,
          "wdir": null,
          "wspd": null
        }
      ],
      "metar_raw": "METAR ZBAA 140430Z 01003MPS 340V040 CAVOK 32/21 Q1000 NOSIG",
      "metar_wdir": null,
      "metar_wspd": null,
      "metar_oat": 32,
      "metar_qnh": 1000,
      "hourly_oat": [
        30,
        32,
        32,
        32,
        32,
        32,
        31,
        29,
        27,
        27,
        27,
        26,
        26,
        25,
        25,
        24,
        23,
        22,
        22,
        24,
        27,
        29,
        30,
        32,
        33
      ]
    },
    "KUL": {
      "icao": "WMKK",
      "issued": "2026-07-14T02:46:00.000Z",
      "raw": "TAF AMD WMKK 140246Z 1402/1506 13009KT 9999 FEW018",
      "groups": [
        {
          "text": "TAF AMD WMKK 140246Z 1402/1506 13009KT 9999 FEW018",
          "offset_h": -2,
          "wdir": 130,
          "wspd": 9
        }
      ],
      "metar_raw": "METAR WMKK 140430Z 14006KT 080V250 9000 VCSH SCT018 31/25 Q1010 NOSIG",
      "metar_wdir": 140,
      "metar_wspd": 6,
      "metar_oat": 31,
      "metar_qnh": 1010,
      "hourly_oat": [
        30,
        31,
        31,
        31,
        31,
        30,
        30,
        28,
        27,
        27,
        27,
        27,
        27,
        27,
        26,
        26,
        26,
        26,
        25,
        25,
        26,
        27,
        28,
        29,
        30
      ]
    },
    "SAN": {
      "icao": "KSAN",
      "issued": "2026-07-14T02:33:00.000Z",
      "raw": "TAF KSAN 140233Z 1403/1506 VRB04KT P6SM BKN012 TEMPO 1403/1406 SCT012 FM140600 VRB03KT P6SM BKN012 BKN150 FM141000 VRB03KT P6SM OVC011 FM141600 22005KT P6SM SCT015 FM150300 VRB04KT P6SM FEW012",
      "groups": [
        {
          "text": "TAF KSAN 140233Z 1403/1506 VRB04KT P6SM BKN012",
          "offset_h": -1,
          "wdir": "VRB",
          "wspd": 4
        },
        {
          "text": "TEMPO 1403/1406 SCT012",
          "offset_h": -1,
          "wdir": null,
          "wspd": null
        },
        {
          "text": "FM140600 VRB03KT P6SM BKN012 BKN150",
          "offset_h": 2,
          "wdir": "VRB",
          "wspd": 3
        },
        {
          "text": "FM141000 VRB03KT P6SM OVC011",
          "offset_h": 6,
          "wdir": "VRB",
          "wspd": 3
        },
        {
          "text": "FM141600 22005KT P6SM SCT015",
          "offset_h": 12,
          "wdir": 220,
          "wspd": 5
        },
        {
          "text": "FM150300 VRB04KT P6SM FEW012",
          "offset_h": 23,
          "wdir": "VRB",
          "wspd": 4
        }
      ],
      "metar_raw": "METAR KSAN 140351Z 31003KT 10SM BKN013 BKN250 21/18 A2998 RMK AO2 SLP151 T02110178 $",
      "metar_wdir": 310,
      "metar_wspd": 3,
      "metar_oat": 21,
      "metar_qnh": 1015,
      "hourly_oat": [
        21,
        21,
        20,
        20,
        20,
        19,
        19,
        19,
        19,
        19,
        20,
        21,
        23,
        25,
        25,
        25,
        25,
        26,
        25,
        25,
        24,
        24,
        22,
        21,
        21
      ]
    },
    "HKG": {
      "icao": "VHHH",
      "issued": "2026-07-14T02:00:00.000Z",
      "raw": "TAF VHHH 140200Z 1403/1509 10010KT 9999 FEW015 SCT025 TX29/1406Z TX30/1506Z TN26/1422Z TEMPO 1403/1406 13020G30KT 1500 TSRA +SHRA FEW008CB SCT015 BECMG 1406/1408 19015KT TEMPO 1406/1412 19020G30KT 2000 +SHRA FEW010CB SCT020 TEMPO 1418/1421 20015G25KT 3000 SHRA FEW010CB SCT020 TEMPO 1421/1506 20015G25KT 2000 TSRA SHRA FEW008CB SCT020",
      "groups": [
        {
          "text": "TAF VHHH 140200Z 1403/1509 10010KT 9999 FEW015 SCT025 TX29/1406Z TX30/1506Z TN26/1422Z",
          "offset_h": -1,
          "wdir": 100,
          "wspd": 10
        },
        {
          "text": "TEMPO 1403/1406 13020G30KT 1500 TSRA +SHRA FEW008CB SCT015",
          "offset_h": -1,
          "wdir": 130,
          "wspd": 20
        },
        {
          "text": "BECMG 1406/1408 19015KT",
          "offset_h": 2,
          "wdir": 190,
          "wspd": 15
        },
        {
          "text": "TEMPO 1406/1412 19020G30KT 2000 +SHRA FEW010CB SCT020",
          "offset_h": 2,
          "wdir": 190,
          "wspd": 20
        },
        {
          "text": "TEMPO 1418/1421 20015G25KT 3000 SHRA FEW010CB SCT020",
          "offset_h": 14,
          "wdir": 200,
          "wspd": 15
        },
        {
          "text": "TEMPO 1421/1506 20015G25KT 2000 TSRA SHRA FEW008CB SCT020",
          "offset_h": 17,
          "wdir": 200,
          "wspd": 15
        }
      ],
      "metar_raw": "METAR VHHH 140430Z 15010KT 9999 SHRA FEW008 SCT017 28/26 Q1001 NOSIG",
      "metar_wdir": 150,
      "metar_wspd": 10,
      "metar_oat": 28,
      "metar_qnh": 1001,
      "hourly_oat": [
        28,
        29,
        28,
        28,
        28,
        28,
        28,
        27,
        27,
        27,
        27,
        28,
        26,
        26,
        26,
        26,
        26,
        26,
        26,
        26,
        26,
        27,
        28,
        27,
        29
      ]
    },
    "CTS": {
      "icao": "RJCC",
      "issued": "2026-07-14T01:21:00.000Z",
      "raw": "TAF AMD RJCC 140121Z 1401/1506 16010KT 9999 FEW007 BKN012 TEMPO 1401/1409 FEW004 BKN007 TEMPO 1409/1412 2000 BR FEW002 BKN005 TEMPO 1412/1500 1500 BR FEW001 BKN003 TEMPO 1500/1503 FEW002 BKN005",
      "groups": [
        {
          "text": "TAF AMD RJCC 140121Z 1401/1506 16010KT 9999 FEW007 BKN012",
          "offset_h": -3,
          "wdir": 160,
          "wspd": 10
        },
        {
          "text": "TEMPO 1401/1409 FEW004 BKN007",
          "offset_h": -3,
          "wdir": null,
          "wspd": null
        },
        {
          "text": "TEMPO 1409/1412 2000 BR FEW002 BKN005",
          "offset_h": 5,
          "wdir": null,
          "wspd": null
        },
        {
          "text": "TEMPO 1412/1500 1500 BR FEW001 BKN003",
          "offset_h": 8,
          "wdir": null,
          "wspd": null
        },
        {
          "text": "TEMPO 1500/1503 FEW002 BKN005",
          "offset_h": 20,
          "wdir": null,
          "wspd": null
        }
      ],
      "metar_raw": "METAR RJCC 140430Z 16007KT 8000 -SHRA FEW003 BKN005 BKN007 22/21 Q1004",
      "metar_wdir": 160,
      "metar_wspd": 7,
      "metar_oat": 22,
      "metar_qnh": 1004,
      "hourly_oat": [
        26,
        25,
        23,
        22,
        22,
        21,
        21,
        21,
        21,
        21,
        21,
        20,
        20,
        20,
        20,
        20,
        20,
        20,
        21,
        21,
        21,
        22,
        23,
        24,
        25
      ]
    },
    "HND": {
      "icao": "RJTT",
      "issued": "2026-07-13T23:05:00.000Z",
      "raw": "TAF RJTT 132305Z 1400/1506 19012KT 9999 FEW030",
      "groups": [
        {
          "text": "TAF RJTT 132305Z 1400/1506 19012KT 9999 FEW030",
          "offset_h": -4,
          "wdir": 190,
          "wspd": 12
        }
      ],
      "metar_raw": "METAR RJTT 140430Z 18013KT 9999 FEW030 BKN/// 34/22 Q1006 NOSIG",
      "metar_wdir": 180,
      "metar_wspd": 13,
      "metar_oat": 34,
      "metar_qnh": 1006,
      "hourly_oat": [
        30,
        30,
        30,
        29,
        28,
        28,
        27,
        26,
        26,
        26,
        26,
        25,
        25,
        25,
        25,
        25,
        25,
        25,
        26,
        27,
        28,
        29,
        29,
        30,
        31
      ]
    },
    "OKA": {
      "icao": "ROAH",
      "issued": "2026-07-13T23:05:00.000Z",
      "raw": "TAF ROAH 132305Z 1400/1506 19010KT 9999 FEW010 SCT015 TEMPO 1415/1500 FEW005 BKN008",
      "groups": [
        {
          "text": "TAF ROAH 132305Z 1400/1506 19010KT 9999 FEW010 SCT015",
          "offset_h": -4,
          "wdir": 190,
          "wspd": 10
        },
        {
          "text": "TEMPO 1415/1500 FEW005 BKN008",
          "offset_h": 11,
          "wdir": null,
          "wspd": null
        }
      ],
      "metar_raw": "METAR ROAH 140430Z 18012KT 9999 FEW010 SCT/// 30/25 Q1011",
      "metar_wdir": 180,
      "metar_wspd": 12,
      "metar_oat": 30,
      "metar_qnh": 1011,
      "hourly_oat": [
        30,
        29,
        29,
        29,
        28,
        28,
        27,
        27,
        26,
        26,
        26,
        26,
        26,
        26,
        26,
        26,
        26,
        26,
        27,
        27,
        28,
        28,
        29,
        29,
        29
      ]
    },
    "NGO": {
      "icao": "RJGG",
      "issued": "2026-07-13T23:05:00.000Z",
      "raw": "TAF RJGG 132305Z 1400/1506 31012KT 9999 FEW030 BECMG 1421/1500 21006KT",
      "groups": [
        {
          "text": "TAF RJGG 132305Z 1400/1506 31012KT 9999 FEW030",
          "offset_h": -4,
          "wdir": 310,
          "wspd": 12
        },
        {
          "text": "BECMG 1421/1500 21006KT",
          "offset_h": 17,
          "wdir": 210,
          "wspd": 6
        }
      ],
      "metar_raw": "METAR RJGG 140430Z 33012KT 9999 FEW020 BKN/// 31/24 Q1007 NOSIG",
      "metar_wdir": 330,
      "metar_wspd": 12,
      "metar_oat": 31,
      "metar_qnh": 1007,
      "hourly_oat": [
        30,
        30,
        30,
        30,
        30,
        30,
        29,
        29,
        28,
        28,
        28,
        27,
        27,
        27,
        27,
        26,
        26,
        26,
        26,
        26,
        27,
        27,
        28,
        28,
        29
      ]
    },
    "FUK": {
      "icao": "RJFF",
      "issued": "2026-07-13T23:05:00.000Z",
      "raw": "TAF RJFF 132305Z 1400/1506 18012KT 9999 FEW030",
      "groups": [
        {
          "text": "TAF RJFF 132305Z 1400/1506 18012KT 9999 FEW030",
          "offset_h": -4,
          "wdir": 180,
          "wspd": 12
        }
      ],
      "metar_raw": "METAR RJFF 140430Z 19009KT 150V220 9999 FEW035 SCT040 35/24 Q1009 NOSIG",
      "metar_wdir": 190,
      "metar_wspd": 9,
      "metar_oat": 35,
      "metar_qnh": 1009,
      "hourly_oat": [
        32,
        32,
        33,
        33,
        32,
        31,
        30,
        29,
        28,
        28,
        28,
        28,
        28,
        28,
        28,
        28,
        28,
        28,
        28,
        29,
        30,
        31,
        32,
        32,
        32
      ]
    },
    "NRT": {
      "icao": "RJAA",
      "issued": "2026-07-13T23:05:00.000Z",
      "raw": "TAF RJAA 132305Z 1400/1506 20004KT 9999 FEW030 SCT040 BECMG 1403/1405 14010KT",
      "groups": [
        {
          "text": "TAF RJAA 132305Z 1400/1506 20004KT 9999 FEW030 SCT040",
          "offset_h": -4,
          "wdir": 200,
          "wspd": 4
        },
        {
          "text": "BECMG 1403/1405 14010KT",
          "offset_h": -1,
          "wdir": 140,
          "wspd": 10
        }
      ],
      "metar_raw": "METAR RJAA 140430Z 13008KT 9999 FEW030 BKN/// 30/24 Q1006 NOSIG",
      "metar_wdir": 130,
      "metar_wspd": 8,
      "metar_oat": 30,
      "metar_qnh": 1006,
      "hourly_oat": [
        32,
        32,
        31,
        31,
        30,
        30,
        28,
        27,
        26,
        26,
        25,
        25,
        24,
        24,
        24,
        24,
        24,
        24,
        26,
        28,
        29,
        30,
        31,
        31,
        31
      ]
    },
    "KIX": {
      "icao": "RJBB",
      "issued": "2026-07-13T23:05:00.000Z",
      "raw": "TAF RJBB 132305Z 1400/1506 23006KT 9999 FEW030",
      "groups": [
        {
          "text": "TAF RJBB 132305Z 1400/1506 23006KT 9999 FEW030",
          "offset_h": -4,
          "wdir": 230,
          "wspd": 6
        }
      ],
      "metar_raw": "METAR RJBB 140430Z 26006KT 9999 FEW030 BKN/// 33/25 Q1008 NOSIG",
      "metar_wdir": 260,
      "metar_wspd": 6,
      "metar_oat": 33,
      "metar_qnh": 1008,
      "hourly_oat": [
        28,
        28,
        28,
        29,
        29,
        29,
        28,
        28,
        28,
        27,
        27,
        27,
        27,
        26,
        27,
        26,
        26,
        27,
        27,
        27,
        27,
        27,
        27,
        28,
        28
      ]
    },
    "ITM": {
      "icao": "RJOO",
      "issued": "2026-07-13T23:05:00.000Z",
      "raw": "TAF RJOO 132305Z 1400/1506 25004KT 9999 FEW030 BECMG 1400/1402 20006KT BECMG 1408/1410 03004KT",
      "groups": [
        {
          "text": "TAF RJOO 132305Z 1400/1506 25004KT 9999 FEW030",
          "offset_h": -4,
          "wdir": 250,
          "wspd": 4
        },
        {
          "text": "BECMG 1400/1402 20006KT",
          "offset_h": -4,
          "wdir": 200,
          "wspd": 6
        },
        {
          "text": "BECMG 1408/1410 03004KT",
          "offset_h": 4,
          "wdir": 30,
          "wspd": 4
        }
      ],
      "metar_raw": "METAR RJOO 140400Z 24006KT 170V290 9999 FEW035 BKN/// 34/24 Q1008",
      "metar_wdir": 240,
      "metar_wspd": 6,
      "metar_oat": 34,
      "metar_qnh": 1008,
      "hourly_oat": [
        32,
        32,
        32,
        32,
        32,
        32,
        31,
        30,
        29,
        28,
        28,
        27,
        26,
        26,
        26,
        26,
        25,
        25,
        27,
        28,
        29,
        30,
        30,
        31,
        31
      ]
    },
    "SIN": {
      "icao": "WSSS",
      "issued": "2026-07-13T23:00:00.000Z",
      "raw": "TAF WSSS 132300Z 1400/1506 16009KT 9999 FEW015 SCT020",
      "groups": [
        {
          "text": "TAF WSSS 132300Z 1400/1506 16009KT 9999 FEW015 SCT020",
          "offset_h": -4,
          "wdir": 160,
          "wspd": 9
        }
      ],
      "metar_raw": "METAR WSSS 140430Z 13010KT 9999 FEW020 BKN300 32/24 Q1011 NOSIG",
      "metar_wdir": 130,
      "metar_wspd": 10,
      "metar_oat": 32,
      "metar_qnh": 1011,
      "hourly_oat": [
        31,
        31,
        32,
        32,
        31,
        29,
        28,
        28,
        28,
        28,
        28,
        29,
        29,
        28,
        29,
        28,
        28,
        28,
        27,
        27,
        27,
        28,
        29,
        30,
        30
      ]
    },
    "TPE": {
      "icao": "RCTP",
      "issued": "2026-07-13T23:00:00.000Z",
      "raw": "TAF RCTP 132300Z 1400/1506 34007KT 9999 FEW015 TEMPO 1408/1413 13005KT 5000 SHRA FEW012 FEW015TCU BKN020 BECMG 1413/1415 15005KT BECMG 1500/1502 24010KT",
      "groups": [
        {
          "text": "TAF RCTP 132300Z 1400/1506 34007KT 9999 FEW015",
          "offset_h": -4,
          "wdir": 340,
          "wspd": 7
        },
        {
          "text": "TEMPO 1408/1413 13005KT 5000 SHRA FEW012 FEW015TCU BKN020",
          "offset_h": 4,
          "wdir": 130,
          "wspd": 5
        },
        {
          "text": "BECMG 1413/1415 15005KT",
          "offset_h": 9,
          "wdir": 150,
          "wspd": 5
        },
        {
          "text": "BECMG 1500/1502 24010KT",
          "offset_h": 20,
          "wdir": 240,
          "wspd": 10
        }
      ],
      "metar_raw": "METAR RCTP 140430Z 34007KT 300V020 9999 FEW020 BKN150 33/27 Q1009 NOSIG RMK A2980",
      "metar_wdir": 340,
      "metar_wspd": 7,
      "metar_oat": 33,
      "metar_qnh": 1009,
      "hourly_oat": [
        30,
        30,
        30,
        30,
        30,
        29,
        29,
        28,
        28,
        27,
        27,
        27,
        26,
        26,
        26,
        26,
        26,
        25,
        26,
        28,
        29,
        30,
        31,
        31,
        30
      ]
    },
    "GMP": {
      "icao": "RKSS",
      "issued": "2026-07-13T23:00:00.000Z",
      "raw": "TAF RKSS 132300Z 1400/1506 17008G20KT 9999 BKN030 BKN080 TX31/1404Z TN24/1420Z TX30/1506Z BECMG 1403/1405 18015G35KT 6000 -RA FEW010 BKN020 OVC070 BECMG 1407/1409 4000 RA TEMPO 1410/1415 21016G35KT 2500 +RA SCT008CB BKN020 OVC060 BECMG 1417/1419 25008KT 6000 NSW BECMG 1503/1505 SCT030",
      "groups": [
        {
          "text": "TAF RKSS 132300Z 1400/1506 17008G20KT 9999 BKN030 BKN080 TX31/1404Z TN24/1420Z TX30/1506Z",
          "offset_h": -4,
          "wdir": 170,
          "wspd": 8
        },
        {
          "text": "BECMG 1403/1405 18015G35KT 6000 -RA FEW010 BKN020 OVC070",
          "offset_h": -1,
          "wdir": 180,
          "wspd": 15
        },
        {
          "text": "BECMG 1407/1409 4000 RA",
          "offset_h": 3,
          "wdir": null,
          "wspd": null
        },
        {
          "text": "TEMPO 1410/1415 21016G35KT 2500 +RA SCT008CB BKN020 OVC060",
          "offset_h": 6,
          "wdir": 210,
          "wspd": 16
        },
        {
          "text": "BECMG 1417/1419 25008KT 6000 NSW",
          "offset_h": 13,
          "wdir": 250,
          "wspd": 8
        },
        {
          "text": "BECMG 1503/1505 SCT030",
          "offset_h": 23,
          "wdir": null,
          "wspd": null
        }
      ],
      "metar_raw": "METAR RKSS 140400Z 17012KT 9999 BKN035 31/26 Q1003 NOSIG",
      "metar_wdir": 170,
      "metar_wspd": 12,
      "metar_oat": 31,
      "metar_qnh": 1003,
      "hourly_oat": [
        31,
        30,
        30,
        29,
        27,
        26,
        26,
        26,
        26,
        25,
        25,
        25,
        25,
        25,
        25,
        25,
        25,
        25,
        25,
        25,
        25,
        26,
        27,
        28,
        29
      ]
    },
    "CGK": {
      "icao": "WIII",
      "issued": "2026-07-13T23:00:00.000Z",
      "raw": "TAF WIII 132300Z 1400/1506 15006KT 3000 HZ SCT020 BECMG 1401/1403 05014KT 8000 NSW BECMG 1414/1416 13007KT",
      "groups": [
        {
          "text": "TAF WIII 132300Z 1400/1506 15006KT 3000 HZ SCT020",
          "offset_h": -4,
          "wdir": 150,
          "wspd": 6
        },
        {
          "text": "BECMG 1401/1403 05014KT 8000 NSW",
          "offset_h": -3,
          "wdir": 50,
          "wspd": 14
        },
        {
          "text": "BECMG 1414/1416 13007KT",
          "offset_h": 10,
          "wdir": 130,
          "wspd": 7
        }
      ],
      "metar_raw": "METAR WIII 140430Z 05011KT 8000 FEW020 32/22 Q1011 NOSIG",
      "metar_wdir": 50,
      "metar_wspd": 11,
      "metar_oat": 32,
      "metar_qnh": 1011,
      "hourly_oat": [
        33,
        34,
        33,
        32,
        32,
        31,
        30,
        29,
        28,
        28,
        28,
        27,
        27,
        26,
        26,
        26,
        25,
        25,
        25,
        25,
        25,
        28,
        30,
        32,
        33
      ]
    },
    "BKK": {
      "icao": "VTBS",
      "issued": "2026-07-13T23:00:00.000Z",
      "raw": "TAF VTBS 132300Z 1400/1506 21008KT 9999 FEW020 TEMPO 1406/1412 VRB15G25KT 4000 TSRA FEW018CB SCT030 BKN100",
      "groups": [
        {
          "text": "TAF VTBS 132300Z 1400/1506 21008KT 9999 FEW020",
          "offset_h": -4,
          "wdir": 210,
          "wspd": 8
        },
        {
          "text": "TEMPO 1406/1412 VRB15G25KT 4000 TSRA FEW018CB SCT030 BKN100",
          "offset_h": 2,
          "wdir": "VRB",
          "wspd": 15
        }
      ],
      "metar_raw": "METAR VTBS 140430Z 23011KT 9999 FEW020 SCT035 32/22 Q1008 NOSIG",
      "metar_wdir": 230,
      "metar_wspd": 11,
      "metar_oat": 32,
      "metar_qnh": 1008,
      "hourly_oat": [
        28,
        28,
        30,
        30,
        29,
        28,
        29,
        27,
        26,
        26,
        26,
        26,
        26,
        26,
        26,
        26,
        26,
        26,
        26,
        26,
        27,
        28,
        28,
        29,
        29
      ]
    },
    "HAN": {
      "icao": "VVNB",
      "issued": "2026-07-13T23:00:00.000Z",
      "raw": "TAF VVNB 132300Z 1400/1424 08006KT 9999 FEW025 PROB30 TEMPO 1408/1412 4000 TSRA SCT010 FEW027CB",
      "groups": [
        {
          "text": "TAF VVNB 132300Z 1400/1424 08006KT 9999 FEW025",
          "offset_h": -4,
          "wdir": 80,
          "wspd": 6
        },
        {
          "text": "PROB30",
          "offset_h": 0,
          "wdir": null,
          "wspd": null
        },
        {
          "text": "TEMPO 1408/1412 4000 TSRA SCT010 FEW027CB",
          "offset_h": 4,
          "wdir": null,
          "wspd": null
        }
      ],
      "metar_raw": "METAR VVNB 140430Z VRB03KT 9999 FEW030 35/27 Q1002 NOSIG",
      "metar_wdir": "VRB",
      "metar_wspd": 3,
      "metar_oat": 35,
      "metar_qnh": 1002,
      "hourly_oat": [
        33,
        34,
        34,
        35,
        34,
        34,
        34,
        32,
        31,
        30,
        29,
        29,
        29,
        28,
        28,
        28,
        27,
        27,
        27,
        27,
        28,
        30,
        31,
        32,
        33
      ]
    },
    "SGN": {
      "icao": "VVTS",
      "issued": "2026-07-13T23:00:00.000Z",
      "raw": "TAF VVTS 132300Z 1400/1506 24010KT 9999 SCT017 TEMPO 1402/1405 24015G25KT 5000 TSRA BKN015 FEW017CB TEMPO 1405/1410 24018G30KT 2500 +TSRA BKN015 SCT017CB",
      "groups": [
        {
          "text": "TAF VVTS 132300Z 1400/1506 24010KT 9999 SCT017",
          "offset_h": -4,
          "wdir": 240,
          "wspd": 10
        },
        {
          "text": "TEMPO 1402/1405 24015G25KT 5000 TSRA BKN015 FEW017CB",
          "offset_h": -2,
          "wdir": 240,
          "wspd": 15
        },
        {
          "text": "TEMPO 1405/1410 24018G30KT 2500 +TSRA BKN015 SCT017CB",
          "offset_h": 1,
          "wdir": 240,
          "wspd": 18
        }
      ],
      "metar_raw": "METAR VVTS 140430Z 25012KT 220V290 9999 SCT039 32/24 Q1009 NOSIG",
      "metar_wdir": 250,
      "metar_wspd": 12,
      "metar_oat": 32,
      "metar_qnh": 1009,
      "hourly_oat": [
        31,
        31,
        28,
        28,
        29,
        26,
        27,
        26,
        26,
        26,
        26,
        26,
        26,
        26,
        25,
        25,
        25,
        25,
        25,
        25,
        26,
        28,
        28,
        30,
        31
      ]
    },
    "TSA": {
      "icao": "RCSS",
      "issued": "2026-07-13T23:00:00.000Z",
      "raw": "TAF RCSS 132300Z 1400/1424 09005KT 9999 FEW015 TEMPO 1400/1406 30005KT TEMPO 1406/1410 22010KT 4000 TSRA FEW012 FEW015CB BKN020",
      "groups": [
        {
          "text": "TAF RCSS 132300Z 1400/1424 09005KT 9999 FEW015",
          "offset_h": -4,
          "wdir": 90,
          "wspd": 5
        },
        {
          "text": "TEMPO 1400/1406 30005KT",
          "offset_h": -4,
          "wdir": 300,
          "wspd": 5
        },
        {
          "text": "TEMPO 1406/1410 22010KT 4000 TSRA FEW012 FEW015CB BKN020",
          "offset_h": 2,
          "wdir": 220,
          "wspd": 10
        }
      ],
      "metar_raw": "METAR RCSS 140430Z 27007KT 240V300 9999 FEW015 SCT025 35/28 Q1007 NOSIG RMK 29009KT/R10 A2976",
      "metar_wdir": 270,
      "metar_wspd": 7,
      "metar_oat": 35,
      "metar_qnh": 1007,
      "hourly_oat": [
        33,
        30,
        31,
        32,
        32,
        31,
        30,
        28,
        28,
        28,
        27,
        27,
        26,
        26,
        26,
        26,
        26,
        26,
        26,
        28,
        29,
        31,
        32,
        33,
        33
      ]
    }
  }
}