{
  "updated": "2026-07-10T22:00:46Z",
  "tafs": {
    "SHA": {
      "icao": "ZSSS",
      "issued": "2026-07-10T21:21:00.000Z",
      "raw": "TAF ZSSS 102121Z 1100/1206 08004MPS 8000 BKN020 TX32/1106Z TX31/1206Z TN26/1121Z BECMG 1103/1104 09009G15MPS TEMPO 1123/1204 SHRA BKN010 FEW030CB",
      "groups": [
        {
          "text": "TAF ZSSS 102121Z 1100/1206 08004MPS 8000 BKN020 TX32/1106Z TX31/1206Z TN26/1121Z",
          "offset_h": 2,
          "wdir": null,
          "wspd": null
        },
        {
          "text": "BECMG 1103/1104 09009G15MPS",
          "offset_h": 5,
          "wdir": null,
          "wspd": null
        },
        {
          "text": "TEMPO 1123/1204 SHRA BKN010 FEW030CB",
          "offset_h": 25,
          "wdir": null,
          "wspd": null
        }
      ],
      "metar_raw": "METAR ZSSS 102130Z 09005MPS 9999 BKN016 28/25 Q1004 NOSIG",
      "metar_wdir": null,
      "metar_wspd": null,
      "metar_oat": 28,
      "metar_qnh": 1004,
      "hourly_oat": [
        27,
        28,
        28,
        30,
        31,
        32,
        32,
        32,
        31,
        31,
        30,
        30,
        29,
        29,
        28,
        28,
        28,
        27,
        28,
        27,
        27,
        27,
        27,
        27,
        27
      ]
    },
    "PVG": {
      "icao": "ZSPD",
      "issued": "2026-07-10T21:19:00.000Z",
      "raw": "TAF ZSPD 102119Z 1100/1206 08009G15MPS 8000 BKN015 TX30/1106Z TX29/1206Z TN25/1121Z BECMG 1107/1108 09015G22MPS TEMPO 1122/1203 SHRA BKN008 FEW030CB",
      "groups": [
        {
          "text": "TAF ZSPD 102119Z 1100/1206 08009G15MPS 8000 BKN015 TX30/1106Z TX29/1206Z TN25/1121Z",
          "offset_h": 2,
          "wdir": null,
          "wspd": null
        },
        {
          "text": "BECMG 1107/1108 09015G22MPS",
          "offset_h": 9,
          "wdir": null,
          "wspd": null
        },
        {
          "text": "TEMPO 1122/1203 SHRA BKN008 FEW030CB",
          "offset_h": 24,
          "wdir": null,
          "wspd": null
        }
      ],
      "metar_raw": "METAR ZSPD 102130Z 07006MPS 9999 BKN009 27/27 Q1004 NOSIG",
      "metar_wdir": null,
      "metar_wspd": null,
      "metar_oat": 27,
      "metar_qnh": 1004,
      "hourly_oat": [
        28,
        28,
        29,
        29,
        30,
        30,
        30,
        30,
        29,
        29,
        29,
        28,
        28,
        28,
        28,
        28,
        28,
        28,
        28,
        28,
        27,
        27,
        26,
        27,
        27
      ]
    },
    "DLC": {
      "icao": "ZYTL",
      "issued": "2026-07-10T21:12:00.000Z",
      "raw": "TAF ZYTL 102112Z 1100/1124 15004MPS 5000 BR SCT020 TX29/1106Z TN25/1120Z",
      "groups": [
        {
          "text": "TAF ZYTL 102112Z 1100/1124 15004MPS 5000 BR SCT020 TX29/1106Z TN25/1120Z",
          "offset_h": 2,
          "wdir": null,
          "wspd": null
        }
      ],
      "metar_raw": "METAR ZYTL 102130Z 17005MPS 130V200 9999 FEW009 SCT026 24/23 Q1006 NOSIG",
      "metar_wdir": null,
      "metar_wspd": null,
      "metar_oat": 24,
      "metar_qnh": 1006,
      "hourly_oat": [
        25,
        25,
        26,
        26,
        27,
        28,
        30,
        30,
        30,
        30,
        30,
        29,
        28,
        27,
        26,
        26,
        25,
        25,
        25,
        25,
        25,
        24,
        24,
        24,
        25
      ]
    },
    "PEK": {
      "icao": "ZBAA",
      "issued": "2026-07-10T21:07:00.000Z",
      "raw": "TAF ZBAA 102107Z 1100/1206 16003MPS 3500 BR NSC TX29/1106Z TX28/1206Z TN24/1121Z TEMPO 1107/1113 -TSRA SCT040CB BKN040 TEMPO 1113/1119 TSRA SCT040CB BKN040",
      "groups": [
        {
          "text": "TAF ZBAA 102107Z 1100/1206 16003MPS 3500 BR NSC TX29/1106Z TX28/1206Z TN24/1121Z",
          "offset_h": 2,
          "wdir": null,
          "wspd": null
        },
        {
          "text": "TEMPO 1107/1113 -TSRA SCT040CB BKN040",
          "offset_h": 9,
          "wdir": null,
          "wspd": null
        },
        {
          "text": "TEMPO 1113/1119 TSRA SCT040CB BKN040",
          "offset_h": 15,
          "wdir": null,
          "wspd": null
        }
      ],
      "metar_raw": "METAR ZBAA 102130Z 00000MPS 8000 SCT010 OVC040 25/25 Q1001 NOSIG",
      "metar_wdir": null,
      "metar_wspd": null,
      "metar_oat": 25,
      "metar_qnh": 1001,
      "hourly_oat": [
        24,
        24,
        25,
        26,
        27,
        28,
        28,
        29,
        29,
        28,
        27,
        27,
        26,
        26,
        25,
        25,
        25,
        25,
        25,
        24,
        24,
        24,
        24,
        24,
        24
      ]
    },
    "CAN": {
      "icao": "ZGGG",
      "issued": "2026-07-10T21:02:00.000Z",
      "raw": "TAF ZGGG 102102Z 1100/1206 19003MPS 8000 SCT040 TX37/1107Z TX37/1206Z TN27/1122Z",
      "groups": [
        {
          "text": "TAF ZGGG 102102Z 1100/1206 19003MPS 8000 SCT040 TX37/1107Z TX37/1206Z TN27/1122Z",
          "offset_h": 2,
          "wdir": null,
          "wspd": null
        }
      ],
      "metar_raw": "METAR ZGGG 102130Z 05003MPS CAVOK 27/25 Q1000 NOSIG",
      "metar_wdir": null,
      "metar_wspd": null,
      "metar_oat": 27,
      "metar_qnh": 1000,
      "hourly_oat": [
        26,
        27,
        29,
        30,
        31,
        33,
        34,
        35,
        35,
        35,
        35,
        35,
        34,
        32,
        31,
        30,
        30,
        30,
        29,
        28,
        28,
        28,
        27,
        27,
        27
      ]
    },
    "LAX": {
      "icao": "KLAX",
      "issued": "2026-07-10T20:56:00.000Z",
      "raw": "TAF KLAX 102056Z 1021/1124 25012KT P6SM SKC FM110400 25006KT P6SM OVC008 FM111100 13005KT 4SM BR FEW005 OVC007 FM111700 25008KT P6SM SCT010",
      "groups": [
        {
          "text": "TAF KLAX 102056Z 1021/1124 25012KT P6SM SKC",
          "offset_h": -1,
          "wdir": 250,
          "wspd": 12
        },
        {
          "text": "FM110400 25006KT P6SM OVC008",
          "offset_h": 6,
          "wdir": 250,
          "wspd": 6
        },
        {
          "text": "FM111100 13005KT 4SM BR FEW005 OVC007",
          "offset_h": 13,
          "wdir": 130,
          "wspd": 5
        },
        {
          "text": "FM111700 25008KT P6SM SCT010",
          "offset_h": 19,
          "wdir": 250,
          "wspd": 8
        }
      ],
      "metar_raw": "METAR KLAX 102153Z 27011KT 10SM FEW010 FEW014 22/16 A2990 RMK AO2 SLP122 T02220161 $",
      "metar_wdir": 270,
      "metar_wspd": 11,
      "metar_oat": 22,
      "metar_qnh": 1013,
      "hourly_oat": [
        23,
        23,
        22,
        21,
        20,
        19,
        18,
        18,
        18,
        18,
        18,
        18,
        18,
        17,
        17,
        17,
        18,
        19,
        20,
        20,
        21,
        23,
        25,
        24,
        23
      ]
    },
    "HNL": {
      "icao": "PHNL",
      "issued": "2026-07-10T20:55:00.000Z",
      "raw": "TAF PHNL 102055Z 1021/1124 07015G25KT P6SM FEW025 SCT040 FM110600 06012KT P6SM FEW025 SCT040 FM112000 06015G25KT P6SM FEW025 SCT040",
      "groups": [
        {
          "text": "TAF PHNL 102055Z 1021/1124 07015G25KT P6SM FEW025 SCT040",
          "offset_h": -1,
          "wdir": 70,
          "wspd": 15
        },
        {
          "text": "FM110600 06012KT P6SM FEW025 SCT040",
          "offset_h": 8,
          "wdir": 60,
          "wspd": 12
        },
        {
          "text": "FM112000 06015G25KT P6SM FEW025 SCT040",
          "offset_h": 22,
          "wdir": 60,
          "wspd": 15
        }
      ],
      "metar_raw": "METAR PHNL 102153Z 07015G25KT 10SM FEW025 SCT041 31/19 A3010 RMK AO2 SLP192 T03060189 $",
      "metar_wdir": 70,
      "metar_wspd": 15,
      "metar_oat": 31,
      "metar_qnh": 1019,
      "hourly_oat": [
        29,
        29,
        29,
        29,
        28,
        27,
        26,
        25,
        25,
        25,
        24,
        24,
        24,
        24,
        23,
        23,
        23,
        23,
        23,
        24,
        25,
        26,
        27,
        28,
        28
      ]
    },
    "SAN": {
      "icao": "KSAN",
      "issued": "2026-07-10T20:35:00.000Z",
      "raw": "TAF KSAN 102035Z 1021/1124 21010KT P6SM FEW015 FM110300 20006KT P6SM OVC012 FM110700 VRB04KT P6SM OVC008 FM111300 VRB04KT P6SM OVC013 FM111800 20009KT P6SM SCT015",
      "groups": [
        {
          "text": "TAF KSAN 102035Z 1021/1124 21010KT P6SM FEW015",
          "offset_h": -1,
          "wdir": 210,
          "wspd": 10
        },
        {
          "text": "FM110300 20006KT P6SM OVC012",
          "offset_h": 5,
          "wdir": 200,
          "wspd": 6
        },
        {
          "text": "FM110700 VRB04KT P6SM OVC008",
          "offset_h": 9,
          "wdir": "VRB",
          "wspd": 4
        },
        {
          "text": "FM111300 VRB04KT P6SM OVC013",
          "offset_h": 15,
          "wdir": "VRB",
          "wspd": 4
        },
        {
          "text": "FM111800 20009KT P6SM SCT015",
          "offset_h": 20,
          "wdir": 200,
          "wspd": 9
        }
      ],
      "metar_raw": "METAR KSAN 102151Z 21008G18KT 10SM FEW017 FEW250 23/16 A2991 RMK AO2 SLP127 T02280161 $",
      "metar_wdir": 210,
      "metar_wspd": 8,
      "metar_oat": 23,
      "metar_qnh": 1013,
      "hourly_oat": [
        22,
        21,
        21,
        20,
        19,
        18,
        18,
        18,
        18,
        18,
        18,
        17,
        17,
        17,
        17,
        17,
        17,
        18,
        19,
        20,
        21,
        21,
        23,
        24,
        21
      ]
    },
    "HKG": {
      "icao": "VHHH",
      "issued": "2026-07-10T20:00:00.000Z",
      "raw": "TAF VHHH 102000Z 1021/1203 28010KT 9999 FEW015 TX34/1106Z TN28/1022Z TN29/1122Z TEMPO 1103/1108 4000 HZ BECMG 1110/1112 22015KT",
      "groups": [
        {
          "text": "TAF VHHH 102000Z 1021/1203 28010KT 9999 FEW015 TX34/1106Z TN28/1022Z TN29/1122Z",
          "offset_h": -1,
          "wdir": 280,
          "wspd": 10
        },
        {
          "text": "TEMPO 1103/1108 4000 HZ",
          "offset_h": 5,
          "wdir": null,
          "wspd": null
        },
        {
          "text": "BECMG 1110/1112 22015KT",
          "offset_h": 12,
          "wdir": 220,
          "wspd": 15
        }
      ],
      "metar_raw": "METAR VHHH 102130Z VRB01KT 9999 FEW010 27/24 Q1000 NOSIG",
      "metar_wdir": "VRB",
      "metar_wspd": 1,
      "metar_oat": 27,
      "metar_qnh": 1000,
      "hourly_oat": [
        28,
        28,
        29,
        29,
        29,
        30,
        30,
        31,
        31,
        31,
        30,
        30,
        29,
        29,
        29,
        29,
        29,
        29,
        29,
        29,
        29,
        29,
        28,
        28,
        28
      ]
    },
    "KIX": {
      "icao": "RJBB",
      "issued": "2026-07-10T17:35:00.000Z",
      "raw": "TAF AMD RJBB 101735Z 1018/1200 20006KT 9999 FEW020 SCT030 BECMG 1019/1021 08004KT BECMG 1100/1102 25012KT BECMG 1112/1115 19012KT",
      "groups": [
        {
          "text": "TAF AMD RJBB 101735Z 1018/1200 20006KT 9999 FEW020 SCT030",
          "offset_h": -4,
          "wdir": 200,
          "wspd": 6
        },
        {
          "text": "BECMG 1019/1021 08004KT",
          "offset_h": -3,
          "wdir": 80,
          "wspd": 4
        },
        {
          "text": "BECMG 1100/1102 25012KT",
          "offset_h": 2,
          "wdir": 250,
          "wspd": 12
        },
        {
          "text": "BECMG 1112/1115 19012KT",
          "offset_h": 14,
          "wdir": 190,
          "wspd": 12
        }
      ],
      "metar_raw": "METAR RJBB 102130Z 16003KT 090V190 9999 FEW002 SCT/// 26/21 Q1015 NOSIG",
      "metar_wdir": 160,
      "metar_wspd": 3,
      "metar_oat": 26,
      "metar_qnh": 1015,
      "hourly_oat": [
        25,
        25,
        25,
        25,
        26,
        26,
        26,
        26,
        26,
        26,
        26,
        26,
        26,
        26,
        26,
        26,
        26,
        26,
        25,
        25,
        25,
        25,
        25,
        25,
        26
      ]
    },
    "OKA": {
      "icao": "ROAH",
      "issued": "2026-07-10T17:13:00.000Z",
      "raw": "TAF ROAH 101713Z 1018/1200 12040KT 6000 -SHRA FEW008 BKN012 TEMPO 1018/1103 12045G60KT 2000 +SHRA BR FEW005 BKN008 SCT015CB TEMPO 1103/1109 14045G60KT 4000 SHRA BR FEW005 BKN008 FEW015CB TEMPO 1109/1115 15035G50KT BECMG 1112/1115 17026KT",
      "groups": [
        {
          "text": "TAF ROAH 101713Z 1018/1200 12040KT 6000 -SHRA FEW008 BKN012",
          "offset_h": -4,
          "wdir": 120,
          "wspd": 40
        },
        {
          "text": "TEMPO 1018/1103 12045G60KT 2000 +SHRA BR FEW005 BKN008 SCT015CB",
          "offset_h": -4,
          "wdir": 120,
          "wspd": 45
        },
        {
          "text": "TEMPO 1103/1109 14045G60KT 4000 SHRA BR FEW005 BKN008 FEW015CB",
          "offset_h": 5,
          "wdir": 140,
          "wspd": 45
        },
        {
          "text": "TEMPO 1109/1115 15035G50KT",
          "offset_h": 11,
          "wdir": 150,
          "wspd": 35
        },
        {
          "text": "BECMG 1112/1115 17026KT",
          "offset_h": 14,
          "wdir": 170,
          "wspd": 26
        }
      ],
      "metar_raw": "METAR ROAH 102130Z 13038G54KT 6000 -SHRA FEW015 SCT020 BKN050 26/25 Q0993",
      "metar_wdir": 130,
      "metar_wspd": 38,
      "metar_oat": 26,
      "metar_qnh": 993,
      "hourly_oat": [
        28,
        28,
        28,
        28,
        27,
        26,
        28,
        28,
        28,
        28,
        28,
        28,
        28,
        28,
        28,
        28,
        28,
        27,
        27,
        27,
        27,
        27,
        27,
        27,
        27
      ]
    },
    "NGO": {
      "icao": "RJGG",
      "issued": "2026-07-10T17:05:00.000Z",
      "raw": "TAF RJGG 101705Z 1018/1200 20006KT 9999 FEW015 BKN030 BECMG 1109/1112 14012KT BECMG 1115/1118 01004KT",
      "groups": [
        {
          "text": "TAF RJGG 101705Z 1018/1200 20006KT 9999 FEW015 BKN030",
          "offset_h": -4,
          "wdir": 200,
          "wspd": 6
        },
        {
          "text": "BECMG 1109/1112 14012KT",
          "offset_h": 11,
          "wdir": 140,
          "wspd": 12
        },
        {
          "text": "BECMG 1115/1118 01004KT",
          "offset_h": 17,
          "wdir": 10,
          "wspd": 4
        }
      ],
      "metar_raw": "METAR RJGG 102130Z 14004KT 100V190 9999 FEW005 SCT010 BKN020 25/23 Q1015 TEMPO TL2300 FEW003 BKN012",
      "metar_wdir": 140,
      "metar_wspd": 4,
      "metar_oat": 25,
      "metar_qnh": 1015,
      "hourly_oat": [
        24,
        24,
        24,
        24,
        24,
        25,
        26,
        26,
        26,
        26,
        26,
        26,
        26,
        25,
        25,
        25,
        25,
        25,
        24,
        24,
        24,
        24,
        24,
        24,
        24
      ]
    },
    "CTS": {
      "icao": "RJCC",
      "issued": "2026-07-10T17:05:00.000Z",
      "raw": "TAF RJCC 101705Z 1018/1200 17010KT 6000 FEW001 BKN012 TEMPO 1018/1100 0700 -SHRA FG VV001 TEMPO 1100/1106 2000 SHRA BR FEW002 BKN004 TEMPO 1106/1109 4000 -SHRA BR FEW002 BKN005 TEMPO 1109/1112 1500 -SHRA BR FEW001 BKN003 TEMPO 1112/1200 0700 -SHRA FG VV001",
      "groups": [
        {
          "text": "TAF RJCC 101705Z 1018/1200 17010KT 6000 FEW001 BKN012",
          "offset_h": -4,
          "wdir": 170,
          "wspd": 10
        },
        {
          "text": "TEMPO 1018/1100 0700 -SHRA FG VV001",
          "offset_h": -4,
          "wdir": null,
          "wspd": null
        },
        {
          "text": "TEMPO 1100/1106 2000 SHRA BR FEW002 BKN004",
          "offset_h": 2,
          "wdir": null,
          "wspd": null
        },
        {
          "text": "TEMPO 1106/1109 4000 -SHRA BR FEW002 BKN005",
          "offset_h": 8,
          "wdir": null,
          "wspd": null
        },
        {
          "text": "TEMPO 1109/1112 1500 -SHRA BR FEW001 BKN003",
          "offset_h": 11,
          "wdir": null,
          "wspd": null
        },
        {
          "text": "TEMPO 1112/1200 0700 -SHRA FG VV001",
          "offset_h": 14,
          "wdir": null,
          "wspd": null
        }
      ],
      "metar_raw": "METAR RJCC 102130Z 16008KT 1600 BCFG BR FEW001 BKN002 BKN003 21/21 Q1011",
      "metar_wdir": 160,
      "metar_wspd": 8,
      "metar_oat": 21,
      "metar_qnh": 1011,
      "hourly_oat": [
        21,
        22,
        22,
        24,
        24,
        25,
        26,
        26,
        25,
        24,
        23,
        22,
        21,
        20,
        20,
        20,
        20,
        19,
        19,
        19,
        19,
        19,
        19,
        20,
        22
      ]
    },
    "FUK": {
      "icao": "RJFF",
      "issued": "2026-07-10T17:05:00.000Z",
      "raw": "TAF RJFF 101705Z 1018/1200 15008KT 9999 FEW025 BECMG 1101/1103 33011KT BECMG 1106/1109 15006KT",
      "groups": [
        {
          "text": "TAF RJFF 101705Z 1018/1200 15008KT 9999 FEW025",
          "offset_h": -4,
          "wdir": 150,
          "wspd": 8
        },
        {
          "text": "BECMG 1101/1103 33011KT",
          "offset_h": 3,
          "wdir": 330,
          "wspd": 11
        },
        {
          "text": "BECMG 1106/1109 15006KT",
          "offset_h": 8,
          "wdir": 150,
          "wspd": 6
        }
      ],
      "metar_raw": "METAR RJFF 102130Z 14003KT 110V180 9999 FEW015 BKN/// 27/23 Q1011 NOSIG",
      "metar_wdir": 140,
      "metar_wspd": 3,
      "metar_oat": 27,
      "metar_qnh": 1011,
      "hourly_oat": [
        26,
        28,
        30,
        32,
        33,
        33,
        33,
        34,
        34,
        34,
        34,
        33,
        32,
        32,
        30,
        30,
        29,
        28,
        28,
        27,
        27,
        26,
        26,
        26,
        27
      ]
    },
    "NRT": {
      "icao": "RJAA",
      "issued": "2026-07-10T17:05:00.000Z",
      "raw": "TAF RJAA 101705Z 1018/1200 16008KT 9999 FEW015 SCT030",
      "groups": [
        {
          "text": "TAF RJAA 101705Z 1018/1200 16008KT 9999 FEW015 SCT030",
          "offset_h": -4,
          "wdir": 160,
          "wspd": 8
        }
      ],
      "metar_raw": "METAR RJAA 102130Z 20003KT 150V230 9999 FEW020 BKN/// 24/22 Q1015 NOSIG",
      "metar_wdir": 200,
      "metar_wspd": 3,
      "metar_oat": 24,
      "metar_qnh": 1015,
      "hourly_oat": [
        24,
        25,
        27,
        28,
        29,
        29,
        29,
        28,
        28,
        28,
        27,
        27,
        25,
        25,
        24,
        24,
        24,
        23,
        23,
        23,
        23,
        23,
        23,
        23,
        24
      ]
    },
    "HND": {
      "icao": "RJTT",
      "issued": "2026-07-10T17:05:00.000Z",
      "raw": "TAF RJTT 101705Z 1018/1200 19014KT 9999 FEW015",
      "groups": [
        {
          "text": "TAF RJTT 101705Z 1018/1200 19014KT 9999 FEW015",
          "offset_h": -4,
          "wdir": 190,
          "wspd": 14
        }
      ],
      "metar_raw": "METAR RJTT 102130Z 20010KT 9999 FEW010 SCT017 BKN/// 26/23 Q1015 NOSIG",
      "metar_wdir": 200,
      "metar_wspd": 10,
      "metar_oat": 26,
      "metar_qnh": 1015,
      "hourly_oat": [
        25,
        26,
        27,
        27,
        28,
        28,
        27,
        27,
        26,
        26,
        26,
        25,
        25,
        25,
        25,
        25,
        24,
        24,
        24,
        24,
        24,
        24,
        24,
        24,
        25
      ]
    },
    "ITM": {
      "icao": "RJOO",
      "issued": "2026-07-10T17:05:00.000Z",
      "raw": "TAF RJOO 101705Z 1018/1200 36004KT 9999 FEW015 SCT030 BECMG 1022/1100 22006KT BECMG 1106/1109 26006KT BECMG 1121/1200 22006KT",
      "groups": [
        {
          "text": "TAF RJOO 101705Z 1018/1200 36004KT 9999 FEW015 SCT030",
          "offset_h": -4,
          "wdir": 360,
          "wspd": 4
        },
        {
          "text": "BECMG 1022/1100 22006KT",
          "offset_h": 0,
          "wdir": 220,
          "wspd": 6
        },
        {
          "text": "BECMG 1106/1109 26006KT",
          "offset_h": 8,
          "wdir": 260,
          "wspd": 6
        },
        {
          "text": "BECMG 1121/1200 22006KT",
          "offset_h": 23,
          "wdir": 220,
          "wspd": 6
        }
      ],
      "metar_raw": "METAR RJOO 102100Z AUTO VRB03KT 9999 SCT031 BKN037 BKN047 26/22 Q1015",
      "metar_wdir": "VRB",
      "metar_wspd": 3,
      "metar_oat": 26,
      "metar_qnh": 1015,
      "hourly_oat": [
        24,
        26,
        26,
        28,
        29,
        30,
        30,
        31,
        31,
        30,
        29,
        28,
        26,
        26,
        26,
        26,
        25,
        25,
        25,
        24,
        24,
        24,
        24,
        24,
        25
      ]
    },
    "CGK": {
      "icao": "WIII",
      "issued": "2026-07-10T17:00:00.000Z",
      "raw": "TAF WIII 101700Z 1018/1200 16005KT 4000 HZ FEW020 BECMG 1101/1103 05010KT 8000 NSW",
      "groups": [
        {
          "text": "TAF WIII 101700Z 1018/1200 16005KT 4000 HZ FEW020",
          "offset_h": -4,
          "wdir": 160,
          "wspd": 5
        },
        {
          "text": "BECMG 1101/1103 05010KT 8000 NSW",
          "offset_h": 3,
          "wdir": 50,
          "wspd": 10
        }
      ],
      "metar_raw": "METAR WIII 102130Z 18004KT 4500 HZ FEW020 25/23 Q1012 NOSIG",
      "metar_wdir": 180,
      "metar_wspd": 4,
      "metar_oat": 25,
      "metar_qnh": 1012,
      "hourly_oat": [
        24,
        23,
        24,
        26,
        29,
        31,
        32,
        33,
        34,
        33,
        32,
        32,
        30,
        29,
        28,
        28,
        27,
        27,
        26,
        26,
        26,
        25,
        24,
        24,
        24
      ]
    },
    "KUL": {
      "icao": "WMKK",
      "issued": "2026-07-10T17:00:00.000Z",
      "raw": "TAF WMKK 101700Z 1018/1200 VRB03KT 9000 FEW030",
      "groups": [
        {
          "text": "TAF WMKK 101700Z 1018/1200 VRB03KT 9000 FEW030",
          "offset_h": -4,
          "wdir": "VRB",
          "wspd": 3
        }
      ],
      "metar_raw": "METAR WMKK 102130Z 00000KT 9000 FEW017CB 26/24 Q1009 NOSIG",
      "metar_wdir": 0,
      "metar_wspd": 0,
      "metar_oat": 26,
      "metar_qnh": 1009,
      "hourly_oat": [
        25,
        24,
        25,
        26,
        25,
        26,
        27,
        27,
        28,
        29,
        29,
        29,
        28,
        28,
        26,
        26,
        26,
        26,
        25,
        25,
        25,
        25,
        25,
        24,
        24
      ]
    },
    "HAN": {
      "icao": "VVNB",
      "issued": "2026-07-10T17:00:00.000Z",
      "raw": "TAF VVNB 101700Z 1018/1118 17005KT 9000 SCT025 TEMPO 1020/1102 3500 SHRA BKN012 FEW025TCU TEMPO 1107/1112 2500 +TSRA BKN010 FEW027CB",
      "groups": [
        {
          "text": "TAF VVNB 101700Z 1018/1118 17005KT 9000 SCT025",
          "offset_h": -4,
          "wdir": 170,
          "wspd": 5
        },
        {
          "text": "TEMPO 1020/1102 3500 SHRA BKN012 FEW025TCU",
          "offset_h": -2,
          "wdir": null,
          "wspd": null
        },
        {
          "text": "TEMPO 1107/1112 2500 +TSRA BKN010 FEW027CB",
          "offset_h": 9,
          "wdir": null,
          "wspd": null
        }
      ],
      "metar_raw": "METAR VVNB 102130Z VRB02KT 7000 SCT021 BKN033 27/26 Q0999 NOSIG",
      "metar_wdir": "VRB",
      "metar_wspd": 2,
      "metar_oat": 27,
      "metar_qnh": 999,
      "hourly_oat": [
        26,
        26,
        27,
        28,
        29,
        30,
        30,
        31,
        32,
        32,
        32,
        32,
        30,
        29,
        28,
        28,
        28,
        28,
        27,
        27,
        26,
        25,
        25,
        25,
        25
      ]
    },
    "SGN": {
      "icao": "VVTS",
      "issued": "2026-07-10T17:00:00.000Z",
      "raw": "TAF VVTS 101700Z 1018/1124 24012KT 9999 SCT017 TEMPO 1103/1107 24015G25KT TEMPO 1107/1111 24016G28KT 5000 TSRA BKN015 FEW017CB",
      "groups": [
        {
          "text": "TAF VVTS 101700Z 1018/1124 24012KT 9999 SCT017",
          "offset_h": -4,
          "wdir": 240,
          "wspd": 12
        },
        {
          "text": "TEMPO 1103/1107 24015G25KT",
          "offset_h": 5,
          "wdir": 240,
          "wspd": 15
        },
        {
          "text": "TEMPO 1107/1111 24016G28KT 5000 TSRA BKN015 FEW017CB",
          "offset_h": 9,
          "wdir": 240,
          "wspd": 16
        }
      ],
      "metar_raw": "METAR VVTS 102130Z 25009KT 9999 FEW014 27/26 Q1006 NOSIG",
      "metar_wdir": 250,
      "metar_wspd": 9,
      "metar_oat": 27,
      "metar_qnh": 1006,
      "hourly_oat": [
        26,
        26,
        28,
        29,
        30,
        32,
        33,
        33,
        30,
        30,
        31,
        31,
        31,
        30,
        29,
        28,
        28,
        28,
        28,
        27,
        27,
        27,
        26,
        26,
        26
      ]
    },
    "SIN": {
      "icao": "WSSS",
      "issued": "2026-07-10T17:00:00.000Z",
      "raw": "TAF WSSS 101700Z 1018/1200 17008KT 9999 FEW015 SCT020",
      "groups": [
        {
          "text": "TAF WSSS 101700Z 1018/1200 17008KT 9999 FEW015 SCT020",
          "offset_h": -4,
          "wdir": 170,
          "wspd": 8
        }
      ],
      "metar_raw": "METAR WSSS 102130Z 16006KT 9999 FEW018 BKN300 28/25 Q1010 NOSIG",
      "metar_wdir": 160,
      "metar_wspd": 6,
      "metar_oat": 28,
      "metar_qnh": 1010,
      "hourly_oat": [
        28,
        28,
        28,
        29,
        29,
        30,
        30,
        29,
        30,
        29,
        29,
        29,
        29,
        29,
        28,
        28,
        28,
        28,
        28,
        28,
        28,
        27,
        27,
        27,
        27
      ]
    },
    "TSA": {
      "icao": "RCSS",
      "issued": "2026-07-10T17:00:00.000Z",
      "raw": "TAF RCSS 101700Z 1018/1118 03013G23KT 6000 FEW015 BKN032 TEMPO 1018/1024 VRB05G18KT 2500 SHRA FEW006 BKN015 TEMPO 1100/1106 33028G45KT 2000 SHRA FEW006 FEW010CB BKN012 TEMPO 1106/1112 25022G40KT 2200 SHRA FEW006 FEW010CB BKN012 TEMPO 1112/1118 27020G38KT 4000 RA FEW010 BKN020",
      "groups": [
        {
          "text": "TAF RCSS 101700Z 1018/1118 03013G23KT 6000 FEW015 BKN032",
          "offset_h": -4,
          "wdir": 30,
          "wspd": 13
        },
        {
          "text": "TEMPO 1018/1024 VRB05G18KT 2500 SHRA FEW006 BKN015",
          "offset_h": -4,
          "wdir": "VRB",
          "wspd": 5
        },
        {
          "text": "TEMPO 1100/1106 33028G45KT 2000 SHRA FEW006 FEW010CB BKN012",
          "offset_h": 2,
          "wdir": 330,
          "wspd": 28
        },
        {
          "text": "TEMPO 1106/1112 25022G40KT 2200 SHRA FEW006 FEW010CB BKN012",
          "offset_h": 8,
          "wdir": 250,
          "wspd": 22
        },
        {
          "text": "TEMPO 1112/1118 27020G38KT 4000 RA FEW010 BKN020",
          "offset_h": 14,
          "wdir": 270,
          "wspd": 20
        }
      ],
      "metar_raw": "METAR RCSS 102100Z 02008G20KT 360V060 2500 SHRA SCT005 BKN018 BKN030 28/25 Q0988 NOSIG RMK QFF 988.8HPA A2920 RA AMT 3.6MM",
      "metar_wdir": 20,
      "metar_wspd": 8,
      "metar_oat": 28,
      "metar_qnh": 988,
      "hourly_oat": [
        26,
        26,
        26,
        26,
        26,
        26,
        27,
        27,
        27,
        26,
        25,
        25,
        25,
        25,
        26,
        27,
        28,
        28,
        26,
        26,
        26,
        26,
        26,
        25,
        25
      ]
    },
    "TPE": {
      "icao": "RCTP",
      "issued": "2026-07-10T17:00:00.000Z",
      "raw": "TAF RCTP 101700Z 1018/1124 02018G35KT 6000 FEW015 BKN032 TEMPO 1018/1024 36028G42KT 4000 SHRA FEW006 BKN012 TEMPO 1100/1106 30035G45KT 2000 SHRA FEW003 BKN006 FEW010CB TEMPO 1106/1112 27036G46KT 2500 SHRA FEW004 BKN008 FEW010CB BECMG 1112/1114 23030G42KT TEMPO 1116/1122 23035G45KT 4000 RA FEW006 BKN012",
      "groups": [
        {
          "text": "TAF RCTP 101700Z 1018/1124 02018G35KT 6000 FEW015 BKN032",
          "offset_h": -4,
          "wdir": 20,
          "wspd": 18
        },
        {
          "text": "TEMPO 1018/1024 36028G42KT 4000 SHRA FEW006 BKN012",
          "offset_h": -4,
          "wdir": 360,
          "wspd": 28
        },
        {
          "text": "TEMPO 1100/1106 30035G45KT 2000 SHRA FEW003 BKN006 FEW010CB",
          "offset_h": 2,
          "wdir": 300,
          "wspd": 35
        },
        {
          "text": "TEMPO 1106/1112 27036G46KT 2500 SHRA FEW004 BKN008 FEW010CB",
          "offset_h": 8,
          "wdir": 270,
          "wspd": 36
        },
        {
          "text": "BECMG 1112/1114 23030G42KT",
          "offset_h": 14,
          "wdir": 230,
          "wspd": 30
        },
        {
          "text": "TEMPO 1116/1122 23035G45KT 4000 RA FEW006 BKN012",
          "offset_h": 18,
          "wdir": 230,
          "wspd": 35
        }
      ],
      "metar_raw": "SPECI RCTP 102138Z 01013G25KT 340V040 5000 -SHRA FEW010 BKN017 BKN040 28/26 Q0990 WS ALL RWY NOSIG RMK A2924",
      "metar_wdir": 10,
      "metar_wspd": 13,
      "metar_oat": 28,
      "metar_qnh": 990,
      "hourly_oat": [
        26,
        26,
        26,
        26,
        26,
        26,
        26,
        26,
        27,
        27,
        26,
        26,
        26,
        26,
        26,
        26,
        27,
        27,
        28,
        29,
        29,
        29,
        29,
        29,
        29
      ]
    },
    "GMP": {
      "icao": "RKSS",
      "issued": "2026-07-10T17:00:00.000Z",
      "raw": "TAF RKSS 101700Z 1018/1124 20006KT 6000 BKN025 TN24/1020Z TX33/1106Z TN25/1120Z BECMG 1022/1024 SCT035 BECMG 1105/1107 28007KT 9999 BECMG 1112/1114 06005KT 6000",
      "groups": [
        {
          "text": "TAF RKSS 101700Z 1018/1124 20006KT 6000 BKN025 TN24/1020Z TX33/1106Z TN25/1120Z",
          "offset_h": -4,
          "wdir": 200,
          "wspd": 6
        },
        {
          "text": "BECMG 1022/1024 SCT035",
          "offset_h": 0,
          "wdir": null,
          "wspd": null
        },
        {
          "text": "BECMG 1105/1107 28007KT 9999",
          "offset_h": 7,
          "wdir": 280,
          "wspd": 7
        },
        {
          "text": "BECMG 1112/1114 06005KT 6000",
          "offset_h": 14,
          "wdir": 60,
          "wspd": 5
        }
      ],
      "metar_raw": "METAR RKSS 102100Z 29001KT 9999 SCT018 BKN030 24/24 Q1011 NOSIG",
      "metar_wdir": 290,
      "metar_wspd": 1,
      "metar_oat": 24,
      "metar_qnh": 1011,
      "hourly_oat": [
        24,
        26,
        27,
        29,
        30,
        31,
        32,
        32,
        31,
        31,
        31,
        30,
        29,
        28,
        27,
        26,
        26,
        25,
        25,
        25,
        24,
        24,
        24,
        24,
        25
      ]
    },
    "BKK": {
      "icao": "VTBS",
      "issued": "2026-07-10T17:00:00.000Z",
      "raw": "TAF VTBS 101700Z 1018/1124 22008KT 9999 FEW020",
      "groups": [
        {
          "text": "TAF VTBS 101700Z 1018/1124 22008KT 9999 FEW020",
          "offset_h": -4,
          "wdir": 220,
          "wspd": 8
        }
      ],
      "metar_raw": "METAR VTBS 102130Z 24006KT 9999 -RA FEW020 29/22 Q1006 NOSIG",
      "metar_wdir": 240,
      "metar_wspd": 6,
      "metar_oat": 29,
      "metar_qnh": 1006,
      "hourly_oat": [
        27,
        27,
        28,
        29,
        29,
        31,
        30,
        31,
        31,
        32,
        29,
        28,
        30,
        30,
        29,
        29,
        29,
        28,
        28,
        28,
        28,
        28,
        28,
        28,
        27
      ]
    }
  }
}