{
  "updated": "2026-07-15T15:17:11Z",
  "tafs": {
    "HNL": {
      "icao": "PHNL",
      "issued": "2026-07-15T15:05:00.000Z",
      "raw": "TAF PHNL 151505Z 1515/1618 VRB06KT P6SM VCSH FEW025 FM152000 08012KT P6SM FEW025 SCT045 FM160600 VRB06KT P6SM FEW025 FEW035",
      "groups": [
        {
          "text": "TAF PHNL 151505Z 1515/1618 VRB06KT P6SM VCSH FEW025",
          "offset_h": 0,
          "wdir": "VRB",
          "wspd": 6
        },
        {
          "text": "FM152000 08012KT P6SM FEW025 SCT045",
          "offset_h": 5,
          "wdir": 80,
          "wspd": 12
        },
        {
          "text": "FM160600 VRB06KT P6SM FEW025 FEW035",
          "offset_h": 15,
          "wdir": "VRB",
          "wspd": 6
        }
      ],
      "metar_raw": "METAR PHNL 151453Z 35004KT 10SM FEW025 23/20 A2992 RMK AO2 SLP132 T02280200 55001 $",
      "metar_wdir": 350,
      "metar_wspd": 4,
      "metar_oat": 23,
      "metar_qnh": 1013,
      "hourly_oat": [
        22,
        22,
        24,
        26,
        27,
        28,
        29,
        29,
        30,
        30,
        30,
        29,
        28,
        26,
        24,
        23,
        24,
        24,
        24,
        24,
        23,
        23,
        23,
        23,
        23
      ]
    },
    "SAN": {
      "icao": "KSAN",
      "issued": "2026-07-15T14:57:00.000Z",
      "raw": "TAF KSAN 151457Z 1515/1618 VRB03KT P6SM SCT009 FM151600 27005KT P6SM FEW010 FM151900 27009KT P6SM SCT200 FM160200 19006KT P6SM FEW007 SCT120 FM161000 19008KT P6SM BKN007 FM161600 19011G20KT P6SM FEW010 FEW120",
      "groups": [
        {
          "text": "TAF KSAN 151457Z 1515/1618 VRB03KT P6SM SCT009",
          "offset_h": 0,
          "wdir": "VRB",
          "wspd": 3
        },
        {
          "text": "FM151600 27005KT P6SM FEW010",
          "offset_h": 1,
          "wdir": 270,
          "wspd": 5
        },
        {
          "text": "FM151900 27009KT P6SM SCT200",
          "offset_h": 4,
          "wdir": 270,
          "wspd": 9
        },
        {
          "text": "FM160200 19006KT P6SM FEW007 SCT120",
          "offset_h": 11,
          "wdir": 190,
          "wspd": 6
        },
        {
          "text": "FM161000 19008KT P6SM BKN007",
          "offset_h": 19,
          "wdir": 190,
          "wspd": 8
        },
        {
          "text": "FM161600 19011G20KT P6SM FEW010 FEW120",
          "offset_h": 25,
          "wdir": 190,
          "wspd": 11
        }
      ],
      "metar_raw": "METAR KSAN 151451Z 00000KT 10SM FEW008 FEW250 22/19 A2990 RMK AO2 SLP123 T02220189 50001 $",
      "metar_wdir": 0,
      "metar_wspd": 0,
      "metar_oat": 22,
      "metar_qnh": 1013,
      "hourly_oat": [
        22,
        24,
        26,
        28,
        29,
        30,
        29,
        28,
        26,
        26,
        25,
        24,
        21,
        20,
        19,
        19,
        19,
        19,
        19,
        19,
        18,
        18,
        18,
        18,
        20
      ]
    },
    "HKG": {
      "icao": "VHHH",
      "issued": "2026-07-15T14:00:00.000Z",
      "raw": "TAF VHHH 151400Z 1515/1621 20010KT 9999 FEW010 SCT030 TX31/1606Z TN26/1522Z TEMPO 1515/1517 14010KT 3000 SHRA FEW010CB SCT020 TEMPO 1521/1603 24015G25KT 2000 TSRA +SHRA FEW008CB SCT015 TEMPO 1603/1606 3000 SHRA FEW010CB SCT020",
      "groups": [
        {
          "text": "TAF VHHH 151400Z 1515/1621 20010KT 9999 FEW010 SCT030 TX31/1606Z TN26/1522Z",
          "offset_h": 0,
          "wdir": 200,
          "wspd": 10
        },
        {
          "text": "TEMPO 1515/1517 14010KT 3000 SHRA FEW010CB SCT020",
          "offset_h": 0,
          "wdir": 140,
          "wspd": 10
        },
        {
          "text": "TEMPO 1521/1603 24015G25KT 2000 TSRA +SHRA FEW008CB SCT015",
          "offset_h": 6,
          "wdir": 240,
          "wspd": 15
        },
        {
          "text": "TEMPO 1603/1606 3000 SHRA FEW010CB SCT020",
          "offset_h": 12,
          "wdir": null,
          "wspd": null
        }
      ],
      "metar_raw": "METAR VHHH 151500Z 19009KT 140V220 9999 -SHRA FEW008 SCT025 29/24 Q1007 TEMPO 3000 SHRA FEW010CB SCT020",
      "metar_wdir": 190,
      "metar_wspd": 9,
      "metar_oat": 29,
      "metar_qnh": 1007,
      "hourly_oat": [
        28,
        28,
        27,
        27,
        26,
        26,
        26,
        26,
        26,
        26,
        27,
        27,
        26,
        27,
        27,
        27,
        27,
        29,
        29,
        29,
        28,
        28,
        28,
        28,
        28
      ]
    },
    "HAN": {
      "icao": "VVNB",
      "issued": "2026-07-15T12:45:00.000Z",
      "raw": "TAF AMD VVNB 151245Z 1513/1612 12006KT 9999 FEW030",
      "groups": [
        {
          "text": "TAF AMD VVNB 151245Z 1513/1612 12006KT 9999 FEW030",
          "offset_h": -2,
          "wdir": 120,
          "wspd": 6
        }
      ],
      "metar_raw": "METAR VVNB 151500Z 10006KT CAVOK 31/28 Q1002 NOSIG",
      "metar_wdir": 100,
      "metar_wspd": 6,
      "metar_oat": 31,
      "metar_qnh": 1002,
      "hourly_oat": [
        30,
        30,
        29,
        29,
        28,
        28,
        28,
        28,
        28,
        29,
        30,
        31,
        32,
        32,
        33,
        34,
        34,
        34,
        34,
        34,
        32,
        31,
        31,
        30,
        30
      ]
    },
    "NRT": {
      "icao": "RJAA",
      "issued": "2026-07-15T12:44:00.000Z",
      "raw": "TAF AMD RJAA 151244Z 1512/1618 17010KT 8000 FEW005 BKN012 TEMPO 1512/1520 4000 BR FEW003 BKN005 BECMG 1522/1600 01004KT BECMG 1600/1603 12010KT TEMPO 1615/1618 3000 BR",
      "groups": [
        {
          "text": "TAF AMD RJAA 151244Z 1512/1618 17010KT 8000 FEW005 BKN012",
          "offset_h": -3,
          "wdir": 170,
          "wspd": 10
        },
        {
          "text": "TEMPO 1512/1520 4000 BR FEW003 BKN005",
          "offset_h": -3,
          "wdir": null,
          "wspd": null
        },
        {
          "text": "BECMG 1522/1600 01004KT",
          "offset_h": 7,
          "wdir": 10,
          "wspd": 4
        },
        {
          "text": "BECMG 1600/1603 12010KT",
          "offset_h": 9,
          "wdir": 120,
          "wspd": 10
        },
        {
          "text": "TEMPO 1615/1618 3000 BR",
          "offset_h": 24,
          "wdir": null,
          "wspd": null
        }
      ],
      "metar_raw": "METAR RJAA 151500Z AUTO 16006KT 9000 NCD 26/25 Q1001 TEMPO 4000 BR",
      "metar_wdir": 160,
      "metar_wspd": 6,
      "metar_oat": 26,
      "metar_qnh": 1001,
      "hourly_oat": [
        27,
        26,
        26,
        26,
        25,
        25,
        26,
        27,
        28,
        29,
        30,
        31,
        31,
        31,
        31,
        31,
        31,
        30,
        30,
        29,
        28,
        27,
        27,
        26,
        26
      ]
    },
    "LAX": {
      "icao": "KLAX",
      "issued": "2026-07-15T11:30:00.000Z",
      "raw": "TAF KLAX 151130Z 1512/1618 VRB03KT P6SM SKC FM151600 24006KT P6SM SKC FM152000 26012KT P6SM SKC FM160300 26006KT P6SM SKC FM161000 VRB03KT P6SM OVC008",
      "groups": [
        {
          "text": "TAF KLAX 151130Z 1512/1618 VRB03KT P6SM SKC",
          "offset_h": -3,
          "wdir": "VRB",
          "wspd": 3
        },
        {
          "text": "FM151600 24006KT P6SM SKC",
          "offset_h": 1,
          "wdir": 240,
          "wspd": 6
        },
        {
          "text": "FM152000 26012KT P6SM SKC",
          "offset_h": 5,
          "wdir": 260,
          "wspd": 12
        },
        {
          "text": "FM160300 26006KT P6SM SKC",
          "offset_h": 12,
          "wdir": 260,
          "wspd": 6
        },
        {
          "text": "FM161000 VRB03KT P6SM OVC008",
          "offset_h": 19,
          "wdir": "VRB",
          "wspd": 3
        }
      ],
      "metar_raw": "METAR KLAX 151453Z 00000KT 10SM FEW010 FEW160 SCT250 23/17 A2988 RMK AO2 SLP117 T02280167 55000 $",
      "metar_wdir": 0,
      "metar_wspd": 0,
      "metar_oat": 23,
      "metar_qnh": 1012,
      "hourly_oat": [
        23,
        26,
        29,
        29,
        28,
        27,
        26,
        27,
        26,
        26,
        24,
        23,
        21,
        21,
        20,
        20,
        19,
        19,
        19,
        19,
        18,
        18,
        18,
        19,
        22
      ]
    },
    "FUK": {
      "icao": "RJFF",
      "issued": "2026-07-15T11:05:00.000Z",
      "raw": "TAF RJFF 151105Z 1512/1618 18006KT 9999 FEW020 BKN030 BECMG 1521/1523 31011KT BECMG 1612/1615 12004KT",
      "groups": [
        {
          "text": "TAF RJFF 151105Z 1512/1618 18006KT 9999 FEW020 BKN030",
          "offset_h": -3,
          "wdir": 180,
          "wspd": 6
        },
        {
          "text": "BECMG 1521/1523 31011KT",
          "offset_h": 6,
          "wdir": 310,
          "wspd": 11
        },
        {
          "text": "BECMG 1612/1615 12004KT",
          "offset_h": 21,
          "wdir": 120,
          "wspd": 4
        }
      ],
      "metar_raw": "METAR RJFF 151500Z AUTO 20009KT 9999 OVC031 30/25 Q1003 NOSIG",
      "metar_wdir": 200,
      "metar_wspd": 9,
      "metar_oat": 30,
      "metar_qnh": 1003,
      "hourly_oat": [
        28,
        27,
        27,
        27,
        27,
        26,
        26,
        27,
        28,
        29,
        30,
        30,
        30,
        30,
        30,
        29,
        28,
        28,
        28,
        28,
        27,
        27,
        27,
        26,
        26
      ]
    },
    "OKA": {
      "icao": "ROAH",
      "issued": "2026-07-15T11:05:00.000Z",
      "raw": "TAF ROAH 151105Z 1512/1618 22010KT 9999 FEW006 BKN010 TEMPO 1512/1518 FEW003 BKN005 TEMPO 1518/1600 4000 BR FEW003 BKN005 TEMPO 1600/1603 FEW005 BKN008 TEMPO 1612/1618 FEW005 BKN008",
      "groups": [
        {
          "text": "TAF ROAH 151105Z 1512/1618 22010KT 9999 FEW006 BKN010",
          "offset_h": -3,
          "wdir": 220,
          "wspd": 10
        },
        {
          "text": "TEMPO 1512/1518 FEW003 BKN005",
          "offset_h": -3,
          "wdir": null,
          "wspd": null
        },
        {
          "text": "TEMPO 1518/1600 4000 BR FEW003 BKN005",
          "offset_h": 3,
          "wdir": null,
          "wspd": null
        },
        {
          "text": "TEMPO 1600/1603 FEW005 BKN008",
          "offset_h": 9,
          "wdir": null,
          "wspd": null
        },
        {
          "text": "TEMPO 1612/1618 FEW005 BKN008",
          "offset_h": 21,
          "wdir": null,
          "wspd": null
        }
      ],
      "metar_raw": "METAR ROAH 151500Z AUTO 22011KT 9999 SCT005 SCT007 BKN008 27/27 Q1010",
      "metar_wdir": 220,
      "metar_wspd": 11,
      "metar_oat": 27,
      "metar_qnh": 1010,
      "hourly_oat": [
        27,
        27,
        27,
        27,
        27,
        27,
        27,
        28,
        28,
        29,
        29,
        30,
        30,
        30,
        30,
        30,
        29,
        29,
        29,
        28,
        28,
        28,
        28,
        28,
        27
      ]
    },
    "KIX": {
      "icao": "RJBB",
      "issued": "2026-07-15T11:05:00.000Z",
      "raw": "TAF RJBB 151105Z 1512/1618 21006KT 9999 FEW030 SCT050 BECMG 1612/1615 04008KT",
      "groups": [
        {
          "text": "TAF RJBB 151105Z 1512/1618 21006KT 9999 FEW030 SCT050",
          "offset_h": -3,
          "wdir": 210,
          "wspd": 6
        },
        {
          "text": "BECMG 1612/1615 04008KT",
          "offset_h": 21,
          "wdir": 40,
          "wspd": 8
        }
      ],
      "metar_raw": "METAR RJBB 151500Z AUTO 24009KT 9999 NSC 28/24 Q1002 NOSIG",
      "metar_wdir": 240,
      "metar_wspd": 9,
      "metar_oat": 28,
      "metar_qnh": 1002,
      "hourly_oat": [
        28,
        27,
        27,
        27,
        27,
        27,
        27,
        27,
        27,
        27,
        27,
        27,
        28,
        28,
        28,
        28,
        28,
        28,
        28,
        28,
        28,
        28,
        28,
        28,
        28
      ]
    },
    "HND": {
      "icao": "RJTT",
      "issued": "2026-07-15T11:05:00.000Z",
      "raw": "TAF RJTT 151105Z 1512/1618 19016KT 9999 FEW030 BECMG 1519/1521 11004KT BECMG 1603/1606 18010KT TEMPO 1606/1612 TS FEW025CB FEW030 BKN050",
      "groups": [
        {
          "text": "TAF RJTT 151105Z 1512/1618 19016KT 9999 FEW030",
          "offset_h": -3,
          "wdir": 190,
          "wspd": 16
        },
        {
          "text": "BECMG 1519/1521 11004KT",
          "offset_h": 4,
          "wdir": 110,
          "wspd": 4
        },
        {
          "text": "BECMG 1603/1606 18010KT",
          "offset_h": 12,
          "wdir": 180,
          "wspd": 10
        },
        {
          "text": "TEMPO 1606/1612 TS FEW025CB FEW030 BKN050",
          "offset_h": 15,
          "wdir": null,
          "wspd": null
        }
      ],
      "metar_raw": "METAR RJTT 151500Z 20012KT 9999 FEW009 BKN011 BKN/// 27/25 Q1001 TEMPO FEW005 BKN008",
      "metar_wdir": 200,
      "metar_wspd": 12,
      "metar_oat": 27,
      "metar_qnh": 1001,
      "hourly_oat": [
        26,
        26,
        26,
        26,
        26,
        26,
        26,
        27,
        28,
        28,
        29,
        30,
        30,
        31,
        31,
        30,
        30,
        29,
        28,
        27,
        27,
        27,
        26,
        26,
        26
      ]
    },
    "ITM": {
      "icao": "RJOO",
      "issued": "2026-07-15T11:05:00.000Z",
      "raw": "TAF RJOO 151105Z 1512/1618 25006KT 9999 FEW030 BECMG 1515/1517 07004KT BECMG 1606/1609 35008KT",
      "groups": [
        {
          "text": "TAF RJOO 151105Z 1512/1618 25006KT 9999 FEW030",
          "offset_h": -3,
          "wdir": 250,
          "wspd": 6
        },
        {
          "text": "BECMG 1515/1517 07004KT",
          "offset_h": 0,
          "wdir": 70,
          "wspd": 4
        },
        {
          "text": "BECMG 1606/1609 35008KT",
          "offset_h": 15,
          "wdir": 350,
          "wspd": 8
        }
      ],
      "metar_raw": "METAR RJOO 151500Z AUTO 22003KT 160V280 9999 NSC 30/23 Q1002",
      "metar_wdir": 220,
      "metar_wspd": 3,
      "metar_oat": 30,
      "metar_qnh": 1002,
      "hourly_oat": [
        27,
        27,
        26,
        26,
        26,
        25,
        26,
        27,
        28,
        30,
        31,
        31,
        32,
        31,
        32,
        32,
        33,
        33,
        32,
        30,
        29,
        28,
        27,
        26,
        25
      ]
    },
    "CTS": {
      "icao": "RJCC",
      "issued": "2026-07-15T11:05:00.000Z",
      "raw": "TAF RJCC 151105Z 1512/1618 15018KT 6000 FEW004 BKN012 TEMPO 1512/1514 2000 -SHRA BR FEW002 BKN004 TEMPO 1514/1519 15028G40KT 1500 SHRA BR FEW001 BKN003 TEMPO 1519/1522 2000 -SHRA BR FEW001 BKN003 BECMG 1521/1523 36010KT BECMG 1603/1606 16008KT TEMPO 1612/1618 FEW003 BKN005",
      "groups": [
        {
          "text": "TAF RJCC 151105Z 1512/1618 15018KT 6000 FEW004 BKN012",
          "offset_h": -3,
          "wdir": 150,
          "wspd": 18
        },
        {
          "text": "TEMPO 1512/1514 2000 -SHRA BR FEW002 BKN004",
          "offset_h": -3,
          "wdir": null,
          "wspd": null
        },
        {
          "text": "TEMPO 1514/1519 15028G40KT 1500 SHRA BR FEW001 BKN003",
          "offset_h": -1,
          "wdir": 150,
          "wspd": 28
        },
        {
          "text": "TEMPO 1519/1522 2000 -SHRA BR FEW001 BKN003",
          "offset_h": 4,
          "wdir": null,
          "wspd": null
        },
        {
          "text": "BECMG 1521/1523 36010KT",
          "offset_h": 6,
          "wdir": 360,
          "wspd": 10
        },
        {
          "text": "BECMG 1603/1606 16008KT",
          "offset_h": 12,
          "wdir": 160,
          "wspd": 8
        },
        {
          "text": "TEMPO 1612/1618 FEW003 BKN005",
          "offset_h": 21,
          "wdir": null,
          "wspd": null
        }
      ],
      "metar_raw": "METAR RJCC 151500Z 15022KT 3500 SHRA BR FEW005 BKN008 BKN015 22/21 Q0995",
      "metar_wdir": 150,
      "metar_wspd": 22,
      "metar_oat": 22,
      "metar_qnh": 995,
      "hourly_oat": [
        21,
        21,
        21,
        21,
        21,
        22,
        22,
        24,
        25,
        27,
        28,
        29,
        29,
        29,
        28,
        28,
        27,
        25,
        23,
        22,
        22,
        21,
        21,
        20,
        20
      ]
    },
    "NGO": {
      "icao": "RJGG",
      "issued": "2026-07-15T11:05:00.000Z",
      "raw": "TAF RJGG 151105Z 1512/1618 22006KT 9999 FEW030 SCT050 BECMG 1515/1517 30006KT BECMG 1603/1606 23006KT BECMG 1609/1612 31008KT",
      "groups": [
        {
          "text": "TAF RJGG 151105Z 1512/1618 22006KT 9999 FEW030 SCT050",
          "offset_h": -3,
          "wdir": 220,
          "wspd": 6
        },
        {
          "text": "BECMG 1515/1517 30006KT",
          "offset_h": 0,
          "wdir": 300,
          "wspd": 6
        },
        {
          "text": "BECMG 1603/1606 23006KT",
          "offset_h": 12,
          "wdir": 230,
          "wspd": 6
        },
        {
          "text": "BECMG 1609/1612 31008KT",
          "offset_h": 18,
          "wdir": 310,
          "wspd": 8
        }
      ],
      "metar_raw": "METAR RJGG 151500Z AUTO 20008KT 9999 NSC 28/26 Q1001 NOSIG",
      "metar_wdir": 200,
      "metar_wspd": 8,
      "metar_oat": 28,
      "metar_qnh": 1001,
      "hourly_oat": [
        28,
        27,
        27,
        27,
        28,
        28,
        27,
        27,
        27,
        27,
        27,
        28,
        28,
        29,
        30,
        30,
        29,
        28,
        28,
        28,
        28,
        28,
        28,
        27,
        27
      ]
    },
    "GMP": {
      "icao": "RKSS",
      "issued": "2026-07-15T11:00:00.000Z",
      "raw": "TAF RKSS 151100Z 1512/1618 24006KT 9999 FEW015 TN23/1520Z TX32/1606Z BECMG 1514/1516 18005KT 6000 NSC BECMG 1517/1519 4000 BR SCT010 BECMG 1520/1522 21005KT 6000 NSW BECMG 1601/1603 27007KT 9999 SCT040 BECMG 1613/1615 06005KT 6000",
      "groups": [
        {
          "text": "TAF RKSS 151100Z 1512/1618 24006KT 9999 FEW015 TN23/1520Z TX32/1606Z",
          "offset_h": -3,
          "wdir": 240,
          "wspd": 6
        },
        {
          "text": "BECMG 1514/1516 18005KT 6000 NSC",
          "offset_h": -1,
          "wdir": 180,
          "wspd": 5
        },
        {
          "text": "BECMG 1517/1519 4000 BR SCT010",
          "offset_h": 2,
          "wdir": null,
          "wspd": null
        },
        {
          "text": "BECMG 1520/1522 21005KT 6000 NSW",
          "offset_h": 5,
          "wdir": 210,
          "wspd": 5
        },
        {
          "text": "BECMG 1601/1603 27007KT 9999 SCT040",
          "offset_h": 10,
          "wdir": 270,
          "wspd": 7
        },
        {
          "text": "BECMG 1613/1615 06005KT 6000",
          "offset_h": 22,
          "wdir": 60,
          "wspd": 5
        }
      ],
      "metar_raw": "METAR RKSS 151500Z 17004KT CAVOK 23/23 Q1004 NOSIG",
      "metar_wdir": 170,
      "metar_wspd": 4,
      "metar_oat": 23,
      "metar_qnh": 1004,
      "hourly_oat": [
        22,
        22,
        22,
        22,
        22,
        22,
        22,
        22,
        23,
        24,
        26,
        28,
        30,
        30,
        30,
        28,
        28,
        27,
        26,
        25,
        24,
        24,
        24,
        23,
        22
      ]
    },
    "KUL": {
      "icao": "WMKK",
      "issued": "2026-07-15T11:00:00.000Z",
      "raw": "TAF WMKK 151100Z 1512/1618 VRB03KT 9999 FEW018",
      "groups": [
        {
          "text": "TAF WMKK 151100Z 1512/1618 VRB03KT 9999 FEW018",
          "offset_h": -3,
          "wdir": "VRB",
          "wspd": 3
        }
      ],
      "metar_raw": "METAR WMKK 151500Z 14004KT 080V200 9999 FEW030 30/25 Q1011 NOSIG",
      "metar_wdir": 140,
      "metar_wspd": 4,
      "metar_oat": 30,
      "metar_qnh": 1011,
      "hourly_oat": [
        28,
        27,
        27,
        27,
        26,
        26,
        26,
        25,
        24,
        24,
        25,
        27,
        28,
        30,
        30,
        31,
        31,
        30,
        29,
        29,
        28,
        27,
        26,
        26,
        26
      ]
    },
    "SIN": {
      "icao": "WSSS",
      "issued": "2026-07-15T11:00:00.000Z",
      "raw": "TAF WSSS 151100Z 1512/1618 15007KT 9999 FEW015 SCT020",
      "groups": [
        {
          "text": "TAF WSSS 151100Z 1512/1618 15007KT 9999 FEW015 SCT020",
          "offset_h": -3,
          "wdir": 150,
          "wspd": 7
        }
      ],
      "metar_raw": "METAR WSSS 151500Z 13009KT 9999 FEW018 BKN300 29/25 Q1012 NOSIG",
      "metar_wdir": 130,
      "metar_wspd": 9,
      "metar_oat": 29,
      "metar_qnh": 1012,
      "hourly_oat": [
        29,
        29,
        28,
        28,
        27,
        27,
        28,
        28,
        28,
        28,
        29,
        30,
        30,
        27,
        25,
        26,
        28,
        28,
        28,
        28,
        28,
        28,
        27,
        27,
        27
      ]
    },
    "SGN": {
      "icao": "VVTS",
      "issued": "2026-07-15T11:00:00.000Z",
      "raw": "TAF VVTS 151100Z 1512/1618 24010KT 9999 SCT017 SCT040 TEMPO 1512/1515 5000 TSRA BKN015 FEW017CB BKN040 TEMPO 1606/1610 24015G25KT 4000 TSRA BKN015 FEW017CB BKN040",
      "groups": [
        {
          "text": "TAF VVTS 151100Z 1512/1618 24010KT 9999 SCT017 SCT040",
          "offset_h": -3,
          "wdir": 240,
          "wspd": 10
        },
        {
          "text": "TEMPO 1512/1515 5000 TSRA BKN015 FEW017CB BKN040",
          "offset_h": -3,
          "wdir": null,
          "wspd": null
        },
        {
          "text": "TEMPO 1606/1610 24015G25KT 4000 TSRA BKN015 FEW017CB BKN040",
          "offset_h": 15,
          "wdir": 240,
          "wspd": 15
        }
      ],
      "metar_raw": "METAR VVTS 151500Z 25012KT 9999 SCT012 FEW015TCU BKN051 25/25 Q1013 NOSIG",
      "metar_wdir": 250,
      "metar_wspd": 12,
      "metar_oat": 25,
      "metar_qnh": 1013,
      "hourly_oat": [
        26,
        26,
        26,
        26,
        26,
        26,
        25,
        25,
        25,
        26,
        28,
        29,
        30,
        31,
        32,
        33,
        33,
        29,
        27,
        28,
        27,
        26,
        26,
        26,
        26
      ]
    },
    "TSA": {
      "icao": "RCSS",
      "issued": "2026-07-15T11:00:00.000Z",
      "raw": "TAF RCSS 151100Z 1512/1612 09005KT 9999 FEW010 BKN032 TEMPO 1512/1516 07010KT TEMPO 1518/1524 VRB05KT TEMPO 1601/1607 30008KT TEMPO 1607/1610 12010KT 4000 SHRA FEW010 BKN017 FEW020CB",
      "groups": [
        {
          "text": "TAF RCSS 151100Z 1512/1612 09005KT 9999 FEW010 BKN032",
          "offset_h": -3,
          "wdir": 90,
          "wspd": 5
        },
        {
          "text": "TEMPO 1512/1516 07010KT",
          "offset_h": -3,
          "wdir": 70,
          "wspd": 10
        },
        {
          "text": "TEMPO 1518/1524 VRB05KT",
          "offset_h": 3,
          "wdir": "VRB",
          "wspd": 5
        },
        {
          "text": "TEMPO 1601/1607 30008KT",
          "offset_h": 10,
          "wdir": 300,
          "wspd": 8
        },
        {
          "text": "TEMPO 1607/1610 12010KT 4000 SHRA FEW010 BKN017 FEW020CB",
          "offset_h": 16,
          "wdir": 120,
          "wspd": 10
        }
      ],
      "metar_raw": "METAR RCSS 151500Z 13007KT 9999 FEW018 FEW025CB SCT028 BKN060 28/26 Q1010 NOSIG RMK CB S A2984",
      "metar_wdir": 130,
      "metar_wspd": 7,
      "metar_oat": 28,
      "metar_qnh": 1010,
      "hourly_oat": [
        27,
        27,
        27,
        27,
        27,
        26,
        26,
        27,
        28,
        29,
        30,
        32,
        33,
        32,
        32,
        29,
        30,
        30,
        29,
        29,
        28,
        28,
        28,
        27,
        27
      ]
    },
    "TPE": {
      "icao": "RCTP",
      "issued": "2026-07-15T11:00:00.000Z",
      "raw": "TAF RCTP 151100Z 1512/1618 24010KT 9999 FEW010 BKN032 TEMPO 1512/1518 18005KT TEMPO 1518/1524 15005KT TEMPO 1604/1610 28017KT FEW010 BKN020 FEW025TCU",
      "groups": [
        {
          "text": "TAF RCTP 151100Z 1512/1618 24010KT 9999 FEW010 BKN032",
          "offset_h": -3,
          "wdir": 240,
          "wspd": 10
        },
        {
          "text": "TEMPO 1512/1518 18005KT",
          "offset_h": -3,
          "wdir": 180,
          "wspd": 5
        },
        {
          "text": "TEMPO 1518/1524 15005KT",
          "offset_h": 3,
          "wdir": 150,
          "wspd": 5
        },
        {
          "text": "TEMPO 1604/1610 28017KT FEW010 BKN020 FEW025TCU",
          "offset_h": 13,
          "wdir": 280,
          "wspd": 17
        }
      ],
      "metar_raw": "METAR RCTP 151500Z 20008KT 170V240 9999 FEW020 SCT030 BKN100 29/26 Q1010 NOSIG RMK A2984",
      "metar_wdir": 200,
      "metar_wspd": 8,
      "metar_oat": 29,
      "metar_qnh": 1010,
      "hourly_oat": [
        27,
        27,
        27,
        26,
        26,
        26,
        26,
        27,
        28,
        29,
        30,
        30,
        30,
        30,
        29,
        29,
        30,
        29,
        29,
        29,
        28,
        28,
        28,
        27,
        27
      ]
    },
    "CGK": {
      "icao": "WIII",
      "issued": "2026-07-15T11:00:00.000Z",
      "raw": "TAF WIII 151100Z 1512/1618 06011KT 8000 FEW020 BECMG 1518/1520 14005KT 5000 HZ BECMG 1601/1603 06012KT 7000 NSW",
      "groups": [
        {
          "text": "TAF WIII 151100Z 1512/1618 06011KT 8000 FEW020",
          "offset_h": -3,
          "wdir": 60,
          "wspd": 11
        },
        {
          "text": "BECMG 1518/1520 14005KT 5000 HZ",
          "offset_h": 3,
          "wdir": 140,
          "wspd": 5
        },
        {
          "text": "BECMG 1601/1603 06012KT 7000 NSW",
          "offset_h": 10,
          "wdir": 60,
          "wspd": 12
        }
      ],
      "metar_raw": "METAR WIII 151500Z 09006KT 8000 FEW020 27/24 Q1013 NOSIG",
      "metar_wdir": 90,
      "metar_wspd": 6,
      "metar_oat": 27,
      "metar_qnh": 1013,
      "hourly_oat": [
        27,
        26,
        26,
        26,
        25,
        25,
        24,
        24,
        24,
        25,
        27,
        30,
        32,
        33,
        34,
        34,
        33,
        33,
        31,
        30,
        29,
        28,
        28,
        28,
        27
      ]
    },
    "BKK": {
      "icao": "VTBS",
      "issued": "2026-07-15T11:00:00.000Z",
      "raw": "TAF VTBS 151100Z 1512/1618 21008KT 9999 FEW020 TEMPO 1512/1514 -TSRA FEW018CB SCT020 BKN080 TEMPO 1610/1615 VRB15KT 4000 TSRA FEW018CB SCT020 BKN080",
      "groups": [
        {
          "text": "TAF VTBS 151100Z 1512/1618 21008KT 9999 FEW020",
          "offset_h": -3,
          "wdir": 210,
          "wspd": 8
        },
        {
          "text": "TEMPO 1512/1514 -TSRA FEW018CB SCT020 BKN080",
          "offset_h": -3,
          "wdir": null,
          "wspd": null
        },
        {
          "text": "TEMPO 1610/1615 VRB15KT 4000 TSRA FEW018CB SCT020 BKN080",
          "offset_h": 19,
          "wdir": "VRB",
          "wspd": 15
        }
      ],
      "metar_raw": "METAR VTBS 151500Z 22007KT 9999 FEW020 29/24 Q1011 NOSIG",
      "metar_wdir": 220,
      "metar_wspd": 7,
      "metar_oat": 29,
      "metar_qnh": 1011,
      "hourly_oat": [
        28,
        28,
        28,
        28,
        27,
        27,
        27,
        27,
        27,
        28,
        29,
        30,
        30,
        31,
        31,
        30,
        31,
        30,
        28,
        28,
        28,
        28,
        27,
        28,
        28
      ]
    },
    "PVG": {
      "icao": "ZSPD",
      "issued": "2026-07-15T09:07:00.000Z",
      "raw": "TAF ZSPD 150907Z 1512/1618 18004MPS 8000 SCT030 TX36/1512Z TX37/1606Z TN28/1521Z TEMPO 1606/1610 TSRA BKN008 SCT030CB",
      "groups": [
        {
          "text": "TAF ZSPD 150907Z 1512/1618 18004MPS 8000 SCT030 TX36/1512Z TX37/1606Z TN28/1521Z",
          "offset_h": -3,
          "wdir": null,
          "wspd": null
        },
        {
          "text": "TEMPO 1606/1610 TSRA BKN008 SCT030CB",
          "offset_h": 15,
          "wdir": null,
          "wspd": null
        }
      ],
      "metar_raw": "METAR ZSPD 151500Z 17003MPS CAVOK 31/27 Q1003 NOSIG",
      "metar_wdir": null,
      "metar_wspd": null,
      "metar_oat": 31,
      "metar_qnh": 1003,
      "hourly_oat": [
        30,
        30,
        30,
        29,
        29,
        29,
        29,
        30,
        31,
        33,
        34,
        36,
        36,
        37,
        37,
        36,
        34,
        34,
        34,
        33,
        32,
        32,
        31,
        31,
        30
      ]
    },
    "SHA": {
      "icao": "ZSSS",
      "issued": "2026-07-15T09:07:00.000Z",
      "raw": "TAF ZSSS 150907Z 1512/1618 18004MPS 8000 SCT030 TX37/1512Z TX37/1606Z TN29/1521Z TEMPO 1606/1610 TSRA BKN011 SCT030CB",
      "groups": [
        {
          "text": "TAF ZSSS 150907Z 1512/1618 18004MPS 8000 SCT030 TX37/1512Z TX37/1606Z TN29/1521Z",
          "offset_h": -3,
          "wdir": null,
          "wspd": null
        },
        {
          "text": "TEMPO 1606/1610 TSRA BKN011 SCT030CB",
          "offset_h": 15,
          "wdir": null,
          "wspd": null
        }
      ],
      "metar_raw": "METAR ZSSS 151500Z 19006MPS CAVOK 33/26 Q1003 NOSIG",
      "metar_wdir": null,
      "metar_wspd": null,
      "metar_oat": 33,
      "metar_qnh": 1003,
      "hourly_oat": [
        32,
        31,
        31,
        31,
        31,
        30,
        30,
        30,
        31,
        33,
        35,
        36,
        37,
        37,
        38,
        38,
        38,
        37,
        37,
        36,
        35,
        34,
        33,
        32,
        32
      ]
    },
    "DLC": {
      "icao": "ZYTL",
      "issued": "2026-07-15T09:06:00.000Z",
      "raw": "TAF ZYTL 150906Z 1512/1612 26004MPS 5000 BR FEW040 TX30/1606Z TN24/1520Z",
      "groups": [
        {
          "text": "TAF ZYTL 150906Z 1512/1612 26004MPS 5000 BR FEW040 TX30/1606Z TN24/1520Z",
          "offset_h": -3,
          "wdir": null,
          "wspd": null
        }
      ],
      "metar_raw": "METAR ZYTL 151500Z 26002MPS 210V300 CAVOK 27/21 Q1001 NOSIG",
      "metar_wdir": null,
      "metar_wspd": null,
      "metar_oat": 27,
      "metar_qnh": 1001,
      "hourly_oat": [
        25,
        25,
        24,
        24,
        24,
        24,
        24,
        25,
        26,
        28,
        29,
        30,
        30,
        31,
        29,
        29,
        29,
        29,
        28,
        27,
        27,
        26,
        26,
        25,
        25
      ]
    },
    "CAN": {
      "icao": "ZGGG",
      "issued": "2026-07-15T09:02:00.000Z",
      "raw": "TAF ZGGG 150902Z 1512/1618 18003MPS 8000 BKN030 TX28/1512Z TX34/1607Z TN25/1522Z TEMPO 1520/1524 SHRA FEW026CB BKN030 TEMPO 1606/1610 TSRA SCT026CB BKN030",
      "groups": [
        {
          "text": "TAF ZGGG 150902Z 1512/1618 18003MPS 8000 BKN030 TX28/1512Z TX34/1607Z TN25/1522Z",
          "offset_h": -3,
          "wdir": null,
          "wspd": null
        },
        {
          "text": "TEMPO 1520/1524 SHRA FEW026CB BKN030",
          "offset_h": 5,
          "wdir": null,
          "wspd": null
        },
        {
          "text": "TEMPO 1606/1610 TSRA SCT026CB BKN030",
          "offset_h": 15,
          "wdir": null,
          "wspd": null
        }
      ],
      "metar_raw": "METAR ZGGG 151500Z 09003MPS 9999 -SHRA SCT010 27/26 Q1006 BECMG AT1530 2000 +SHRA SCT026CB BKN033",
      "metar_wdir": null,
      "metar_wspd": null,
      "metar_oat": 27,
      "metar_qnh": 1006,
      "hourly_oat": [
        26,
        26,
        26,
        25,
        25,
        25,
        25,
        25,
        25,
        26,
        27,
        28,
        29,
        29,
        29,
        30,
        31,
        30,
        29,
        29,
        28,
        27,
        27,
        26,
        26
      ]
    },
    "PEK": {
      "icao": "ZBAA",
      "issued": "2026-07-15T09:02:00.000Z",
      "raw": "TAF ZBAA 150902Z 1512/1618 18004MPS CAVOK TX33/1606Z TN24/1521Z TN25/1618Z",
      "groups": [
        {
          "text": "TAF ZBAA 150902Z 1512/1618 18004MPS CAVOK TX33/1606Z TN24/1521Z TN25/1618Z",
          "offset_h": -3,
          "wdir": null,
          "wspd": null
        }
      ],
      "metar_raw": "METAR ZBAA 151500Z 08001MPS CAVOK 25/23 Q1000 NOSIG",
      "metar_wdir": null,
      "metar_wspd": null,
      "metar_oat": 25,
      "metar_qnh": 1000,
      "hourly_oat": [
        27,
        26,
        25,
        25,
        24,
        25,
        24,
        24,
        25,
        26,
        27,
        27,
        29,
        31,
        32,
        33,
        33,
        32,
        31,
        30,
        29,
        28,
        27,
        27,
        27
      ]
    }
  }
}