{
  "updated": "2026-07-12T20:00:07Z",
  "tafs": {
    "LAX": {
      "icao": "KLAX",
      "issued": "2026-07-12T17:35:00.000Z",
      "raw": "TAF KLAX 121735Z 1218/1324 23004KT P6SM BKN180 BKN250 FM122000 26011KT P6SM BKN150 OVC250 FM130500 27005KT P6SM BKN250 FM130800 26004KT P6SM OVC015 FM131700 26007KT P6SM BKN120 FM132100 26011KT P6SM BKN250",
      "groups": [
        {
          "text": "TAF KLAX 121735Z 1218/1324 23004KT P6SM BKN180 BKN250",
          "offset_h": -2,
          "wdir": 230,
          "wspd": 4
        },
        {
          "text": "FM122000 26011KT P6SM BKN150 OVC250",
          "offset_h": 0,
          "wdir": 260,
          "wspd": 11
        },
        {
          "text": "FM130500 27005KT P6SM BKN250",
          "offset_h": 9,
          "wdir": 270,
          "wspd": 5
        },
        {
          "text": "FM130800 26004KT P6SM OVC015",
          "offset_h": 12,
          "wdir": 260,
          "wspd": 4
        },
        {
          "text": "FM131700 26007KT P6SM BKN120",
          "offset_h": 21,
          "wdir": 260,
          "wspd": 7
        },
        {
          "text": "FM132100 26011KT P6SM BKN250",
          "offset_h": 25,
          "wdir": 260,
          "wspd": 11
        }
      ],
      "metar_raw": "METAR KLAX 121953Z 20007KT 10SM FEW010 BKN120 BKN180 OVC250 22/18 A2994 RMK AO2 SLP136 T02220178 $",
      "metar_wdir": 200,
      "metar_wspd": 7,
      "metar_oat": 22,
      "metar_qnh": 1014,
      "hourly_oat": [
        22,
        22,
        21,
        23,
        22,
        21,
        21,
        20,
        19,
        19,
        19,
        19,
        19,
        19,
        18,
        18,
        18,
        18,
        18,
        19,
        20,
        20,
        22,
        23,
        23
      ]
    },
    "SAN": {
      "icao": "KSAN",
      "issued": "2026-07-12T17:29:00.000Z",
      "raw": "TAF KSAN 121729Z 1218/1324 VRB04KT P6SM FEW015 BKN120 FM121900 28009KT P6SM BKN120 FM130300 VRB04KT P6SM SCT012 SCT150 FM130700 VRB03KT P6SM BKN012 FM131600 VRB04KT P6SM SCT015 SCT150 FM131800 28008KT P6SM SCT150",
      "groups": [
        {
          "text": "TAF KSAN 121729Z 1218/1324 VRB04KT P6SM FEW015 BKN120",
          "offset_h": -2,
          "wdir": "VRB",
          "wspd": 4
        },
        {
          "text": "FM121900 28009KT P6SM BKN120",
          "offset_h": -1,
          "wdir": 280,
          "wspd": 9
        },
        {
          "text": "FM130300 VRB04KT P6SM SCT012 SCT150",
          "offset_h": 7,
          "wdir": "VRB",
          "wspd": 4
        },
        {
          "text": "FM130700 VRB03KT P6SM BKN012",
          "offset_h": 11,
          "wdir": "VRB",
          "wspd": 3
        },
        {
          "text": "FM131600 VRB04KT P6SM SCT015 SCT150",
          "offset_h": 20,
          "wdir": "VRB",
          "wspd": 4
        },
        {
          "text": "FM131800 28008KT P6SM SCT150",
          "offset_h": 22,
          "wdir": 280,
          "wspd": 8
        }
      ],
      "metar_raw": "METAR KSAN 121951Z 30010G18KT 10SM FEW015 BKN120 BKN200 23/18 A2994 RMK AO2 SLP139 T02330178 $",
      "metar_wdir": 300,
      "metar_wspd": 10,
      "metar_oat": 23,
      "metar_qnh": 1014,
      "hourly_oat": [
        25,
        26,
        26,
        25,
        24,
        23,
        22,
        21,
        20,
        20,
        20,
        20,
        20,
        19,
        19,
        19,
        19,
        18,
        19,
        19,
        20,
        23,
        23,
        23,
        23
      ]
    },
    "HNL": {
      "icao": "PHNL",
      "issued": "2026-07-12T17:20:00.000Z",
      "raw": "TAF PHNL 121720Z 1218/1324 05008KT P6SM VCSH SCT025 BKN040 FM121900 06015G25KT P6SM SCT025 BKN040 FM130700 05010KT P6SM SCT025 SCT040 FM132000 06015G25KT P6SM SCT025 SCT040",
      "groups": [
        {
          "text": "TAF PHNL 121720Z 1218/1324 05008KT P6SM VCSH SCT025 BKN040",
          "offset_h": -2,
          "wdir": 50,
          "wspd": 8
        },
        {
          "text": "FM121900 06015G25KT P6SM SCT025 BKN040",
          "offset_h": -1,
          "wdir": 60,
          "wspd": 15
        },
        {
          "text": "FM130700 05010KT P6SM SCT025 SCT040",
          "offset_h": 11,
          "wdir": 50,
          "wspd": 10
        },
        {
          "text": "FM132000 06015G25KT P6SM SCT025 SCT040",
          "offset_h": 24,
          "wdir": 60,
          "wspd": 15
        }
      ],
      "metar_raw": "METAR PHNL 121953Z 07009G18KT 10SM FEW026 SCT039 SCT070 29/21 A3003 RMK AO2 SLP168 VCSH NE T02890206 $",
      "metar_wdir": 70,
      "metar_wspd": 9,
      "metar_oat": 29,
      "metar_qnh": 1017,
      "hourly_oat": [
        28,
        28,
        28,
        28,
        28,
        28,
        28,
        27,
        26,
        25,
        24,
        24,
        24,
        23,
        23,
        23,
        23,
        22,
        22,
        22,
        22,
        23,
        24,
        26,
        28
      ]
    },
    "ITM": {
      "icao": "RJOO",
      "issued": "2026-07-12T17:05:00.000Z",
      "raw": "TAF RJOO 121705Z 1218/1400 27004KT 9999 FEW020 BECMG 1223/1301 22006KT TEMPO 1304/1309 TS FEW020 FEW025CB SCT035 BECMG 1309/1312 32006KT",
      "groups": [
        {
          "text": "TAF RJOO 121705Z 1218/1400 27004KT 9999 FEW020",
          "offset_h": -2,
          "wdir": 270,
          "wspd": 4
        },
        {
          "text": "BECMG 1223/1301 22006KT",
          "offset_h": 3,
          "wdir": 220,
          "wspd": 6
        },
        {
          "text": "TEMPO 1304/1309 TS FEW020 FEW025CB SCT035",
          "offset_h": 8,
          "wdir": null,
          "wspd": null
        },
        {
          "text": "BECMG 1309/1312 32006KT",
          "offset_h": 13,
          "wdir": 320,
          "wspd": 6
        }
      ],
      "metar_raw": "METAR RJOO 121900Z AUTO 18003KT 140V220 9999 BKN037 BKN050 28/24 Q1011",
      "metar_wdir": 180,
      "metar_wspd": 3,
      "metar_oat": 28,
      "metar_qnh": 1011,
      "hourly_oat": [
        25,
        25,
        26,
        27,
        28,
        29,
        30,
        30,
        30,
        31,
        31,
        31,
        31,
        31,
        30,
        30,
        28,
        27,
        27,
        26,
        26,
        26,
        26,
        25,
        25
      ]
    },
    "OKA": {
      "icao": "ROAH",
      "issued": "2026-07-12T17:05:00.000Z",
      "raw": "TAF ROAH 121705Z 1218/1400 17018KT 9999 FEW008 BKN012 TEMPO 1218/1300 FEW005 BKN008 TEMPO 1315/1400 FEW005 BKN008",
      "groups": [
        {
          "text": "TAF ROAH 121705Z 1218/1400 17018KT 9999 FEW008 BKN012",
          "offset_h": -2,
          "wdir": 170,
          "wspd": 18
        },
        {
          "text": "TEMPO 1218/1300 FEW005 BKN008",
          "offset_h": -2,
          "wdir": null,
          "wspd": null
        },
        {
          "text": "TEMPO 1315/1400 FEW005 BKN008",
          "offset_h": 19,
          "wdir": null,
          "wspd": null
        }
      ],
      "metar_raw": "METAR ROAH 121930Z AUTO 16018KT 9999 FEW008 BKN010 BKN014 27/26 Q1010",
      "metar_wdir": 160,
      "metar_wspd": 18,
      "metar_oat": 27,
      "metar_qnh": 1010,
      "hourly_oat": [
        26,
        26,
        27,
        28,
        28,
        29,
        29,
        29,
        29,
        29,
        29,
        29,
        28,
        28,
        27,
        27,
        27,
        27,
        26,
        26,
        26,
        26,
        26,
        26,
        26
      ]
    },
    "NGO": {
      "icao": "RJGG",
      "issued": "2026-07-12T17:05:00.000Z",
      "raw": "TAF RJGG 121705Z 1218/1400 30008KT 9999 FEW030",
      "groups": [
        {
          "text": "TAF RJGG 121705Z 1218/1400 30008KT 9999 FEW030",
          "offset_h": -2,
          "wdir": 300,
          "wspd": 8
        }
      ],
      "metar_raw": "METAR RJGG 121930Z AUTO 28010KT 9999 NSC 28/24 Q1009 NOSIG",
      "metar_wdir": 280,
      "metar_wspd": 10,
      "metar_oat": 28,
      "metar_qnh": 1009,
      "hourly_oat": [
        26,
        26,
        26,
        26,
        27,
        28,
        28,
        28,
        28,
        28,
        28,
        28,
        28,
        28,
        28,
        28,
        27,
        27,
        27,
        27,
        27,
        26,
        26,
        26,
        26
      ]
    },
    "FUK": {
      "icao": "RJFF",
      "issued": "2026-07-12T17:05:00.000Z",
      "raw": "TAF RJFF 121705Z 1218/1400 14004KT 9999 FEW020 SCT045 BECMG 1301/1303 33011KT BECMG 1309/1312 15008KT",
      "groups": [
        {
          "text": "TAF RJFF 121705Z 1218/1400 14004KT 9999 FEW020 SCT045",
          "offset_h": -2,
          "wdir": 140,
          "wspd": 4
        },
        {
          "text": "BECMG 1301/1303 33011KT",
          "offset_h": 5,
          "wdir": 330,
          "wspd": 11
        },
        {
          "text": "BECMG 1309/1312 15008KT",
          "offset_h": 13,
          "wdir": 150,
          "wspd": 8
        }
      ],
      "metar_raw": "METAR RJFF 121930Z AUTO 15003KT 9999 NCD 28/25 Q1012 NOSIG",
      "metar_wdir": 150,
      "metar_wspd": 3,
      "metar_oat": 28,
      "metar_qnh": 1012,
      "hourly_oat": [
        26,
        26,
        27,
        28,
        30,
        31,
        32,
        32,
        32,
        31,
        30,
        30,
        30,
        30,
        30,
        30,
        29,
        28,
        28,
        27,
        27,
        27,
        26,
        26,
        26
      ]
    },
    "CTS": {
      "icao": "RJCC",
      "issued": "2026-07-12T17:05:00.000Z",
      "raw": "TAF RJCC 121705Z 1218/1400 34006KT 9999 FEW008 BKN015 TEMPO 1218/1221 FEW003 BKN005 TEMPO 1221/1300 FEW005 BKN008 TEMPO 1309/1312 FEW005 BKN008 TEMPO 1312/1315 3000 BR FEW003 BKN005 BECMG 1315/1318 17006KT TEMPO 1315/1400 1500 BR FEW001 BKN003",
      "groups": [
        {
          "text": "TAF RJCC 121705Z 1218/1400 34006KT 9999 FEW008 BKN015",
          "offset_h": -2,
          "wdir": 340,
          "wspd": 6
        },
        {
          "text": "TEMPO 1218/1221 FEW003 BKN005",
          "offset_h": -2,
          "wdir": null,
          "wspd": null
        },
        {
          "text": "TEMPO 1221/1300 FEW005 BKN008",
          "offset_h": 1,
          "wdir": null,
          "wspd": null
        },
        {
          "text": "TEMPO 1309/1312 FEW005 BKN008",
          "offset_h": 13,
          "wdir": null,
          "wspd": null
        },
        {
          "text": "TEMPO 1312/1315 3000 BR FEW003 BKN005",
          "offset_h": 16,
          "wdir": null,
          "wspd": null
        },
        {
          "text": "BECMG 1315/1318 17006KT",
          "offset_h": 19,
          "wdir": 170,
          "wspd": 6
        },
        {
          "text": "TEMPO 1315/1400 1500 BR FEW001 BKN003",
          "offset_h": 19,
          "wdir": null,
          "wspd": null
        }
      ],
      "metar_raw": "METAR RJCC 121930Z 35006KT 5000 BR FEW001 BKN003 BKN004 21/21 Q1005",
      "metar_wdir": 350,
      "metar_wspd": 6,
      "metar_oat": 21,
      "metar_qnh": 1005,
      "hourly_oat": [
        21,
        22,
        22,
        24,
        25,
        26,
        27,
        27,
        26,
        27,
        27,
        26,
        24,
        23,
        22,
        21,
        21,
        21,
        20,
        20,
        20,
        20,
        20,
        20,
        21
      ]
    },
    "NRT": {
      "icao": "RJAA",
      "issued": "2026-07-12T17:05:00.000Z",
      "raw": "TAF RJAA 121705Z 1218/1400 22004KT 8000 -RA FEW003 BKN012 TEMPO 1218/1222 4000 -RA BR BECMG 1221/1223 25008KT BECMG 1318/1321 18004KT",
      "groups": [
        {
          "text": "TAF RJAA 121705Z 1218/1400 22004KT 8000 -RA FEW003 BKN012",
          "offset_h": -2,
          "wdir": 220,
          "wspd": 4
        },
        {
          "text": "TEMPO 1218/1222 4000 -RA BR",
          "offset_h": -2,
          "wdir": null,
          "wspd": null
        },
        {
          "text": "BECMG 1221/1223 25008KT",
          "offset_h": 1,
          "wdir": 250,
          "wspd": 8
        },
        {
          "text": "BECMG 1318/1321 18004KT",
          "offset_h": 22,
          "wdir": 180,
          "wspd": 4
        }
      ],
      "metar_raw": "METAR RJAA 121930Z AUTO 19004KT 9999 -RA NSC 24/23 Q1005 NOSIG",
      "metar_wdir": 190,
      "metar_wspd": 4,
      "metar_oat": 24,
      "metar_qnh": 1005,
      "hourly_oat": [
        24,
        24,
        24,
        26,
        27,
        28,
        29,
        30,
        30,
        30,
        30,
        29,
        28,
        28,
        27,
        26,
        26,
        26,
        25,
        25,
        25,
        24,
        23,
        23,
        23
      ]
    },
    "KIX": {
      "icao": "RJBB",
      "issued": "2026-07-12T17:05:00.000Z",
      "raw": "TAF RJBB 121705Z 1218/1400 21006KT 9999 FEW025 BECMG 1312/1315 04004KT",
      "groups": [
        {
          "text": "TAF RJBB 121705Z 1218/1400 21006KT 9999 FEW025",
          "offset_h": -2,
          "wdir": 210,
          "wspd": 6
        },
        {
          "text": "BECMG 1312/1315 04004KT",
          "offset_h": 16,
          "wdir": 40,
          "wspd": 4
        }
      ],
      "metar_raw": "METAR RJBB 121930Z AUTO 19002KT 9999 FEW042 SCT045 BKN240 26/24 Q1011 NOSIG",
      "metar_wdir": 190,
      "metar_wspd": 2,
      "metar_oat": 26,
      "metar_qnh": 1011,
      "hourly_oat": [
        26,
        26,
        26,
        26,
        26,
        26,
        26,
        27,
        27,
        27,
        28,
        28,
        28,
        29,
        27,
        27,
        27,
        27,
        27,
        26,
        26,
        26,
        26,
        26,
        26
      ]
    },
    "HND": {
      "icao": "RJTT",
      "issued": "2026-07-12T17:05:00.000Z",
      "raw": "TAF RJTT 121705Z 1218/1400 21008KT 9999 FEW020",
      "groups": [
        {
          "text": "TAF RJTT 121705Z 1218/1400 21008KT 9999 FEW020",
          "offset_h": -2,
          "wdir": 210,
          "wspd": 8
        }
      ],
      "metar_raw": "METAR RJTT 121930Z 20010KT 9999 -SHRA FEW010 SCT130 BKN150 26/24 Q1006 NOSIG",
      "metar_wdir": 200,
      "metar_wspd": 10,
      "metar_oat": 26,
      "metar_qnh": 1006,
      "hourly_oat": [
        24,
        24,
        25,
        25,
        25,
        25,
        25,
        25,
        26,
        26,
        26,
        27,
        27,
        27,
        26,
        26,
        26,
        25,
        25,
        25,
        24,
        24,
        24,
        23,
        24
      ]
    },
    "CGK": {
      "icao": "WIII",
      "issued": "2026-07-12T17:00:00.000Z",
      "raw": "TAF WIII 121700Z 1218/1400 14006KT 7000 SCT020 BECMG 1218/1220 5000 HZ BECMG 1301/1303 05011KT 7000 NSW",
      "groups": [
        {
          "text": "TAF WIII 121700Z 1218/1400 14006KT 7000 SCT020",
          "offset_h": -2,
          "wdir": 140,
          "wspd": 6
        },
        {
          "text": "BECMG 1218/1220 5000 HZ",
          "offset_h": -2,
          "wdir": null,
          "wspd": null
        },
        {
          "text": "BECMG 1301/1303 05011KT 7000 NSW",
          "offset_h": 5,
          "wdir": 50,
          "wspd": 11
        }
      ],
      "metar_raw": "METAR WIII 121930Z 13005KT 5000 HZ FEW020 26/23 Q1010 NOSIG",
      "metar_wdir": 130,
      "metar_wspd": 5,
      "metar_oat": 26,
      "metar_qnh": 1010,
      "hourly_oat": [
        25,
        24,
        24,
        24,
        25,
        28,
        29,
        31,
        33,
        34,
        34,
        34,
        32,
        31,
        30,
        28,
        28,
        28,
        28,
        28,
        27,
        26,
        26,
        26,
        25
      ]
    },
    "KUL": {
      "icao": "WMKK",
      "issued": "2026-07-12T17:00:00.000Z",
      "raw": "TAF WMKK 121700Z 1218/1400 13005KT 8000 FEW030",
      "groups": [
        {
          "text": "TAF WMKK 121700Z 1218/1400 13005KT 8000 FEW030",
          "offset_h": -2,
          "wdir": 130,
          "wspd": 5
        }
      ],
      "metar_raw": "METAR WMKK 121930Z 12004KT 070V220 8000 FEW030 28/25 Q1007 NOSIG",
      "metar_wdir": 120,
      "metar_wspd": 4,
      "metar_oat": 28,
      "metar_qnh": 1007,
      "hourly_oat": [
        26,
        26,
        25,
        25,
        25,
        26,
        28,
        30,
        30,
        31,
        31,
        31,
        31,
        30,
        30,
        29,
        28,
        28,
        27,
        27,
        27,
        27,
        27,
        26,
        26
      ]
    },
    "HAN": {
      "icao": "VVNB",
      "issued": "2026-07-12T17:00:00.000Z",
      "raw": "TAF VVNB 121700Z 1218/1318 06005KT 9999 SCT015 PROB40 TEMPO 1301/1305 4000 TSRA SCT010 FEW027CB TEMPO 1310/1315 4000 TSRA SCT010 FEW027CB",
      "groups": [
        {
          "text": "TAF VVNB 121700Z 1218/1318 06005KT 9999 SCT015",
          "offset_h": -2,
          "wdir": 60,
          "wspd": 5
        },
        {
          "text": "PROB40",
          "offset_h": 0,
          "wdir": null,
          "wspd": null
        },
        {
          "text": "TEMPO 1301/1305 4000 TSRA SCT010 FEW027CB",
          "offset_h": 5,
          "wdir": null,
          "wspd": null
        },
        {
          "text": "TEMPO 1310/1315 4000 TSRA SCT010 FEW027CB",
          "offset_h": 14,
          "wdir": null,
          "wspd": null
        }
      ],
      "metar_raw": "METAR VVNB 121930Z 04005KT 9999 FEW016 28/26 Q1001 NOSIG",
      "metar_wdir": 40,
      "metar_wspd": 5,
      "metar_oat": 28,
      "metar_qnh": 1001,
      "hourly_oat": [
        27,
        27,
        27,
        27,
        28,
        30,
        31,
        32,
        32,
        33,
        33,
        33,
        33,
        31,
        30,
        30,
        29,
        29,
        28,
        28,
        28,
        28,
        27,
        27,
        27
      ]
    },
    "SGN": {
      "icao": "VVTS",
      "issued": "2026-07-12T17:00:00.000Z",
      "raw": "TAF VVTS 121700Z 1218/1324 25010KT 9999 SCT017 TEMPO 1305/1309 25015G28KT 4000 TSRA SCT015 FEW017CB",
      "groups": [
        {
          "text": "TAF VVTS 121700Z 1218/1324 25010KT 9999 SCT017",
          "offset_h": -2,
          "wdir": 250,
          "wspd": 10
        },
        {
          "text": "TEMPO 1305/1309 25015G28KT 4000 TSRA SCT015 FEW017CB",
          "offset_h": 9,
          "wdir": 250,
          "wspd": 15
        }
      ],
      "metar_raw": "METAR VVTS 121930Z 25008KT 220V280 9999 -RA FEW017 BKN050 26/24 Q1007 NOSIG",
      "metar_wdir": 250,
      "metar_wspd": 8,
      "metar_oat": 26,
      "metar_qnh": 1007,
      "hourly_oat": [
        26,
        26,
        26,
        25,
        25,
        26,
        28,
        29,
        30,
        30,
        27,
        27,
        27,
        27,
        26,
        26,
        26,
        26,
        26,
        26,
        26,
        26,
        25,
        25,
        24
      ]
    },
    "SIN": {
      "icao": "WSSS",
      "issued": "2026-07-12T17:00:00.000Z",
      "raw": "TAF WSSS 121700Z 1218/1400 13007KT 9999 FEW015 SCT020",
      "groups": [
        {
          "text": "TAF WSSS 121700Z 1218/1400 13007KT 9999 FEW015 SCT020",
          "offset_h": -2,
          "wdir": 130,
          "wspd": 7
        }
      ],
      "metar_raw": "METAR WSSS 121930Z 13007KT 9999 FEW016 BKN300 28/25 Q1008 NOSIG",
      "metar_wdir": 130,
      "metar_wspd": 7,
      "metar_oat": 28,
      "metar_qnh": 1008,
      "hourly_oat": [
        28,
        28,
        28,
        28,
        29,
        29,
        30,
        31,
        31,
        31,
        31,
        31,
        31,
        31,
        31,
        30,
        29,
        29,
        29,
        29,
        29,
        28,
        28,
        28,
        28
      ]
    },
    "TSA": {
      "icao": "RCSS",
      "issued": "2026-07-12T17:00:00.000Z",
      "raw": "TAF RCSS 121700Z 1218/1318 09005KT 9999 FEW015 BKN032 BECMG 1301/1303 33005KT TEMPO 1306/1309 15010KT 2400 TSRA SCT006 BKN011 FEW012CB BKN030 TEMPO 1309/1311 12005KT 5000 SHRA SCT008 FEW015CB BKN020 BKN050 BECMG 1311/1313 10005KT",
      "groups": [
        {
          "text": "TAF RCSS 121700Z 1218/1318 09005KT 9999 FEW015 BKN032",
          "offset_h": -2,
          "wdir": 90,
          "wspd": 5
        },
        {
          "text": "BECMG 1301/1303 33005KT",
          "offset_h": 5,
          "wdir": 330,
          "wspd": 5
        },
        {
          "text": "TEMPO 1306/1309 15010KT 2400 TSRA SCT006 BKN011 FEW012CB BKN030",
          "offset_h": 10,
          "wdir": 150,
          "wspd": 10
        },
        {
          "text": "TEMPO 1309/1311 12005KT 5000 SHRA SCT008 FEW015CB BKN020 BKN050",
          "offset_h": 13,
          "wdir": 120,
          "wspd": 5
        },
        {
          "text": "BECMG 1311/1313 10005KT",
          "offset_h": 15,
          "wdir": 100,
          "wspd": 5
        }
      ],
      "metar_raw": "METAR RCSS 121900Z 09005KT 9999 FEW018 BKN045 BKN100 28/28 Q1004 NOSIG RMK A2966",
      "metar_wdir": 90,
      "metar_wspd": 5,
      "metar_oat": 28,
      "metar_qnh": 1004,
      "hourly_oat": [
        26,
        25,
        26,
        27,
        29,
        30,
        31,
        32,
        31,
        30,
        31,
        30,
        30,
        30,
        29,
        28,
        27,
        27,
        27,
        27,
        27,
        27,
        27,
        26,
        26
      ]
    },
    "TPE": {
      "icao": "RCTP",
      "issued": "2026-07-12T17:00:00.000Z",
      "raw": "TAF RCTP 121700Z 1218/1324 33005KT 9999 FEW015 BKN032 TEMPO 1218/1224 12005KT TEMPO 1303/1307 24010KT TEMPO 1307/1311 15010KT 5000 SHRA SCT008 FEW015CB BKN020 BKN050 BECMG 1311/1313 17005KT",
      "groups": [
        {
          "text": "TAF RCTP 121700Z 1218/1324 33005KT 9999 FEW015 BKN032",
          "offset_h": -2,
          "wdir": 330,
          "wspd": 5
        },
        {
          "text": "TEMPO 1218/1224 12005KT",
          "offset_h": -2,
          "wdir": 120,
          "wspd": 5
        },
        {
          "text": "TEMPO 1303/1307 24010KT",
          "offset_h": 7,
          "wdir": 240,
          "wspd": 10
        },
        {
          "text": "TEMPO 1307/1311 15010KT 5000 SHRA SCT008 FEW015CB BKN020 BKN050",
          "offset_h": 11,
          "wdir": 150,
          "wspd": 10
        },
        {
          "text": "BECMG 1311/1313 17005KT",
          "offset_h": 15,
          "wdir": 170,
          "wspd": 5
        }
      ],
      "metar_raw": "METAR RCTP 121930Z 01001KT 9999 FEW008 BKN014 BKN032 29/27 Q1004 NOSIG RMK A2967",
      "metar_wdir": 10,
      "metar_wspd": 1,
      "metar_oat": 29,
      "metar_qnh": 1004,
      "hourly_oat": [
        27,
        26,
        26,
        27,
        28,
        30,
        30,
        31,
        30,
        30,
        28,
        29,
        29,
        29,
        28,
        27,
        27,
        27,
        27,
        27,
        27,
        26,
        26,
        26,
        26
      ]
    },
    "HKG": {
      "icao": "VHHH",
      "issued": "2026-07-12T17:00:00.000Z",
      "raw": "TAF VHHH 121700Z 1218/1324 16010KT 9999 FEW010 TX33/1306Z TN29/1222Z TN27/1322Z TEMPO 1218/1224 VRB05KT TEMPO 1303/1308 4000 SHRA FEW010CB SCT020 TEMPO 1317/1321 18015G25KT 3500 SHRA FEW010CB SCT020 TEMPO 1321/1324 VRB20G30KT 2000 TSRA SHRA FEW008CB SCT015",
      "groups": [
        {
          "text": "TAF VHHH 121700Z 1218/1324 16010KT 9999 FEW010 TX33/1306Z TN29/1222Z TN27/1322Z",
          "offset_h": -2,
          "wdir": 160,
          "wspd": 10
        },
        {
          "text": "TEMPO 1218/1224 VRB05KT",
          "offset_h": -2,
          "wdir": "VRB",
          "wspd": 5
        },
        {
          "text": "TEMPO 1303/1308 4000 SHRA FEW010CB SCT020",
          "offset_h": 7,
          "wdir": null,
          "wspd": null
        },
        {
          "text": "TEMPO 1317/1321 18015G25KT 3500 SHRA FEW010CB SCT020",
          "offset_h": 21,
          "wdir": 180,
          "wspd": 15
        },
        {
          "text": "TEMPO 1321/1324 VRB20G30KT 2000 TSRA SHRA FEW008CB SCT015",
          "offset_h": 25,
          "wdir": "VRB",
          "wspd": 20
        }
      ],
      "metar_raw": "METAR VHHH 121930Z VRB03KT 9999 FEW012 30/25 Q1001 NOSIG",
      "metar_wdir": "VRB",
      "metar_wspd": 3,
      "metar_oat": 30,
      "metar_qnh": 1001,
      "hourly_oat": [
        29,
        29,
        28,
        29,
        29,
        30,
        30,
        31,
        32,
        30,
        29,
        30,
        30,
        29,
        29,
        28,
        28,
        28,
        28,
        28,
        28,
        28,
        26,
        26,
        26
      ]
    },
    "GMP": {
      "icao": "RKSS",
      "issued": "2026-07-12T17:00:00.000Z",
      "raw": "TAF RKSS 121700Z 1218/1324 18005KT CAVOK TN25/1220Z TX33/1306Z TN26/1321Z BECMG 1303/1305 24007KT 9999 SCT035 BECMG 1315/1317 17008KT 6000 BKN035",
      "groups": [
        {
          "text": "TAF RKSS 121700Z 1218/1324 18005KT CAVOK TN25/1220Z TX33/1306Z TN26/1321Z",
          "offset_h": -2,
          "wdir": 180,
          "wspd": 5
        },
        {
          "text": "BECMG 1303/1305 24007KT 9999 SCT035",
          "offset_h": 7,
          "wdir": 240,
          "wspd": 7
        },
        {
          "text": "BECMG 1315/1317 17008KT 6000 BKN035",
          "offset_h": 19,
          "wdir": 170,
          "wspd": 8
        }
      ],
      "metar_raw": "METAR RKSS 121900Z 18003KT CAVOK 27/25 Q1010 NOSIG",
      "metar_wdir": 180,
      "metar_wspd": 3,
      "metar_oat": 27,
      "metar_qnh": 1010,
      "hourly_oat": [
        24,
        25,
        26,
        27,
        28,
        29,
        30,
        31,
        31,
        32,
        32,
        32,
        31,
        30,
        29,
        28,
        27,
        27,
        27,
        27,
        26,
        26,
        26,
        26,
        26
      ]
    },
    "BKK": {
      "icao": "VTBS",
      "issued": "2026-07-12T17:00:00.000Z",
      "raw": "TAF VTBS 121700Z 1218/1324 23008KT 9999 FEW020 TEMPO 1308/1312 VRB15KT 4000 TSRA FEW018CB SCT030 BKN080",
      "groups": [
        {
          "text": "TAF VTBS 121700Z 1218/1324 23008KT 9999 FEW020",
          "offset_h": -2,
          "wdir": 230,
          "wspd": 8
        },
        {
          "text": "TEMPO 1308/1312 VRB15KT 4000 TSRA FEW018CB SCT030 BKN080",
          "offset_h": 12,
          "wdir": "VRB",
          "wspd": 15
        }
      ],
      "metar_raw": "METAR VTBS 121930Z 24007KT 9999 FEW020 29/23 Q1005 NOSIG",
      "metar_wdir": 240,
      "metar_wspd": 7,
      "metar_oat": 29,
      "metar_qnh": 1005,
      "hourly_oat": [
        26,
        26,
        26,
        26,
        27,
        28,
        29,
        30,
        29,
        31,
        30,
        29,
        30,
        30,
        29,
        29,
        28,
        28,
        28,
        28,
        28,
        27,
        27,
        27,
        27
      ]
    },
    "PEK": {
      "icao": "ZBAA",
      "issued": "2026-07-12T15:04:00.000Z",
      "raw": "TAF ZBAA 121504Z 1218/1324 36004MPS CAVOK TX33/1307Z TN24/1221Z TN23/1321Z",
      "groups": [
        {
          "text": "TAF ZBAA 121504Z 1218/1324 36004MPS CAVOK TX33/1307Z TN24/1221Z TN23/1321Z",
          "offset_h": -2,
          "wdir": null,
          "wspd": null
        }
      ],
      "metar_raw": "METAR ZBAA 121930Z 36002MPS CAVOK 25/25 Q1003 NOSIG",
      "metar_wdir": null,
      "metar_wspd": null,
      "metar_oat": 25,
      "metar_qnh": 1003,
      "hourly_oat": [
        25,
        24,
        25,
        26,
        27,
        28,
        30,
        30,
        31,
        32,
        32,
        33,
        33,
        33,
        32,
        30,
        28,
        28,
        27,
        27,
        26,
        25,
        25,
        24,
        24
      ]
    },
    "DLC": {
      "icao": "ZYTL",
      "issued": "2026-07-12T15:03:00.000Z",
      "raw": "TAF ZYTL 121503Z 1218/1318 14004G10MPS 5000 BR SCT026 TX28/1306Z TN23/1221Z BECMG 1306/1307 2000 -SHRA BR BKN010 BKN026",
      "groups": [
        {
          "text": "TAF ZYTL 121503Z 1218/1318 14004G10MPS 5000 BR SCT026 TX28/1306Z TN23/1221Z",
          "offset_h": -2,
          "wdir": null,
          "wspd": null
        },
        {
          "text": "BECMG 1306/1307 2000 -SHRA BR BKN010 BKN026",
          "offset_h": 10,
          "wdir": null,
          "wspd": null
        }
      ],
      "metar_raw": "METAR ZYTL 121930Z 14007G12MPS 9999 SCT008 SCT010 BKN020 25/24 Q1004 NOSIG",
      "metar_wdir": null,
      "metar_wspd": null,
      "metar_oat": 25,
      "metar_qnh": 1004,
      "hourly_oat": [
        25,
        25,
        25,
        26,
        26,
        25,
        25,
        25,
        24,
        25,
        26,
        25,
        25,
        25,
        25,
        24,
        24,
        24,
        24,
        24,
        24,
        24,
        24,
        24,
        24
      ]
    },
    "SHA": {
      "icao": "ZSSS",
      "issued": "2026-07-12T15:03:00.000Z",
      "raw": "TAF ZSSS 121503Z 1218/1324 16009G16MPS 8000 BKN020 TX33/1306Z TN28/1221Z TN28/1321Z BECMG 1306/1307 17005MPS",
      "groups": [
        {
          "text": "TAF ZSSS 121503Z 1218/1324 16009G16MPS 8000 BKN020 TX33/1306Z TN28/1221Z TN28/1321Z",
          "offset_h": -2,
          "wdir": null,
          "wspd": null
        },
        {
          "text": "BECMG 1306/1307 17005MPS",
          "offset_h": 10,
          "wdir": null,
          "wspd": null
        }
      ],
      "metar_raw": "METAR ZSSS 121930Z 17009MPS CAVOK 29/25 Q0999 NOSIG",
      "metar_wdir": null,
      "metar_wspd": null,
      "metar_oat": 29,
      "metar_qnh": 999,
      "hourly_oat": [
        28,
        28,
        28,
        29,
        29,
        30,
        32,
        32,
        32,
        33,
        33,
        32,
        32,
        31,
        31,
        30,
        30,
        29,
        29,
        28,
        28,
        28,
        28,
        28,
        28
      ]
    },
    "PVG": {
      "icao": "ZSPD",
      "issued": "2026-07-12T15:03:00.000Z",
      "raw": "TAF ZSPD 121503Z 1218/1324 16011G18MPS 8000 BKN020 TX32/1306Z TN28/1221Z TN28/1321Z BECMG 1309/1310 18008MPS",
      "groups": [
        {
          "text": "TAF ZSPD 121503Z 1218/1324 16011G18MPS 8000 BKN020 TX32/1306Z TN28/1221Z TN28/1321Z",
          "offset_h": -2,
          "wdir": null,
          "wspd": null
        },
        {
          "text": "BECMG 1309/1310 18008MPS",
          "offset_h": 13,
          "wdir": null,
          "wspd": null
        }
      ],
      "metar_raw": "METAR ZSPD 121930Z 16011MPS CAVOK 28/25 Q0999 NOSIG",
      "metar_wdir": null,
      "metar_wspd": null,
      "metar_oat": 28,
      "metar_qnh": 999,
      "hourly_oat": [
        28,
        28,
        28,
        29,
        29,
        30,
        31,
        32,
        32,
        33,
        32,
        31,
        31,
        31,
        30,
        29,
        29,
        29,
        28,
        28,
        28,
        28,
        28,
        28,
        28
      ]
    },
    "CAN": {
      "icao": "ZGGG",
      "issued": "2026-07-12T15:01:00.000Z",
      "raw": "TAF ZGGG 121501Z 1218/1324 16004MPS 8000 SCT040 TX37/1307Z TN29/1222Z TN28/1322Z TEMPO 1307/1311 TSRA SCT026CB BKN033",
      "groups": [
        {
          "text": "TAF ZGGG 121501Z 1218/1324 16004MPS 8000 SCT040 TX37/1307Z TN29/1222Z TN28/1322Z",
          "offset_h": -2,
          "wdir": null,
          "wspd": null
        },
        {
          "text": "TEMPO 1307/1311 TSRA SCT026CB BKN033",
          "offset_h": 11,
          "wdir": null,
          "wspd": null
        }
      ],
      "metar_raw": "METAR ZGGG 121930Z 13003MPS CAVOK 30/27 Q1001 NOSIG",
      "metar_wdir": null,
      "metar_wspd": null,
      "metar_oat": 30,
      "metar_qnh": 1001,
      "hourly_oat": [
        28,
        28,
        28,
        29,
        30,
        31,
        32,
        33,
        34,
        34,
        35,
        35,
        35,
        33,
        31,
        30,
        29,
        28,
        28,
        28,
        27,
        27,
        26,
        27,
        26
      ]
    }
  }
}