{
  "updated": "2026-07-12T05:15:43Z",
  "tafs": {
    "HKG": {
      "icao": "VHHH",
      "issued": "2026-07-12T05:00:00.000Z",
      "raw": "TAF VHHH 120500Z 1206/1312 22010KT 9999 FEW010 TX35/1206Z TX33/1306Z TN29/1222Z TEMPO 1220/1224 VRB05KT TEMPO 1303/1308 4000 SHRA FEW010CB SCT020 BECMG 1306/1308 16010KT",
      "groups": [
        {
          "text": "TAF VHHH 120500Z 1206/1312 22010KT 9999 FEW010 TX35/1206Z TX33/1306Z TN29/1222Z",
          "offset_h": 1,
          "wdir": 220,
          "wspd": 10
        },
        {
          "text": "TEMPO 1220/1224 VRB05KT",
          "offset_h": 15,
          "wdir": "VRB",
          "wspd": 5
        },
        {
          "text": "TEMPO 1303/1308 4000 SHRA FEW010CB SCT020",
          "offset_h": 22,
          "wdir": null,
          "wspd": null
        },
        {
          "text": "BECMG 1306/1308 16010KT",
          "offset_h": 25,
          "wdir": 160,
          "wspd": 10
        }
      ],
      "metar_raw": "METAR VHHH 120500Z 23013KT 9999 FEW012 34/26 Q0999 NOSIG",
      "metar_wdir": 230,
      "metar_wspd": 13,
      "metar_oat": 34,
      "metar_qnh": 999,
      "hourly_oat": [
        32,
        32,
        31,
        31,
        30,
        30,
        29,
        29,
        29,
        29,
        29,
        29,
        29,
        29,
        29,
        28,
        28,
        28,
        29,
        29,
        30,
        30,
        30,
        30,
        30
      ]
    },
    "GMP": {
      "icao": "RKSS",
      "issued": "2026-07-12T05:00:00.000Z",
      "raw": "TAF RKSS 120500Z 1206/1312 24006KT 9999 SCT045 TN25/1220Z TX34/1305Z BECMG 1214/1216 18005KT BECMG 1301/1303 24007KT",
      "groups": [
        {
          "text": "TAF RKSS 120500Z 1206/1312 24006KT 9999 SCT045 TN25/1220Z TX34/1305Z",
          "offset_h": 1,
          "wdir": 240,
          "wspd": 6
        },
        {
          "text": "BECMG 1214/1216 18005KT",
          "offset_h": 9,
          "wdir": 180,
          "wspd": 5
        },
        {
          "text": "BECMG 1301/1303 24007KT",
          "offset_h": 20,
          "wdir": 240,
          "wspd": 7
        }
      ],
      "metar_raw": "METAR RKSS 120500Z 17007KT 130V220 CAVOK 35/25 Q1010 NOSIG",
      "metar_wdir": 170,
      "metar_wspd": 7,
      "metar_oat": 35,
      "metar_qnh": 1010,
      "hourly_oat": [
        34,
        34,
        34,
        33,
        31,
        30,
        29,
        28,
        28,
        27,
        27,
        26,
        26,
        26,
        25,
        25,
        25,
        26,
        27,
        29,
        30,
        31,
        31,
        31,
        32
      ]
    },
    "TPE": {
      "icao": "RCTP",
      "issued": "2026-07-12T05:00:00.000Z",
      "raw": "TAF RCTP 120500Z 1206/1312 18005KT 9999 FEW015 BKN032 TEMPO 1210/1216 26010KT TEMPO 1220/1224 15005KT BECMG 1303/1305 02007KT TEMPO 1306/1312 VRB05KT 5000 SHRA FEW010 FEW012TCU BKN015",
      "groups": [
        {
          "text": "TAF RCTP 120500Z 1206/1312 18005KT 9999 FEW015 BKN032",
          "offset_h": 1,
          "wdir": 180,
          "wspd": 5
        },
        {
          "text": "TEMPO 1210/1216 26010KT",
          "offset_h": 5,
          "wdir": 260,
          "wspd": 10
        },
        {
          "text": "TEMPO 1220/1224 15005KT",
          "offset_h": 15,
          "wdir": 150,
          "wspd": 5
        },
        {
          "text": "BECMG 1303/1305 02007KT",
          "offset_h": 22,
          "wdir": 20,
          "wspd": 7
        },
        {
          "text": "TEMPO 1306/1312 VRB05KT 5000 SHRA FEW010 FEW012TCU BKN015",
          "offset_h": 25,
          "wdir": "VRB",
          "wspd": 5
        }
      ],
      "metar_raw": "METAR RCTP 120500Z 08004KT 050V150 9999 FEW020 BKN160 34/27 Q1000 NOSIG RMK A2955",
      "metar_wdir": 80,
      "metar_wspd": 4,
      "metar_oat": 34,
      "metar_qnh": 1000,
      "hourly_oat": [
        32,
        32,
        32,
        32,
        32,
        30,
        29,
        29,
        28,
        28,
        28,
        28,
        27,
        27,
        27,
        26,
        26,
        27,
        28,
        29,
        30,
        29,
        28,
        28,
        29
      ]
    },
    "TSA": {
      "icao": "RCSS",
      "issued": "2026-07-12T05:00:00.000Z",
      "raw": "TAF RCSS 120500Z 1206/1306 10005KT 9999 FEW015 BKN032 TEMPO 1215/1220 FEW012 BKN022 TEMPO 1302/1306 5000 SHRA FEW010 BKN017",
      "groups": [
        {
          "text": "TAF RCSS 120500Z 1206/1306 10005KT 9999 FEW015 BKN032",
          "offset_h": 1,
          "wdir": 100,
          "wspd": 5
        },
        {
          "text": "TEMPO 1215/1220 FEW012 BKN022",
          "offset_h": 10,
          "wdir": null,
          "wspd": null
        },
        {
          "text": "TEMPO 1302/1306 5000 SHRA FEW010 BKN017",
          "offset_h": 21,
          "wdir": null,
          "wspd": null
        }
      ],
      "metar_raw": "METAR RCSS 120500Z 11004KT 080V150 9999 FEW025 SCT060 BKN180 32/28 Q1000 NOSIG RMK A2955",
      "metar_wdir": 110,
      "metar_wspd": 4,
      "metar_oat": 32,
      "metar_qnh": 1000,
      "hourly_oat": [
        32,
        32,
        32,
        32,
        32,
        30,
        29,
        28,
        27,
        27,
        27,
        26,
        26,
        26,
        26,
        26,
        26,
        26,
        28,
        30,
        31,
        32,
        31,
        31,
        30
      ]
    },
    "CGK": {
      "icao": "WIII",
      "issued": "2026-07-12T05:00:00.000Z",
      "raw": "TAF WIII 120500Z 1206/1312 06012KT 8000 SCT020 BECMG 1213/1215 17005KT 4000 HZ",
      "groups": [
        {
          "text": "TAF WIII 120500Z 1206/1312 06012KT 8000 SCT020",
          "offset_h": 1,
          "wdir": 60,
          "wspd": 12
        },
        {
          "text": "BECMG 1213/1215 17005KT 4000 HZ",
          "offset_h": 8,
          "wdir": 170,
          "wspd": 5
        }
      ],
      "metar_raw": "METAR WIII 120500Z 05009KT 010V090 8000 SCT020 32/22 Q1010 NOSIG",
      "metar_wdir": 50,
      "metar_wspd": 9,
      "metar_oat": 32,
      "metar_qnh": 1010,
      "hourly_oat": [
        34,
        32,
        32,
        31,
        31,
        30,
        28,
        28,
        28,
        27,
        27,
        26,
        26,
        25,
        25,
        25,
        24,
        24,
        24,
        25,
        27,
        29,
        31,
        33,
        34
      ]
    },
    "SAN": {
      "icao": "KSAN",
      "issued": "2026-07-12T03:24:00.000Z",
      "raw": "TAF KSAN 120324Z 1203/1306 VRB05KT P6SM SCT015 SCT150 FM120500 VRB04KT P6SM OVC011 TEMPO 1210/1214 OVC009 FM121700 25010KT P6SM SCT013 FM130200 VRB04KT P6SM SCT010 SCT200 FM130500 VRB03KT P6SM BKN010",
      "groups": [
        {
          "text": "TAF KSAN 120324Z 1203/1306 VRB05KT P6SM SCT015 SCT150",
          "offset_h": -2,
          "wdir": "VRB",
          "wspd": 5
        },
        {
          "text": "FM120500 VRB04KT P6SM OVC011",
          "offset_h": 0,
          "wdir": "VRB",
          "wspd": 4
        },
        {
          "text": "TEMPO 1210/1214 OVC009",
          "offset_h": 5,
          "wdir": null,
          "wspd": null
        },
        {
          "text": "FM121700 25010KT P6SM SCT013",
          "offset_h": 12,
          "wdir": 250,
          "wspd": 10
        },
        {
          "text": "FM130200 VRB04KT P6SM SCT010 SCT200",
          "offset_h": 21,
          "wdir": "VRB",
          "wspd": 4
        },
        {
          "text": "FM130500 VRB03KT P6SM BKN010",
          "offset_h": 24,
          "wdir": "VRB",
          "wspd": 3
        }
      ],
      "metar_raw": "METAR KSAN 120451Z 29003KT 10SM FEW020 FEW110 20/17 A2995 RMK AO2 SLP142 T02000167 $",
      "metar_wdir": 290,
      "metar_wspd": 3,
      "metar_oat": 20,
      "metar_qnh": 1014,
      "hourly_oat": [
        19,
        19,
        18,
        18,
        18,
        18,
        18,
        18,
        18,
        19,
        21,
        23,
        25,
        26,
        25,
        24,
        25,
        24,
        23,
        23,
        22,
        21,
        20,
        20,
        19
      ]
    },
    "PVG": {
      "icao": "ZSPD",
      "issued": "2026-07-12T03:08:00.000Z",
      "raw": "TAF ZSPD 120308Z 1206/1312 14016G23MPS 6000 BKN020 TX31/1206Z TX32/1306Z TN26/1221Z BECMG 1219/1220 16010G16MPS BECMG 1303/1304 16009MPS",
      "groups": [
        {
          "text": "TAF ZSPD 120308Z 1206/1312 14016G23MPS 6000 BKN020 TX31/1206Z TX32/1306Z TN26/1221Z",
          "offset_h": 1,
          "wdir": null,
          "wspd": null
        },
        {
          "text": "BECMG 1219/1220 16010G16MPS",
          "offset_h": 14,
          "wdir": null,
          "wspd": null
        },
        {
          "text": "BECMG 1303/1304 16009MPS",
          "offset_h": 22,
          "wdir": null,
          "wspd": null
        }
      ],
      "metar_raw": "SPECI ZSPD 120506Z 16016G25MPS 9999 BKN023 30/26 Q0994 NOSIG",
      "metar_wdir": null,
      "metar_wspd": null,
      "metar_oat": 30,
      "metar_qnh": 994,
      "hourly_oat": [
        31,
        30,
        30,
        30,
        29,
        28,
        28,
        28,
        28,
        28,
        28,
        28,
        28,
        28,
        28,
        28,
        28,
        28,
        29,
        30,
        30,
        31,
        32,
        32,
        32
      ]
    },
    "SHA": {
      "icao": "ZSSS",
      "issued": "2026-07-12T03:08:00.000Z",
      "raw": "TAF ZSSS 120308Z 1206/1312 15012G17MPS 6000 BKN015 TX31/1206Z TX33/1306Z TN28/1221Z BECMG 1223/1224 17007MPS",
      "groups": [
        {
          "text": "TAF ZSSS 120308Z 1206/1312 15012G17MPS 6000 BKN015 TX31/1206Z TX33/1306Z TN28/1221Z",
          "offset_h": 1,
          "wdir": null,
          "wspd": null
        },
        {
          "text": "BECMG 1223/1224 17007MPS",
          "offset_h": 18,
          "wdir": null,
          "wspd": null
        }
      ],
      "metar_raw": "METAR ZSSS 120500Z 16013G18MPS 9999 BKN026 30/25 Q0993 NOSIG",
      "metar_wdir": null,
      "metar_wspd": null,
      "metar_oat": 30,
      "metar_qnh": 993,
      "hourly_oat": [
        31,
        31,
        30,
        30,
        30,
        29,
        28,
        28,
        28,
        28,
        28,
        28,
        28,
        28,
        28,
        28,
        28,
        28,
        29,
        30,
        30,
        32,
        32,
        33,
        33
      ]
    },
    "CAN": {
      "icao": "ZGGG",
      "issued": "2026-07-12T03:04:00.000Z",
      "raw": "TAF ZGGG 120304Z 1206/1312 19003MPS 8000 SCT040 TX38/1207Z TX37/1307Z TN29/1222Z",
      "groups": [
        {
          "text": "TAF ZGGG 120304Z 1206/1312 19003MPS 8000 SCT040 TX38/1207Z TX37/1307Z TN29/1222Z",
          "offset_h": 1,
          "wdir": null,
          "wspd": null
        }
      ],
      "metar_raw": "METAR ZGGG 120500Z 20003MPS 160V240 CAVOK 37/27 Q0998 NOSIG",
      "metar_wdir": null,
      "metar_wspd": null,
      "metar_oat": 37,
      "metar_qnh": 998,
      "hourly_oat": [
        36,
        36,
        36,
        36,
        35,
        35,
        33,
        31,
        30,
        30,
        29,
        29,
        28,
        28,
        28,
        27,
        27,
        27,
        28,
        29,
        30,
        31,
        32,
        33,
        34
      ]
    },
    "DLC": {
      "icao": "ZYTL",
      "issued": "2026-07-12T03:04:00.000Z",
      "raw": "TAF ZYTL 120304Z 1206/1306 17004G11MPS 5000 BR SCT026 TX30/1206Z TN23/1220Z",
      "groups": [
        {
          "text": "TAF ZYTL 120304Z 1206/1306 17004G11MPS 5000 BR SCT026 TX30/1206Z TN23/1220Z",
          "offset_h": 1,
          "wdir": null,
          "wspd": null
        }
      ],
      "metar_raw": "METAR ZYTL 120500Z 15006MPS 9999 SCT017 30/24 Q1007 NOSIG",
      "metar_wdir": null,
      "metar_wspd": null,
      "metar_oat": 30,
      "metar_qnh": 1007,
      "hourly_oat": [
        29,
        29,
        29,
        29,
        28,
        27,
        26,
        25,
        25,
        25,
        25,
        25,
        25,
        25,
        25,
        24,
        24,
        25,
        26,
        26,
        27,
        28,
        28,
        27,
        28
      ]
    },
    "PEK": {
      "icao": "ZBAA",
      "issued": "2026-07-12T03:01:00.000Z",
      "raw": "TAF ZBAA 120301Z 1206/1312 10004MPS 5000 BR NSC TX31/1207Z TX32/1307Z TN23/1221Z TEMPO 1218/1224 2800 -SHRA BR",
      "groups": [
        {
          "text": "TAF ZBAA 120301Z 1206/1312 10004MPS 5000 BR NSC TX31/1207Z TX32/1307Z TN23/1221Z",
          "offset_h": 1,
          "wdir": null,
          "wspd": null
        },
        {
          "text": "TEMPO 1218/1224 2800 -SHRA BR",
          "offset_h": 13,
          "wdir": null,
          "wspd": null
        }
      ],
      "metar_raw": "METAR ZBAA 120500Z VRB01MPS 9999 SCT020 28/24 Q1004 NOSIG",
      "metar_wdir": null,
      "metar_wspd": null,
      "metar_oat": 28,
      "metar_qnh": 1004,
      "hourly_oat": [
        31,
        30,
        30,
        30,
        30,
        30,
        29,
        28,
        27,
        27,
        26,
        26,
        26,
        26,
        26,
        25,
        25,
        25,
        26,
        26,
        27,
        28,
        29,
        31,
        32
      ]
    },
    "LAX": {
      "icao": "KLAX",
      "issued": "2026-07-12T02:54:00.000Z",
      "raw": "TAF KLAX 120254Z 1203/1306 23008KT P6SM SCT015 BKN250 FM120500 25006KT P6SM BKN015 FM121200 25004KT 5SM HZ OVC015 FM121600 26005KT P6SM BKN020 FM122000 26010KT P6SM BKN150 FM130300 26008KT P6SM OVC100",
      "groups": [
        {
          "text": "TAF KLAX 120254Z 1203/1306 23008KT P6SM SCT015 BKN250",
          "offset_h": -2,
          "wdir": 230,
          "wspd": 8
        },
        {
          "text": "FM120500 25006KT P6SM BKN015",
          "offset_h": 0,
          "wdir": 250,
          "wspd": 6
        },
        {
          "text": "FM121200 25004KT 5SM HZ OVC015",
          "offset_h": 7,
          "wdir": 250,
          "wspd": 4
        },
        {
          "text": "FM121600 26005KT P6SM BKN020",
          "offset_h": 11,
          "wdir": 260,
          "wspd": 5
        },
        {
          "text": "FM122000 26010KT P6SM BKN150",
          "offset_h": 15,
          "wdir": 260,
          "wspd": 10
        },
        {
          "text": "FM130300 26008KT P6SM OVC100",
          "offset_h": 22,
          "wdir": 260,
          "wspd": 8
        }
      ],
      "metar_raw": "METAR KLAX 120453Z 21004KT 10SM FEW014 SCT120 SCT200 21/17 A2992 RMK AO2 SLP129 T02060167 $",
      "metar_wdir": 210,
      "metar_wspd": 4,
      "metar_oat": 21,
      "metar_qnh": 1013,
      "hourly_oat": [
        19,
        19,
        18,
        17,
        17,
        17,
        16,
        16,
        16,
        18,
        20,
        23,
        24,
        24,
        24,
        24,
        24,
        23,
        22,
        21,
        21,
        20,
        19,
        19,
        19
      ]
    },
    "HNL": {
      "icao": "PHNL",
      "issued": "2026-07-12T02:53:00.000Z",
      "raw": "TAF PHNL 120253Z 1203/1306 06014G23KT P6SM FEW025 SCT040 FM120500 05011KT P6SM SCT025 SCT040 FM122000 06015G25KT P6SM SCT025 SCT040 FM130500 05011KT P6SM SCT025 SCT040",
      "groups": [
        {
          "text": "TAF PHNL 120253Z 1203/1306 06014G23KT P6SM FEW025 SCT040",
          "offset_h": -2,
          "wdir": 60,
          "wspd": 14
        },
        {
          "text": "FM120500 05011KT P6SM SCT025 SCT040",
          "offset_h": 0,
          "wdir": 50,
          "wspd": 11
        },
        {
          "text": "FM122000 06015G25KT P6SM SCT025 SCT040",
          "offset_h": 15,
          "wdir": 60,
          "wspd": 15
        },
        {
          "text": "FM130500 05011KT P6SM SCT025 SCT040",
          "offset_h": 24,
          "wdir": 50,
          "wspd": 11
        }
      ],
      "metar_raw": "METAR PHNL 120453Z 06017G23KT 10SM FEW025 FEW035 BKN220 28/20 A2999 RMK AO2 PK WND 06026/0400 SLP156 T02780200 $",
      "metar_wdir": 60,
      "metar_wspd": 17,
      "metar_oat": 28,
      "metar_qnh": 1016,
      "hourly_oat": [
        25,
        24,
        24,
        24,
        24,
        24,
        24,
        23,
        23,
        23,
        23,
        23,
        24,
        25,
        26,
        27,
        28,
        28,
        28,
        28,
        28,
        28,
        27,
        26,
        24
      ]
    },
    "OKA": {
      "icao": "ROAH",
      "issued": "2026-07-11T23:12:00.000Z",
      "raw": "TAF ROAH 112312Z 1200/1306 16024KT 9999 FEW015 BKN020 TEMPO 1200/1202 16025G35KT FEW006 BKN008 TEMPO 1202/1209 16025G35KT",
      "groups": [
        {
          "text": "TAF ROAH 112312Z 1200/1306 16024KT 9999 FEW015 BKN020",
          "offset_h": -5,
          "wdir": 160,
          "wspd": 24
        },
        {
          "text": "TEMPO 1200/1202 16025G35KT FEW006 BKN008",
          "offset_h": -5,
          "wdir": 160,
          "wspd": 25
        },
        {
          "text": "TEMPO 1202/1209 16025G35KT",
          "offset_h": -3,
          "wdir": 160,
          "wspd": 25
        }
      ],
      "metar_raw": "METAR ROAH 120500Z 16023KT 9999 FEW011 SCT013 BKN/// 30/26 Q1009",
      "metar_wdir": 160,
      "metar_wspd": 23,
      "metar_oat": 30,
      "metar_qnh": 1009,
      "hourly_oat": [
        29,
        29,
        29,
        28,
        28,
        27,
        27,
        27,
        27,
        27,
        27,
        26,
        26,
        26,
        26,
        26,
        26,
        27,
        28,
        28,
        29,
        29,
        29,
        29,
        29
      ]
    },
    "ITM": {
      "icao": "RJOO",
      "issued": "2026-07-11T23:10:00.000Z",
      "raw": "TAF RJOO 112310Z 1200/1306 24004KT 9999 FEW030 BECMG 1200/1202 22006KT BECMG 1212/1215 32004KT BECMG 1303/1306 22006KT TEMPO 1303/1306 TS FEW020 BKN030 FEW030CB",
      "groups": [
        {
          "text": "TAF RJOO 112310Z 1200/1306 24004KT 9999 FEW030",
          "offset_h": -5,
          "wdir": 240,
          "wspd": 4
        },
        {
          "text": "BECMG 1200/1202 22006KT",
          "offset_h": -5,
          "wdir": 220,
          "wspd": 6
        },
        {
          "text": "BECMG 1212/1215 32004KT",
          "offset_h": 7,
          "wdir": 320,
          "wspd": 4
        },
        {
          "text": "BECMG 1303/1306 22006KT",
          "offset_h": 22,
          "wdir": 220,
          "wspd": 6
        },
        {
          "text": "TEMPO 1303/1306 TS FEW020 BKN030 FEW030CB",
          "offset_h": 22,
          "wdir": null,
          "wspd": null
        }
      ],
      "metar_raw": "METAR RJOO 120500Z 21006KT 180V300 9999 FEW025 BKN/// 33/24 Q1012",
      "metar_wdir": 210,
      "metar_wspd": 6,
      "metar_oat": 33,
      "metar_qnh": 1012,
      "hourly_oat": [
        31,
        31,
        31,
        31,
        30,
        29,
        28,
        28,
        27,
        26,
        26,
        26,
        26,
        25,
        25,
        25,
        25,
        26,
        26,
        28,
        29,
        30,
        30,
        30,
        30
      ]
    },
    "KIX": {
      "icao": "RJBB",
      "issued": "2026-07-11T23:10:00.000Z",
      "raw": "TAF RJBB 112310Z 1200/1306 23012KT 9999 FEW025",
      "groups": [
        {
          "text": "TAF RJBB 112310Z 1200/1306 23012KT 9999 FEW025",
          "offset_h": -5,
          "wdir": 230,
          "wspd": 12
        }
      ],
      "metar_raw": "METAR RJBB 120500Z 19004KT 120V240 9999 FEW020 BKN/// 30/24 Q1013 NOSIG",
      "metar_wdir": 190,
      "metar_wspd": 4,
      "metar_oat": 30,
      "metar_qnh": 1013,
      "hourly_oat": [
        26,
        27,
        27,
        27,
        27,
        27,
        27,
        26,
        26,
        26,
        26,
        26,
        26,
        26,
        26,
        26,
        26,
        26,
        26,
        26,
        26,
        26,
        26,
        26,
        27
      ]
    },
    "CTS": {
      "icao": "RJCC",
      "issued": "2026-07-11T23:08:00.000Z",
      "raw": "TAF RJCC 112308Z 1200/1306 17010KT 6000 FEW005 BKN012 TEMPO 1200/1202 1500 -SHRA BR FEW001 BKN002 TEMPO 1202/1210 3000 -SHRA BR FEW002 BKN004 TEMPO 1210/1218 0700 FG VV001 BECMG 1215/1218 35008KT TEMPO 1218/1300 1500 BR FEW001 BKN003",
      "groups": [
        {
          "text": "TAF RJCC 112308Z 1200/1306 17010KT 6000 FEW005 BKN012",
          "offset_h": -5,
          "wdir": 170,
          "wspd": 10
        },
        {
          "text": "TEMPO 1200/1202 1500 -SHRA BR FEW001 BKN002",
          "offset_h": -5,
          "wdir": null,
          "wspd": null
        },
        {
          "text": "TEMPO 1202/1210 3000 -SHRA BR FEW002 BKN004",
          "offset_h": -3,
          "wdir": null,
          "wspd": null
        },
        {
          "text": "TEMPO 1210/1218 0700 FG VV001",
          "offset_h": 5,
          "wdir": null,
          "wspd": null
        },
        {
          "text": "BECMG 1215/1218 35008KT",
          "offset_h": 10,
          "wdir": 350,
          "wspd": 8
        },
        {
          "text": "TEMPO 1218/1300 1500 BR FEW001 BKN003",
          "offset_h": 13,
          "wdir": null,
          "wspd": null
        }
      ],
      "metar_raw": "METAR RJCC 120500Z 19009KT 9999 -SHRA FEW005 SCT007 BKN120 24/22 Q1004",
      "metar_wdir": 190,
      "metar_wspd": 9,
      "metar_oat": 24,
      "metar_qnh": 1004,
      "hourly_oat": [
        25,
        24,
        24,
        23,
        22,
        21,
        21,
        21,
        21,
        21,
        20,
        20,
        21,
        21,
        21,
        21,
        22,
        23,
        24,
        25,
        26,
        27,
        28,
        28,
        27
      ]
    },
    "FUK": {
      "icao": "RJFF",
      "issued": "2026-07-11T23:06:00.000Z",
      "raw": "TAF RJFF 112306Z 1200/1306 19010KT 9999 FEW030 BECMG 1205/1207 29008KT TEMPO 1207/1210 -TSRA FEW025CB BKN030 BECMG 1212/1215 13004KT BECMG 1303/1306 32010KT",
      "groups": [
        {
          "text": "TAF RJFF 112306Z 1200/1306 19010KT 9999 FEW030",
          "offset_h": -5,
          "wdir": 190,
          "wspd": 10
        },
        {
          "text": "BECMG 1205/1207 29008KT",
          "offset_h": 0,
          "wdir": 290,
          "wspd": 8
        },
        {
          "text": "TEMPO 1207/1210 -TSRA FEW025CB BKN030",
          "offset_h": 2,
          "wdir": null,
          "wspd": null
        },
        {
          "text": "BECMG 1212/1215 13004KT",
          "offset_h": 7,
          "wdir": 130,
          "wspd": 4
        },
        {
          "text": "BECMG 1303/1306 32010KT",
          "offset_h": 22,
          "wdir": 320,
          "wspd": 10
        }
      ],
      "metar_raw": "METAR RJFF 120500Z 18010KT 120V240 9999 FEW030 SCT/// 36/23 Q1011 BECMG 29008KT",
      "metar_wdir": 180,
      "metar_wspd": 10,
      "metar_oat": 36,
      "metar_qnh": 1011,
      "hourly_oat": [
        34,
        34,
        34,
        33,
        32,
        31,
        30,
        29,
        29,
        28,
        28,
        27,
        27,
        27,
        27,
        26,
        26,
        27,
        29,
        30,
        32,
        33,
        32,
        32,
        32
      ]
    },
    "NGO": {
      "icao": "RJGG",
      "issued": "2026-07-11T23:05:00.000Z",
      "raw": "TAF RJGG 112305Z 1200/1306 31006KT 9999 FEW030 BECMG 1203/1205 22006KT BECMG 1209/1211 29006KT",
      "groups": [
        {
          "text": "TAF RJGG 112305Z 1200/1306 31006KT 9999 FEW030",
          "offset_h": -5,
          "wdir": 310,
          "wspd": 6
        },
        {
          "text": "BECMG 1203/1205 22006KT",
          "offset_h": -2,
          "wdir": 220,
          "wspd": 6
        },
        {
          "text": "BECMG 1209/1211 29006KT",
          "offset_h": 4,
          "wdir": 290,
          "wspd": 6
        }
      ],
      "metar_raw": "METAR RJGG 120500Z 21003KT 180V250 9999 FEW020 BKN/// 30/25 Q1011 NOSIG",
      "metar_wdir": 210,
      "metar_wspd": 3,
      "metar_oat": 30,
      "metar_qnh": 1011,
      "hourly_oat": [
        27,
        28,
        27,
        27,
        27,
        26,
        26,
        27,
        28,
        27,
        27,
        27,
        27,
        27,
        26,
        26,
        26,
        26,
        26,
        27,
        27,
        28,
        29,
        29,
        29
      ]
    },
    "HND": {
      "icao": "RJTT",
      "issued": "2026-07-11T23:05:00.000Z",
      "raw": "TAF RJTT 112305Z 1200/1306 18008KT 9999 FEW020",
      "groups": [
        {
          "text": "TAF RJTT 112305Z 1200/1306 18008KT 9999 FEW020",
          "offset_h": -5,
          "wdir": 180,
          "wspd": 8
        }
      ],
      "metar_raw": "METAR RJTT 120500Z 19011KT 9999 FEW020 BKN130 BKN/// 29/24 Q1011 NOSIG",
      "metar_wdir": 190,
      "metar_wspd": 11,
      "metar_oat": 29,
      "metar_qnh": 1011,
      "hourly_oat": [
        27,
        27,
        27,
        26,
        26,
        26,
        25,
        25,
        25,
        25,
        25,
        25,
        24,
        24,
        24,
        24,
        24,
        24,
        25,
        26,
        26,
        26,
        27,
        27,
        27
      ]
    },
    "NRT": {
      "icao": "RJAA",
      "issued": "2026-07-11T23:05:00.000Z",
      "raw": "TAF RJAA 112305Z 1200/1306 21006KT 9999 FEW030 TEMPO 1210/1215 FEW001 BKN005 TEMPO 1215/1221 4000 -SHRA BR FEW001 BKN005 TEMPO 1221/1300 FEW003 BKN008 BECMG 1300/1303 26006KT",
      "groups": [
        {
          "text": "TAF RJAA 112305Z 1200/1306 21006KT 9999 FEW030",
          "offset_h": -5,
          "wdir": 210,
          "wspd": 6
        },
        {
          "text": "TEMPO 1210/1215 FEW001 BKN005",
          "offset_h": 5,
          "wdir": null,
          "wspd": null
        },
        {
          "text": "TEMPO 1215/1221 4000 -SHRA BR FEW001 BKN005",
          "offset_h": 10,
          "wdir": null,
          "wspd": null
        },
        {
          "text": "TEMPO 1221/1300 FEW003 BKN008",
          "offset_h": 16,
          "wdir": null,
          "wspd": null
        },
        {
          "text": "BECMG 1300/1303 26006KT",
          "offset_h": 19,
          "wdir": 260,
          "wspd": 6
        }
      ],
      "metar_raw": "METAR RJAA 120500Z 24003KT 210V300 9999 -SHRA SCT020 BKN070 BKN120 29/23 Q1011 BECMG 21006KT",
      "metar_wdir": 240,
      "metar_wspd": 3,
      "metar_oat": 29,
      "metar_qnh": 1011,
      "hourly_oat": [
        27,
        27,
        27,
        27,
        26,
        26,
        25,
        24,
        24,
        24,
        24,
        24,
        24,
        24,
        24,
        24,
        24,
        24,
        25,
        26,
        27,
        27,
        28,
        28,
        28
      ]
    },
    "BKK": {
      "icao": "VTBS",
      "issued": "2026-07-11T23:00:00.000Z",
      "raw": "TAF VTBS 112300Z 1200/1306 23008KT 9999 FEW020 TEMPO 1202/1206 -TSRA FEW018CB SCT020 BKN080 TEMPO 1210/1214 VRB15KT 4000 TSRA FEW018CB SCT020 BKN080",
      "groups": [
        {
          "text": "TAF VTBS 112300Z 1200/1306 23008KT 9999 FEW020",
          "offset_h": -5,
          "wdir": 230,
          "wspd": 8
        },
        {
          "text": "TEMPO 1202/1206 -TSRA FEW018CB SCT020 BKN080",
          "offset_h": -3,
          "wdir": null,
          "wspd": null
        },
        {
          "text": "TEMPO 1210/1214 VRB15KT 4000 TSRA FEW018CB SCT020 BKN080",
          "offset_h": 5,
          "wdir": "VRB",
          "wspd": 15
        }
      ],
      "metar_raw": "METAR VTBS 120500Z 26013KT 9999 SCT020 SCT035 31/23 Q1005 NOSIG",
      "metar_wdir": 260,
      "metar_wspd": 13,
      "metar_oat": 31,
      "metar_qnh": 1005,
      "hourly_oat": [
        31,
        30,
        29,
        28,
        28,
        29,
        28,
        28,
        27,
        27,
        26,
        26,
        26,
        26,
        26,
        26,
        26,
        26,
        26,
        26,
        28,
        28,
        27,
        30,
        30
      ]
    },
    "SIN": {
      "icao": "WSSS",
      "issued": "2026-07-11T23:00:00.000Z",
      "raw": "TAF WSSS 112300Z 1200/1306 15011KT 9999 FEW015 SCT020",
      "groups": [
        {
          "text": "TAF WSSS 112300Z 1200/1306 15011KT 9999 FEW015 SCT020",
          "offset_h": -5,
          "wdir": 150,
          "wspd": 11
        }
      ],
      "metar_raw": "METAR WSSS 120500Z 14011KT 9999 VCSH FEW016 FEW018TCU FEW020CB SCT050 30/24 Q1010 TEMPO FM0520 TL0545 4000 SHRA",
      "metar_wdir": 140,
      "metar_wspd": 11,
      "metar_oat": 30,
      "metar_qnh": 1010,
      "hourly_oat": [
        31,
        32,
        32,
        31,
        30,
        30,
        29,
        29,
        29,
        29,
        29,
        28,
        28,
        28,
        28,
        28,
        28,
        28,
        28,
        28,
        29,
        29,
        30,
        29,
        30
      ]
    },
    "KUL": {
      "icao": "WMKK",
      "issued": "2026-07-11T23:00:00.000Z",
      "raw": "TAF WMKK 112300Z 1200/1306 VRB03KT 9999 FEW018",
      "groups": [
        {
          "text": "TAF WMKK 112300Z 1200/1306 VRB03KT 9999 FEW018",
          "offset_h": -5,
          "wdir": "VRB",
          "wspd": 3
        }
      ],
      "metar_raw": "METAR WMKK 120500Z VRB04KT 9999 SCT018 31/25 Q1009 NOSIG",
      "metar_wdir": "VRB",
      "metar_wspd": 4,
      "metar_oat": 31,
      "metar_qnh": 1009,
      "hourly_oat": [
        30,
        31,
        31,
        31,
        30,
        30,
        28,
        28,
        27,
        27,
        26,
        26,
        26,
        26,
        26,
        25,
        25,
        25,
        25,
        26,
        27,
        28,
        29,
        30,
        31
      ]
    },
    "HAN": {
      "icao": "VVNB",
      "issued": "2026-07-11T23:00:00.000Z",
      "raw": "TAF VVNB 112300Z 1200/1224 06005KT 8000 FEW020 TEMPO 1203/1208 3500 TSRA SCT012 FEW027CB TEMPO 1210/1214 3000 TSRA SCT010 FEW027CB TEMPO 1220/1224 4000 SHRA SCT012 FEW025TCU",
      "groups": [
        {
          "text": "TAF VVNB 112300Z 1200/1224 06005KT 8000 FEW020",
          "offset_h": -5,
          "wdir": 60,
          "wspd": 5
        },
        {
          "text": "TEMPO 1203/1208 3500 TSRA SCT012 FEW027CB",
          "offset_h": -2,
          "wdir": null,
          "wspd": null
        },
        {
          "text": "TEMPO 1210/1214 3000 TSRA SCT010 FEW027CB",
          "offset_h": 5,
          "wdir": null,
          "wspd": null
        },
        {
          "text": "TEMPO 1220/1224 4000 SHRA SCT012 FEW025TCU",
          "offset_h": 15,
          "wdir": null,
          "wspd": null
        }
      ],
      "metar_raw": "METAR VVNB 120500Z 06005KT 010V110 9999 SCT029 SCT043 33/28 Q1000 NOSIG",
      "metar_wdir": 60,
      "metar_wspd": 5,
      "metar_oat": 33,
      "metar_qnh": 1000,
      "hourly_oat": [
        32,
        33,
        33,
        33,
        27,
        26,
        27,
        26,
        26,
        27,
        26,
        26,
        26,
        25,
        25,
        25,
        26,
        26,
        26,
        27,
        28,
        29,
        30,
        31,
        31
      ]
    },
    "SGN": {
      "icao": "VVTS",
      "issued": "2026-07-11T23:00:00.000Z",
      "raw": "TAF VVTS 112300Z 1200/1306 25008KT 9999 SCT017 SCT040 TEMPO 1205/1209 25015G26KT 3000 TSRA SCT015 SCT017CB BKN040",
      "groups": [
        {
          "text": "TAF VVTS 112300Z 1200/1306 25008KT 9999 SCT017 SCT040",
          "offset_h": -5,
          "wdir": 250,
          "wspd": 8
        },
        {
          "text": "TEMPO 1205/1209 25015G26KT 3000 TSRA SCT015 SCT017CB BKN040",
          "offset_h": 0,
          "wdir": 250,
          "wspd": 15
        }
      ],
      "metar_raw": "METAR VVTS 120500Z 25017KT 9999 BKN024 BKN042 32/25 Q1006 NOSIG",
      "metar_wdir": 250,
      "metar_wspd": 17,
      "metar_oat": 32,
      "metar_qnh": 1006,
      "hourly_oat": [
        31,
        28,
        28,
        28,
        26,
        27,
        27,
        26,
        26,
        26,
        26,
        26,
        26,
        25,
        25,
        25,
        25,
        25,
        25,
        25,
        26,
        28,
        27,
        28,
        30
      ]
    }
  }
}