{
  "updated": "2026-07-07T00:01:44Z",
  "tafs": {
    "LAX": {
      "icao": "KLAX",
      "issued": "2026-07-06T23:47:00.000Z",
      "raw": "TAF KLAX 062347Z 0700/0806 25010G18KT P6SM FEW010 FM070300 25008KT P6SM FEW008 FEW250 FM070900 VRB03KT P6SM SCT008 FM071100 26003KT P6SM BKN015 FM071600 VRB03KT P6SM SCT025 FM071700 25012KT P6SM FEW250 FM080300 26006KT 6SM HZ FEW250",
      "groups": [
        {
          "text": "TAF KLAX 062347Z 0700/0806 25010G18KT P6SM FEW010",
          "offset_h": 0,
          "wdir": 250,
          "wspd": 10
        },
        {
          "text": "FM070300 25008KT P6SM FEW008 FEW250",
          "offset_h": 3,
          "wdir": 250,
          "wspd": 8
        },
        {
          "text": "FM070900 VRB03KT P6SM SCT008",
          "offset_h": 9,
          "wdir": "VRB",
          "wspd": 3
        },
        {
          "text": "FM071100 26003KT P6SM BKN015",
          "offset_h": 11,
          "wdir": 260,
          "wspd": 3
        },
        {
          "text": "FM071600 VRB03KT P6SM SCT025",
          "offset_h": 16,
          "wdir": "VRB",
          "wspd": 3
        },
        {
          "text": "FM071700 25012KT P6SM FEW250",
          "offset_h": 17,
          "wdir": 250,
          "wspd": 12
        },
        {
          "text": "FM080300 26006KT 6SM HZ FEW250",
          "offset_h": 27,
          "wdir": 260,
          "wspd": 6
        }
      ],
      "metar_raw": "METAR KLAX 062353Z 24014KT 10SM FEW010 22/16 A2991 RMK AO2 SLP127 T02170161 10239 20217 56010",
      "metar_wdir": 240,
      "metar_wspd": 14,
      "metar_oat": 22,
      "metar_qnh": 1013,
      "hourly_oat": [
        21,
        21,
        20,
        19,
        18,
        18,
        17,
        17,
        16,
        16,
        15,
        15,
        15,
        15,
        17,
        19,
        21,
        24,
        24,
        24,
        23,
        23,
        22,
        22,
        22
      ]
    },
    "SAN": {
      "icao": "KSAN",
      "issued": "2026-07-06T23:31:00.000Z",
      "raw": "TAF KSAN 062331Z 0700/0806 29012KT P6SM SCT015 FM070300 31007KT P6SM SCT012 FM070600 VRB04KT P6SM OVC011 FM071700 29010KT P6SM FEW010 FM080400 VRB04KT P6SM FEW008",
      "groups": [
        {
          "text": "TAF KSAN 062331Z 0700/0806 29012KT P6SM SCT015",
          "offset_h": 0,
          "wdir": 290,
          "wspd": 12
        },
        {
          "text": "FM070300 31007KT P6SM SCT012",
          "offset_h": 3,
          "wdir": 310,
          "wspd": 7
        },
        {
          "text": "FM070600 VRB04KT P6SM OVC011",
          "offset_h": 6,
          "wdir": "VRB",
          "wspd": 4
        },
        {
          "text": "FM071700 29010KT P6SM FEW010",
          "offset_h": 17,
          "wdir": 290,
          "wspd": 10
        },
        {
          "text": "FM080400 VRB04KT P6SM FEW008",
          "offset_h": 28,
          "wdir": "VRB",
          "wspd": 4
        }
      ],
      "metar_raw": "METAR KSAN 062351Z COR 29008KT 10SM FEW013 22/16 A2993 RMK AO2 SLP133 T02220161 10239 20217 58008",
      "metar_wdir": 290,
      "metar_wspd": 8,
      "metar_oat": 22,
      "metar_qnh": 1014,
      "hourly_oat": [
        23,
        22,
        21,
        20,
        19,
        19,
        18,
        17,
        17,
        17,
        18,
        18,
        18,
        18,
        18,
        18,
        19,
        22,
        22,
        23,
        23,
        23,
        23,
        22,
        22
      ]
    },
    "HNL": {
      "icao": "PHNL",
      "issued": "2026-07-06T23:20:00.000Z",
      "raw": "TAF PHNL 062320Z 0700/0806 05015G25KT P6SM SCT025 SCT040 FM071000 05013KT P6SM FEW025 SCT040 FM071800 06015G25KT P6SM SCT025 BKN040",
      "groups": [
        {
          "text": "TAF PHNL 062320Z 0700/0806 05015G25KT P6SM SCT025 SCT040",
          "offset_h": 0,
          "wdir": 50,
          "wspd": 15
        },
        {
          "text": "FM071000 05013KT P6SM FEW025 SCT040",
          "offset_h": 10,
          "wdir": 50,
          "wspd": 13
        },
        {
          "text": "FM071800 06015G25KT P6SM SCT025 BKN040",
          "offset_h": 18,
          "wdir": 60,
          "wspd": 15
        }
      ],
      "metar_raw": "METAR PHNL 062353Z 06017G23KT 10SM FEW025 FEW036 SCT045 29/17 A3003 RMK AO2 PK WND 02029/2337 SLP168 60000 T02940172 10300 20250 58011 $",
      "metar_wdir": 60,
      "metar_wspd": 17,
      "metar_oat": 29,
      "metar_qnh": 1017,
      "hourly_oat": [
        28,
        28,
        28,
        27,
        26,
        25,
        25,
        24,
        24,
        24,
        24,
        23,
        23,
        23,
        23,
        22,
        22,
        23,
        24,
        25,
        27,
        27,
        28,
        28,
        28
      ]
    },
    "ITM": {
      "icao": "RJOO",
      "issued": "2026-07-06T23:06:00.000Z",
      "raw": "TAF RJOO 062306Z 0700/0806 11006KT 9999 FEW020 SCT030 BECMG 0803/0806 23006KT",
      "groups": [
        {
          "text": "TAF RJOO 062306Z 0700/0806 11006KT 9999 FEW020 SCT030",
          "offset_h": 0,
          "wdir": 110,
          "wspd": 6
        },
        {
          "text": "BECMG 0803/0806 23006KT",
          "offset_h": 27,
          "wdir": 230,
          "wspd": 6
        }
      ],
      "metar_raw": "METAR RJOO 062300Z 08007KT 9999 FEW015 BKN030 24/19 Q1011",
      "metar_wdir": 80,
      "metar_wspd": 7,
      "metar_oat": 24,
      "metar_qnh": 1011,
      "hourly_oat": [
        25,
        26,
        27,
        28,
        28,
        29,
        29,
        29,
        28,
        28,
        26,
        25,
        25,
        25,
        24,
        24,
        24,
        24,
        24,
        23,
        23,
        23,
        24,
        25,
        26
      ]
    },
    "KIX": {
      "icao": "RJBB",
      "issued": "2026-07-06T23:06:00.000Z",
      "raw": "TAF RJBB 062306Z 0700/0806 12004KT 9999 FEW020 BKN040 BECMG 0700/0702 25005KT BECMG 0712/0715 11004KT BECMG 0800/0803 30006KT",
      "groups": [
        {
          "text": "TAF RJBB 062306Z 0700/0806 12004KT 9999 FEW020 BKN040",
          "offset_h": 0,
          "wdir": 120,
          "wspd": 4
        },
        {
          "text": "BECMG 0700/0702 25005KT",
          "offset_h": 0,
          "wdir": 250,
          "wspd": 5
        },
        {
          "text": "BECMG 0712/0715 11004KT",
          "offset_h": 12,
          "wdir": 110,
          "wspd": 4
        },
        {
          "text": "BECMG 0800/0803 30006KT",
          "offset_h": 24,
          "wdir": 300,
          "wspd": 6
        }
      ],
      "metar_raw": "METAR RJBB 062330Z 03006KT 9999 FEW008 SCT020 BKN030 23/20 Q1011 NOSIG",
      "metar_wdir": 30,
      "metar_wspd": 6,
      "metar_oat": 23,
      "metar_qnh": 1011,
      "hourly_oat": [
        24,
        24,
        24,
        24,
        24,
        24,
        24,
        24,
        25,
        25,
        25,
        25,
        25,
        25,
        25,
        24,
        24,
        24,
        24,
        24,
        24,
        24,
        24,
        24,
        24
      ]
    },
    "CTS": {
      "icao": "RJCC",
      "issued": "2026-07-06T23:05:00.000Z",
      "raw": "TAF RJCC 062305Z 0700/0806 17014KT 9999 FEW012 BKN020 TEMPO 0718/0803 FEW003 BKN008",
      "groups": [
        {
          "text": "TAF RJCC 062305Z 0700/0806 17014KT 9999 FEW012 BKN020",
          "offset_h": 0,
          "wdir": 170,
          "wspd": 14
        },
        {
          "text": "TEMPO 0718/0803 FEW003 BKN008",
          "offset_h": 18,
          "wdir": null,
          "wspd": null
        }
      ],
      "metar_raw": "METAR RJCC 062330Z 17016KT 9999 FEW010 BKN025 BKN030 21/15 Q1016",
      "metar_wdir": 170,
      "metar_wspd": 16,
      "metar_oat": 21,
      "metar_qnh": 1016,
      "hourly_oat": [
        19,
        20,
        20,
        20,
        20,
        20,
        19,
        19,
        19,
        18,
        18,
        17,
        17,
        17,
        17,
        17,
        17,
        17,
        17,
        17,
        17,
        18,
        19,
        20,
        20
      ]
    },
    "NRT": {
      "icao": "RJAA",
      "issued": "2026-07-06T23:05:00.000Z",
      "raw": "TAF RJAA 062305Z 0700/0806 11008KT 9999 FEW020 BKN040 BECMG 0710/0712 02004KT BECMG 0721/0800 13010KT",
      "groups": [
        {
          "text": "TAF RJAA 062305Z 0700/0806 11008KT 9999 FEW020 BKN040",
          "offset_h": 0,
          "wdir": 110,
          "wspd": 8
        },
        {
          "text": "BECMG 0710/0712 02004KT",
          "offset_h": 10,
          "wdir": 20,
          "wspd": 4
        },
        {
          "text": "BECMG 0721/0800 13010KT",
          "offset_h": 21,
          "wdir": 130,
          "wspd": 10
        }
      ],
      "metar_raw": "METAR RJAA 062330Z 05004KT 340V120 9999 FEW010 SCT015 BKN040 24/19 Q1014 NOSIG",
      "metar_wdir": 50,
      "metar_wspd": 4,
      "metar_oat": 24,
      "metar_qnh": 1014,
      "hourly_oat": [
        22,
        22,
        22,
        22,
        23,
        23,
        24,
        24,
        24,
        23,
        22,
        22,
        21,
        21,
        21,
        20,
        20,
        20,
        20,
        19,
        19,
        20,
        22,
        23,
        24
      ]
    },
    "HND": {
      "icao": "RJTT",
      "issued": "2026-07-06T23:05:00.000Z",
      "raw": "TAF RJTT 062305Z 0700/0806 03008KT 9999 FEW030 BKN060 BECMG 0702/0704 11010KT BECMG 0712/0715 03006KT BECMG 0721/0800 10006KT",
      "groups": [
        {
          "text": "TAF RJTT 062305Z 0700/0806 03008KT 9999 FEW030 BKN060",
          "offset_h": 0,
          "wdir": 30,
          "wspd": 8
        },
        {
          "text": "BECMG 0702/0704 11010KT",
          "offset_h": 2,
          "wdir": 110,
          "wspd": 10
        },
        {
          "text": "BECMG 0712/0715 03006KT",
          "offset_h": 12,
          "wdir": 30,
          "wspd": 6
        },
        {
          "text": "BECMG 0721/0800 10006KT",
          "offset_h": 21,
          "wdir": 100,
          "wspd": 6
        }
      ],
      "metar_raw": "METAR RJTT 062330Z 03009KT 9999 FEW020 BKN045 23/19 Q1014 NOSIG",
      "metar_wdir": 30,
      "metar_wspd": 9,
      "metar_oat": 23,
      "metar_qnh": 1014,
      "hourly_oat": [
        22,
        23,
        24,
        24,
        24,
        23,
        23,
        23,
        23,
        23,
        23,
        23,
        23,
        22,
        22,
        22,
        22,
        22,
        21,
        21,
        21,
        22,
        22,
        23,
        24
      ]
    },
    "OKA": {
      "icao": "ROAH",
      "issued": "2026-07-06T23:05:00.000Z",
      "raw": "TAF ROAH 062305Z 0700/0806 24004KT 9999 FEW020 BECMG 0702/0704 32006KT BECMG 0721/0800 03012KT",
      "groups": [
        {
          "text": "TAF ROAH 062305Z 0700/0806 24004KT 9999 FEW020",
          "offset_h": 0,
          "wdir": 240,
          "wspd": 4
        },
        {
          "text": "BECMG 0702/0704 32006KT",
          "offset_h": 2,
          "wdir": 320,
          "wspd": 6
        },
        {
          "text": "BECMG 0721/0800 03012KT",
          "offset_h": 21,
          "wdir": 30,
          "wspd": 12
        }
      ],
      "metar_raw": "METAR ROAH 062330Z 25004KT 9999 FEW015 30/26 Q1011",
      "metar_wdir": 250,
      "metar_wspd": 4,
      "metar_oat": 30,
      "metar_qnh": 1011,
      "hourly_oat": [
        30,
        30,
        31,
        31,
        31,
        31,
        32,
        32,
        32,
        31,
        30,
        29,
        28,
        28,
        28,
        27,
        27,
        27,
        27,
        26,
        26,
        26,
        27,
        29,
        30
      ]
    },
    "NGO": {
      "icao": "RJGG",
      "issued": "2026-07-06T23:05:00.000Z",
      "raw": "TAF RJGG 062305Z 0700/0806 30004KT 9999 FEW030 BKN050 BECMG 0700/0702 20008KT BECMG 0708/0710 14012KT",
      "groups": [
        {
          "text": "TAF RJGG 062305Z 0700/0806 30004KT 9999 FEW030 BKN050",
          "offset_h": 0,
          "wdir": 300,
          "wspd": 4
        },
        {
          "text": "BECMG 0700/0702 20008KT",
          "offset_h": 0,
          "wdir": 200,
          "wspd": 8
        },
        {
          "text": "BECMG 0708/0710 14012KT",
          "offset_h": 8,
          "wdir": 140,
          "wspd": 12
        }
      ],
      "metar_raw": "METAR RJGG 062330Z 29006KT 9999 FEW010 SCT015 BKN060 23/20 Q1013 BECMG FM0000 25004KT",
      "metar_wdir": 290,
      "metar_wspd": 6,
      "metar_oat": 23,
      "metar_qnh": 1013,
      "hourly_oat": [
        22,
        22,
        23,
        23,
        23,
        23,
        24,
        25,
        24,
        24,
        24,
        24,
        24,
        24,
        24,
        24,
        24,
        23,
        23,
        23,
        23,
        23,
        23,
        23,
        24
      ]
    },
    "FUK": {
      "icao": "RJFF",
      "issued": "2026-07-06T23:05:00.000Z",
      "raw": "TAF RJFF 062305Z 0700/0806 16012KT 8000 -SHRA FEW007 BKN020 BECMG 0702/0704 33008KT TEMPO 0703/0707 4000 -TSRA BR FEW015 BKN020 FEW025CB TEMPO 0707/0709 -TSRA BKN008 BKN025 FEW025CB TEMPO 0709/0712 BKN008 BKN025 BECMG 0712/0715 16012KT BECMG 0800/0803 29010KT",
      "groups": [
        {
          "text": "TAF RJFF 062305Z 0700/0806 16012KT 8000 -SHRA FEW007 BKN020",
          "offset_h": 0,
          "wdir": 160,
          "wspd": 12
        },
        {
          "text": "BECMG 0702/0704 33008KT",
          "offset_h": 2,
          "wdir": 330,
          "wspd": 8
        },
        {
          "text": "TEMPO 0703/0707 4000 -TSRA BR FEW015 BKN020 FEW025CB",
          "offset_h": 3,
          "wdir": null,
          "wspd": null
        },
        {
          "text": "TEMPO 0707/0709 -TSRA BKN008 BKN025 FEW025CB",
          "offset_h": 7,
          "wdir": null,
          "wspd": null
        },
        {
          "text": "TEMPO 0709/0712 BKN008 BKN025",
          "offset_h": 9,
          "wdir": null,
          "wspd": null
        },
        {
          "text": "BECMG 0712/0715 16012KT",
          "offset_h": 12,
          "wdir": 160,
          "wspd": 12
        },
        {
          "text": "BECMG 0800/0803 29010KT",
          "offset_h": 24,
          "wdir": 290,
          "wspd": 10
        }
      ],
      "metar_raw": "METAR RJFF 062330Z 14011KT 9999 FEW025 BKN/// 28/25 Q1010 NOSIG",
      "metar_wdir": 140,
      "metar_wspd": 11,
      "metar_oat": 28,
      "metar_qnh": 1010,
      "hourly_oat": [
        27,
        28,
        29,
        30,
        29,
        29,
        28,
        28,
        27,
        27,
        26,
        26,
        26,
        26,
        26,
        26,
        26,
        26,
        26,
        25,
        25,
        25,
        26,
        28,
        29
      ]
    },
    "SGN": {
      "icao": "VVTS",
      "issued": "2026-07-06T23:00:00.000Z",
      "raw": "TAF VVTS 062300Z 0700/0806 23010KT 9999 SCT017 TEMPO 0706/0710 23015G28KT 3000 TSRA SCT013 SCT015CB",
      "groups": [
        {
          "text": "TAF VVTS 062300Z 0700/0806 23010KT 9999 SCT017",
          "offset_h": 0,
          "wdir": 230,
          "wspd": 10
        },
        {
          "text": "TEMPO 0706/0710 23015G28KT 3000 TSRA SCT013 SCT015CB",
          "offset_h": 6,
          "wdir": 230,
          "wspd": 15
        }
      ],
      "metar_raw": "METAR VVTS 062330Z 21008KT 9999 FEW011 BKN029 28/27 Q1010 NOSIG",
      "metar_wdir": 210,
      "metar_wspd": 8,
      "metar_oat": 28,
      "metar_qnh": 1010,
      "hourly_oat": [
        27,
        28,
        29,
        30,
        30,
        31,
        31,
        30,
        29,
        29,
        28,
        28,
        27,
        27,
        27,
        26,
        26,
        26,
        26,
        25,
        25,
        25,
        25,
        25,
        26
      ]
    },
    "HAN": {
      "icao": "VVNB",
      "issued": "2026-07-06T23:00:00.000Z",
      "raw": "TAF VVNB 062300Z 0700/0724 07006KT 9999 FEW025 TEMPO 0711/0715 4000 TSRA SCT012 FEW027CB",
      "groups": [
        {
          "text": "TAF VVNB 062300Z 0700/0724 07006KT 9999 FEW025",
          "offset_h": 0,
          "wdir": 70,
          "wspd": 6
        },
        {
          "text": "TEMPO 0711/0715 4000 TSRA SCT012 FEW027CB",
          "offset_h": 11,
          "wdir": null,
          "wspd": null
        }
      ],
      "metar_raw": "METAR VVNB 062330Z 01005KT 310V040 CAVOK 28/26 Q1001 NOSIG",
      "metar_wdir": 10,
      "metar_wspd": 5,
      "metar_oat": 28,
      "metar_qnh": 1001,
      "hourly_oat": [
        27,
        29,
        30,
        30,
        31,
        32,
        32,
        32,
        32,
        32,
        29,
        28,
        26,
        26,
        26,
        26,
        26,
        26,
        26,
        25,
        25,
        25,
        26,
        26,
        26
      ]
    },
    "TSA": {
      "icao": "RCSS",
      "issued": "2026-07-06T23:00:00.000Z",
      "raw": "TAF RCSS 062300Z 0700/0724 30005KT 9999 FEW015 BKN032 TEMPO 0706/0710 08008KT 5000 SHRA FEW010 FEW015CB BKN025 TEMPO 0718/0724 VRB05KT",
      "groups": [
        {
          "text": "TAF RCSS 062300Z 0700/0724 30005KT 9999 FEW015 BKN032",
          "offset_h": 0,
          "wdir": 300,
          "wspd": 5
        },
        {
          "text": "TEMPO 0706/0710 08008KT 5000 SHRA FEW010 FEW015CB BKN025",
          "offset_h": 6,
          "wdir": 80,
          "wspd": 8
        },
        {
          "text": "TEMPO 0718/0724 VRB05KT",
          "offset_h": 18,
          "wdir": "VRB",
          "wspd": 5
        }
      ],
      "metar_raw": "METAR RCSS 062330Z 25003KT 190V310 9999 FEW018 SCT025 31/26 Q1010 NOSIG RMK A2984",
      "metar_wdir": 250,
      "metar_wspd": 3,
      "metar_oat": 31,
      "metar_qnh": 1010,
      "hourly_oat": [
        29,
        31,
        32,
        33,
        33,
        32,
        32,
        32,
        32,
        32,
        31,
        30,
        29,
        29,
        28,
        28,
        27,
        27,
        26,
        26,
        26,
        26,
        26,
        27,
        29
      ]
    },
    "TPE": {
      "icao": "RCTP",
      "issued": "2026-07-06T23:00:00.000Z",
      "raw": "TAF RCTP 062300Z 0700/0806 24008KT 9999 FEW015 BKN032 TEMPO 0706/0710 27013KT FEW010 FEW015TCU BKN025",
      "groups": [
        {
          "text": "TAF RCTP 062300Z 0700/0806 24008KT 9999 FEW015 BKN032",
          "offset_h": 0,
          "wdir": 240,
          "wspd": 8
        },
        {
          "text": "TEMPO 0706/0710 27013KT FEW010 FEW015TCU BKN025",
          "offset_h": 6,
          "wdir": 270,
          "wspd": 13
        }
      ],
      "metar_raw": "METAR RCTP 062330Z 24009KT 9999 FEW020 31/25 Q1010 NOSIG RMK A2984",
      "metar_wdir": 240,
      "metar_wspd": 9,
      "metar_oat": 31,
      "metar_qnh": 1010,
      "hourly_oat": [
        29,
        30,
        32,
        31,
        31,
        31,
        31,
        31,
        30,
        30,
        29,
        28,
        28,
        28,
        27,
        27,
        26,
        26,
        26,
        26,
        26,
        26,
        26,
        27,
        29
      ]
    },
    "HKG": {
      "icao": "VHHH",
      "issued": "2026-07-06T23:00:00.000Z",
      "raw": "TAF VHHH 062300Z 0700/0806 19015KT 9999 FEW010 SCT025 TX31/0706Z TX32/0806Z TN27/0722Z TEMPO 0700/0706 20015G25KT 2000 TSRA SHRA FEW008CB SCT020 TEMPO 0715/0718 3000 SHRA FEW008CB SCT020 TEMPO 0718/0724 20015G25KT 2000 TSRA SHRA FEW008CB SCT020 TEMPO 0800/0806 3000 SHRA FEW008CB SCT020",
      "groups": [
        {
          "text": "TAF VHHH 062300Z 0700/0806 19015KT 9999 FEW010 SCT025 TX31/0706Z TX32/0806Z TN27/0722Z",
          "offset_h": 0,
          "wdir": 190,
          "wspd": 15
        },
        {
          "text": "TEMPO 0700/0706 20015G25KT 2000 TSRA SHRA FEW008CB SCT020",
          "offset_h": 0,
          "wdir": 200,
          "wspd": 15
        },
        {
          "text": "TEMPO 0715/0718 3000 SHRA FEW008CB SCT020",
          "offset_h": 15,
          "wdir": null,
          "wspd": null
        },
        {
          "text": "TEMPO 0718/0724 20015G25KT 2000 TSRA SHRA FEW008CB SCT020",
          "offset_h": 18,
          "wdir": 200,
          "wspd": 15
        },
        {
          "text": "TEMPO 0800/0806 3000 SHRA FEW008CB SCT020",
          "offset_h": 24,
          "wdir": null,
          "wspd": null
        }
      ],
      "metar_raw": "SPECI VHHH 062342Z 21011KT 9999 VCSH FEW010 FEW015CB SCT025 29/25 Q1007 RETS RERA TEMPO 20015G25KT 2000 TSRA SHRA FEW008CB SCT020",
      "metar_wdir": 210,
      "metar_wspd": 11,
      "metar_oat": 29,
      "metar_qnh": 1007,
      "hourly_oat": [
        26,
        27,
        26,
        27,
        28,
        27,
        27,
        27,
        28,
        29,
        28,
        28,
        28,
        28,
        28,
        28,
        26,
        26,
        26,
        26,
        27,
        26,
        26,
        27,
        28
      ]
    },
    "GMP": {
      "icao": "RKSS",
      "issued": "2026-07-06T23:00:00.000Z",
      "raw": "TAF RKSS 062300Z 0700/0806 21005KT 9999 BKN020 TX30/0704Z TN24/0719Z TX30/0805Z TEMPO 0704/0708 -SHRA SCT010CB BKN020 OVC070 BECMG 0715/0717 15010KT SCT035 BECMG 0720/0722 BKN025 BECMG 0723/0801 18015G25KT 6000 -RA SCT010 BKN020 OVC070",
      "groups": [
        {
          "text": "TAF RKSS 062300Z 0700/0806 21005KT 9999 BKN020 TX30/0704Z TN24/0719Z TX30/0805Z",
          "offset_h": 0,
          "wdir": 210,
          "wspd": 5
        },
        {
          "text": "TEMPO 0704/0708 -SHRA SCT010CB BKN020 OVC070",
          "offset_h": 4,
          "wdir": null,
          "wspd": null
        },
        {
          "text": "BECMG 0715/0717 15010KT SCT035",
          "offset_h": 15,
          "wdir": 150,
          "wspd": 10
        },
        {
          "text": "BECMG 0720/0722 BKN025",
          "offset_h": 20,
          "wdir": null,
          "wspd": null
        },
        {
          "text": "BECMG 0723/0801 18015G25KT 6000 -RA SCT010 BKN020 OVC070",
          "offset_h": 23,
          "wdir": 180,
          "wspd": 15
        }
      ],
      "metar_raw": "METAR RKSS 062300Z 14004KT 110V180 9999 -RA SCT010 BKN025 OVC080 23/23 Q1007 NOSIG",
      "metar_wdir": 140,
      "metar_wspd": 4,
      "metar_oat": 23,
      "metar_qnh": 1007,
      "hourly_oat": [
        24,
        25,
        26,
        26,
        27,
        27,
        28,
        28,
        28,
        28,
        27,
        26,
        25,
        25,
        25,
        25,
        25,
        24,
        25,
        25,
        24,
        24,
        24,
        24,
        24
      ]
    },
    "CGK": {
      "icao": "WIII",
      "issued": "2026-07-06T23:00:00.000Z",
      "raw": "TAF WIII 062300Z 0700/0806 20005KT 3000 BR FEW020 BECMG 0702/0704 04012KT 8000 NSW BECMG 0714/0716 18005KT",
      "groups": [
        {
          "text": "TAF WIII 062300Z 0700/0806 20005KT 3000 BR FEW020",
          "offset_h": 0,
          "wdir": 200,
          "wspd": 5
        },
        {
          "text": "BECMG 0702/0704 04012KT 8000 NSW",
          "offset_h": 2,
          "wdir": 40,
          "wspd": 12
        },
        {
          "text": "BECMG 0714/0716 18005KT",
          "offset_h": 14,
          "wdir": 180,
          "wspd": 5
        }
      ],
      "metar_raw": "METAR WIII 062330Z VRB02KT 1500 BR FEW020 26/24 Q1012 NOSIG",
      "metar_wdir": "VRB",
      "metar_wspd": 2,
      "metar_oat": 26,
      "metar_qnh": 1012,
      "hourly_oat": [
        25,
        27,
        30,
        31,
        32,
        33,
        34,
        33,
        32,
        31,
        30,
        29,
        28,
        28,
        28,
        28,
        27,
        27,
        26,
        26,
        25,
        25,
        25,
        25,
        25
      ]
    },
    "SIN": {
      "icao": "WSSS",
      "issued": "2026-07-06T23:00:00.000Z",
      "raw": "TAF WSSS 062300Z 0700/0806 17007KT 9999 FEW015 SCT020",
      "groups": [
        {
          "text": "TAF WSSS 062300Z 0700/0806 17007KT 9999 FEW015 SCT020",
          "offset_h": 0,
          "wdir": 170,
          "wspd": 7
        }
      ],
      "metar_raw": "METAR WSSS 070000Z 18003KT 9999 FEW018TCU BKN300 28/26 Q1011 NOSIG",
      "metar_wdir": 180,
      "metar_wspd": 3,
      "metar_oat": 28,
      "metar_qnh": 1011,
      "hourly_oat": [
        28,
        29,
        29,
        30,
        30,
        31,
        31,
        30,
        29,
        29,
        29,
        28,
        27,
        27,
        27,
        27,
        27,
        27,
        28,
        28,
        28,
        28,
        28,
        27,
        28
      ]
    },
    "KUL": {
      "icao": "WMKK",
      "issued": "2026-07-06T23:00:00.000Z",
      "raw": "TAF WMKK 062300Z 0700/0806 VRB03KT 9999 FEW020 PROB30 TEMPO 0707/0711 5000 TSRA FEW017CB",
      "groups": [
        {
          "text": "TAF WMKK 062300Z 0700/0806 VRB03KT 9999 FEW020",
          "offset_h": 0,
          "wdir": "VRB",
          "wspd": 3
        },
        {
          "text": "PROB30",
          "offset_h": 0,
          "wdir": null,
          "wspd": null
        },
        {
          "text": "TEMPO 0707/0711 5000 TSRA FEW017CB",
          "offset_h": 7,
          "wdir": null,
          "wspd": null
        }
      ],
      "metar_raw": "METAR WMKK 062330Z VRB01KT 9000 FEW030 27/26 Q1010 NOSIG",
      "metar_wdir": "VRB",
      "metar_wspd": 1,
      "metar_oat": 27,
      "metar_qnh": 1010,
      "hourly_oat": [
        25,
        25,
        27,
        28,
        30,
        28,
        27,
        29,
        30,
        29,
        29,
        28,
        27,
        27,
        26,
        26,
        26,
        25,
        25,
        24,
        24,
        23,
        23,
        23,
        23
      ]
    },
    "BKK": {
      "icao": "VTBS",
      "issued": "2026-07-06T23:00:00.000Z",
      "raw": "TAF VTBS 062300Z 0700/0806 20008KT 9999 FEW020 TEMPO 0712/0716 VRB15KT 4000 TSRA FEW018CB SCT030 BKN100",
      "groups": [
        {
          "text": "TAF VTBS 062300Z 0700/0806 20008KT 9999 FEW020",
          "offset_h": 0,
          "wdir": 200,
          "wspd": 8
        },
        {
          "text": "TEMPO 0712/0716 VRB15KT 4000 TSRA FEW018CB SCT030 BKN100",
          "offset_h": 12,
          "wdir": "VRB",
          "wspd": 15
        }
      ],
      "metar_raw": "METAR VTBS 062330Z 23003KT 9999 FEW020 29/24 Q1009 NOSIG",
      "metar_wdir": 230,
      "metar_wspd": 3,
      "metar_oat": 29,
      "metar_qnh": 1009,
      "hourly_oat": [
        28,
        30,
        31,
        32,
        32,
        32,
        31,
        31,
        31,
        30,
        29,
        28,
        28,
        28,
        28,
        28,
        28,
        27,
        27,
        26,
        26,
        26,
        26,
        26,
        27
      ]
    },
    "DLC": {
      "icao": "ZYTL",
      "issued": "2026-07-06T21:10:00.000Z",
      "raw": "TAF ZYTL 062110Z 0700/0724 14004MPS 5000 BR FEW040 TX28/0706Z TN22/0720Z TEMPO 0700/0703 2000 -SHRA BR BKN010 BKN026 FEW030CB TEMPO 0703/0706 2000 -TSRA BR BKN010 BKN026 FEW030CB",
      "groups": [
        {
          "text": "TAF ZYTL 062110Z 0700/0724 14004MPS 5000 BR FEW040 TX28/0706Z TN22/0720Z",
          "offset_h": 0,
          "wdir": null,
          "wspd": null
        },
        {
          "text": "TEMPO 0700/0703 2000 -SHRA BR BKN010 BKN026 FEW030CB",
          "offset_h": 0,
          "wdir": null,
          "wspd": null
        },
        {
          "text": "TEMPO 0703/0706 2000 -TSRA BR BKN010 BKN026 FEW030CB",
          "offset_h": 3,
          "wdir": null,
          "wspd": null
        }
      ],
      "metar_raw": "METAR ZYTL 062330Z 10003MPS 4000 BR FEW005 SCT040 24/23 Q1001 NOSIG",
      "metar_wdir": null,
      "metar_wspd": null,
      "metar_oat": 24,
      "metar_qnh": 1001,
      "hourly_oat": [
        24,
        25,
        25,
        25,
        26,
        27,
        27,
        26,
        26,
        26,
        25,
        24,
        23,
        23,
        23,
        23,
        23,
        23,
        23,
        22,
        22,
        23,
        23,
        24,
        25
      ]
    },
    "CAN": {
      "icao": "ZGGG",
      "issued": "2026-07-06T21:09:00.000Z",
      "raw": "TAF ZGGG 062109Z 0700/0806 15003MPS 8000 BKN033 TX32/0707Z TX33/0806Z TN26/0722Z TEMPO 0700/0702 SHRA FEW026CB BKN030 TEMPO 0704/0710 TSRA SCT026CB BKN030 TEMPO 0718/0722 SHRA FEW026CB BKN030 TEMPO 0804/0806 TSRA SCT026CB BKN030",
      "groups": [
        {
          "text": "TAF ZGGG 062109Z 0700/0806 15003MPS 8000 BKN033 TX32/0707Z TX33/0806Z TN26/0722Z",
          "offset_h": 0,
          "wdir": null,
          "wspd": null
        },
        {
          "text": "TEMPO 0700/0702 SHRA FEW026CB BKN030",
          "offset_h": 0,
          "wdir": null,
          "wspd": null
        },
        {
          "text": "TEMPO 0704/0710 TSRA SCT026CB BKN030",
          "offset_h": 4,
          "wdir": null,
          "wspd": null
        },
        {
          "text": "TEMPO 0718/0722 SHRA FEW026CB BKN030",
          "offset_h": 18,
          "wdir": null,
          "wspd": null
        },
        {
          "text": "TEMPO 0804/0806 TSRA SCT026CB BKN030",
          "offset_h": 28,
          "wdir": null,
          "wspd": null
        }
      ],
      "metar_raw": "METAR ZGGG 062330Z 09004MPS 9999 BKN023 27/25 Q1007 NOSIG",
      "metar_wdir": null,
      "metar_wspd": null,
      "metar_oat": 27,
      "metar_qnh": 1007,
      "hourly_oat": [
        26,
        26,
        26,
        28,
        31,
        26,
        27,
        27,
        27,
        28,
        28,
        27,
        27,
        27,
        26,
        26,
        25,
        24,
        24,
        24,
        24,
        24,
        24,
        25,
        26
      ]
    },
    "PVG": {
      "icao": "ZSPD",
      "issued": "2026-07-06T21:08:00.000Z",
      "raw": "TAF ZSPD 062108Z 0700/0806 18004MPS 6000 BKN020 TX35/0706Z TX34/0806Z TN27/0721Z",
      "groups": [
        {
          "text": "TAF ZSPD 062108Z 0700/0806 18004MPS 6000 BKN020 TX35/0706Z TX34/0806Z TN27/0721Z",
          "offset_h": 0,
          "wdir": null,
          "wspd": null
        }
      ],
      "metar_raw": "METAR ZSPD 062330Z 18007MPS CAVOK 29/25 Q1004 NOSIG",
      "metar_wdir": null,
      "metar_wspd": null,
      "metar_oat": 29,
      "metar_qnh": 1004,
      "hourly_oat": [
        29,
        30,
        31,
        32,
        33,
        33,
        33,
        33,
        33,
        32,
        30,
        29,
        29,
        29,
        29,
        29,
        28,
        28,
        28,
        28,
        27,
        27,
        27,
        29,
        30
      ]
    },
    "SHA": {
      "icao": "ZSSS",
      "issued": "2026-07-06T21:07:00.000Z",
      "raw": "TAF ZSSS 062107Z 0700/0806 17004MPS 6000 BKN030 TX35/0706Z TX34/0806Z TN27/0721Z",
      "groups": [
        {
          "text": "TAF ZSSS 062107Z 0700/0806 17004MPS 6000 BKN030 TX35/0706Z TX34/0806Z TN27/0721Z",
          "offset_h": 0,
          "wdir": null,
          "wspd": null
        }
      ],
      "metar_raw": "METAR ZSSS 062330Z 18006MPS CAVOK 30/24 Q1003 NOSIG",
      "metar_wdir": null,
      "metar_wspd": null,
      "metar_oat": 30,
      "metar_qnh": 1003,
      "hourly_oat": [
        29,
        30,
        32,
        32,
        33,
        34,
        34,
        34,
        34,
        33,
        32,
        30,
        30,
        30,
        29,
        29,
        29,
        29,
        28,
        28,
        28,
        28,
        28,
        29,
        31
      ]
    },
    "PEK": {
      "icao": "ZBAA",
      "issued": "2026-07-06T21:05:00.000Z",
      "raw": "TAF ZBAA 062105Z 0700/0806 16003MPS CAVOK TX31/0706Z TX33/0806Z TN22/0721Z TEMPO 0707/0713 -TSRA FEW040CB BKN040",
      "groups": [
        {
          "text": "TAF ZBAA 062105Z 0700/0806 16003MPS CAVOK TX31/0706Z TX33/0806Z TN22/0721Z",
          "offset_h": 0,
          "wdir": null,
          "wspd": null
        },
        {
          "text": "TEMPO 0707/0713 -TSRA FEW040CB BKN040",
          "offset_h": 7,
          "wdir": null,
          "wspd": null
        }
      ],
      "metar_raw": "METAR ZBAA 062330Z 36002MPS 300V050 CAVOK 26/22 Q0999 NOSIG",
      "metar_wdir": null,
      "metar_wspd": null,
      "metar_oat": 26,
      "metar_qnh": 999,
      "hourly_oat": [
        25,
        27,
        28,
        29,
        30,
        30,
        28,
        28,
        25,
        24,
        25,
        24,
        23,
        23,
        22,
        22,
        22,
        22,
        22,
        22,
        22,
        22,
        22,
        23,
        25
      ]
    }
  }
}