{
  "updated": "2026-07-04T22:45:41Z",
  "tafs": {
    "PVG": {
      "icao": "ZSPD",
      "issued": "2026-07-04T21:22:00.000Z",
      "raw": "TAF ZSPD 042122Z 0500/0606 20004MPS 6000 -SHRA BKN020 TX31/0506Z TX32/0606Z TN25/0521Z TEMPO 0506/0510 33008G14MPS 2500 +TSRA BKN011 SCT030CB TEMPO 0510/0513 TSRA BKN013 SCT030CB TEMPO 0604/0606 33008G14MPS 2800 +TSRA BKN013 SCT030CB",
      "groups": [
        {
          "text": "TAF ZSPD 042122Z 0500/0606 20004MPS 6000 -SHRA BKN020 TX31/0506Z TX32/0606Z TN25/0521Z",
          "offset_h": 2,
          "wdir": null,
          "wspd": null
        },
        {
          "text": "TEMPO 0506/0510 33008G14MPS 2500 +TSRA BKN011 SCT030CB",
          "offset_h": 8,
          "wdir": null,
          "wspd": null
        },
        {
          "text": "TEMPO 0510/0513 TSRA BKN013 SCT030CB",
          "offset_h": 12,
          "wdir": null,
          "wspd": null
        },
        {
          "text": "TEMPO 0604/0606 33008G14MPS 2800 +TSRA BKN013 SCT030CB",
          "offset_h": 30,
          "wdir": null,
          "wspd": null
        }
      ],
      "metar_raw": "METAR ZSPD 042230Z 20004MPS 9999 -SHRA NSC 24/24 Q1006 NOSIG",
      "metar_wdir": null,
      "metar_wspd": null,
      "metar_oat": 24,
      "metar_qnh": 1006,
      "hourly_oat": [
        26,
        26,
        26,
        29,
        29,
        29,
        29,
        30,
        30,
        30,
        27,
        26,
        27,
        27,
        27,
        26,
        26,
        26,
        27,
        27,
        27,
        27,
        27,
        27,
        27
      ]
    },
    "SHA": {
      "icao": "ZSSS",
      "issued": "2026-07-04T21:21:00.000Z",
      "raw": "TAF ZSSS 042121Z 0500/0606 20004MPS 6000 -SHRA BKN030 TX32/0506Z TX34/0606Z TN26/0521Z TEMPO 0505/0509 33008G13MPS 2500 +TSRA BKN013 SCT030CB TEMPO 0509/0512 TSRA BKN013 SCT030CB TEMPO 0604/0606 33008G13MPS 2800 +TSRA BKN013 SCT030CB",
      "groups": [
        {
          "text": "TAF ZSSS 042121Z 0500/0606 20004MPS 6000 -SHRA BKN030 TX32/0506Z TX34/0606Z TN26/0521Z",
          "offset_h": 2,
          "wdir": null,
          "wspd": null
        },
        {
          "text": "TEMPO 0505/0509 33008G13MPS 2500 +TSRA BKN013 SCT030CB",
          "offset_h": 7,
          "wdir": null,
          "wspd": null
        },
        {
          "text": "TEMPO 0509/0512 TSRA BKN013 SCT030CB",
          "offset_h": 11,
          "wdir": null,
          "wspd": null
        },
        {
          "text": "TEMPO 0604/0606 33008G13MPS 2800 +TSRA BKN013 SCT030CB",
          "offset_h": 30,
          "wdir": null,
          "wspd": null
        }
      ],
      "metar_raw": "METAR ZSSS 042230Z 22004MPS CAVOK 24/23 Q1006 NOSIG",
      "metar_wdir": null,
      "metar_wspd": null,
      "metar_oat": 24,
      "metar_qnh": 1006,
      "hourly_oat": [
        26,
        26,
        27,
        28,
        29,
        29,
        30,
        30,
        27,
        28,
        27,
        27,
        28,
        28,
        27,
        27,
        27,
        27,
        27,
        27,
        27,
        27,
        27,
        27,
        27
      ]
    },
    "DLC": {
      "icao": "ZYTL",
      "issued": "2026-07-04T21:14:00.000Z",
      "raw": "TAF ZYTL 042114Z 0500/0524 15004MPS 5000 BR FEW033 TX30/0506Z TN23/0520Z BECMG 0516/0517 2800 -SHRA BR BKN010 BKN020 FEW040CB TEMPO 0516/0518 TSRA BR BKN008 BKN020 FEW040CB TEMPO 0518/0523 SHRA BR BKN008 BKN020 FEW040CB BECMG 0523/0524 3000 BR",
      "groups": [
        {
          "text": "TAF ZYTL 042114Z 0500/0524 15004MPS 5000 BR FEW033 TX30/0506Z TN23/0520Z",
          "offset_h": 2,
          "wdir": null,
          "wspd": null
        },
        {
          "text": "BECMG 0516/0517 2800 -SHRA BR BKN010 BKN020 FEW040CB",
          "offset_h": 18,
          "wdir": null,
          "wspd": null
        },
        {
          "text": "TEMPO 0516/0518 TSRA BR BKN008 BKN020 FEW040CB",
          "offset_h": 18,
          "wdir": null,
          "wspd": null
        },
        {
          "text": "TEMPO 0518/0523 SHRA BR BKN008 BKN020 FEW040CB",
          "offset_h": 20,
          "wdir": null,
          "wspd": null
        },
        {
          "text": "BECMG 0523/0524 3000 BR",
          "offset_h": 25,
          "wdir": null,
          "wspd": null
        }
      ],
      "metar_raw": "METAR ZYTL 042230Z 17004MPS 130V210 9999 SCT012 24/21 Q1002 NOSIG",
      "metar_wdir": null,
      "metar_wspd": null,
      "metar_oat": 24,
      "metar_qnh": 1002,
      "hourly_oat": [
        23,
        24,
        26,
        27,
        28,
        28,
        28,
        28,
        28,
        27,
        27,
        26,
        25,
        24,
        24,
        23,
        23,
        23,
        23,
        23,
        23,
        22,
        22,
        21,
        22
      ]
    },
    "PEK": {
      "icao": "ZBAA",
      "issued": "2026-07-04T21:11:00.000Z",
      "raw": "TAF ZBAA 042111Z 0500/0606 18004MPS CAVOK TX33/0507Z TX34/0606Z TN22/0521Z TEMPO 0511/0514 -TSRA FEW040CB BKN040",
      "groups": [
        {
          "text": "TAF ZBAA 042111Z 0500/0606 18004MPS CAVOK TX33/0507Z TX34/0606Z TN22/0521Z",
          "offset_h": 2,
          "wdir": null,
          "wspd": null
        },
        {
          "text": "TEMPO 0511/0514 -TSRA FEW040CB BKN040",
          "offset_h": 13,
          "wdir": null,
          "wspd": null
        }
      ],
      "metar_raw": "METAR ZBAA 042230Z VRB01MPS CAVOK 24/22 Q0998 NOSIG",
      "metar_wdir": null,
      "metar_wspd": null,
      "metar_oat": 24,
      "metar_qnh": 998,
      "hourly_oat": [
        23,
        24,
        26,
        28,
        29,
        30,
        31,
        32,
        32,
        32,
        32,
        31,
        27,
        27,
        26,
        24,
        24,
        23,
        22,
        22,
        22,
        21,
        21,
        21,
        21
      ]
    },
    "FUK": {
      "icao": "RJFF",
      "issued": "2026-07-04T21:11:00.000Z",
      "raw": "TAF AMD RJFF 042111Z 0421/0600 34008KT 6000 -SHRA FEW005 SCT014 BKN015 TEMPO 0421/0503 1500 +TSRA BR FEW005 BKN010 FEW015CB BECMG 0422/0500 14006KT BECMG 0500/0502 27006KT TEMPO 0503/0504 4000 -TSRA BR FEW006 BKN010 FEW015CB BECMG 0506/0509 15008KT TEMPO 0512/0518 1500 +TSRA BR FEW009 SCT012 BKN015 FEW015CB TEMPO 0518/0521 3000 TSRA BR BKN005 BKN008 FEW015CB BECMG 0518/0521 29006KT TEMPO 0521/0600 BKN005 BKN035",
      "groups": [
        {
          "text": "TAF AMD RJFF 042111Z 0421/0600 34008KT 6000 -SHRA FEW005 SCT014 BKN015",
          "offset_h": -1,
          "wdir": 340,
          "wspd": 8
        },
        {
          "text": "TEMPO 0421/0503 1500 +TSRA BR FEW005 BKN010 FEW015CB",
          "offset_h": -1,
          "wdir": null,
          "wspd": null
        },
        {
          "text": "BECMG 0422/0500 14006KT",
          "offset_h": 0,
          "wdir": 140,
          "wspd": 6
        },
        {
          "text": "BECMG 0500/0502 27006KT",
          "offset_h": 2,
          "wdir": 270,
          "wspd": 6
        },
        {
          "text": "TEMPO 0503/0504 4000 -TSRA BR FEW006 BKN010 FEW015CB",
          "offset_h": 5,
          "wdir": null,
          "wspd": null
        },
        {
          "text": "BECMG 0506/0509 15008KT",
          "offset_h": 8,
          "wdir": 150,
          "wspd": 8
        },
        {
          "text": "TEMPO 0512/0518 1500 +TSRA BR FEW009 SCT012 BKN015 FEW015CB",
          "offset_h": 14,
          "wdir": null,
          "wspd": null
        },
        {
          "text": "TEMPO 0518/0521 3000 TSRA BR BKN005 BKN008 FEW015CB",
          "offset_h": 20,
          "wdir": null,
          "wspd": null
        },
        {
          "text": "BECMG 0518/0521 29006KT",
          "offset_h": 20,
          "wdir": 290,
          "wspd": 6
        },
        {
          "text": "TEMPO 0521/0600 BKN005 BKN035",
          "offset_h": 23,
          "wdir": null,
          "wspd": null
        }
      ],
      "metar_raw": "METAR RJFF 042230Z 36003KT 310V060 7000 TSRA FEW002 SCT007 FEW015CB BKN025 24/23 Q1009 BECMG 14006KT TEMPO 1500 +TSRA BR BKN010 BKN015 FEW015CB",
      "metar_wdir": 360,
      "metar_wspd": 3,
      "metar_oat": 24,
      "metar_qnh": 1009,
      "hourly_oat": [
        25,
        26,
        26,
        25,
        25,
        25,
        26,
        26,
        26,
        27,
        26,
        26,
        26,
        26,
        25,
        25,
        25,
        25,
        25,
        24,
        24,
        24,
        24,
        24,
        24
      ]
    },
    "CAN": {
      "icao": "ZGGG",
      "issued": "2026-07-04T21:03:00.000Z",
      "raw": "TAF ZGGG 042103Z 0500/0606 16004MPS 8000 BKN033 TX32/0507Z TX32/0606Z TN26/0522Z TEMPO 0504/0508 TSRA SCT011 SCT026CB BKN033 TEMPO 0508/0512 TSRA FEW026CB BKN033 TEMPO 0521/0524 SHRA FEW026CB BKN033",
      "groups": [
        {
          "text": "TAF ZGGG 042103Z 0500/0606 16004MPS 8000 BKN033 TX32/0507Z TX32/0606Z TN26/0522Z",
          "offset_h": 2,
          "wdir": null,
          "wspd": null
        },
        {
          "text": "TEMPO 0504/0508 TSRA SCT011 SCT026CB BKN033",
          "offset_h": 6,
          "wdir": null,
          "wspd": null
        },
        {
          "text": "TEMPO 0508/0512 TSRA FEW026CB BKN033",
          "offset_h": 10,
          "wdir": null,
          "wspd": null
        },
        {
          "text": "TEMPO 0521/0524 SHRA FEW026CB BKN033",
          "offset_h": 23,
          "wdir": null,
          "wspd": null
        }
      ],
      "metar_raw": "METAR ZGGG 042230Z 10003MPS 9999 FEW026 BKN040 27/26 Q1008 NOSIG",
      "metar_wdir": null,
      "metar_wspd": null,
      "metar_oat": 27,
      "metar_qnh": 1008,
      "hourly_oat": [
        24,
        25,
        26,
        28,
        28,
        28,
        30,
        31,
        30,
        29,
        30,
        30,
        28,
        28,
        28,
        28,
        27,
        27,
        27,
        27,
        27,
        26,
        26,
        26,
        26
      ]
    },
    "LAX": {
      "icao": "KLAX",
      "issued": "2026-07-04T21:02:00.000Z",
      "raw": "TAF KLAX 042102Z 0421/0524 26012KT P6SM SCT150 BKN250 FM050700 25006KT P6SM SCT150 BKN250 FM050900 VRB03KT P6SM SCT010 SCT250 FM051200 VRB03KT P6SM BKN010 FM051800 26006KT P6SM FEW250 FM052100 26012KT P6SM SCT250",
      "groups": [
        {
          "text": "TAF KLAX 042102Z 0421/0524 26012KT P6SM SCT150 BKN250",
          "offset_h": -1,
          "wdir": 260,
          "wspd": 12
        },
        {
          "text": "FM050700 25006KT P6SM SCT150 BKN250",
          "offset_h": 9,
          "wdir": 250,
          "wspd": 6
        },
        {
          "text": "FM050900 VRB03KT P6SM SCT010 SCT250",
          "offset_h": 11,
          "wdir": "VRB",
          "wspd": 3
        },
        {
          "text": "FM051200 VRB03KT P6SM BKN010",
          "offset_h": 14,
          "wdir": "VRB",
          "wspd": 3
        },
        {
          "text": "FM051800 26006KT P6SM FEW250",
          "offset_h": 20,
          "wdir": 260,
          "wspd": 6
        },
        {
          "text": "FM052100 26012KT P6SM SCT250",
          "offset_h": 23,
          "wdir": 260,
          "wspd": 12
        }
      ],
      "metar_raw": "METAR KLAX 042153Z 26010KT 10SM FEW130 SCT190 BKN240 24/16 A3000 RMK AO2 SLP158 T02390161 $",
      "metar_wdir": 260,
      "metar_wspd": 10,
      "metar_oat": 24,
      "metar_qnh": 1016,
      "hourly_oat": [
        24,
        23,
        22,
        21,
        20,
        19,
        18,
        18,
        18,
        18,
        18,
        17,
        17,
        17,
        16,
        16,
        17,
        18,
        19,
        20,
        20,
        20,
        21,
        22,
        21
      ]
    },
    "HNL": {
      "icao": "PHNL",
      "issued": "2026-07-04T21:00:00.000Z",
      "raw": "TAF PHNL 042100Z 0421/0524 05012G20KT P6SM FEW025 FEW045 FM050500 06010KT P6SM VCSH FEW025 SCT040 FM052000 05012G20KT P6SM FEW025 SCT045",
      "groups": [
        {
          "text": "TAF PHNL 042100Z 0421/0524 05012G20KT P6SM FEW025 FEW045",
          "offset_h": -1,
          "wdir": 50,
          "wspd": 12
        },
        {
          "text": "FM050500 06010KT P6SM VCSH FEW025 SCT040",
          "offset_h": 7,
          "wdir": 60,
          "wspd": 10
        },
        {
          "text": "FM052000 05012G20KT P6SM FEW025 SCT045",
          "offset_h": 22,
          "wdir": 50,
          "wspd": 12
        }
      ],
      "metar_raw": "METAR PHNL 042153Z 04015G21KT 10SM FEW025 FEW040 30/18 A3002 RMK AO2 PK WND 04028/2127 SLP165 VCSH N T03000183 $",
      "metar_wdir": 40,
      "metar_wspd": 15,
      "metar_oat": 30,
      "metar_qnh": 1017,
      "hourly_oat": [
        29,
        29,
        30,
        29,
        28,
        28,
        26,
        25,
        24,
        24,
        25,
        24,
        24,
        24,
        24,
        24,
        23,
        23,
        23,
        24,
        26,
        27,
        28,
        29,
        29
      ]
    },
    "CTS": {
      "icao": "RJCC",
      "issued": "2026-07-04T20:52:00.000Z",
      "raw": "TAF AMD RJCC 042052Z 0420/0600 17016KT 9999 FEW008 BKN015 TEMPO 0506/0515 FEW003 BKN008 TEMPO 0521/0600 FEW003 BKN008",
      "groups": [
        {
          "text": "TAF AMD RJCC 042052Z 0420/0600 17016KT 9999 FEW008 BKN015",
          "offset_h": -2,
          "wdir": 170,
          "wspd": 16
        },
        {
          "text": "TEMPO 0506/0515 FEW003 BKN008",
          "offset_h": 8,
          "wdir": null,
          "wspd": null
        },
        {
          "text": "TEMPO 0521/0600 FEW003 BKN008",
          "offset_h": 23,
          "wdir": null,
          "wspd": null
        }
      ],
      "metar_raw": "METAR RJCC 042230Z 17015KT 9999 FEW008 BKN012 BKN/// 18/14 Q1014",
      "metar_wdir": 170,
      "metar_wspd": 15,
      "metar_oat": 18,
      "metar_qnh": 1014,
      "hourly_oat": [
        16,
        17,
        18,
        19,
        19,
        20,
        20,
        20,
        19,
        18,
        18,
        17,
        17,
        16,
        16,
        16,
        16,
        16,
        16,
        16,
        16,
        16,
        16,
        16,
        17
      ]
    },
    "SAN": {
      "icao": "KSAN",
      "issued": "2026-07-04T20:33:00.000Z",
      "raw": "TAF KSAN 042033Z 0421/0524 29011KT P6SM BKN150 FM050300 VRB04KT P6SM SCT015 SCT150 FM050600 VRB03KT P6SM BKN012 FM051700 29007KT P6SM SCT015 FM051900 29012KT P6SM SKC",
      "groups": [
        {
          "text": "TAF KSAN 042033Z 0421/0524 29011KT P6SM BKN150",
          "offset_h": -1,
          "wdir": 290,
          "wspd": 11
        },
        {
          "text": "FM050300 VRB04KT P6SM SCT015 SCT150",
          "offset_h": 5,
          "wdir": "VRB",
          "wspd": 4
        },
        {
          "text": "FM050600 VRB03KT P6SM BKN012",
          "offset_h": 8,
          "wdir": "VRB",
          "wspd": 3
        },
        {
          "text": "FM051700 29007KT P6SM SCT015",
          "offset_h": 19,
          "wdir": 290,
          "wspd": 7
        },
        {
          "text": "FM051900 29012KT P6SM SKC",
          "offset_h": 21,
          "wdir": 290,
          "wspd": 12
        }
      ],
      "metar_raw": "METAR KSAN 042151Z 28014G19KT 10SM FEW015 SCT120 BKN250 24/18 A3000 RMK AO2 SLP160 T02390178",
      "metar_wdir": 280,
      "metar_wspd": 14,
      "metar_oat": 24,
      "metar_qnh": 1016,
      "hourly_oat": [
        24,
        23,
        23,
        22,
        21,
        20,
        20,
        20,
        19,
        19,
        18,
        18,
        18,
        18,
        18,
        18,
        18,
        19,
        20,
        22,
        22,
        22,
        22,
        22,
        22
      ]
    },
    "HND": {
      "icao": "RJTT",
      "issued": "2026-07-04T20:06:00.000Z",
      "raw": "TAF AMD RJTT 042006Z 0420/0600 11010KT 7000 -SHRA FEW005 BKN012 BKN030 TEMPO 0420/0500 4000 -SHRA BR",
      "groups": [
        {
          "text": "TAF AMD RJTT 042006Z 0420/0600 11010KT 7000 -SHRA FEW005 BKN012 BKN030",
          "offset_h": -2,
          "wdir": 110,
          "wspd": 10
        },
        {
          "text": "TEMPO 0420/0500 4000 -SHRA BR",
          "offset_h": -2,
          "wdir": null,
          "wspd": null
        }
      ],
      "metar_raw": "METAR RJTT 042230Z 13008KT 9999 -RA FEW007 BKN030 23/23 Q1011 NOSIG",
      "metar_wdir": 130,
      "metar_wspd": 8,
      "metar_oat": 23,
      "metar_qnh": 1011,
      "hourly_oat": [
        22,
        23,
        23,
        24,
        24,
        24,
        25,
        25,
        24,
        24,
        24,
        24,
        23,
        23,
        23,
        22,
        22,
        22,
        22,
        22,
        22,
        21,
        21,
        21,
        22
      ]
    },
    "HKG": {
      "icao": "VHHH",
      "issued": "2026-07-04T20:00:00.000Z",
      "raw": "TAF VHHH 042000Z 0421/0603 16015KT 9999 FEW010 SCT025 TX32/0506Z TN28/0422Z TN28/0522Z TEMPO 0421/0503 16020G30KT 1500 TSRA +SHRA FEW008CB SCT015 TEMPO 0503/0506 3500 SHRA FEW010CB SCT020 TEMPO 0523/0603 3500 SHRA FEW010CB SCT020",
      "groups": [
        {
          "text": "TAF VHHH 042000Z 0421/0603 16015KT 9999 FEW010 SCT025 TX32/0506Z TN28/0422Z TN28/0522Z",
          "offset_h": -1,
          "wdir": 160,
          "wspd": 15
        },
        {
          "text": "TEMPO 0421/0503 16020G30KT 1500 TSRA +SHRA FEW008CB SCT015",
          "offset_h": -1,
          "wdir": 160,
          "wspd": 20
        },
        {
          "text": "TEMPO 0503/0506 3500 SHRA FEW010CB SCT020",
          "offset_h": 5,
          "wdir": null,
          "wspd": null
        },
        {
          "text": "TEMPO 0523/0603 3500 SHRA FEW010CB SCT020",
          "offset_h": 25,
          "wdir": null,
          "wspd": null
        }
      ],
      "metar_raw": "METAR VHHH 042230Z 17015KT 9999 VCSH FEW010CB SCT025 29/26 Q1009 TEMPO 3500 SHRA FEW010CB SCT020",
      "metar_wdir": 170,
      "metar_wspd": 15,
      "metar_oat": 29,
      "metar_qnh": 1009,
      "hourly_oat": [
        28,
        28,
        28,
        28,
        29,
        30,
        30,
        30,
        30,
        29,
        29,
        29,
        28,
        28,
        28,
        28,
        28,
        28,
        29,
        29,
        28,
        28,
        28,
        28,
        28
      ]
    },
    "NGO": {
      "icao": "RJGG",
      "issued": "2026-07-04T18:49:00.000Z",
      "raw": "TAF AMD RJGG 041849Z 0418/0600 34006KT 9999 FEW012 BKN020 TEMPO 0418/0420 3000 SHRA BR FEW002 BKN005 BKN008 TEMPO 0420/0422 FEW002 SCT005 BKN008 BECMG 0422/0500 15010KT TEMPO 0506/0509 4000 SHRA BR FEW003 SCT005 BKN008 TEMPO 0515/0521 4000 SHRA BR FEW003 SCT005 BKN008",
      "groups": [
        {
          "text": "TAF AMD RJGG 041849Z 0418/0600 34006KT 9999 FEW012 BKN020",
          "offset_h": -4,
          "wdir": 340,
          "wspd": 6
        },
        {
          "text": "TEMPO 0418/0420 3000 SHRA BR FEW002 BKN005 BKN008",
          "offset_h": -4,
          "wdir": null,
          "wspd": null
        },
        {
          "text": "TEMPO 0420/0422 FEW002 SCT005 BKN008",
          "offset_h": -2,
          "wdir": null,
          "wspd": null
        },
        {
          "text": "BECMG 0422/0500 15010KT",
          "offset_h": 0,
          "wdir": 150,
          "wspd": 10
        },
        {
          "text": "TEMPO 0506/0509 4000 SHRA BR FEW003 SCT005 BKN008",
          "offset_h": 8,
          "wdir": null,
          "wspd": null
        },
        {
          "text": "TEMPO 0515/0521 4000 SHRA BR FEW003 SCT005 BKN008",
          "offset_h": 17,
          "wdir": null,
          "wspd": null
        }
      ],
      "metar_raw": "METAR RJGG 042230Z 03004KT 4500 -RA BR FEW002 SCT003 BKN004 22/21 Q1011 BECMG FM2300 TL0000 12005KT 8000 NSW FEW010 BKN012",
      "metar_wdir": 30,
      "metar_wspd": 4,
      "metar_oat": 22,
      "metar_qnh": 1011,
      "hourly_oat": [
        23,
        23,
        23,
        23,
        23,
        24,
        24,
        24,
        24,
        24,
        24,
        23,
        23,
        23,
        23,
        23,
        23,
        23,
        22,
        22,
        22,
        22,
        22,
        22,
        22
      ]
    },
    "OKA": {
      "icao": "ROAH",
      "issued": "2026-07-04T17:05:00.000Z",
      "raw": "TAF ROAH 041705Z 0418/0600 20010KT 9999 FEW010 SCT015",
      "groups": [
        {
          "text": "TAF ROAH 041705Z 0418/0600 20010KT 9999 FEW010 SCT015",
          "offset_h": -4,
          "wdir": 200,
          "wspd": 10
        }
      ],
      "metar_raw": "METAR ROAH 042230Z VRB01KT 9999 FEW015 29/27 Q1014",
      "metar_wdir": "VRB",
      "metar_wspd": 1,
      "metar_oat": 29,
      "metar_qnh": 1014,
      "hourly_oat": [
        28,
        29,
        29,
        30,
        30,
        30,
        31,
        30,
        30,
        30,
        30,
        29,
        28,
        28,
        27,
        27,
        27,
        27,
        27,
        27,
        27,
        27,
        27,
        27,
        28
      ]
    },
    "ITM": {
      "icao": "RJOO",
      "issued": "2026-07-04T17:05:00.000Z",
      "raw": "TAF RJOO 041705Z 0418/0600 10005KT 9999 FEW020 SCT040 TEMPO 0418/0421 4000 -SHRA BR TEMPO 0505/0515 3000 SHRA BR TEMPO 0521/0600 4000 -SHRA BR",
      "groups": [
        {
          "text": "TAF RJOO 041705Z 0418/0600 10005KT 9999 FEW020 SCT040",
          "offset_h": -4,
          "wdir": 100,
          "wspd": 5
        },
        {
          "text": "TEMPO 0418/0421 4000 -SHRA BR",
          "offset_h": -4,
          "wdir": null,
          "wspd": null
        },
        {
          "text": "TEMPO 0505/0515 3000 SHRA BR",
          "offset_h": 7,
          "wdir": null,
          "wspd": null
        },
        {
          "text": "TEMPO 0521/0600 4000 -SHRA BR",
          "offset_h": 23,
          "wdir": null,
          "wspd": null
        }
      ],
      "metar_raw": "METAR RJOO 042200Z 09005KT 9999 FEW004 BKN015 23/21 Q1010",
      "metar_wdir": 90,
      "metar_wspd": 5,
      "metar_oat": 23,
      "metar_qnh": 1010,
      "hourly_oat": [
        22,
        23,
        23,
        24,
        24,
        24,
        24,
        24,
        24,
        23,
        23,
        23,
        23,
        23,
        23,
        23,
        22,
        22,
        22,
        22,
        22,
        22,
        22,
        22,
        22
      ]
    },
    "KIX": {
      "icao": "RJBB",
      "issued": "2026-07-04T17:05:00.000Z",
      "raw": "TAF RJBB 041705Z 0418/0600 04008KT 9000 -SHRA FEW015 BKN025 TEMPO 0418/0421 FEW005 BKN008 BKN015 BECMG 0423/0501 27006KT BECMG 0509/0512 05006KT TEMPO 0509/0512 4000 -SHRA BR TEMPO 0521/0600 4000 -SHRA BR",
      "groups": [
        {
          "text": "TAF RJBB 041705Z 0418/0600 04008KT 9000 -SHRA FEW015 BKN025",
          "offset_h": -4,
          "wdir": 40,
          "wspd": 8
        },
        {
          "text": "TEMPO 0418/0421 FEW005 BKN008 BKN015",
          "offset_h": -4,
          "wdir": null,
          "wspd": null
        },
        {
          "text": "BECMG 0423/0501 27006KT",
          "offset_h": 1,
          "wdir": 270,
          "wspd": 6
        },
        {
          "text": "BECMG 0509/0512 05006KT",
          "offset_h": 11,
          "wdir": 50,
          "wspd": 6
        },
        {
          "text": "TEMPO 0509/0512 4000 -SHRA BR",
          "offset_h": 11,
          "wdir": null,
          "wspd": null
        },
        {
          "text": "TEMPO 0521/0600 4000 -SHRA BR",
          "offset_h": 23,
          "wdir": null,
          "wspd": null
        }
      ],
      "metar_raw": "METAR RJBB 042230Z 05006KT 9999 VCSH FEW005 BKN025 BKN060 23/21 Q1010 NOSIG",
      "metar_wdir": 50,
      "metar_wspd": 6,
      "metar_oat": 23,
      "metar_qnh": 1010,
      "hourly_oat": [
        23,
        23,
        23,
        23,
        23,
        23,
        24,
        24,
        24,
        24,
        24,
        24,
        24,
        24,
        24,
        24,
        24,
        24,
        23,
        23,
        23,
        23,
        23,
        23,
        23
      ]
    },
    "NRT": {
      "icao": "RJAA",
      "issued": "2026-07-04T17:05:00.000Z",
      "raw": "TAF RJAA 041705Z 0418/0600 13008KT 9999 FEW015 BKN030 BECMG 0515/0518 05004KT TEMPO 0515/0600 FEW001 BKN005",
      "groups": [
        {
          "text": "TAF RJAA 041705Z 0418/0600 13008KT 9999 FEW015 BKN030",
          "offset_h": -4,
          "wdir": 130,
          "wspd": 8
        },
        {
          "text": "BECMG 0515/0518 05004KT",
          "offset_h": 17,
          "wdir": 50,
          "wspd": 4
        },
        {
          "text": "TEMPO 0515/0600 FEW001 BKN005",
          "offset_h": 17,
          "wdir": null,
          "wspd": null
        }
      ],
      "metar_raw": "METAR RJAA 042230Z 14007KT 9999 VCSH FEW012 BKN080 24/21 Q1011 NOSIG",
      "metar_wdir": 140,
      "metar_wspd": 7,
      "metar_oat": 24,
      "metar_qnh": 1011,
      "hourly_oat": [
        22,
        22,
        24,
        24,
        24,
        24,
        24,
        24,
        24,
        24,
        24,
        23,
        22,
        22,
        22,
        21,
        21,
        21,
        20,
        20,
        20,
        20,
        20,
        20,
        20
      ]
    },
    "TSA": {
      "icao": "RCSS",
      "issued": "2026-07-04T17:00:00.000Z",
      "raw": "TAF RCSS 041700Z 0418/0518 30005KT 9999 FEW010 BKN032 TEMPO 0418/0424 23005KT TEMPO 0503/0509 29010KT TEMPO 0505/0510 4000 SHRA FEW010 FEW015TCU BKN017",
      "groups": [
        {
          "text": "TAF RCSS 041700Z 0418/0518 30005KT 9999 FEW010 BKN032",
          "offset_h": -4,
          "wdir": 300,
          "wspd": 5
        },
        {
          "text": "TEMPO 0418/0424 23005KT",
          "offset_h": -4,
          "wdir": 230,
          "wspd": 5
        },
        {
          "text": "TEMPO 0503/0509 29010KT",
          "offset_h": 5,
          "wdir": 290,
          "wspd": 10
        },
        {
          "text": "TEMPO 0505/0510 4000 SHRA FEW010 FEW015TCU BKN017",
          "offset_h": 7,
          "wdir": null,
          "wspd": null
        }
      ],
      "metar_raw": "METAR RCSS 042230Z VRB01KT 9999 FEW025 SCT055 BKN150 30/27 Q1012 NOSIG RMK A2989",
      "metar_wdir": "VRB",
      "metar_wspd": 1,
      "metar_oat": 30,
      "metar_qnh": 1012,
      "hourly_oat": [
        27,
        29,
        30,
        32,
        32,
        33,
        34,
        33,
        32,
        32,
        32,
        31,
        30,
        28,
        28,
        28,
        28,
        28,
        27,
        27,
        27,
        26,
        26,
        26,
        26
      ]
    },
    "SGN": {
      "icao": "VVTS",
      "issued": "2026-07-04T17:00:00.000Z",
      "raw": "TAF VVTS 041700Z 0418/0524 24008KT 9999 SCT017 SCT040 TEMPO 0505/0507 5000 SHRA SCT015 FEW017CB BKN040 TEMPO 0507/0510 24015G28KT 3000 TSRA SCT013 SCT015CB BKN040",
      "groups": [
        {
          "text": "TAF VVTS 041700Z 0418/0524 24008KT 9999 SCT017 SCT040",
          "offset_h": -4,
          "wdir": 240,
          "wspd": 8
        },
        {
          "text": "TEMPO 0505/0507 5000 SHRA SCT015 FEW017CB BKN040",
          "offset_h": 7,
          "wdir": null,
          "wspd": null
        },
        {
          "text": "TEMPO 0507/0510 24015G28KT 3000 TSRA SCT013 SCT015CB BKN040",
          "offset_h": 9,
          "wdir": 240,
          "wspd": 15
        }
      ],
      "metar_raw": "METAR VVTS 042230Z VRB02KT 9999 FEW020 BKN090 26/24 Q1010 NOSIG",
      "metar_wdir": "VRB",
      "metar_wspd": 2,
      "metar_oat": 26,
      "metar_qnh": 1010,
      "hourly_oat": [
        25,
        25,
        25,
        26,
        27,
        28,
        30,
        32,
        32,
        33,
        32,
        32,
        32,
        30,
        28,
        28,
        27,
        26,
        26,
        26,
        25,
        25,
        25,
        25,
        25
      ]
    },
    "SIN": {
      "icao": "WSSS",
      "issued": "2026-07-04T17:00:00.000Z",
      "raw": "TAF WSSS 041700Z 0418/0600 13008KT 9999 FEW015 SCT020 TEMPO 0506/0509 3000 TSRA FEW012CB BKN015",
      "groups": [
        {
          "text": "TAF WSSS 041700Z 0418/0600 13008KT 9999 FEW015 SCT020",
          "offset_h": -4,
          "wdir": 130,
          "wspd": 8
        },
        {
          "text": "TEMPO 0506/0509 3000 TSRA FEW012CB BKN015",
          "offset_h": 8,
          "wdir": null,
          "wspd": null
        }
      ],
      "metar_raw": "METAR WSSS 042230Z 10004KT 9999 FEW016 BKN300 29/25 Q1011 NOSIG",
      "metar_wdir": 100,
      "metar_wspd": 4,
      "metar_oat": 29,
      "metar_qnh": 1011,
      "hourly_oat": [
        28,
        28,
        29,
        29,
        30,
        30,
        30,
        29,
        29,
        29,
        29,
        28,
        28,
        28,
        27,
        27,
        27,
        26,
        26,
        25,
        26,
        26,
        26,
        26,
        26
      ]
    },
    "TPE": {
      "icao": "RCTP",
      "issued": "2026-07-04T17:00:00.000Z",
      "raw": "TAF RCTP 041700Z 0418/0524 24008KT 9999 FEW010 BKN032 TEMPO 0418/0424 15005KT TEMPO 0503/0509 29013KT TEMPO 0506/0510 5000 SHRA FEW010 FEW015TCU BKN017 BECMG 0512/0514 18005KT TEMPO 0518/0524 14005KT",
      "groups": [
        {
          "text": "TAF RCTP 041700Z 0418/0524 24008KT 9999 FEW010 BKN032",
          "offset_h": -4,
          "wdir": 240,
          "wspd": 8
        },
        {
          "text": "TEMPO 0418/0424 15005KT",
          "offset_h": -4,
          "wdir": 150,
          "wspd": 5
        },
        {
          "text": "TEMPO 0503/0509 29013KT",
          "offset_h": 5,
          "wdir": 290,
          "wspd": 13
        },
        {
          "text": "TEMPO 0506/0510 5000 SHRA FEW010 FEW015TCU BKN017",
          "offset_h": 8,
          "wdir": null,
          "wspd": null
        },
        {
          "text": "BECMG 0512/0514 18005KT",
          "offset_h": 14,
          "wdir": 180,
          "wspd": 5
        },
        {
          "text": "TEMPO 0518/0524 14005KT",
          "offset_h": 20,
          "wdir": 140,
          "wspd": 5
        }
      ],
      "metar_raw": "METAR RCTP 042230Z 23007KT 9999 FEW012 SCT080 29/25 Q1012 NOSIG RMK A2989",
      "metar_wdir": 230,
      "metar_wspd": 7,
      "metar_oat": 29,
      "metar_qnh": 1012,
      "hourly_oat": [
        26,
        28,
        30,
        30,
        31,
        31,
        31,
        31,
        31,
        30,
        30,
        30,
        29,
        28,
        28,
        28,
        28,
        27,
        27,
        26,
        26,
        26,
        26,
        26,
        26
      ]
    },
    "CGK": {
      "icao": "WIII",
      "issued": "2026-07-04T17:00:00.000Z",
      "raw": "TAF WIII 041700Z 0418/0600 08010KT 7000 SCT020 BECMG 0419/0421 15005KT 5000 HZ BECMG 0501/0503 06014KT 8000 NSW BECMG 0506/0508 5000 HZ BECMG 0516/0518 16005KT",
      "groups": [
        {
          "text": "TAF WIII 041700Z 0418/0600 08010KT 7000 SCT020",
          "offset_h": -4,
          "wdir": 80,
          "wspd": 10
        },
        {
          "text": "BECMG 0419/0421 15005KT 5000 HZ",
          "offset_h": -3,
          "wdir": 150,
          "wspd": 5
        },
        {
          "text": "BECMG 0501/0503 06014KT 8000 NSW",
          "offset_h": 3,
          "wdir": 60,
          "wspd": 14
        },
        {
          "text": "BECMG 0506/0508 5000 HZ",
          "offset_h": 8,
          "wdir": null,
          "wspd": null
        },
        {
          "text": "BECMG 0516/0518 16005KT",
          "offset_h": 18,
          "wdir": 160,
          "wspd": 5
        }
      ],
      "metar_raw": "METAR WIII 042230Z VRB02KT 4000 HZ FEW020 26/23 Q1012 NOSIG",
      "metar_wdir": "VRB",
      "metar_wspd": 2,
      "metar_oat": 26,
      "metar_qnh": 1012,
      "hourly_oat": [
        25,
        24,
        25,
        28,
        30,
        31,
        32,
        33,
        32,
        31,
        31,
        31,
        30,
        29,
        29,
        28,
        28,
        27,
        27,
        26,
        26,
        25,
        25,
        25,
        24
      ]
    },
    "GMP": {
      "icao": "RKSS",
      "issued": "2026-07-04T17:00:00.000Z",
      "raw": "TAF RKSS 041700Z 0418/0524 15006KT 6000 BKN030 BKN150 TN23/0419Z TX27/0504Z TN24/0521Z BECMG 0503/0505 20008KT -RA FEW010 BKN020 OVC070 TEMPO 0506/0508 24008KT 4000 BECMG 0515/0517 NSW BECMG 0518/0520 4000 BR",
      "groups": [
        {
          "text": "TAF RKSS 041700Z 0418/0524 15006KT 6000 BKN030 BKN150 TN23/0419Z TX27/0504Z TN24/0521Z",
          "offset_h": -4,
          "wdir": 150,
          "wspd": 6
        },
        {
          "text": "BECMG 0503/0505 20008KT -RA FEW010 BKN020 OVC070",
          "offset_h": 5,
          "wdir": 200,
          "wspd": 8
        },
        {
          "text": "TEMPO 0506/0508 24008KT 4000",
          "offset_h": 8,
          "wdir": 240,
          "wspd": 8
        },
        {
          "text": "BECMG 0515/0517 NSW",
          "offset_h": 17,
          "wdir": null,
          "wspd": null
        },
        {
          "text": "BECMG 0518/0520 4000 BR",
          "offset_h": 20,
          "wdir": null,
          "wspd": null
        }
      ],
      "metar_raw": "METAR RKSS 042200Z 17003KT 9999 BKN040 25/24 Q1005 NOSIG",
      "metar_wdir": 170,
      "metar_wspd": 3,
      "metar_oat": 25,
      "metar_qnh": 1005,
      "hourly_oat": [
        22,
        24,
        25,
        26,
        26,
        26,
        27,
        27,
        26,
        26,
        26,
        25,
        25,
        24,
        24,
        24,
        24,
        24,
        24,
        23,
        23,
        23,
        23,
        24,
        24
      ]
    },
    "BKK": {
      "icao": "VTBS",
      "issued": "2026-07-04T17:00:00.000Z",
      "raw": "TAF VTBS 041700Z 0418/0524 22008KT 9999 FEW020 TEMPO 0422/0502 -TSRA FEW018CB SCT030 BKN080 TEMPO 0510/0514 VRB15KT 4000 TSRA FEW018CB SCT030 BKN080",
      "groups": [
        {
          "text": "TAF VTBS 041700Z 0418/0524 22008KT 9999 FEW020",
          "offset_h": -4,
          "wdir": 220,
          "wspd": 8
        },
        {
          "text": "TEMPO 0422/0502 -TSRA FEW018CB SCT030 BKN080",
          "offset_h": 0,
          "wdir": null,
          "wspd": null
        },
        {
          "text": "TEMPO 0510/0514 VRB15KT 4000 TSRA FEW018CB SCT030 BKN080",
          "offset_h": 12,
          "wdir": "VRB",
          "wspd": 15
        }
      ],
      "metar_raw": "METAR VTBS 042230Z 21003KT 9999 FEW020 28/24 Q1009 NOSIG",
      "metar_wdir": 210,
      "metar_wspd": 3,
      "metar_oat": 28,
      "metar_qnh": 1009,
      "hourly_oat": [
        26,
        27,
        28,
        29,
        28,
        29,
        30,
        30,
        29,
        30,
        30,
        30,
        29,
        28,
        28,
        27,
        27,
        27,
        27,
        27,
        27,
        26,
        27,
        27,
        26
      ]
    },
    "KUL": {
      "icao": "WMKK",
      "issued": "2026-07-04T17:00:00.000Z",
      "raw": "TAF WMKK 041700Z 0418/0600 VRB03KT 9999 FEW030 PROB30 TEMPO 0422/0501 5000 TSRA FEW010 FEW017CB",
      "groups": [
        {
          "text": "TAF WMKK 041700Z 0418/0600 VRB03KT 9999 FEW030",
          "offset_h": -4,
          "wdir": "VRB",
          "wspd": 3
        },
        {
          "text": "PROB30",
          "offset_h": 0,
          "wdir": null,
          "wspd": null
        },
        {
          "text": "TEMPO 0422/0501 5000 TSRA FEW010 FEW017CB",
          "offset_h": 0,
          "wdir": null,
          "wspd": null
        }
      ],
      "metar_raw": "METAR WMKK 042230Z VRB01KT 9999 FEW030 26/24 Q1010 NOSIG",
      "metar_wdir": "VRB",
      "metar_wspd": 1,
      "metar_oat": 26,
      "metar_qnh": 1010,
      "hourly_oat": [
        25,
        24,
        25,
        27,
        29,
        30,
        28,
        26,
        27,
        28,
        28,
        27,
        27,
        27,
        26,
        26,
        26,
        25,
        25,
        25,
        24,
        24,
        24,
        24,
        24
      ]
    },
    "HAN": {
      "icao": "VVNB",
      "issued": "2026-07-04T17:00:00.000Z",
      "raw": "TAF VVNB 041700Z 0418/0518 24008KT 9999 FEW025 TEMPO 0418/0423 4000 RA SCT012 FEW020TCU TEMPO 0501/0504 4000 RA SCT012 FEW020TCU",
      "groups": [
        {
          "text": "TAF VVNB 041700Z 0418/0518 24008KT 9999 FEW025",
          "offset_h": -4,
          "wdir": 240,
          "wspd": 8
        },
        {
          "text": "TEMPO 0418/0423 4000 RA SCT012 FEW020TCU",
          "offset_h": -4,
          "wdir": null,
          "wspd": null
        },
        {
          "text": "TEMPO 0501/0504 4000 RA SCT012 FEW020TCU",
          "offset_h": 3,
          "wdir": null,
          "wspd": null
        }
      ],
      "metar_raw": "METAR VVNB 042230Z 27004KT 240V300 9000 NSC 28/26 Q1001 NOSIG",
      "metar_wdir": 270,
      "metar_wspd": 4,
      "metar_oat": 28,
      "metar_qnh": 1001,
      "hourly_oat": [
        25,
        25,
        26,
        26,
        28,
        30,
        31,
        31,
        31,
        32,
        32,
        32,
        31,
        30,
        30,
        29,
        29,
        29,
        29,
        29,
        28,
        28,
        28,
        28,
        28
      ]
    }
  }
}