{
  "updated": "2026-07-05T06:06:25Z",
  "tafs": {
    "LAX": {
      "icao": "KLAX",
      "issued": "2026-07-05T05:45:00.000Z",
      "raw": "TAF KLAX 050545Z 0506/0612 26010KT P6SM FEW009 SCT100 FM050900 VRB03KT P6SM BKN010 FM051400 VRB03KT P6SM SCT015 FM051800 26006KT P6SM FEW250 FM052100 26012KT P6SM SCT250 FM060700 26008KT P6SM SKC FM060900 VRB03KT P6SM BKN010",
      "groups": [
        {
          "text": "TAF KLAX 050545Z 0506/0612 26010KT P6SM FEW009 SCT100",
          "offset_h": 0,
          "wdir": 260,
          "wspd": 10
        },
        {
          "text": "FM050900 VRB03KT P6SM BKN010",
          "offset_h": 3,
          "wdir": "VRB",
          "wspd": 3
        },
        {
          "text": "FM051400 VRB03KT P6SM SCT015",
          "offset_h": 8,
          "wdir": "VRB",
          "wspd": 3
        },
        {
          "text": "FM051800 26006KT P6SM FEW250",
          "offset_h": 12,
          "wdir": 260,
          "wspd": 6
        },
        {
          "text": "FM052100 26012KT P6SM SCT250",
          "offset_h": 15,
          "wdir": 260,
          "wspd": 12
        },
        {
          "text": "FM060700 26008KT P6SM SKC",
          "offset_h": 25,
          "wdir": 260,
          "wspd": 8
        },
        {
          "text": "FM060900 VRB03KT P6SM BKN010",
          "offset_h": 27,
          "wdir": "VRB",
          "wspd": 3
        }
      ],
      "metar_raw": "METAR KLAX 050553Z 26012KT 10SM FEW009 SCT075 BKN250 18/16 A2999 RMK AO2 SLP154 T01830156 10222 20183 50007",
      "metar_wdir": 260,
      "metar_wspd": 12,
      "metar_oat": 18,
      "metar_qnh": 1016,
      "hourly_oat": [
        18,
        18,
        18,
        18,
        17,
        16,
        16,
        16,
        18,
        19,
        20,
        21,
        22,
        22,
        22,
        22,
        21,
        20,
        20,
        20,
        19,
        18,
        18,
        17,
        17
      ]
    },
    "SAN": {
      "icao": "KSAN",
      "issued": "2026-07-05T05:31:00.000Z",
      "raw": "TAF KSAN 050531Z 0506/0612 VRB03KT P6SM SCT015 SCT250 FM050800 VRB03KT P6SM BKN010 FM051600 29006KT P6SM SCT015 FM051900 29011KT P6SM SKC FM060300 30005KT P6SM SCT015 FM060700 VRB04KT P6SM OVC013",
      "groups": [
        {
          "text": "TAF KSAN 050531Z 0506/0612 VRB03KT P6SM SCT015 SCT250",
          "offset_h": 0,
          "wdir": "VRB",
          "wspd": 3
        },
        {
          "text": "FM050800 VRB03KT P6SM BKN010",
          "offset_h": 2,
          "wdir": "VRB",
          "wspd": 3
        },
        {
          "text": "FM051600 29006KT P6SM SCT015",
          "offset_h": 10,
          "wdir": 290,
          "wspd": 6
        },
        {
          "text": "FM051900 29011KT P6SM SKC",
          "offset_h": 13,
          "wdir": 290,
          "wspd": 11
        },
        {
          "text": "FM060300 30005KT P6SM SCT015",
          "offset_h": 21,
          "wdir": 300,
          "wspd": 5
        },
        {
          "text": "FM060700 VRB04KT P6SM OVC013",
          "offset_h": 25,
          "wdir": "VRB",
          "wspd": 4
        }
      ],
      "metar_raw": "METAR KSAN 050551Z 30006KT 10SM SCT015 SCT250 20/17 A3002 RMK AO2 SLP164 T02000172 10233 20200 53009 $",
      "metar_wdir": 300,
      "metar_wspd": 6,
      "metar_oat": 20,
      "metar_qnh": 1017,
      "hourly_oat": [
        19,
        19,
        18,
        19,
        19,
        18,
        18,
        18,
        19,
        20,
        21,
        22,
        23,
        23,
        23,
        23,
        22,
        22,
        21,
        20,
        20,
        19,
        19,
        18,
        18
      ]
    },
    "HNL": {
      "icao": "PHNL",
      "issued": "2026-07-05T05:20:00.000Z",
      "raw": "TAF PHNL 050520Z 0506/0612 06010KT P6SM FEW025 SCT045 FM052000 05015G25KT P6SM VCSH SCT025 BKN040 FM060600 06010KT P6SM SCT025 BKN045",
      "groups": [
        {
          "text": "TAF PHNL 050520Z 0506/0612 06010KT P6SM FEW025 SCT045",
          "offset_h": 0,
          "wdir": 60,
          "wspd": 10
        },
        {
          "text": "FM052000 05015G25KT P6SM VCSH SCT025 BKN040",
          "offset_h": 14,
          "wdir": 50,
          "wspd": 15
        },
        {
          "text": "FM060600 06010KT P6SM SCT025 BKN045",
          "offset_h": 24,
          "wdir": 60,
          "wspd": 10
        }
      ],
      "metar_raw": "METAR PHNL 050553Z 06010G19KT 10SM FEW025 FEW040 26/19 A3002 RMK AO2 SLP164 VCSH N-NE AND E T02610189 10306 20261 53014 $",
      "metar_wdir": 60,
      "metar_wspd": 10,
      "metar_oat": 26,
      "metar_qnh": 1017,
      "hourly_oat": [
        25,
        25,
        25,
        24,
        24,
        24,
        24,
        24,
        24,
        23,
        24,
        25,
        26,
        27,
        27,
        28,
        28,
        28,
        28,
        28,
        27,
        27,
        26,
        24,
        24
      ]
    },
    "DLC": {
      "icao": "ZYTL",
      "issued": "2026-07-05T05:06:00.000Z",
      "raw": "TAF AMD ZYTL 050506Z 0500/0524 15004MPS 5000 BR FEW033 TX29/0506Z TN23/0520Z TEMPO 0504/0507 12009MPS BECMG 0515/0516 2800 -SHRA BR BKN008 BKN026 TEMPO 0518/0520 VRB07G14MPS TSRA BR BKN008 BKN026 FEW033CB BECMG 0519/0520 TSRA BR BKN008 BKN026 FEW033CB BECMG 0522/0523 6000 NSW SCT020",
      "groups": [
        {
          "text": "TAF AMD ZYTL 050506Z 0500/0524 15004MPS 5000 BR FEW033 TX29/0506Z TN23/0520Z",
          "offset_h": -6,
          "wdir": null,
          "wspd": null
        },
        {
          "text": "TEMPO 0504/0507 12009MPS",
          "offset_h": -2,
          "wdir": null,
          "wspd": null
        },
        {
          "text": "BECMG 0515/0516 2800 -SHRA BR BKN008 BKN026",
          "offset_h": 9,
          "wdir": null,
          "wspd": null
        },
        {
          "text": "TEMPO 0518/0520 VRB07G14MPS TSRA BR BKN008 BKN026 FEW033CB",
          "offset_h": 12,
          "wdir": null,
          "wspd": null
        },
        {
          "text": "BECMG 0519/0520 TSRA BR BKN008 BKN026 FEW033CB",
          "offset_h": 13,
          "wdir": null,
          "wspd": null
        },
        {
          "text": "BECMG 0522/0523 6000 NSW SCT020",
          "offset_h": 16,
          "wdir": null,
          "wspd": null
        }
      ],
      "metar_raw": "METAR ZYTL 050600Z 11008MPS 9999 FEW015 BKN026 26/22 Q1000 NOSIG",
      "metar_wdir": null,
      "metar_wspd": null,
      "metar_oat": 26,
      "metar_qnh": 1000,
      "hourly_oat": [
        28,
        28,
        27,
        26,
        25,
        24,
        24,
        23,
        23,
        23,
        24,
        23,
        23,
        22,
        22,
        22,
        23,
        24,
        25,
        26,
        25,
        26,
        28,
        29,
        30
      ]
    },
    "NGO": {
      "icao": "RJGG",
      "issued": "2026-07-05T05:05:00.000Z",
      "raw": "TAF RJGG 050505Z 0506/0612 20006KT 8000 -SHRA FEW010 BKN020 BECMG 0507/0509 13010KT TEMPO 0508/0511 4000 SHRA BR",
      "groups": [
        {
          "text": "TAF RJGG 050505Z 0506/0612 20006KT 8000 -SHRA FEW010 BKN020",
          "offset_h": 0,
          "wdir": 200,
          "wspd": 6
        },
        {
          "text": "BECMG 0507/0509 13010KT",
          "offset_h": 1,
          "wdir": 130,
          "wspd": 10
        },
        {
          "text": "TEMPO 0508/0511 4000 SHRA BR",
          "offset_h": 2,
          "wdir": null,
          "wspd": null
        }
      ],
      "metar_raw": "METAR RJGG 050600Z 14008KT 8000 -RA FEW015 SCT045 BKN060 24/22 Q1009 NOSIG",
      "metar_wdir": 140,
      "metar_wspd": 8,
      "metar_oat": 24,
      "metar_qnh": 1009,
      "hourly_oat": [
        24,
        23,
        23,
        23,
        23,
        23,
        23,
        23,
        23,
        23,
        23,
        23,
        23,
        23,
        23,
        22,
        22,
        22,
        22,
        23,
        23,
        23,
        23,
        23,
        24
      ]
    },
    "NRT": {
      "icao": "RJAA",
      "issued": "2026-07-05T05:05:00.000Z",
      "raw": "TAF RJAA 050505Z 0506/0612 13008KT 9999 FEW020 SCT040 BECMG 0513/0515 05004KT TEMPO 0515/0518 FEW005 BKN008 TEMPO 0518/0521 FEW003 BKN005 BECMG 0521/0600 09008KT BECMG 0606/0609 02006KT",
      "groups": [
        {
          "text": "TAF RJAA 050505Z 0506/0612 13008KT 9999 FEW020 SCT040",
          "offset_h": 0,
          "wdir": 130,
          "wspd": 8
        },
        {
          "text": "BECMG 0513/0515 05004KT",
          "offset_h": 7,
          "wdir": 50,
          "wspd": 4
        },
        {
          "text": "TEMPO 0515/0518 FEW005 BKN008",
          "offset_h": 9,
          "wdir": null,
          "wspd": null
        },
        {
          "text": "TEMPO 0518/0521 FEW003 BKN005",
          "offset_h": 12,
          "wdir": null,
          "wspd": null
        },
        {
          "text": "BECMG 0521/0600 09008KT",
          "offset_h": 15,
          "wdir": 90,
          "wspd": 8
        },
        {
          "text": "BECMG 0606/0609 02006KT",
          "offset_h": 24,
          "wdir": 20,
          "wspd": 6
        }
      ],
      "metar_raw": "METAR RJAA 050600Z 13013KT 9999 FEW025 BKN/// 26/19 Q1011 NOSIG",
      "metar_wdir": 130,
      "metar_wspd": 13,
      "metar_oat": 26,
      "metar_qnh": 1011,
      "hourly_oat": [
        24,
        24,
        23,
        23,
        22,
        22,
        22,
        22,
        22,
        21,
        21,
        21,
        21,
        20,
        20,
        20,
        21,
        21,
        22,
        23,
        23,
        23,
        23,
        23,
        23
      ]
    },
    "KIX": {
      "icao": "RJBB",
      "issued": "2026-07-05T05:05:00.000Z",
      "raw": "TAF RJBB 050505Z 0506/0612 03006KT 8000 -SHRA FEW005 SCT008 BKN015 TEMPO 0506/0509 4000 -SHRA BR FEW003 SCT005 BKN008 TEMPO 0515/0521 FEW003 SCT005 BKN008 TEMPO 0521/0600 4000 -SHRA BR",
      "groups": [
        {
          "text": "TAF RJBB 050505Z 0506/0612 03006KT 8000 -SHRA FEW005 SCT008 BKN015",
          "offset_h": 0,
          "wdir": 30,
          "wspd": 6
        },
        {
          "text": "TEMPO 0506/0509 4000 -SHRA BR FEW003 SCT005 BKN008",
          "offset_h": 0,
          "wdir": null,
          "wspd": null
        },
        {
          "text": "TEMPO 0515/0521 FEW003 SCT005 BKN008",
          "offset_h": 9,
          "wdir": null,
          "wspd": null
        },
        {
          "text": "TEMPO 0521/0600 4000 -SHRA BR",
          "offset_h": 15,
          "wdir": null,
          "wspd": null
        }
      ],
      "metar_raw": "METAR RJBB 050600Z 35004KT 310V020 9999 -SHRA FEW003 SCT005 BKN040 24/23 Q1008 TEMPO 4000 -SHRA BR FEW003 BKN008 BKN015",
      "metar_wdir": 350,
      "metar_wspd": 4,
      "metar_oat": 24,
      "metar_qnh": 1008,
      "hourly_oat": [
        24,
        24,
        24,
        24,
        24,
        24,
        24,
        24,
        24,
        24,
        24,
        23,
        23,
        23,
        23,
        23,
        23,
        23,
        23,
        23,
        23,
        24,
        24,
        24,
        24
      ]
    },
    "HND": {
      "icao": "RJTT",
      "issued": "2026-07-05T05:05:00.000Z",
      "raw": "TAF RJTT 050505Z 0506/0612 14010KT 9999 FEW020 BKN050 BECMG 0516/0518 07006KT TEMPO 0517/0521 FEW005 BKN008 BECMG 0609/0612 05010KT",
      "groups": [
        {
          "text": "TAF RJTT 050505Z 0506/0612 14010KT 9999 FEW020 BKN050",
          "offset_h": 0,
          "wdir": 140,
          "wspd": 10
        },
        {
          "text": "BECMG 0516/0518 07006KT",
          "offset_h": 10,
          "wdir": 70,
          "wspd": 6
        },
        {
          "text": "TEMPO 0517/0521 FEW005 BKN008",
          "offset_h": 11,
          "wdir": null,
          "wspd": null
        },
        {
          "text": "BECMG 0609/0612 05010KT",
          "offset_h": 27,
          "wdir": 50,
          "wspd": 10
        }
      ],
      "metar_raw": "METAR RJTT 050600Z 20006KT 9999 FEW030 BKN070 BKN/// 26/20 Q1011 NOSIG",
      "metar_wdir": 200,
      "metar_wspd": 6,
      "metar_oat": 26,
      "metar_qnh": 1011,
      "hourly_oat": [
        24,
        24,
        23,
        23,
        23,
        23,
        22,
        22,
        22,
        22,
        22,
        22,
        21,
        21,
        21,
        22,
        22,
        22,
        22,
        23,
        23,
        23,
        23,
        24,
        24
      ]
    },
    "ITM": {
      "icao": "RJOO",
      "issued": "2026-07-05T05:05:00.000Z",
      "raw": "TAF RJOO 050505Z 0506/0612 07006KT 8000 -SHRA FEW005 SCT008 BKN015 TEMPO 0506/0507 4000 SHRA BR FEW003 SCT005 BKN008 TEMPO 0507/0509 4000 -SHRA BR FEW003 SCT005 BKN008 TEMPO 0518/0600 3000 -SHRA BR TEMPO 0600/0603 4000 -SHRA BR",
      "groups": [
        {
          "text": "TAF RJOO 050505Z 0506/0612 07006KT 8000 -SHRA FEW005 SCT008 BKN015",
          "offset_h": 0,
          "wdir": 70,
          "wspd": 6
        },
        {
          "text": "TEMPO 0506/0507 4000 SHRA BR FEW003 SCT005 BKN008",
          "offset_h": 0,
          "wdir": null,
          "wspd": null
        },
        {
          "text": "TEMPO 0507/0509 4000 -SHRA BR FEW003 SCT005 BKN008",
          "offset_h": 1,
          "wdir": null,
          "wspd": null
        },
        {
          "text": "TEMPO 0518/0600 3000 -SHRA BR",
          "offset_h": 12,
          "wdir": null,
          "wspd": null
        },
        {
          "text": "TEMPO 0600/0603 4000 -SHRA BR",
          "offset_h": 18,
          "wdir": null,
          "wspd": null
        }
      ],
      "metar_raw": "METAR RJOO 050600Z 05003KT 350V100 8000 -SHRA BR FEW005 SCT007 BKN010 24/22 Q1008",
      "metar_wdir": 50,
      "metar_wspd": 3,
      "metar_oat": 24,
      "metar_qnh": 1008,
      "hourly_oat": [
        23,
        23,
        23,
        23,
        23,
        22,
        22,
        22,
        22,
        22,
        22,
        22,
        22,
        22,
        22,
        22,
        22,
        23,
        23,
        23,
        23,
        24,
        24,
        25,
        25
      ]
    },
    "OKA": {
      "icao": "ROAH",
      "issued": "2026-07-05T05:05:00.000Z",
      "raw": "TAF ROAH 050505Z 0506/0612 22006KT 9999 FEW012",
      "groups": [
        {
          "text": "TAF ROAH 050505Z 0506/0612 22006KT 9999 FEW012",
          "offset_h": 0,
          "wdir": 220,
          "wspd": 6
        }
      ],
      "metar_raw": "METAR ROAH 050600Z 22008KT 9999 FEW012 31/28 Q1011",
      "metar_wdir": 220,
      "metar_wspd": 8,
      "metar_oat": 31,
      "metar_qnh": 1011,
      "hourly_oat": [
        30,
        30,
        30,
        29,
        28,
        28,
        27,
        27,
        27,
        26,
        27,
        27,
        27,
        27,
        27,
        27,
        28,
        28,
        29,
        30,
        30,
        30,
        30,
        30,
        30
      ]
    },
    "FUK": {
      "icao": "RJFF",
      "issued": "2026-07-05T05:05:00.000Z",
      "raw": "TAF RJFF 050505Z 0506/0612 32004KT 8000 -SHRA FEW009 BKN030 TEMPO 0506/0508 4000 -SHRA BR BECMG 0507/0509 11006KT TEMPO 0508/0521 4000 -TSRA BR FEW007 SCT013 BKN030 FEW030CB BECMG 0600/0603 29008KT",
      "groups": [
        {
          "text": "TAF RJFF 050505Z 0506/0612 32004KT 8000 -SHRA FEW009 BKN030",
          "offset_h": 0,
          "wdir": 320,
          "wspd": 4
        },
        {
          "text": "TEMPO 0506/0508 4000 -SHRA BR",
          "offset_h": 0,
          "wdir": null,
          "wspd": null
        },
        {
          "text": "BECMG 0507/0509 11006KT",
          "offset_h": 1,
          "wdir": 110,
          "wspd": 6
        },
        {
          "text": "TEMPO 0508/0521 4000 -TSRA BR FEW007 SCT013 BKN030 FEW030CB",
          "offset_h": 2,
          "wdir": null,
          "wspd": null
        },
        {
          "text": "BECMG 0600/0603 29008KT",
          "offset_h": 18,
          "wdir": 290,
          "wspd": 8
        }
      ],
      "metar_raw": "METAR RJFF 050600Z VRB05KT 8000 -SHRA FEW005 SCT020 BKN030 26/24 Q1009 BECMG 32004KT TEMPO 4000 -SHRA BR",
      "metar_wdir": "VRB",
      "metar_wspd": 5,
      "metar_oat": 26,
      "metar_qnh": 1009,
      "hourly_oat": [
        27,
        28,
        27,
        25,
        25,
        25,
        26,
        25,
        25,
        25,
        25,
        24,
        25,
        24,
        24,
        24,
        24,
        25,
        27,
        28,
        28,
        29,
        29,
        29,
        29
      ]
    },
    "CTS": {
      "icao": "RJCC",
      "issued": "2026-07-05T05:05:00.000Z",
      "raw": "TAF RJCC 050505Z 0506/0612 17012KT 9999 FEW006 BKN015 TEMPO 0521/0603 FEW003 BKN008 TEMPO 0606/0612 FEW003 BKN008",
      "groups": [
        {
          "text": "TAF RJCC 050505Z 0506/0612 17012KT 9999 FEW006 BKN015",
          "offset_h": 0,
          "wdir": 170,
          "wspd": 12
        },
        {
          "text": "TEMPO 0521/0603 FEW003 BKN008",
          "offset_h": 15,
          "wdir": null,
          "wspd": null
        },
        {
          "text": "TEMPO 0606/0612 FEW003 BKN008",
          "offset_h": 24,
          "wdir": null,
          "wspd": null
        }
      ],
      "metar_raw": "METAR RJCC 050600Z 19015KT 9999 FEW010 BKN020 BKN/// 20/16 Q1014",
      "metar_wdir": 190,
      "metar_wspd": 15,
      "metar_oat": 20,
      "metar_qnh": 1014,
      "hourly_oat": [
        19,
        19,
        18,
        17,
        17,
        17,
        17,
        16,
        17,
        16,
        16,
        16,
        16,
        16,
        16,
        17,
        17,
        18,
        18,
        18,
        18,
        19,
        18,
        18,
        18
      ]
    },
    "TSA": {
      "icao": "RCSS",
      "issued": "2026-07-05T05:00:00.000Z",
      "raw": "TAF RCSS 050500Z 0506/0606 30005KT 9999 FEW015 BKN032 TEMPO 0506/0510 11008KT 4000 SHRA FEW012 FEW015CB BKN020 TEMPO 0519/0524 VRB03KT TEMPO 0600/0606 09005KT",
      "groups": [
        {
          "text": "TAF RCSS 050500Z 0506/0606 30005KT 9999 FEW015 BKN032",
          "offset_h": 0,
          "wdir": 300,
          "wspd": 5
        },
        {
          "text": "TEMPO 0506/0510 11008KT 4000 SHRA FEW012 FEW015CB BKN020",
          "offset_h": 0,
          "wdir": 110,
          "wspd": 8
        },
        {
          "text": "TEMPO 0519/0524 VRB03KT",
          "offset_h": 13,
          "wdir": "VRB",
          "wspd": 3
        },
        {
          "text": "TEMPO 0600/0606 09005KT",
          "offset_h": 18,
          "wdir": 90,
          "wspd": 5
        }
      ],
      "metar_raw": "METAR RCSS 050530Z 29010KT 260V330 9999 FEW020 BKN045 36/27 Q1009 NOSIG RMK 31008KT/R10 A2982",
      "metar_wdir": 290,
      "metar_wspd": 10,
      "metar_oat": 36,
      "metar_qnh": 1009,
      "hourly_oat": [
        33,
        32,
        32,
        31,
        30,
        29,
        28,
        28,
        28,
        28,
        27,
        27,
        27,
        26,
        26,
        26,
        26,
        27,
        28,
        30,
        31,
        33,
        33,
        34,
        34
      ]
    },
    "HKG": {
      "icao": "VHHH",
      "issued": "2026-07-05T05:00:00.000Z",
      "raw": "TAF VHHH 050500Z 0506/0612 16015KT 9999 FEW010 SCT025 TX32/0506Z TX32/0606Z TN28/0522Z TEMPO 0506/0512 16015G30KT TEMPO 0600/0606 3500 SHRA FEW010CB SCT020",
      "groups": [
        {
          "text": "TAF VHHH 050500Z 0506/0612 16015KT 9999 FEW010 SCT025 TX32/0506Z TX32/0606Z TN28/0522Z",
          "offset_h": 0,
          "wdir": 160,
          "wspd": 15
        },
        {
          "text": "TEMPO 0506/0512 16015G30KT",
          "offset_h": 0,
          "wdir": 160,
          "wspd": 15
        },
        {
          "text": "TEMPO 0600/0606 3500 SHRA FEW010CB SCT020",
          "offset_h": 18,
          "wdir": null,
          "wspd": null
        }
      ],
      "metar_raw": "METAR VHHH 050600Z 15013KT 120V180 9999 FEW012 SCT025 31/25 Q1008 WS R25R NOSIG",
      "metar_wdir": 150,
      "metar_wspd": 13,
      "metar_oat": 31,
      "metar_qnh": 1008,
      "hourly_oat": [
        29,
        29,
        29,
        28,
        28,
        28,
        28,
        28,
        28,
        29,
        28,
        28,
        28,
        28,
        28,
        28,
        28,
        29,
        29,
        29,
        29,
        29,
        29,
        29,
        29
      ]
    },
    "GMP": {
      "icao": "RKSS",
      "issued": "2026-07-05T05:00:00.000Z",
      "raw": "TAF RKSS 050500Z 0506/0612 22007KT 9999 BKN020 TN23/0520Z TX29/0605Z BECMG 0507/0509 -RA SCT010 BKN020 OVC070 BECMG 0513/0515 17006KT NSW TEMPO 0603/0606 -RA",
      "groups": [
        {
          "text": "TAF RKSS 050500Z 0506/0612 22007KT 9999 BKN020 TN23/0520Z TX29/0605Z",
          "offset_h": 0,
          "wdir": 220,
          "wspd": 7
        },
        {
          "text": "BECMG 0507/0509 -RA SCT010 BKN020 OVC070",
          "offset_h": 1,
          "wdir": null,
          "wspd": null
        },
        {
          "text": "BECMG 0513/0515 17006KT NSW",
          "offset_h": 7,
          "wdir": 170,
          "wspd": 6
        },
        {
          "text": "TEMPO 0603/0606 -RA",
          "offset_h": 21,
          "wdir": null,
          "wspd": null
        }
      ],
      "metar_raw": "METAR RKSS 050600Z 15010KT 120V190 9999 BKN025 BKN070 29/25 Q1003 NOSIG",
      "metar_wdir": 150,
      "metar_wspd": 10,
      "metar_oat": 29,
      "metar_qnh": 1003,
      "hourly_oat": [
        27,
        27,
        26,
        25,
        25,
        24,
        24,
        24,
        24,
        24,
        24,
        24,
        24,
        24,
        24,
        24,
        24,
        24,
        24,
        25,
        26,
        27,
        27,
        27,
        27
      ]
    },
    "SIN": {
      "icao": "WSSS",
      "issued": "2026-07-05T05:00:00.000Z",
      "raw": "TAF WSSS 050500Z 0506/0612 13008KT 9999 FEW015 SCT020 TEMPO 0506/0509 3000 TSRA FEW012CB BKN015",
      "groups": [
        {
          "text": "TAF WSSS 050500Z 0506/0612 13008KT 9999 FEW015 SCT020",
          "offset_h": 0,
          "wdir": 130,
          "wspd": 8
        },
        {
          "text": "TEMPO 0506/0509 3000 TSRA FEW012CB BKN015",
          "offset_h": 0,
          "wdir": null,
          "wspd": null
        }
      ],
      "metar_raw": "METAR WSSS 050600Z 09008KT 050V130 9999 FEW017CB FEW018TCU BKN300 33/23 Q1010 NOSIG",
      "metar_wdir": 90,
      "metar_wspd": 8,
      "metar_oat": 33,
      "metar_qnh": 1010,
      "hourly_oat": [
        30,
        31,
        30,
        29,
        25,
        26,
        26,
        25,
        25,
        25,
        25,
        25,
        25,
        25,
        25,
        25,
        25,
        25,
        26,
        27,
        28,
        28,
        29,
        30,
        29
      ]
    },
    "CGK": {
      "icao": "WIII",
      "issued": "2026-07-05T05:00:00.000Z",
      "raw": "TAF WIII 050500Z 0506/0612 05012KT 8000 SCT020 BECMG 0516/0518 14005KT 5000 HZ BECMG 0601/0603 04010KT 9000 NSW",
      "groups": [
        {
          "text": "TAF WIII 050500Z 0506/0612 05012KT 8000 SCT020",
          "offset_h": 0,
          "wdir": 50,
          "wspd": 12
        },
        {
          "text": "BECMG 0516/0518 14005KT 5000 HZ",
          "offset_h": 10,
          "wdir": 140,
          "wspd": 5
        },
        {
          "text": "BECMG 0601/0603 04010KT 9000 NSW",
          "offset_h": 19,
          "wdir": 40,
          "wspd": 10
        }
      ],
      "metar_raw": "METAR WIII 050600Z 04011KT 7000 FEW020 33/24 Q1010 NOSIG",
      "metar_wdir": 40,
      "metar_wspd": 11,
      "metar_oat": 33,
      "metar_qnh": 1010,
      "hourly_oat": [
        32,
        31,
        31,
        30,
        29,
        28,
        26,
        26,
        25,
        25,
        25,
        25,
        25,
        25,
        24,
        24,
        25,
        24,
        25,
        27,
        29,
        30,
        32,
        32,
        33
      ]
    },
    "KUL": {
      "icao": "WMKK",
      "issued": "2026-07-05T05:00:00.000Z",
      "raw": "TAF WMKK 050500Z 0506/0612 13005KT 9999 FEW018 BECMG 0511/0513 VRB03KT FEW030",
      "groups": [
        {
          "text": "TAF WMKK 050500Z 0506/0612 13005KT 9999 FEW018",
          "offset_h": 0,
          "wdir": 130,
          "wspd": 5
        },
        {
          "text": "BECMG 0511/0513 VRB03KT FEW030",
          "offset_h": 5,
          "wdir": "VRB",
          "wspd": 3
        }
      ],
      "metar_raw": "METAR WMKK 050530Z 00000KT 9999 FEW017CB SCT018 33/24 Q1010 NOSIG",
      "metar_wdir": 0,
      "metar_wspd": 0,
      "metar_oat": 33,
      "metar_qnh": 1010,
      "hourly_oat": [
        28,
        28,
        27,
        27,
        27,
        26,
        26,
        25,
        25,
        25,
        25,
        25,
        25,
        25,
        25,
        25,
        24,
        24,
        24,
        25,
        27,
        28,
        28,
        28,
        27
      ]
    },
    "BKK": {
      "icao": "VTBS",
      "issued": "2026-07-05T05:00:00.000Z",
      "raw": "TAF VTBS 050500Z 0506/0612 21008KT 9999 FEW020 TEMPO 0512/0516 VRB15KT 4000 TSRA FEW018CB SCT030 BKN100 TEMPO 0608/0612 VRB15KT 4000 TSRA FEW018CB SCT030 BKN100",
      "groups": [
        {
          "text": "TAF VTBS 050500Z 0506/0612 21008KT 9999 FEW020",
          "offset_h": 0,
          "wdir": 210,
          "wspd": 8
        },
        {
          "text": "TEMPO 0512/0516 VRB15KT 4000 TSRA FEW018CB SCT030 BKN100",
          "offset_h": 6,
          "wdir": "VRB",
          "wspd": 15
        },
        {
          "text": "TEMPO 0608/0612 VRB15KT 4000 TSRA FEW018CB SCT030 BKN100",
          "offset_h": 26,
          "wdir": "VRB",
          "wspd": 15
        }
      ],
      "metar_raw": "METAR VTBS 050600Z 19012KT 9999 FEW020 SCT035 33/23 Q1009 NOSIG",
      "metar_wdir": 190,
      "metar_wspd": 12,
      "metar_oat": 33,
      "metar_qnh": 1009,
      "hourly_oat": [
        31,
        31,
        30,
        29,
        28,
        28,
        27,
        27,
        27,
        27,
        27,
        27,
        27,
        27,
        27,
        27,
        27,
        27,
        27,
        27,
        28,
        29,
        29,
        29,
        29
      ]
    },
    "HAN": {
      "icao": "VVNB",
      "issued": "2026-07-05T05:00:00.000Z",
      "raw": "TAF VVNB 050500Z 0506/0606 26007KT 9999 SCT025 TEMPO 0508/0512 4000 RA SCT015 FEW020TCU TEMPO 0520/0524 4500 RA SCT010 FEW020TCU",
      "groups": [
        {
          "text": "TAF VVNB 050500Z 0506/0606 26007KT 9999 SCT025",
          "offset_h": 0,
          "wdir": 260,
          "wspd": 7
        },
        {
          "text": "TEMPO 0508/0512 4000 RA SCT015 FEW020TCU",
          "offset_h": 2,
          "wdir": null,
          "wspd": null
        },
        {
          "text": "TEMPO 0520/0524 4500 RA SCT010 FEW020TCU",
          "offset_h": 14,
          "wdir": null,
          "wspd": null
        }
      ],
      "metar_raw": "METAR VVNB 050600Z 15003KT 080V220 9999 SCT036 34/28 Q1000 NOSIG",
      "metar_wdir": 150,
      "metar_wspd": 3,
      "metar_oat": 34,
      "metar_qnh": 1000,
      "hourly_oat": [
        32,
        30,
        30,
        30,
        31,
        31,
        29,
        29,
        28,
        28,
        28,
        28,
        28,
        28,
        28,
        27,
        27,
        27,
        27,
        27,
        27,
        27,
        28,
        29,
        29
      ]
    },
    "SGN": {
      "icao": "VVTS",
      "issued": "2026-07-05T05:00:00.000Z",
      "raw": "TAF VVTS 050500Z 0506/0612 29008KT 9999 SCT017 SCT040 TEMPO 0506/0509 TS SCT015 FEW017CB BKN040 TEMPO 0509/0512 5000 TSRA SCT015 FEW017CB BKN040 TEMPO 0608/0612 2000 +TSRA SCT015 SCT017CB BKN040",
      "groups": [
        {
          "text": "TAF VVTS 050500Z 0506/0612 29008KT 9999 SCT017 SCT040",
          "offset_h": 0,
          "wdir": 290,
          "wspd": 8
        },
        {
          "text": "TEMPO 0506/0509 TS SCT015 FEW017CB BKN040",
          "offset_h": 0,
          "wdir": null,
          "wspd": null
        },
        {
          "text": "TEMPO 0509/0512 5000 TSRA SCT015 FEW017CB BKN040",
          "offset_h": 3,
          "wdir": null,
          "wspd": null
        },
        {
          "text": "TEMPO 0608/0612 2000 +TSRA SCT015 SCT017CB BKN040",
          "offset_h": 26,
          "wdir": null,
          "wspd": null
        }
      ],
      "metar_raw": "METAR VVTS 050600Z 28008KT 260V320 9999 BKN032 32/25 Q1010 NOSIG",
      "metar_wdir": 280,
      "metar_wspd": 8,
      "metar_oat": 32,
      "metar_qnh": 1010,
      "hourly_oat": [
        31,
        32,
        32,
        30,
        27,
        27,
        27,
        26,
        26,
        26,
        26,
        26,
        25,
        25,
        25,
        25,
        25,
        25,
        26,
        28,
        29,
        30,
        30,
        32,
        32
      ]
    },
    "TPE": {
      "icao": "RCTP",
      "issued": "2026-07-05T05:00:00.000Z",
      "raw": "TAF RCTP 050500Z 0506/0612 26010KT 9999 FEW015 BECMG 0512/0514 22005KT TEMPO 0518/0524 15005KT BECMG 0600/0602 31010KT BECMG 0610/0612 21005KT",
      "groups": [
        {
          "text": "TAF RCTP 050500Z 0506/0612 26010KT 9999 FEW015",
          "offset_h": 0,
          "wdir": 260,
          "wspd": 10
        },
        {
          "text": "BECMG 0512/0514 22005KT",
          "offset_h": 6,
          "wdir": 220,
          "wspd": 5
        },
        {
          "text": "TEMPO 0518/0524 15005KT",
          "offset_h": 12,
          "wdir": 150,
          "wspd": 5
        },
        {
          "text": "BECMG 0600/0602 31010KT",
          "offset_h": 18,
          "wdir": 310,
          "wspd": 10
        },
        {
          "text": "BECMG 0610/0612 21005KT",
          "offset_h": 28,
          "wdir": 210,
          "wspd": 5
        }
      ],
      "metar_raw": "SPECI RCTP 050540Z 28014KT 9999 FEW020 SCT250 35/25 Q1010 WS R23R NOSIG RMK A2983",
      "metar_wdir": 280,
      "metar_wspd": 14,
      "metar_oat": 35,
      "metar_qnh": 1010,
      "hourly_oat": [
        30,
        31,
        30,
        29,
        29,
        28,
        28,
        28,
        28,
        27,
        27,
        26,
        26,
        26,
        26,
        26,
        26,
        27,
        28,
        30,
        30,
        31,
        32,
        32,
        32
      ]
    },
    "SHA": {
      "icao": "ZSSS",
      "issued": "2026-07-05T03:08:00.000Z",
      "raw": "TAF ZSSS 050308Z 0506/0612 20004MPS 6000 -SHRA BKN030 TX30/0506Z TX32/0606Z TN26/0521Z TEMPO 0507/0512 33008G13MPS 2500 TSRA BKN013 SCT030CB TEMPO 0606/0610 33008G13MPS 2800 TSRA BKN013 SCT030CB",
      "groups": [
        {
          "text": "TAF ZSSS 050308Z 0506/0612 20004MPS 6000 -SHRA BKN030 TX30/0506Z TX32/0606Z TN26/0521Z",
          "offset_h": 0,
          "wdir": null,
          "wspd": null
        },
        {
          "text": "TEMPO 0507/0512 33008G13MPS 2500 TSRA BKN013 SCT030CB",
          "offset_h": 1,
          "wdir": null,
          "wspd": null
        },
        {
          "text": "TEMPO 0606/0610 33008G13MPS 2800 TSRA BKN013 SCT030CB",
          "offset_h": 24,
          "wdir": null,
          "wspd": null
        }
      ],
      "metar_raw": "METAR ZSSS 050600Z 23005MPS 9999 -SHRA FEW020 29/25 Q1006 NOSIG",
      "metar_wdir": null,
      "metar_wspd": null,
      "metar_oat": 29,
      "metar_qnh": 1006,
      "hourly_oat": [
        28,
        28,
        28,
        28,
        27,
        26,
        26,
        26,
        26,
        26,
        26,
        26,
        26,
        27,
        27,
        27,
        27,
        27,
        29,
        30,
        31,
        32,
        32,
        33,
        33
      ]
    },
    "PVG": {
      "icao": "ZSPD",
      "issued": "2026-07-05T03:08:00.000Z",
      "raw": "TAF ZSPD 050308Z 0506/0612 20004MPS 6000 -SHRA BKN020 TX31/0506Z TX32/0606Z TN25/0521Z TEMPO 0507/0512 33008G14MPS 2500 TSRA BKN011 SCT030CB TEMPO 0606/0610 33008G14MPS 2500 TSRA BKN013 SCT030CB",
      "groups": [
        {
          "text": "TAF ZSPD 050308Z 0506/0612 20004MPS 6000 -SHRA BKN020 TX31/0506Z TX32/0606Z TN25/0521Z",
          "offset_h": 0,
          "wdir": null,
          "wspd": null
        },
        {
          "text": "TEMPO 0507/0512 33008G14MPS 2500 TSRA BKN011 SCT030CB",
          "offset_h": 1,
          "wdir": null,
          "wspd": null
        },
        {
          "text": "TEMPO 0606/0610 33008G14MPS 2500 TSRA BKN013 SCT030CB",
          "offset_h": 24,
          "wdir": null,
          "wspd": null
        }
      ],
      "metar_raw": "METAR ZSPD 050600Z 24006MPS 9999 BKN033 30/25 Q1006 NOSIG",
      "metar_wdir": null,
      "metar_wspd": null,
      "metar_oat": 30,
      "metar_qnh": 1006,
      "hourly_oat": [
        28,
        27,
        28,
        28,
        27,
        26,
        26,
        26,
        26,
        26,
        26,
        26,
        27,
        27,
        27,
        27,
        27,
        27,
        29,
        31,
        32,
        32,
        33,
        33,
        33
      ]
    },
    "CAN": {
      "icao": "ZGGG",
      "issued": "2026-07-05T03:06:00.000Z",
      "raw": "TAF ZGGG 050306Z 0506/0612 16005MPS 8000 BKN033 TX34/0507Z TX34/0607Z TN27/0522Z TEMPO 0506/0510 4000 +TSRA SCT011 SCT023CB BKN030 TEMPO 0510/0513 4000 SHRA SCT011 SCT023CB BKN030 TEMPO 0521/0601 4000 SHRA SCT011 SCT023CB BKN030 TEMPO 0606/0610 4000 TSRA SCT011 SCT023CB BKN030",
      "groups": [
        {
          "text": "TAF ZGGG 050306Z 0506/0612 16005MPS 8000 BKN033 TX34/0507Z TX34/0607Z TN27/0522Z",
          "offset_h": 0,
          "wdir": null,
          "wspd": null
        },
        {
          "text": "TEMPO 0506/0510 4000 +TSRA SCT011 SCT023CB BKN030",
          "offset_h": 0,
          "wdir": null,
          "wspd": null
        },
        {
          "text": "TEMPO 0510/0513 4000 SHRA SCT011 SCT023CB BKN030",
          "offset_h": 4,
          "wdir": null,
          "wspd": null
        },
        {
          "text": "TEMPO 0521/0601 4000 SHRA SCT011 SCT023CB BKN030",
          "offset_h": 15,
          "wdir": null,
          "wspd": null
        },
        {
          "text": "TEMPO 0606/0610 4000 TSRA SCT011 SCT023CB BKN030",
          "offset_h": 24,
          "wdir": null,
          "wspd": null
        }
      ],
      "metar_raw": "METAR ZGGG 050600Z 13007MPS 9999 SCT026 SCT050 31/26 Q1006 NOSIG",
      "metar_wdir": null,
      "metar_wspd": null,
      "metar_oat": 31,
      "metar_qnh": 1006,
      "hourly_oat": [
        29,
        30,
        28,
        29,
        29,
        29,
        28,
        27,
        27,
        27,
        26,
        26,
        25,
        26,
        26,
        26,
        26,
        27,
        28,
        29,
        30,
        31,
        30,
        30,
        28
      ]
    },
    "PEK": {
      "icao": "ZBAA",
      "issued": "2026-07-05T03:02:00.000Z",
      "raw": "TAF ZBAA 050302Z 0506/0612 19003MPS CAVOK TX34/0506Z TX34/0606Z TN21/0521Z TEMPO 0511/0514 -TSRA FEW040CB BKN040 BECMG 0610/0611 FEW040CB BKN040",
      "groups": [
        {
          "text": "TAF ZBAA 050302Z 0506/0612 19003MPS CAVOK TX34/0506Z TX34/0606Z TN21/0521Z",
          "offset_h": 0,
          "wdir": null,
          "wspd": null
        },
        {
          "text": "TEMPO 0511/0514 -TSRA FEW040CB BKN040",
          "offset_h": 5,
          "wdir": null,
          "wspd": null
        },
        {
          "text": "BECMG 0610/0611 FEW040CB BKN040",
          "offset_h": 28,
          "wdir": null,
          "wspd": null
        }
      ],
      "metar_raw": "METAR ZBAA 050600Z 16003MPS 110V210 CAVOK 33/19 Q0997 NOSIG",
      "metar_wdir": null,
      "metar_wspd": null,
      "metar_oat": 33,
      "metar_qnh": 997,
      "hourly_oat": [
        33,
        33,
        33,
        31,
        30,
        29,
        28,
        26,
        26,
        25,
        24,
        23,
        22,
        21,
        21,
        20,
        21,
        23,
        25,
        26,
        28,
        29,
        30,
        31,
        32
      ]
    }
  }
}