{
  "updated": "2026-06-25T02:51:53Z",
  "tafs": {
    "NGO": {
      "icao": "RJGG",
      "issued": "2026-06-25T02:49:00.000Z",
      "raw": "TAF AMD RJGG 250249Z 2502/2606 29006KT 6000 -SHRA FEW005 SCT008 BKN015 TEMPO 2502/2512 3000 SHRA BR FEW003 BKN005 BECMG 2506/2508 13016KT TEMPO 2512/2515 4000 -TSRA BR FEW003 SCT005 BKN008 FEW012CB TEMPO 2515/2600 4000 -TSRA BR FEW005 SCT008 FEW012CB BKN015 TEMPO 2600/2606 -TSRA FEW015 SCT020 BKN030 FEW030CB",
      "groups": [
        {
          "text": "TAF AMD RJGG 250249Z 2502/2606 29006KT 6000 -SHRA FEW005 SCT008 BKN015",
          "offset_h": 0,
          "wdir": 290,
          "wspd": 6
        },
        {
          "text": "TEMPO 2502/2512 3000 SHRA BR FEW003 BKN005",
          "offset_h": 0,
          "wdir": null,
          "wspd": null
        },
        {
          "text": "BECMG 2506/2508 13016KT",
          "offset_h": 4,
          "wdir": 130,
          "wspd": 16
        },
        {
          "text": "TEMPO 2512/2515 4000 -TSRA BR FEW003 SCT005 BKN008 FEW012CB",
          "offset_h": 10,
          "wdir": null,
          "wspd": null
        },
        {
          "text": "TEMPO 2515/2600 4000 -TSRA BR FEW005 SCT008 FEW012CB BKN015",
          "offset_h": 13,
          "wdir": null,
          "wspd": null
        },
        {
          "text": "TEMPO 2600/2606 -TSRA FEW015 SCT020 BKN030 FEW030CB",
          "offset_h": 22,
          "wdir": null,
          "wspd": null
        }
      ],
      "metar_raw": "METAR RJGG 250230Z 27007KT 3000 SHRA BR FEW004 BKN005 BKN015 21/20 Q1009 NOSIG",
      "metar_wdir": 270,
      "metar_wspd": 7,
      "metar_oat": 21,
      "metar_qnh": 1009,
      "hourly_oat": [
        22,
        22,
        22,
        22,
        22,
        22,
        22,
        22,
        22,
        22,
        23,
        23,
        24,
        24,
        24,
        24,
        24,
        24,
        25,
        25,
        25,
        25,
        25,
        25,
        25
      ]
    },
    "SAN": {
      "icao": "KSAN",
      "issued": "2026-06-25T02:39:00.000Z",
      "raw": "TAF KSAN 250239Z 2503/2606 VRB05KT P6SM OVC016 FM251900 28010KT P6SM SCT020 FM260100 28008KT P6SM BKN019 FM260400 VRB04KT P6SM OVC019",
      "groups": [
        {
          "text": "TAF KSAN 250239Z 2503/2606 VRB05KT P6SM OVC016",
          "offset_h": 1,
          "wdir": "VRB",
          "wspd": 5
        },
        {
          "text": "FM251900 28010KT P6SM SCT020",
          "offset_h": 17,
          "wdir": 280,
          "wspd": 10
        },
        {
          "text": "FM260100 28008KT P6SM BKN019",
          "offset_h": 23,
          "wdir": 280,
          "wspd": 8
        },
        {
          "text": "FM260400 VRB04KT P6SM OVC019",
          "offset_h": 26,
          "wdir": "VRB",
          "wspd": 4
        }
      ],
      "metar_raw": "METAR KSAN 250151Z 31008KT 10SM SCT018 SCT250 20/14 A2996 RMK AO2 SLP146 T02000144",
      "metar_wdir": 310,
      "metar_wspd": 8,
      "metar_oat": 20,
      "metar_qnh": 1015,
      "hourly_oat": [
        19,
        19,
        19,
        19,
        18,
        18,
        18,
        18,
        18,
        18,
        18,
        18,
        18,
        19,
        20,
        21,
        21,
        21,
        22,
        22,
        22,
        22,
        20,
        20,
        19
      ]
    },
    "HKG": {
      "icao": "VHHH",
      "issued": "2026-06-25T02:00:00.000Z",
      "raw": "TAF VHHH 250200Z 2503/2609 21010KT 9999 FEW010 SCT025 TX34/2506Z TX33/2606Z TN29/2522Z TEMPO 2520/2524 VRB15G25KT 3000 TSRA SHRA FEW008CB SCT015 TEMPO 2600/2603 4000 SHRA FEW010CB SCT020",
      "groups": [
        {
          "text": "TAF VHHH 250200Z 2503/2609 21010KT 9999 FEW010 SCT025 TX34/2506Z TX33/2606Z TN29/2522Z",
          "offset_h": 1,
          "wdir": 210,
          "wspd": 10
        },
        {
          "text": "TEMPO 2520/2524 VRB15G25KT 3000 TSRA SHRA FEW008CB SCT015",
          "offset_h": 18,
          "wdir": "VRB",
          "wspd": 15
        },
        {
          "text": "TEMPO 2600/2603 4000 SHRA FEW010CB SCT020",
          "offset_h": 22,
          "wdir": null,
          "wspd": null
        }
      ],
      "metar_raw": "METAR VHHH 250230Z 23010KT 9999 FEW010 SCT025 32/27 Q1005 NOSIG",
      "metar_wdir": 230,
      "metar_wspd": 10,
      "metar_oat": 32,
      "metar_qnh": 1005,
      "hourly_oat": [
        29,
        30,
        30,
        31,
        31,
        31,
        31,
        30,
        30,
        30,
        29,
        29,
        29,
        29,
        29,
        29,
        29,
        28,
        28,
        28,
        28,
        28,
        28,
        28,
        29
      ]
    },
    "KIX": {
      "icao": "RJBB",
      "issued": "2026-06-25T01:56:00.000Z",
      "raw": "TAF AMD RJBB 250156Z 2501/2606 08006KT 7000 -SHRA FEW005 SCT015 BKN025 TEMPO 2501/2505 3000 SHRA BR FEW003 BKN008 BKN015 BECMG 2504/2506 20016KT TEMPO 2508/2515 4000 TSRA BR FEW005 SCT015 FEW015CB BKN025 TEMPO 2515/2606 3000 TSRA BR FEW003 BKN008 BKN015 FEW015CB",
      "groups": [
        {
          "text": "TAF AMD RJBB 250156Z 2501/2606 08006KT 7000 -SHRA FEW005 SCT015 BKN025",
          "offset_h": -1,
          "wdir": 80,
          "wspd": 6
        },
        {
          "text": "TEMPO 2501/2505 3000 SHRA BR FEW003 BKN008 BKN015",
          "offset_h": -1,
          "wdir": null,
          "wspd": null
        },
        {
          "text": "BECMG 2504/2506 20016KT",
          "offset_h": 2,
          "wdir": 200,
          "wspd": 16
        },
        {
          "text": "TEMPO 2508/2515 4000 TSRA BR FEW005 SCT015 FEW015CB BKN025",
          "offset_h": 6,
          "wdir": null,
          "wspd": null
        },
        {
          "text": "TEMPO 2515/2606 3000 TSRA BR FEW003 BKN008 BKN015 FEW015CB",
          "offset_h": 13,
          "wdir": null,
          "wspd": null
        }
      ],
      "metar_raw": "METAR RJBB 250230Z 08006KT 8000 -SHRA FEW005 SCT025 BKN045 21/21 Q1007 TEMPO 4000 SHRA BR",
      "metar_wdir": 80,
      "metar_wspd": 6,
      "metar_oat": 21,
      "metar_qnh": 1007,
      "hourly_oat": [
        22,
        22,
        24,
        24,
        24,
        24,
        25,
        25,
        25,
        25,
        26,
        26,
        26,
        26,
        25,
        25,
        25,
        26,
        26,
        25,
        25,
        25,
        25,
        25,
        24
      ]
    },
    "SGN": {
      "icao": "VVTS",
      "issued": "2026-06-25T01:54:00.000Z",
      "raw": "TAF AMD VVTS 250154Z 2502/2606 25012KT 9999 SCT017 TEMPO 2504/2509 25018G28KT 3000 TSRA SCT013 SCT015CB TEMPO 2509/2513 5000 TSRA SCT015 FEW017CB BKN040",
      "groups": [
        {
          "text": "TAF AMD VVTS 250154Z 2502/2606 25012KT 9999 SCT017",
          "offset_h": 0,
          "wdir": 250,
          "wspd": 12
        },
        {
          "text": "TEMPO 2504/2509 25018G28KT 3000 TSRA SCT013 SCT015CB",
          "offset_h": 2,
          "wdir": 250,
          "wspd": 18
        },
        {
          "text": "TEMPO 2509/2513 5000 TSRA SCT015 FEW017CB BKN040",
          "offset_h": 7,
          "wdir": null,
          "wspd": null
        }
      ],
      "metar_raw": "METAR VVTS 250230Z 23012KT 200V270 9999 BKN025 32/27 Q1009 NOSIG",
      "metar_wdir": 230,
      "metar_wspd": 12,
      "metar_oat": 32,
      "metar_qnh": 1009,
      "hourly_oat": [
        31,
        32,
        33,
        34,
        35,
        35,
        27,
        26,
        26,
        26,
        26,
        26,
        26,
        26,
        26,
        26,
        25,
        25,
        25,
        25,
        25,
        25,
        26,
        28,
        29
      ]
    },
    "DLC": {
      "icao": "ZYTL",
      "issued": "2026-06-25T01:15:00.000Z",
      "raw": "TAF AMD ZYTL 250115Z 2500/2524 33004MPS 6000 SCT030 TX25/2506Z TN19/2521Z TEMPO 2501/2503 TSRA FEW026CB SCT033",
      "groups": [
        {
          "text": "TAF AMD ZYTL 250115Z 2500/2524 33004MPS 6000 SCT030 TX25/2506Z TN19/2521Z",
          "offset_h": -2,
          "wdir": null,
          "wspd": null
        },
        {
          "text": "TEMPO 2501/2503 TSRA FEW026CB SCT033",
          "offset_h": -1,
          "wdir": null,
          "wspd": null
        }
      ],
      "metar_raw": "METAR ZYTL 250230Z 32003MPS 230V010 9999 BKN020 21/17 Q1007 NOSIG",
      "metar_wdir": null,
      "metar_wspd": null,
      "metar_oat": 21,
      "metar_qnh": 1007,
      "hourly_oat": [
        22,
        23,
        24,
        24,
        24,
        23,
        23,
        23,
        22,
        21,
        21,
        21,
        21,
        20,
        20,
        20,
        20,
        20,
        20,
        20,
        22,
        23,
        24,
        25,
        26
      ]
    },
    "TSA": {
      "icao": "RCSS",
      "issued": "2026-06-25T00:25:00.000Z",
      "raw": "TAF COR RCSS 250025Z 2500/2524 32005KT 6000 FEW012 BKN032 TEMPO 2500/2506 27010KT 2000 SHRA FEW006 BKN011 FEW015CB TEMPO 2506/2512 28012KT 3200 RA FEW010 BKN014 TEMPO 2512/2518 3200 RA FEW010 BKN014 TEMPO 2518/2524 09007KT 3200 RA FEW010 BKN014",
      "groups": [
        {
          "text": "TAF COR RCSS 250025Z 2500/2524 32005KT 6000 FEW012 BKN032",
          "offset_h": -2,
          "wdir": 320,
          "wspd": 5
        },
        {
          "text": "TEMPO 2500/2506 27010KT 2000 SHRA FEW006 BKN011 FEW015CB",
          "offset_h": -2,
          "wdir": 270,
          "wspd": 10
        },
        {
          "text": "TEMPO 2506/2512 28012KT 3200 RA FEW010 BKN014",
          "offset_h": 4,
          "wdir": 280,
          "wspd": 12
        },
        {
          "text": "TEMPO 2512/2518 3200 RA FEW010 BKN014",
          "offset_h": 10,
          "wdir": null,
          "wspd": null
        },
        {
          "text": "TEMPO 2518/2524 09007KT 3200 RA FEW010 BKN014",
          "offset_h": 16,
          "wdir": 90,
          "wspd": 7
        }
      ],
      "metar_raw": "SPECI RCSS 250240Z VRB02KT 5000 VCTS -SHRA SCT005 BKN010 FEW013CB OVC020 26/22 Q1003 RESHRA NOSIG RMK TS E-SE MOV SE A2963",
      "metar_wdir": "VRB",
      "metar_wspd": 2,
      "metar_oat": 26,
      "metar_qnh": 1003,
      "hourly_oat": [
        28,
        28,
        28,
        28,
        27,
        29,
        29,
        27,
        27,
        26,
        25,
        26,
        25,
        25,
        25,
        25,
        25,
        25,
        24,
        24,
        24,
        25,
        25,
        25,
        25
      ]
    },
    "LAX": {
      "icao": "KLAX",
      "issued": "2026-06-24T23:39:00.000Z",
      "raw": "TAF KLAX 242339Z 2500/2606 24010KT P6SM SCT011 FM250600 VRB04KT P6SM OVC008 FM251200 VRB03KT 1 1/2SM BR OVC007 FM251500 VRB03KT 6SM BR OVC008 FM251600 VRB04KT P6SM OVC011 FM251900 26012KT P6SM SCT250",
      "groups": [
        {
          "text": "TAF KLAX 242339Z 2500/2606 24010KT P6SM SCT011",
          "offset_h": -2,
          "wdir": 240,
          "wspd": 10
        },
        {
          "text": "FM250600 VRB04KT P6SM OVC008",
          "offset_h": 4,
          "wdir": "VRB",
          "wspd": 4
        },
        {
          "text": "FM251200 VRB03KT 1 1/2SM BR OVC007",
          "offset_h": 10,
          "wdir": "VRB",
          "wspd": 3
        },
        {
          "text": "FM251500 VRB03KT 6SM BR OVC008",
          "offset_h": 13,
          "wdir": "VRB",
          "wspd": 3
        },
        {
          "text": "FM251600 VRB04KT P6SM OVC011",
          "offset_h": 14,
          "wdir": "VRB",
          "wspd": 4
        },
        {
          "text": "FM251900 26012KT P6SM SCT250",
          "offset_h": 17,
          "wdir": 260,
          "wspd": 12
        }
      ],
      "metar_raw": "METAR KLAX 250153Z 26013KT 10SM SCT012 SCT050 18/14 A2994 RMK AO2 SLP138 T01830144 $",
      "metar_wdir": 260,
      "metar_wspd": 13,
      "metar_oat": 18,
      "metar_qnh": 1014,
      "hourly_oat": [
        18,
        17,
        17,
        16,
        16,
        17,
        16,
        16,
        16,
        16,
        16,
        16,
        16,
        17,
        18,
        19,
        19,
        20,
        20,
        20,
        20,
        19,
        19,
        18,
        17
      ]
    },
    "HNL": {
      "icao": "PHNL",
      "issued": "2026-06-24T23:36:00.000Z",
      "raw": "TAF PHNL 242336Z 2500/2606 06016G24KT P6SM VCSH FEW025 FEW045 FM250600 05012KT P6SM FEW025 SCT045 FM252000 06018G26KT P6SM FEW025 SCT045",
      "groups": [
        {
          "text": "TAF PHNL 242336Z 2500/2606 06016G24KT P6SM VCSH FEW025 FEW045",
          "offset_h": -2,
          "wdir": 60,
          "wspd": 16
        },
        {
          "text": "FM250600 05012KT P6SM FEW025 SCT045",
          "offset_h": 4,
          "wdir": 50,
          "wspd": 12
        },
        {
          "text": "FM252000 06018G26KT P6SM FEW025 SCT045",
          "offset_h": 18,
          "wdir": 60,
          "wspd": 18
        }
      ],
      "metar_raw": "METAR PHNL 250153Z 05012G23KT 10SM FEW025 FEW040 SCT060 SCT200 29/19 A2999 RMK AO2 SLP154 T02940189 $",
      "metar_wdir": 50,
      "metar_wspd": 12,
      "metar_oat": 29,
      "metar_qnh": 1016,
      "hourly_oat": [
        27,
        26,
        25,
        25,
        24,
        24,
        23,
        23,
        23,
        23,
        23,
        23,
        23,
        23,
        23,
        23,
        24,
        25,
        27,
        28,
        28,
        28,
        29,
        29,
        28
      ]
    },
    "OKA": {
      "icao": "ROAH",
      "issued": "2026-06-24T23:10:00.000Z",
      "raw": "TAF ROAH 242310Z 2500/2606 15018KT 9999 FEW015 SCT020 TEMPO 2509/2512 13028G38KT BECMG 2512/2515 14035KT TEMPO 2512/2521 14040G55KT 2000 +SHRA BR FEW003 BKN005 SCT015CB BECMG 2521/2600 23030KT TEMPO 2521/2603 23035G50KT 4000 SHRA BR FEW005 BKN008 FEW015CB TEMPO 2603/2606 26028G38KT",
      "groups": [
        {
          "text": "TAF ROAH 242310Z 2500/2606 15018KT 9999 FEW015 SCT020",
          "offset_h": -2,
          "wdir": 150,
          "wspd": 18
        },
        {
          "text": "TEMPO 2509/2512 13028G38KT",
          "offset_h": 7,
          "wdir": 130,
          "wspd": 28
        },
        {
          "text": "BECMG 2512/2515 14035KT",
          "offset_h": 10,
          "wdir": 140,
          "wspd": 35
        },
        {
          "text": "TEMPO 2512/2521 14040G55KT 2000 +SHRA BR FEW003 BKN005 SCT015CB",
          "offset_h": 10,
          "wdir": 140,
          "wspd": 40
        },
        {
          "text": "BECMG 2521/2600 23030KT",
          "offset_h": 19,
          "wdir": 230,
          "wspd": 30
        },
        {
          "text": "TEMPO 2521/2603 23035G50KT 4000 SHRA BR FEW005 BKN008 FEW015CB",
          "offset_h": 19,
          "wdir": 230,
          "wspd": 35
        },
        {
          "text": "TEMPO 2603/2606 26028G38KT",
          "offset_h": 25,
          "wdir": 260,
          "wspd": 28
        }
      ],
      "metar_raw": "METAR ROAH 250230Z 15018KT 9999 FEW024 SCT035 31/25 Q1003",
      "metar_wdir": 150,
      "metar_wspd": 18,
      "metar_oat": 31,
      "metar_qnh": 1003,
      "hourly_oat": [
        30,
        30,
        30,
        30,
        30,
        30,
        29,
        28,
        28,
        28,
        28,
        28,
        28,
        27,
        27,
        26,
        26,
        27,
        26,
        27,
        27,
        27,
        28,
        28,
        28
      ]
    },
    "NRT": {
      "icao": "RJAA",
      "issued": "2026-06-24T23:05:00.000Z",
      "raw": "TAF RJAA 242305Z 2500/2606 08008KT 6000 -SHRA FEW005 BKN012 TEMPO 2500/2506 3000 SHRA BR FEW001 SCT002 BKN003 TEMPO 2506/2509 FEW001 BKN003 TEMPO 2509/2512 4000 -SHRA BR FEW001 BKN003 BECMG 2510/2512 02004KT TEMPO 2512/2600 3000 SHRA BR FEW001 SCT002 BKN003 BECMG 2521/2600 22012KT TEMPO 2603/2606 22018G28KT",
      "groups": [
        {
          "text": "TAF RJAA 242305Z 2500/2606 08008KT 6000 -SHRA FEW005 BKN012",
          "offset_h": -2,
          "wdir": 80,
          "wspd": 8
        },
        {
          "text": "TEMPO 2500/2506 3000 SHRA BR FEW001 SCT002 BKN003",
          "offset_h": -2,
          "wdir": null,
          "wspd": null
        },
        {
          "text": "TEMPO 2506/2509 FEW001 BKN003",
          "offset_h": 4,
          "wdir": null,
          "wspd": null
        },
        {
          "text": "TEMPO 2509/2512 4000 -SHRA BR FEW001 BKN003",
          "offset_h": 7,
          "wdir": null,
          "wspd": null
        },
        {
          "text": "BECMG 2510/2512 02004KT",
          "offset_h": 8,
          "wdir": 20,
          "wspd": 4
        },
        {
          "text": "TEMPO 2512/2600 3000 SHRA BR FEW001 SCT002 BKN003",
          "offset_h": 10,
          "wdir": null,
          "wspd": null
        },
        {
          "text": "BECMG 2521/2600 22012KT",
          "offset_h": 19,
          "wdir": 220,
          "wspd": 12
        },
        {
          "text": "TEMPO 2603/2606 22018G28KT",
          "offset_h": 25,
          "wdir": 220,
          "wspd": 18
        }
      ],
      "metar_raw": "METAR RJAA 250230Z 12008KT 090V160 2000 R16R/P2000N R16L/P2000N -SHRA BR FEW003 BKN005 BKN010 21/20 Q1011 NOSIG",
      "metar_wdir": 120,
      "metar_wspd": 8,
      "metar_oat": 21,
      "metar_qnh": 1011,
      "hourly_oat": [
        21,
        20,
        20,
        20,
        20,
        21,
        21,
        21,
        20,
        20,
        21,
        21,
        21,
        21,
        20,
        20,
        20,
        22,
        24,
        24,
        24,
        25,
        25,
        26,
        27
      ]
    },
    "HND": {
      "icao": "RJTT",
      "issued": "2026-06-24T23:05:00.000Z",
      "raw": "TAF RJTT 242305Z 2500/2606 09008KT 7000 -RA FEW005 BKN012 TEMPO 2500/2503 FEW003 BKN008 BECMG 2502/2504 36010KT TEMPO 2503/2509 FEW003 BKN005 TEMPO 2509/2512 4000 -RA BR FEW003 BKN005 TEMPO 2512/2515 3000 SHRA BR FEW003 BKN005 BECMG 2512/2515 26004KT TEMPO 2515/2521 4000 -SHRA BR FEW003 BKN005 TEMPO 2521/2600 FEW003 BKN005 BECMG 2600/2603 20016KT",
      "groups": [
        {
          "text": "TAF RJTT 242305Z 2500/2606 09008KT 7000 -RA FEW005 BKN012",
          "offset_h": -2,
          "wdir": 90,
          "wspd": 8
        },
        {
          "text": "TEMPO 2500/2503 FEW003 BKN008",
          "offset_h": -2,
          "wdir": null,
          "wspd": null
        },
        {
          "text": "BECMG 2502/2504 36010KT",
          "offset_h": 0,
          "wdir": 360,
          "wspd": 10
        },
        {
          "text": "TEMPO 2503/2509 FEW003 BKN005",
          "offset_h": 1,
          "wdir": null,
          "wspd": null
        },
        {
          "text": "TEMPO 2509/2512 4000 -RA BR FEW003 BKN005",
          "offset_h": 7,
          "wdir": null,
          "wspd": null
        },
        {
          "text": "TEMPO 2512/2515 3000 SHRA BR FEW003 BKN005",
          "offset_h": 10,
          "wdir": null,
          "wspd": null
        },
        {
          "text": "BECMG 2512/2515 26004KT",
          "offset_h": 10,
          "wdir": 260,
          "wspd": 4
        },
        {
          "text": "TEMPO 2515/2521 4000 -SHRA BR FEW003 BKN005",
          "offset_h": 13,
          "wdir": null,
          "wspd": null
        },
        {
          "text": "TEMPO 2521/2600 FEW003 BKN005",
          "offset_h": 19,
          "wdir": null,
          "wspd": null
        },
        {
          "text": "BECMG 2600/2603 20016KT",
          "offset_h": 22,
          "wdir": 200,
          "wspd": 16
        }
      ],
      "metar_raw": "METAR RJTT 250230Z 06009KT 6000 -SHRA FEW010 BKN014 21/20 Q1011 NOSIG",
      "metar_wdir": 60,
      "metar_wspd": 9,
      "metar_oat": 21,
      "metar_qnh": 1011,
      "hourly_oat": [
        21,
        21,
        21,
        21,
        21,
        21,
        21,
        21,
        21,
        20,
        20,
        20,
        20,
        20,
        20,
        21,
        22,
        23,
        24,
        24,
        24,
        24,
        25,
        25,
        25
      ]
    },
    "ITM": {
      "icao": "RJOO",
      "issued": "2026-06-24T23:05:00.000Z",
      "raw": "TAF RJOO 242305Z 2500/2606 07009KT 7000 -SHRA FEW005 SCT015 BKN025 TEMPO 2500/2508 3000 SHRA BR FEW003 BKN008 BKN015 TEMPO 2508/2512 3000 TSRA BR FEW003 BKN008 BKN015 FEW015CB BECMG 2510/2512 24008KT TEMPO 2512/2600 1500 TSRA BR FEW003 BKN008 BKN015 FEW015CB TEMPO 2600/2606 3000 TSRA BR FEW003 BKN008 BKN015 FEW015CB",
      "groups": [
        {
          "text": "TAF RJOO 242305Z 2500/2606 07009KT 7000 -SHRA FEW005 SCT015 BKN025",
          "offset_h": -2,
          "wdir": 70,
          "wspd": 9
        },
        {
          "text": "TEMPO 2500/2508 3000 SHRA BR FEW003 BKN008 BKN015",
          "offset_h": -2,
          "wdir": null,
          "wspd": null
        },
        {
          "text": "TEMPO 2508/2512 3000 TSRA BR FEW003 BKN008 BKN015 FEW015CB",
          "offset_h": 6,
          "wdir": null,
          "wspd": null
        },
        {
          "text": "BECMG 2510/2512 24008KT",
          "offset_h": 8,
          "wdir": 240,
          "wspd": 8
        },
        {
          "text": "TEMPO 2512/2600 1500 TSRA BR FEW003 BKN008 BKN015 FEW015CB",
          "offset_h": 10,
          "wdir": null,
          "wspd": null
        },
        {
          "text": "TEMPO 2600/2606 3000 TSRA BR FEW003 BKN008 BKN015 FEW015CB",
          "offset_h": 22,
          "wdir": null,
          "wspd": null
        }
      ],
      "metar_raw": "METAR RJOO 250200Z 08006KT 050V110 4000 R32L/1500VP2000N SHRA BR FEW003 SCT010 BKN030 21/20 Q1007",
      "metar_wdir": 80,
      "metar_wspd": 6,
      "metar_oat": 21,
      "metar_qnh": 1007,
      "hourly_oat": [
        21,
        21,
        21,
        21,
        22,
        22,
        22,
        22,
        22,
        23,
        23,
        25,
        25,
        25,
        25,
        25,
        25,
        25,
        25,
        25,
        25,
        25,
        25,
        25,
        25
      ]
    },
    "FUK": {
      "icao": "RJFF",
      "issued": "2026-06-24T23:05:00.000Z",
      "raw": "TAF RJFF 242305Z 2500/2606 09004KT 8000 -SHRA FEW006 SCT010 BKN020 TEMPO 2500/2502 3000 TSRA BR FEW005 SCT011 BKN020 FEW020CB TEMPO 2502/2510 4000 SHRA BR BECMG 2509/2511 29006KT TEMPO 2515/2603 2000 SHRA BR BECMG 2521/2600 15010KT",
      "groups": [
        {
          "text": "TAF RJFF 242305Z 2500/2606 09004KT 8000 -SHRA FEW006 SCT010 BKN020",
          "offset_h": -2,
          "wdir": 90,
          "wspd": 4
        },
        {
          "text": "TEMPO 2500/2502 3000 TSRA BR FEW005 SCT011 BKN020 FEW020CB",
          "offset_h": -2,
          "wdir": null,
          "wspd": null
        },
        {
          "text": "TEMPO 2502/2510 4000 SHRA BR",
          "offset_h": 0,
          "wdir": null,
          "wspd": null
        },
        {
          "text": "BECMG 2509/2511 29006KT",
          "offset_h": 7,
          "wdir": 290,
          "wspd": 6
        },
        {
          "text": "TEMPO 2515/2603 2000 SHRA BR",
          "offset_h": 13,
          "wdir": null,
          "wspd": null
        },
        {
          "text": "BECMG 2521/2600 15010KT",
          "offset_h": 19,
          "wdir": 150,
          "wspd": 10
        }
      ],
      "metar_raw": "METAR RJFF 250230Z 22006KT 160V260 9999 VCSH FEW002 BKN030 27/24 Q1003 TEMPO 4000 SHRA BR",
      "metar_wdir": 220,
      "metar_wspd": 6,
      "metar_oat": 27,
      "metar_qnh": 1003,
      "hourly_oat": [
        24,
        24,
        24,
        25,
        25,
        24,
        24,
        24,
        23,
        23,
        23,
        23,
        23,
        23,
        22,
        22,
        22,
        22,
        22,
        22,
        22,
        22,
        22,
        22,
        23
      ]
    },
    "CTS": {
      "icao": "RJCC",
      "issued": "2026-06-24T23:05:00.000Z",
      "raw": "TAF RJCC 242305Z 2500/2606 17016KT 9999 FEW030 TEMPO 2509/2512 FEW003 BKN006 TEMPO 2512/2521 2000 -SHRA BR FEW001 BKN003 TEMPO 2521/2600 FEW003 BKN006",
      "groups": [
        {
          "text": "TAF RJCC 242305Z 2500/2606 17016KT 9999 FEW030",
          "offset_h": -2,
          "wdir": 170,
          "wspd": 16
        },
        {
          "text": "TEMPO 2509/2512 FEW003 BKN006",
          "offset_h": 7,
          "wdir": null,
          "wspd": null
        },
        {
          "text": "TEMPO 2512/2521 2000 -SHRA BR FEW001 BKN003",
          "offset_h": 10,
          "wdir": null,
          "wspd": null
        },
        {
          "text": "TEMPO 2521/2600 FEW003 BKN006",
          "offset_h": 19,
          "wdir": null,
          "wspd": null
        }
      ],
      "metar_raw": "METAR RJCC 250230Z 18019KT 9999 FEW012 21/14 Q1013",
      "metar_wdir": 180,
      "metar_wspd": 19,
      "metar_oat": 21,
      "metar_qnh": 1013,
      "hourly_oat": [
        20,
        20,
        20,
        20,
        20,
        19,
        18,
        18,
        18,
        18,
        18,
        18,
        18,
        17,
        17,
        17,
        17,
        17,
        17,
        17,
        18,
        18,
        19,
        20,
        20
      ]
    },
    "KUL": {
      "icao": "WMKK",
      "issued": "2026-06-24T23:00:00.000Z",
      "raw": "TAF WMKK 242300Z 2500/2606 VRB03KT 9999 FEW018 PROB40 TEMPO 2505/2509 5000 TSRA FEW017CB SCT030",
      "groups": [
        {
          "text": "TAF WMKK 242300Z 2500/2606 VRB03KT 9999 FEW018",
          "offset_h": -2,
          "wdir": "VRB",
          "wspd": 3
        },
        {
          "text": "PROB40",
          "offset_h": 0,
          "wdir": null,
          "wspd": null
        },
        {
          "text": "TEMPO 2505/2509 5000 TSRA FEW017CB SCT030",
          "offset_h": 3,
          "wdir": null,
          "wspd": null
        }
      ],
      "metar_raw": "METAR WMKK 250230Z 10003KT 030V140 9999 FEW017CB 28/24 Q1011 NOSIG",
      "metar_wdir": 100,
      "metar_wspd": 3,
      "metar_oat": 28,
      "metar_qnh": 1011,
      "hourly_oat": [
        27,
        29,
        30,
        30,
        30,
        30,
        30,
        29,
        29,
        28,
        26,
        26,
        26,
        26,
        25,
        25,
        25,
        24,
        24,
        23,
        23,
        23,
        23,
        24,
        26
      ]
    },
    "GMP": {
      "icao": "RKSS",
      "issued": "2026-06-24T23:00:00.000Z",
      "raw": "TAF RKSS 242300Z 2500/2606 08005KT 9999 SCT040 TX27/2506Z TN18/2512Z TX30/2606Z BECMG 2502/2504 33010KT TEMPO 2509/2513 6000 -SHRA FEW010CB BKN030 OVC070 BECMG 2514/2516 06005KT BECMG 2602/2604 30006KT CAVOK",
      "groups": [
        {
          "text": "TAF RKSS 242300Z 2500/2606 08005KT 9999 SCT040 TX27/2506Z TN18/2512Z TX30/2606Z",
          "offset_h": -2,
          "wdir": 80,
          "wspd": 5
        },
        {
          "text": "BECMG 2502/2504 33010KT",
          "offset_h": 0,
          "wdir": 330,
          "wspd": 10
        },
        {
          "text": "TEMPO 2509/2513 6000 -SHRA FEW010CB BKN030 OVC070",
          "offset_h": 7,
          "wdir": null,
          "wspd": null
        },
        {
          "text": "BECMG 2514/2516 06005KT",
          "offset_h": 12,
          "wdir": 60,
          "wspd": 5
        },
        {
          "text": "BECMG 2602/2604 30006KT CAVOK",
          "offset_h": 24,
          "wdir": 300,
          "wspd": 6
        }
      ],
      "metar_raw": "METAR RKSS 250200Z 07005KT 030V110 9999 SCT040 OVC080 26/16 Q1006 NOSIG",
      "metar_wdir": 70,
      "metar_wspd": 5,
      "metar_oat": 26,
      "metar_qnh": 1006,
      "hourly_oat": [
        23,
        24,
        24,
        24,
        24,
        24,
        22,
        22,
        21,
        21,
        20,
        20,
        19,
        19,
        18,
        18,
        18,
        17,
        16,
        16,
        17,
        18,
        20,
        22,
        24
      ]
    },
    "CGK": {
      "icao": "WIII",
      "issued": "2026-06-24T23:00:00.000Z",
      "raw": "TAF WIII 242300Z 2500/2606 21006KT 3000 BR SCT020 BECMG 2501/2503 06012KT 7000 NSW BECMG 2512/2514 19005KT 5000 HZ",
      "groups": [
        {
          "text": "TAF WIII 242300Z 2500/2606 21006KT 3000 BR SCT020",
          "offset_h": -2,
          "wdir": 210,
          "wspd": 6
        },
        {
          "text": "BECMG 2501/2503 06012KT 7000 NSW",
          "offset_h": -1,
          "wdir": 60,
          "wspd": 12
        },
        {
          "text": "BECMG 2512/2514 19005KT 5000 HZ",
          "offset_h": 10,
          "wdir": 190,
          "wspd": 5
        }
      ],
      "metar_raw": "METAR WIII 250230Z 13007KT 330V130 5000 HZ SCT020 30/24 Q1013 NOSIG",
      "metar_wdir": 130,
      "metar_wspd": 7,
      "metar_oat": 30,
      "metar_qnh": 1013,
      "hourly_oat": [
        29,
        30,
        31,
        32,
        32,
        29,
        30,
        30,
        28,
        26,
        26,
        26,
        26,
        25,
        25,
        25,
        24,
        24,
        24,
        24,
        23,
        23,
        24,
        27,
        29
      ]
    },
    "SIN": {
      "icao": "WSSS",
      "issued": "2026-06-24T23:00:00.000Z",
      "raw": "TAF WSSS 242300Z 2500/2606 18008KT 9999 FEW015 SCT020",
      "groups": [
        {
          "text": "TAF WSSS 242300Z 2500/2606 18008KT 9999 FEW015 SCT020",
          "offset_h": -2,
          "wdir": 180,
          "wspd": 8
        }
      ],
      "metar_raw": "METAR WSSS 250230Z 15012KT 9999 FEW016 BKN160 29/25 Q1011 NOSIG",
      "metar_wdir": 150,
      "metar_wspd": 12,
      "metar_oat": 29,
      "metar_qnh": 1011,
      "hourly_oat": [
        29,
        30,
        30,
        30,
        31,
        31,
        30,
        30,
        30,
        29,
        28,
        28,
        27,
        27,
        27,
        27,
        27,
        27,
        27,
        27,
        27,
        27,
        27,
        26,
        27
      ]
    },
    "TPE": {
      "icao": "RCTP",
      "issued": "2026-06-24T23:00:00.000Z",
      "raw": "TAF RCTP 242300Z 2500/2606 27005KT 6000 FEW012 BKN032 BECMG 2504/2506 30008KT TEMPO 2506/2512 5000 RA FEW010 BKN017 TEMPO 2512/2518 28013KT 3200 SHRA FEW006 BKN012 FEW015CB TEMPO 2518/2524 26015KT 4000 SHRA FEW008 BKN014 FEW015CB BECMG 2600/2602 03007KT FEW010 BKN017",
      "groups": [
        {
          "text": "TAF RCTP 242300Z 2500/2606 27005KT 6000 FEW012 BKN032",
          "offset_h": -2,
          "wdir": 270,
          "wspd": 5
        },
        {
          "text": "BECMG 2504/2506 30008KT",
          "offset_h": 2,
          "wdir": 300,
          "wspd": 8
        },
        {
          "text": "TEMPO 2506/2512 5000 RA FEW010 BKN017",
          "offset_h": 4,
          "wdir": null,
          "wspd": null
        },
        {
          "text": "TEMPO 2512/2518 28013KT 3200 SHRA FEW006 BKN012 FEW015CB",
          "offset_h": 10,
          "wdir": 280,
          "wspd": 13
        },
        {
          "text": "TEMPO 2518/2524 26015KT 4000 SHRA FEW008 BKN014 FEW015CB",
          "offset_h": 16,
          "wdir": 260,
          "wspd": 15
        },
        {
          "text": "BECMG 2600/2602 03007KT FEW010 BKN017",
          "offset_h": 22,
          "wdir": 30,
          "wspd": 7
        }
      ],
      "metar_raw": "METAR RCTP 250230Z 29011KT 250V310 9999 FEW007 BKN010 BKN018 29/26 Q1003 NOSIG RMK A2963",
      "metar_wdir": 290,
      "metar_wspd": 11,
      "metar_oat": 29,
      "metar_qnh": 1003,
      "hourly_oat": [
        26,
        27,
        26,
        26,
        27,
        28,
        28,
        27,
        27,
        27,
        27,
        26,
        26,
        26,
        26,
        25,
        25,
        25,
        25,
        25,
        25,
        25,
        26,
        26,
        25
      ]
    },
    "HAN": {
      "icao": "VVNB",
      "issued": "2026-06-24T23:00:00.000Z",
      "raw": "TAF VVNB 242300Z 2500/2524 06005KT 9999 FEW030 TEMPO 2513/2518 05015G27KT 2500 +TSRA SCT012 SCT027CB",
      "groups": [
        {
          "text": "TAF VVNB 242300Z 2500/2524 06005KT 9999 FEW030",
          "offset_h": -2,
          "wdir": 60,
          "wspd": 5
        },
        {
          "text": "TEMPO 2513/2518 05015G27KT 2500 +TSRA SCT012 SCT027CB",
          "offset_h": 11,
          "wdir": 50,
          "wspd": 15
        }
      ],
      "metar_raw": "METAR VVNB 250230Z 35005KT 290V030 CAVOK 34/27 Q1002 NOSIG",
      "metar_wdir": 350,
      "metar_wspd": 5,
      "metar_oat": 34,
      "metar_qnh": 1002,
      "hourly_oat": [
        34,
        35,
        36,
        36,
        36,
        35,
        35,
        35,
        35,
        28,
        28,
        28,
        28,
        28,
        27,
        27,
        27,
        26,
        26,
        26,
        26,
        26,
        27,
        28,
        29
      ]
    },
    "BKK": {
      "icao": "VTBS",
      "issued": "2026-06-24T23:00:00.000Z",
      "raw": "TAF VTBS 242300Z 2500/2606 22008KT 9999 FEW020 TEMPO 2512/2516 VRB15KT 4000 TSRA FEW018CB SCT030 BKN100",
      "groups": [
        {
          "text": "TAF VTBS 242300Z 2500/2606 22008KT 9999 FEW020",
          "offset_h": -2,
          "wdir": 220,
          "wspd": 8
        },
        {
          "text": "TEMPO 2512/2516 VRB15KT 4000 TSRA FEW018CB SCT030 BKN100",
          "offset_h": 10,
          "wdir": "VRB",
          "wspd": 15
        }
      ],
      "metar_raw": "METAR VTBS 250230Z 27007KT 220V300 9999 FEW020 32/23 Q1009 NOSIG",
      "metar_wdir": 270,
      "metar_wspd": 7,
      "metar_oat": 32,
      "metar_qnh": 1009,
      "hourly_oat": [
        30,
        32,
        33,
        34,
        33,
        33,
        33,
        32,
        32,
        31,
        30,
        30,
        30,
        28,
        28,
        27,
        27,
        27,
        26,
        26,
        26,
        26,
        27,
        28,
        30
      ]
    },
    "CAN": {
      "icao": "ZGGG",
      "issued": "2026-06-24T21:10:00.000Z",
      "raw": "TAF ZGGG 242110Z 2500/2606 20003MPS 8000 BKN033 TX35/2507Z TX34/2606Z TN28/2522Z TEMPO 2508/2512 TSRA SCT026CB BKN033 TEMPO 2515/2518 TSRA SCT026CB BKN033 TEMPO 2518/2521 SHRA FEW026CB BKN033",
      "groups": [
        {
          "text": "TAF ZGGG 242110Z 2500/2606 20003MPS 8000 BKN033 TX35/2507Z TX34/2606Z TN28/2522Z",
          "offset_h": -2,
          "wdir": null,
          "wspd": null
        },
        {
          "text": "TEMPO 2508/2512 TSRA SCT026CB BKN033",
          "offset_h": 6,
          "wdir": null,
          "wspd": null
        },
        {
          "text": "TEMPO 2515/2518 TSRA SCT026CB BKN033",
          "offset_h": 13,
          "wdir": null,
          "wspd": null
        },
        {
          "text": "TEMPO 2518/2521 SHRA FEW026CB BKN033",
          "offset_h": 16,
          "wdir": null,
          "wspd": null
        }
      ],
      "metar_raw": "METAR ZGGG 250230Z 07002MPS 020V100 CAVOK 29/26 Q1005 NOSIG",
      "metar_wdir": null,
      "metar_wspd": null,
      "metar_oat": 29,
      "metar_qnh": 1005,
      "hourly_oat": [
        31,
        32,
        33,
        32,
        33,
        33,
        34,
        29,
        28,
        27,
        27,
        27,
        27,
        27,
        26,
        25,
        25,
        25,
        25,
        25,
        25,
        26,
        27,
        28,
        29
      ]
    },
    "PVG": {
      "icao": "ZSPD",
      "issued": "2026-06-24T21:07:00.000Z",
      "raw": "TAF ZSPD 242107Z 2500/2606 03004MPS 8000 BKN015 TX25/2506Z TX27/2606Z TN20/2521Z",
      "groups": [
        {
          "text": "TAF ZSPD 242107Z 2500/2606 03004MPS 8000 BKN015 TX25/2506Z TX27/2606Z TN20/2521Z",
          "offset_h": -2,
          "wdir": null,
          "wspd": null
        }
      ],
      "metar_raw": "METAR ZSPD 250230Z 02005MPS 360V060 9999 BKN016 23/21 Q1007 NOSIG",
      "metar_wdir": null,
      "metar_wspd": null,
      "metar_oat": 23,
      "metar_qnh": 1007,
      "hourly_oat": [
        24,
        24,
        25,
        25,
        24,
        24,
        24,
        24,
        23,
        22,
        22,
        22,
        22,
        21,
        21,
        21,
        20,
        20,
        20,
        20,
        21,
        22,
        23,
        24,
        26
      ]
    },
    "SHA": {
      "icao": "ZSSS",
      "issued": "2026-06-24T21:07:00.000Z",
      "raw": "TAF ZSSS 242107Z 2500/2606 03004MPS 8000 BKN015 TX26/2506Z TX29/2606Z TN21/2521Z",
      "groups": [
        {
          "text": "TAF ZSSS 242107Z 2500/2606 03004MPS 8000 BKN015 TX26/2506Z TX29/2606Z TN21/2521Z",
          "offset_h": -2,
          "wdir": null,
          "wspd": null
        }
      ],
      "metar_raw": "METAR ZSSS 250230Z 09004MPS 9999 BKN020 24/19 Q1007 NOSIG",
      "metar_wdir": null,
      "metar_wspd": null,
      "metar_oat": 24,
      "metar_qnh": 1007,
      "hourly_oat": [
        24,
        25,
        26,
        26,
        26,
        26,
        25,
        25,
        24,
        23,
        23,
        22,
        22,
        21,
        21,
        20,
        20,
        20,
        20,
        20,
        20,
        22,
        23,
        25,
        26
      ]
    },
    "PEK": {
      "icao": "ZBAA",
      "issued": "2026-06-24T21:02:00.000Z",
      "raw": "TAF ZBAA 242102Z 2500/2606 35003MPS CAVOK TX31/2506Z TX32/2606Z TN18/2521Z",
      "groups": [
        {
          "text": "TAF ZBAA 242102Z 2500/2606 35003MPS CAVOK TX31/2506Z TX32/2606Z TN18/2521Z",
          "offset_h": -2,
          "wdir": null,
          "wspd": null
        }
      ],
      "metar_raw": "METAR ZBAA 250230Z 34005MPS CAVOK 28/12 Q1010 NOSIG",
      "metar_wdir": null,
      "metar_wspd": null,
      "metar_oat": 28,
      "metar_qnh": 1010,
      "hourly_oat": [
        25,
        26,
        27,
        28,
        29,
        30,
        30,
        29,
        28,
        27,
        25,
        24,
        23,
        24,
        23,
        21,
        19,
        18,
        18,
        18,
        20,
        22,
        25,
        27,
        29
      ]
    }
  }
}