{
  "updated": "2026-07-24T01:43:22Z",
  "tafs": {
    "HAN": {
      "icao": "VVNB",
      "issued": "2026-07-24T00:47:00.000Z",
      "raw": "TAF AMD VVNB 240047Z 2401/2424 05005KT 9999 FEW020 TEMPO 2401/2403 3000 TSRA SCT010 FEW027CB TEMPO 2406/2410 3500 TSRA SCT010 FEW027CB TEMPO 2418/2422 3000 TSRA SCT010 FEW027CB",
      "groups": [
        {
          "text": "TAF AMD VVNB 240047Z 2401/2424 05005KT 9999 FEW020",
          "offset_h": 0,
          "wdir": 50,
          "wspd": 5
        },
        {
          "text": "TEMPO 2401/2403 3000 TSRA SCT010 FEW027CB",
          "offset_h": 0,
          "wdir": null,
          "wspd": null
        },
        {
          "text": "TEMPO 2406/2410 3500 TSRA SCT010 FEW027CB",
          "offset_h": 5,
          "wdir": null,
          "wspd": null
        },
        {
          "text": "TEMPO 2418/2422 3000 TSRA SCT010 FEW027CB",
          "offset_h": 17,
          "wdir": null,
          "wspd": null
        }
      ],
      "metar_raw": "METAR VVNB 240130Z 04007KT 010V070 9999 FEW030TCU SCT060 28/25 Q1005 TEMPO FM0145 2500 +TSRA FEW027CB",
      "metar_wdir": 40,
      "metar_wspd": 7,
      "metar_oat": 28,
      "metar_qnh": 1005,
      "hourly_oat": [
        26,
        26,
        28,
        30,
        30,
        30,
        31,
        30,
        30,
        30,
        29,
        28,
        27,
        26,
        26,
        25,
        25,
        25,
        25,
        25,
        24,
        24,
        24,
        25,
        26
      ]
    },
    "HNL": {
      "icao": "PHNL",
      "issued": "2026-07-23T23:32:00.000Z",
      "raw": "TAF PHNL 232332Z 2400/2506 06018G28KT P6SM FEW025 SCT040 FM240600 05012G20KT P6SM FEW025 SCT040 FM242000 06015G25KT P6SM FEW025 SCT040",
      "groups": [
        {
          "text": "TAF PHNL 232332Z 2400/2506 06018G28KT P6SM FEW025 SCT040",
          "offset_h": -1,
          "wdir": 60,
          "wspd": 18
        },
        {
          "text": "FM240600 05012G20KT P6SM FEW025 SCT040",
          "offset_h": 5,
          "wdir": 50,
          "wspd": 12
        },
        {
          "text": "FM242000 06015G25KT P6SM FEW025 SCT040",
          "offset_h": 19,
          "wdir": 60,
          "wspd": 15
        }
      ],
      "metar_raw": "METAR PHNL 240053Z 08015G23KT 10SM FEW025 FEW035 SCT070 SCT200 31/18 A2999 RMK AO2 PK WND 06029/0024 SLP156 VCSH E T03060183 $",
      "metar_wdir": 80,
      "metar_wspd": 15,
      "metar_oat": 31,
      "metar_qnh": 1016,
      "hourly_oat": [
        28,
        28,
        26,
        25,
        24,
        24,
        24,
        23,
        23,
        23,
        23,
        23,
        23,
        22,
        22,
        22,
        23,
        24,
        26,
        27,
        28,
        28,
        28,
        28,
        28
      ]
    },
    "SAN": {
      "icao": "KSAN",
      "issued": "2026-07-23T23:20:00.000Z",
      "raw": "TAF KSAN 232320Z 2400/2506 31010KT P6SM SKC FM240400 VRB04KT P6SM FEW012 FM241000 VRB03KT P6SM BKN010 FM241700 VRB04KT P6SM FEW012 FM241900 27008KT P6SM SKC FM250400 VRB04KT P6SM SKC",
      "groups": [
        {
          "text": "TAF KSAN 232320Z 2400/2506 31010KT P6SM SKC",
          "offset_h": -1,
          "wdir": 310,
          "wspd": 10
        },
        {
          "text": "FM240400 VRB04KT P6SM FEW012",
          "offset_h": 3,
          "wdir": "VRB",
          "wspd": 4
        },
        {
          "text": "FM241000 VRB03KT P6SM BKN010",
          "offset_h": 9,
          "wdir": "VRB",
          "wspd": 3
        },
        {
          "text": "FM241700 VRB04KT P6SM FEW012",
          "offset_h": 16,
          "wdir": "VRB",
          "wspd": 4
        },
        {
          "text": "FM241900 27008KT P6SM SKC",
          "offset_h": 18,
          "wdir": 270,
          "wspd": 8
        },
        {
          "text": "FM250400 VRB04KT P6SM SKC",
          "offset_h": 27,
          "wdir": "VRB",
          "wspd": 4
        }
      ],
      "metar_raw": "METAR KSAN 240051Z 31005KT 10SM FEW013 FEW050 SCT250 25/19 A2984 RMK AO2 SLP104 T02500194",
      "metar_wdir": 310,
      "metar_wspd": 5,
      "metar_oat": 25,
      "metar_qnh": 1011,
      "hourly_oat": [
        24,
        24,
        22,
        22,
        22,
        21,
        21,
        21,
        20,
        20,
        20,
        20,
        20,
        21,
        22,
        24,
        26,
        27,
        28,
        28,
        27,
        27,
        26,
        26,
        25
      ]
    },
    "LAX": {
      "icao": "KLAX",
      "issued": "2026-07-23T23:20:00.000Z",
      "raw": "TAF KLAX 232320Z 2400/2506 25014KT P6SM FEW250 FM240500 25007KT P6SM FEW250 FM240800 VRB03KT P6SM FEW250 FM241700 26008KT P6SM SCT250 FM242000 26014KT P6SM SCT250 FM250300 26007KT P6SM SCT250",
      "groups": [
        {
          "text": "TAF KLAX 232320Z 2400/2506 25014KT P6SM FEW250",
          "offset_h": -1,
          "wdir": 250,
          "wspd": 14
        },
        {
          "text": "FM240500 25007KT P6SM FEW250",
          "offset_h": 4,
          "wdir": 250,
          "wspd": 7
        },
        {
          "text": "FM240800 VRB03KT P6SM FEW250",
          "offset_h": 7,
          "wdir": "VRB",
          "wspd": 3
        },
        {
          "text": "FM241700 26008KT P6SM SCT250",
          "offset_h": 16,
          "wdir": 260,
          "wspd": 8
        },
        {
          "text": "FM242000 26014KT P6SM SCT250",
          "offset_h": 19,
          "wdir": 260,
          "wspd": 14
        },
        {
          "text": "FM250300 26007KT P6SM SCT250",
          "offset_h": 26,
          "wdir": 260,
          "wspd": 7
        }
      ],
      "metar_raw": "METAR KLAX 240053Z 25013G21KT 10SM FEW100 FEW250 25/17 A2982 RMK AO2 SLP095 T02500172 $",
      "metar_wdir": 250,
      "metar_wspd": 13,
      "metar_oat": 25,
      "metar_qnh": 1010,
      "hourly_oat": [
        24,
        23,
        22,
        21,
        20,
        20,
        19,
        19,
        18,
        18,
        18,
        17,
        17,
        19,
        23,
        26,
        28,
        30,
        30,
        28,
        27,
        27,
        26,
        26,
        25
      ]
    },
    "NRT": {
      "icao": "RJAA",
      "issued": "2026-07-23T23:05:00.000Z",
      "raw": "TAF RJAA 232305Z 2400/2506 14010KT 9999 FEW012 BKN020 TEMPO 2406/2409 TS FEW012 SCT015 BKN020 FEW020CB TEMPO 2409/2412 4000 -TSRA BR FEW003 BKN008 FEW020CB TEMPO 2412/2415 FEW003 BKN008 BECMG 2415/2418 35006KT TEMPO 2415/2500 2000 BR FEW001 BKN005 BECMG 2500/2503 03016KT",
      "groups": [
        {
          "text": "TAF RJAA 232305Z 2400/2506 14010KT 9999 FEW012 BKN020",
          "offset_h": -1,
          "wdir": 140,
          "wspd": 10
        },
        {
          "text": "TEMPO 2406/2409 TS FEW012 SCT015 BKN020 FEW020CB",
          "offset_h": 5,
          "wdir": null,
          "wspd": null
        },
        {
          "text": "TEMPO 2409/2412 4000 -TSRA BR FEW003 BKN008 FEW020CB",
          "offset_h": 8,
          "wdir": null,
          "wspd": null
        },
        {
          "text": "TEMPO 2412/2415 FEW003 BKN008",
          "offset_h": 11,
          "wdir": null,
          "wspd": null
        },
        {
          "text": "BECMG 2415/2418 35006KT",
          "offset_h": 14,
          "wdir": 350,
          "wspd": 6
        },
        {
          "text": "TEMPO 2415/2500 2000 BR FEW001 BKN005",
          "offset_h": 14,
          "wdir": null,
          "wspd": null
        },
        {
          "text": "BECMG 2500/2503 03016KT",
          "offset_h": 23,
          "wdir": 30,
          "wspd": 16
        }
      ],
      "metar_raw": "METAR RJAA 240130Z 11006KT 080V140 9999 FEW013 BKN020 29/26 Q1011 NOSIG",
      "metar_wdir": 110,
      "metar_wspd": 6,
      "metar_oat": 29,
      "metar_qnh": 1011,
      "hourly_oat": [
        29,
        30,
        30,
        30,
        30,
        30,
        29,
        29,
        28,
        27,
        27,
        27,
        26,
        26,
        26,
        26,
        26,
        26,
        25,
        25,
        26,
        27,
        28,
        30,
        31
      ]
    },
    "KIX": {
      "icao": "RJBB",
      "issued": "2026-07-23T23:05:00.000Z",
      "raw": "TAF RJBB 232305Z 2400/2506 35005KT 9999 FEW030 BECMG 2401/2403 26006KT BECMG 2408/2410 02010KT BECMG 2500/2503 30006KT",
      "groups": [
        {
          "text": "TAF RJBB 232305Z 2400/2506 35005KT 9999 FEW030",
          "offset_h": -1,
          "wdir": 350,
          "wspd": 5
        },
        {
          "text": "BECMG 2401/2403 26006KT",
          "offset_h": 0,
          "wdir": 260,
          "wspd": 6
        },
        {
          "text": "BECMG 2408/2410 02010KT",
          "offset_h": 7,
          "wdir": 20,
          "wspd": 10
        },
        {
          "text": "BECMG 2500/2503 30006KT",
          "offset_h": 23,
          "wdir": 300,
          "wspd": 6
        }
      ],
      "metar_raw": "METAR RJBB 240130Z 33006KT 9999 FEW030 32/25 Q1011 BECMG TL0200 32006KT",
      "metar_wdir": 330,
      "metar_wspd": 6,
      "metar_oat": 32,
      "metar_qnh": 1011,
      "hourly_oat": [
        29,
        30,
        30,
        30,
        30,
        30,
        31,
        31,
        31,
        31,
        31,
        31,
        30,
        30,
        30,
        29,
        29,
        29,
        28,
        28,
        28,
        28,
        28,
        28,
        28
      ]
    },
    "HND": {
      "icao": "RJTT",
      "issued": "2026-07-23T23:05:00.000Z",
      "raw": "TAF RJTT 232305Z 2400/2506 10006KT 9999 FEW015 BKN030 BECMG 2403/2405 18012KT TEMPO 2406/2409 TS FEW015 BKN030 FEW030CB TEMPO 2409/2412 3000 +TSRA BR FEW012 BKN020 SCT020CB TEMPO 2412/2415 -TSRA FEW012 BKN020 FEW020CB BECMG 2418/2421 03010KT BECMG 2503/2506 07016KT",
      "groups": [
        {
          "text": "TAF RJTT 232305Z 2400/2506 10006KT 9999 FEW015 BKN030",
          "offset_h": -1,
          "wdir": 100,
          "wspd": 6
        },
        {
          "text": "BECMG 2403/2405 18012KT",
          "offset_h": 2,
          "wdir": 180,
          "wspd": 12
        },
        {
          "text": "TEMPO 2406/2409 TS FEW015 BKN030 FEW030CB",
          "offset_h": 5,
          "wdir": null,
          "wspd": null
        },
        {
          "text": "TEMPO 2409/2412 3000 +TSRA BR FEW012 BKN020 SCT020CB",
          "offset_h": 8,
          "wdir": null,
          "wspd": null
        },
        {
          "text": "TEMPO 2412/2415 -TSRA FEW012 BKN020 FEW020CB",
          "offset_h": 11,
          "wdir": null,
          "wspd": null
        },
        {
          "text": "BECMG 2418/2421 03010KT",
          "offset_h": 17,
          "wdir": 30,
          "wspd": 10
        },
        {
          "text": "BECMG 2503/2506 07016KT",
          "offset_h": 26,
          "wdir": 70,
          "wspd": 16
        }
      ],
      "metar_raw": "METAR RJTT 240130Z 08005KT 8000 FEW010 BKN050 29/26 Q1010 NOSIG",
      "metar_wdir": 80,
      "metar_wspd": 5,
      "metar_oat": 29,
      "metar_qnh": 1010,
      "hourly_oat": [
        28,
        30,
        31,
        31,
        32,
        31,
        31,
        30,
        29,
        29,
        28,
        28,
        27,
        27,
        27,
        27,
        27,
        27,
        27,
        26,
        26,
        26,
        28,
        30,
        31
      ]
    },
    "ITM": {
      "icao": "RJOO",
      "issued": "2026-07-23T23:05:00.000Z",
      "raw": "TAF RJOO 232305Z 2400/2506 21008KT 9999 FEW030 BECMG 2405/2407 32006KT TEMPO 2405/2409 TS FEW015 FEW025CB BKN030 BECMG 2503/2506 22006KT TEMPO 2503/2506 TS FEW015 FEW025CB BKN030",
      "groups": [
        {
          "text": "TAF RJOO 232305Z 2400/2506 21008KT 9999 FEW030",
          "offset_h": -1,
          "wdir": 210,
          "wspd": 8
        },
        {
          "text": "BECMG 2405/2407 32006KT",
          "offset_h": 4,
          "wdir": 320,
          "wspd": 6
        },
        {
          "text": "TEMPO 2405/2409 TS FEW015 FEW025CB BKN030",
          "offset_h": 4,
          "wdir": null,
          "wspd": null
        },
        {
          "text": "BECMG 2503/2506 22006KT",
          "offset_h": 26,
          "wdir": 220,
          "wspd": 6
        },
        {
          "text": "TEMPO 2503/2506 TS FEW015 FEW025CB BKN030",
          "offset_h": 26,
          "wdir": null,
          "wspd": null
        }
      ],
      "metar_raw": "METAR RJOO 240100Z VRB04KT 9999 FEW030 34/23 Q1010",
      "metar_wdir": "VRB",
      "metar_wspd": 4,
      "metar_oat": 34,
      "metar_qnh": 1010,
      "hourly_oat": [
        32,
        33,
        34,
        34,
        34,
        34,
        34,
        34,
        33,
        31,
        30,
        29,
        29,
        28,
        28,
        27,
        27,
        27,
        26,
        26,
        26,
        28,
        29,
        31,
        32
      ]
    },
    "FUK": {
      "icao": "RJFF",
      "issued": "2026-07-23T23:05:00.000Z",
      "raw": "TAF RJFF 232305Z 2400/2506 32012KT 9999 FEW025 BECMG 2412/2415 15004KT BECMG 2500/2503 31011KT",
      "groups": [
        {
          "text": "TAF RJFF 232305Z 2400/2506 32012KT 9999 FEW025",
          "offset_h": -1,
          "wdir": 320,
          "wspd": 12
        },
        {
          "text": "BECMG 2412/2415 15004KT",
          "offset_h": 11,
          "wdir": 150,
          "wspd": 4
        },
        {
          "text": "BECMG 2500/2503 31011KT",
          "offset_h": 23,
          "wdir": 310,
          "wspd": 11
        }
      ],
      "metar_raw": "METAR RJFF 240130Z 30007KT 250V350 9999 FEW025 33/23 Q1012 NOSIG",
      "metar_wdir": 300,
      "metar_wspd": 7,
      "metar_oat": 33,
      "metar_qnh": 1012,
      "hourly_oat": [
        30,
        30,
        30,
        30,
        31,
        31,
        30,
        30,
        29,
        28,
        28,
        28,
        27,
        27,
        26,
        26,
        26,
        26,
        26,
        26,
        25,
        26,
        27,
        29,
        30
      ]
    },
    "CTS": {
      "icao": "RJCC",
      "issued": "2026-07-23T23:05:00.000Z",
      "raw": "TAF RJCC 232305Z 2400/2506 17012KT 9999 FEW005 BKN012 TEMPO 2400/2402 FEW005 BKN007 TEMPO 2405/2412 FEW003 BKN005 TEMPO 2412/2500 FEW005 BKN008",
      "groups": [
        {
          "text": "TAF RJCC 232305Z 2400/2506 17012KT 9999 FEW005 BKN012",
          "offset_h": -1,
          "wdir": 170,
          "wspd": 12
        },
        {
          "text": "TEMPO 2400/2402 FEW005 BKN007",
          "offset_h": -1,
          "wdir": null,
          "wspd": null
        },
        {
          "text": "TEMPO 2405/2412 FEW003 BKN005",
          "offset_h": 4,
          "wdir": null,
          "wspd": null
        },
        {
          "text": "TEMPO 2412/2500 FEW005 BKN008",
          "offset_h": 11,
          "wdir": null,
          "wspd": null
        }
      ],
      "metar_raw": "METAR RJCC 240130Z 18010KT 9999 FEW004 SCT006 BKN007 21/20 Q1013",
      "metar_wdir": 180,
      "metar_wspd": 10,
      "metar_oat": 21,
      "metar_qnh": 1013,
      "hourly_oat": [
        23,
        24,
        23,
        23,
        23,
        22,
        21,
        20,
        20,
        19,
        19,
        19,
        19,
        19,
        19,
        19,
        18,
        18,
        18,
        18,
        19,
        19,
        19,
        20,
        20
      ]
    },
    "OKA": {
      "icao": "ROAH",
      "issued": "2026-07-23T23:05:00.000Z",
      "raw": "TAF ROAH 232305Z 2400/2506 14010KT 9999 FEW020 SCT030",
      "groups": [
        {
          "text": "TAF ROAH 232305Z 2400/2506 14010KT 9999 FEW020 SCT030",
          "offset_h": -1,
          "wdir": 140,
          "wspd": 10
        }
      ],
      "metar_raw": "METAR ROAH 240130Z 14014KT 9999 FEW018 BKN/// 33/27 Q1010",
      "metar_wdir": 140,
      "metar_wspd": 14,
      "metar_oat": 33,
      "metar_qnh": 1010,
      "hourly_oat": [
        32,
        32,
        33,
        33,
        33,
        32,
        32,
        32,
        30,
        29,
        29,
        29,
        29,
        28,
        28,
        28,
        28,
        28,
        28,
        28,
        28,
        29,
        30,
        31,
        32
      ]
    },
    "NGO": {
      "icao": "RJGG",
      "issued": "2026-07-23T23:05:00.000Z",
      "raw": "TAF RJGG 232305Z 2400/2506 29004KT 9999 FEW030 BECMG 2401/2403 24006KT BECMG 2407/2409 32012KT BECMG 2500/2503 25008KT",
      "groups": [
        {
          "text": "TAF RJGG 232305Z 2400/2506 29004KT 9999 FEW030",
          "offset_h": -1,
          "wdir": 290,
          "wspd": 4
        },
        {
          "text": "BECMG 2401/2403 24006KT",
          "offset_h": 0,
          "wdir": 240,
          "wspd": 6
        },
        {
          "text": "BECMG 2407/2409 32012KT",
          "offset_h": 6,
          "wdir": 320,
          "wspd": 12
        },
        {
          "text": "BECMG 2500/2503 25008KT",
          "offset_h": 23,
          "wdir": 250,
          "wspd": 8
        }
      ],
      "metar_raw": "METAR RJGG 240130Z 23004KT 9999 FEW020 SCT/// 31/26 Q1010 NOSIG",
      "metar_wdir": 230,
      "metar_wspd": 4,
      "metar_oat": 31,
      "metar_qnh": 1010,
      "hourly_oat": [
        29,
        29,
        30,
        30,
        31,
        32,
        32,
        31,
        31,
        32,
        32,
        31,
        30,
        30,
        30,
        29,
        29,
        29,
        29,
        29,
        29,
        29,
        29,
        30,
        31
      ]
    },
    "CGK": {
      "icao": "WIII",
      "issued": "2026-07-23T23:00:00.000Z",
      "raw": "TAF WIII 232300Z 2400/2506 18005KT 8000 FEW020 BECMG 2403/2405 02010KT BECMG 2413/2415 15005KT",
      "groups": [
        {
          "text": "TAF WIII 232300Z 2400/2506 18005KT 8000 FEW020",
          "offset_h": -1,
          "wdir": 180,
          "wspd": 5
        },
        {
          "text": "BECMG 2403/2405 02010KT",
          "offset_h": 2,
          "wdir": 20,
          "wspd": 10
        },
        {
          "text": "BECMG 2413/2415 15005KT",
          "offset_h": 12,
          "wdir": 150,
          "wspd": 5
        }
      ],
      "metar_raw": "METAR WIII 240130Z 21006KT 9000 FEW020 28/17 Q1012 NOSIG",
      "metar_wdir": 210,
      "metar_wspd": 6,
      "metar_oat": 28,
      "metar_qnh": 1012,
      "hourly_oat": [
        26,
        29,
        31,
        32,
        33,
        33,
        32,
        32,
        31,
        30,
        29,
        29,
        28,
        28,
        27,
        27,
        26,
        26,
        25,
        25,
        25,
        24,
        24,
        25,
        27
      ]
    },
    "TPE": {
      "icao": "RCTP",
      "issued": "2026-07-23T23:00:00.000Z",
      "raw": "TAF RCTP 232300Z 2400/2506 33005KT 9999 FEW015 BKN032 TEMPO 2404/2410 02010KT BECMG 2410/2412 09015KT TEMPO 2418/2424 10018G28KT BECMG 2500/2502 15005KT TEMPO 2502/2506 33005KT",
      "groups": [
        {
          "text": "TAF RCTP 232300Z 2400/2506 33005KT 9999 FEW015 BKN032",
          "offset_h": -1,
          "wdir": 330,
          "wspd": 5
        },
        {
          "text": "TEMPO 2404/2410 02010KT",
          "offset_h": 3,
          "wdir": 20,
          "wspd": 10
        },
        {
          "text": "BECMG 2410/2412 09015KT",
          "offset_h": 9,
          "wdir": 90,
          "wspd": 15
        },
        {
          "text": "TEMPO 2418/2424 10018G28KT",
          "offset_h": 17,
          "wdir": 100,
          "wspd": 18
        },
        {
          "text": "BECMG 2500/2502 15005KT",
          "offset_h": 23,
          "wdir": 150,
          "wspd": 5
        },
        {
          "text": "TEMPO 2502/2506 33005KT",
          "offset_h": 25,
          "wdir": 330,
          "wspd": 5
        }
      ],
      "metar_raw": "METAR RCTP 240130Z VRB03KT 9999 FEW020 SCT060 36/26 Q1007 NOSIG RMK A2975",
      "metar_wdir": "VRB",
      "metar_wspd": 3,
      "metar_oat": 36,
      "metar_qnh": 1007,
      "hourly_oat": [
        31,
        32,
        33,
        35,
        35,
        33,
        33,
        33,
        31,
        30,
        29,
        28,
        28,
        27,
        27,
        27,
        27,
        27,
        27,
        27,
        27,
        27,
        28,
        30,
        31
      ]
    },
    "HKG": {
      "icao": "VHHH",
      "issued": "2026-07-23T23:00:00.000Z",
      "raw": "TAF VHHH 232300Z 2400/2506 16010KT 9999 FEW020 TX35/2406Z TX33/2506Z TN27/2422Z BECMG 2402/2404 26010KT BECMG 2409/2411 18010KT BECMG 2416/2418 26010KT BECMG 2501/2503 34015KT",
      "groups": [
        {
          "text": "TAF VHHH 232300Z 2400/2506 16010KT 9999 FEW020 TX35/2406Z TX33/2506Z TN27/2422Z",
          "offset_h": -1,
          "wdir": 160,
          "wspd": 10
        },
        {
          "text": "BECMG 2402/2404 26010KT",
          "offset_h": 1,
          "wdir": 260,
          "wspd": 10
        },
        {
          "text": "BECMG 2409/2411 18010KT",
          "offset_h": 8,
          "wdir": 180,
          "wspd": 10
        },
        {
          "text": "BECMG 2416/2418 26010KT",
          "offset_h": 15,
          "wdir": 260,
          "wspd": 10
        },
        {
          "text": "BECMG 2501/2503 34015KT",
          "offset_h": 24,
          "wdir": 340,
          "wspd": 15
        }
      ],
      "metar_raw": "METAR VHHH 240130Z 30003KT 9999 FEW018 30/24 Q1008 NOSIG",
      "metar_wdir": 300,
      "metar_wspd": 3,
      "metar_oat": 30,
      "metar_qnh": 1008,
      "hourly_oat": [
        29,
        30,
        30,
        30,
        31,
        31,
        31,
        31,
        30,
        29,
        28,
        28,
        28,
        28,
        28,
        28,
        28,
        28,
        28,
        28,
        28,
        28,
        28,
        28,
        29
      ]
    },
    "GMP": {
      "icao": "RKSS",
      "issued": "2026-07-23T23:00:00.000Z",
      "raw": "TAF RKSS 232300Z 2400/2506 18006KT 9999 BKN020 TX32/2406Z TN25/2420Z TX30/2506Z TEMPO 2400/2404 -RA BECMG 2404/2406 24007KT SCT030 BECMG 2411/2413 18005KT BKN020 BECMG 2423/2501 24007KT TEMPO 2501/2506 -RA",
      "groups": [
        {
          "text": "TAF RKSS 232300Z 2400/2506 18006KT 9999 BKN020 TX32/2406Z TN25/2420Z TX30/2506Z",
          "offset_h": -1,
          "wdir": 180,
          "wspd": 6
        },
        {
          "text": "TEMPO 2400/2404 -RA",
          "offset_h": -1,
          "wdir": null,
          "wspd": null
        },
        {
          "text": "BECMG 2404/2406 24007KT SCT030",
          "offset_h": 3,
          "wdir": 240,
          "wspd": 7
        },
        {
          "text": "BECMG 2411/2413 18005KT BKN020",
          "offset_h": 10,
          "wdir": 180,
          "wspd": 5
        },
        {
          "text": "BECMG 2423/2501 24007KT",
          "offset_h": 22,
          "wdir": 240,
          "wspd": 7
        },
        {
          "text": "TEMPO 2501/2506 -RA",
          "offset_h": 24,
          "wdir": null,
          "wspd": null
        }
      ],
      "metar_raw": "METAR RKSS 240100Z 20007KT 170V240 9999 BKN025 29/27 Q1010 NOSIG",
      "metar_wdir": 200,
      "metar_wspd": 7,
      "metar_oat": 29,
      "metar_qnh": 1010,
      "hourly_oat": [
        28,
        28,
        29,
        30,
        30,
        30,
        30,
        30,
        29,
        28,
        27,
        26,
        26,
        26,
        26,
        25,
        25,
        25,
        25,
        25,
        25,
        25,
        26,
        27,
        28
      ]
    },
    "KUL": {
      "icao": "WMKK",
      "issued": "2026-07-23T23:00:00.000Z",
      "raw": "TAF WMKK 232300Z 2400/2506 VRB03KT 9999 FEW018 PROB30 TEMPO 2405/2409 6000 -TSRA FEW017CB",
      "groups": [
        {
          "text": "TAF WMKK 232300Z 2400/2506 VRB03KT 9999 FEW018",
          "offset_h": -1,
          "wdir": "VRB",
          "wspd": 3
        },
        {
          "text": "PROB30",
          "offset_h": 0,
          "wdir": null,
          "wspd": null
        },
        {
          "text": "TEMPO 2405/2409 6000 -TSRA FEW017CB",
          "offset_h": 4,
          "wdir": null,
          "wspd": null
        }
      ],
      "metar_raw": "METAR WMKK 240130Z VRB01KT 9000 FEW017CB 28/25 Q1009 NOSIG",
      "metar_wdir": "VRB",
      "metar_wspd": 1,
      "metar_oat": 28,
      "metar_qnh": 1009,
      "hourly_oat": [
        27,
        28,
        27,
        28,
        29,
        30,
        30,
        30,
        30,
        30,
        28,
        27,
        27,
        27,
        26,
        25,
        25,
        25,
        25,
        25,
        24,
        24,
        24,
        24,
        24
      ]
    },
    "SGN": {
      "icao": "VVTS",
      "issued": "2026-07-23T23:00:00.000Z",
      "raw": "TAF VVTS 232300Z 2400/2506 VRB03KT 9999 SCT017 BECMG 2400/2402 26010KT TEMPO 2406/2408 5000 TSRA BKN015 FEW017CB TEMPO 2408/2412 26015G28KT 2000 +TSRA BKN013 SCT015CB",
      "groups": [
        {
          "text": "TAF VVTS 232300Z 2400/2506 VRB03KT 9999 SCT017",
          "offset_h": -1,
          "wdir": "VRB",
          "wspd": 3
        },
        {
          "text": "BECMG 2400/2402 26010KT",
          "offset_h": -1,
          "wdir": 260,
          "wspd": 10
        },
        {
          "text": "TEMPO 2406/2408 5000 TSRA BKN015 FEW017CB",
          "offset_h": 5,
          "wdir": null,
          "wspd": null
        },
        {
          "text": "TEMPO 2408/2412 26015G28KT 2000 +TSRA BKN013 SCT015CB",
          "offset_h": 7,
          "wdir": 260,
          "wspd": 15
        }
      ],
      "metar_raw": "METAR VVTS 240130Z VRB02KT 9999 FEW024 BKN065 BKN075 30/24 Q1007 NOSIG",
      "metar_wdir": "VRB",
      "metar_wspd": 2,
      "metar_oat": 30,
      "metar_qnh": 1007,
      "hourly_oat": [
        28,
        29,
        30,
        31,
        31,
        30,
        28,
        28,
        28,
        27,
        26,
        25,
        25,
        25,
        25,
        25,
        25,
        25,
        25,
        25,
        25,
        24,
        24,
        26,
        27
      ]
    },
    "BKK": {
      "icao": "VTBS",
      "issued": "2026-07-23T23:00:00.000Z",
      "raw": "TAF VTBS 232300Z 2400/2506 23008KT 9999 FEW020 TEMPO 2409/2414 VRB15KT 3000 TSRA FEW018CB SCT020 BKN080",
      "groups": [
        {
          "text": "TAF VTBS 232300Z 2400/2506 23008KT 9999 FEW020",
          "offset_h": -1,
          "wdir": 230,
          "wspd": 8
        },
        {
          "text": "TEMPO 2409/2414 VRB15KT 3000 TSRA FEW018CB SCT020 BKN080",
          "offset_h": 8,
          "wdir": "VRB",
          "wspd": 15
        }
      ],
      "metar_raw": "METAR VTBS 240130Z 26009KT 9999 FEW020 30/22 Q1007 NOSIG",
      "metar_wdir": 260,
      "metar_wspd": 9,
      "metar_oat": 30,
      "metar_qnh": 1007,
      "hourly_oat": [
        29,
        31,
        32,
        34,
        35,
        31,
        30,
        30,
        30,
        30,
        30,
        29,
        27,
        26,
        26,
        26,
        27,
        27,
        26,
        26,
        26,
        26,
        26,
        27,
        28
      ]
    },
    "SIN": {
      "icao": "WSSS",
      "issued": "2026-07-23T23:00:00.000Z",
      "raw": "TAF WSSS 232300Z 2400/2506 16008KT 9999 FEW015 SCT020",
      "groups": [
        {
          "text": "TAF WSSS 232300Z 2400/2506 16008KT 9999 FEW015 SCT020",
          "offset_h": -1,
          "wdir": 160,
          "wspd": 8
        }
      ],
      "metar_raw": "METAR WSSS 240130Z 13006KT 080V160 9999 SCT016 FEW020TCU BKN300 29/25 Q1010 NOSIG",
      "metar_wdir": 130,
      "metar_wspd": 6,
      "metar_oat": 29,
      "metar_qnh": 1010,
      "hourly_oat": [
        29,
        30,
        30,
        31,
        31,
        31,
        30,
        30,
        30,
        29,
        28,
        28,
        26,
        26,
        26,
        26,
        26,
        26,
        26,
        26,
        26,
        25,
        25,
        26,
        25
      ]
    },
    "TSA": {
      "icao": "RCSS",
      "issued": "2026-07-23T23:00:00.000Z",
      "raw": "TAF RCSS 232300Z 2400/2424 12010KT 9999 FEW015 BKN032 TEMPO 2406/2412 11012G22KT BECMG 2412/2414 10015G25KT TEMPO 2418/2424 11020G30KT 5000 SHRA FEW012 BKN020 BKN050",
      "groups": [
        {
          "text": "TAF RCSS 232300Z 2400/2424 12010KT 9999 FEW015 BKN032",
          "offset_h": -1,
          "wdir": 120,
          "wspd": 10
        },
        {
          "text": "TEMPO 2406/2412 11012G22KT",
          "offset_h": 5,
          "wdir": 110,
          "wspd": 12
        },
        {
          "text": "BECMG 2412/2414 10015G25KT",
          "offset_h": 11,
          "wdir": 100,
          "wspd": 15
        },
        {
          "text": "TEMPO 2418/2424 11020G30KT 5000 SHRA FEW012 BKN020 BKN050",
          "offset_h": 17,
          "wdir": 110,
          "wspd": 20
        }
      ],
      "metar_raw": "METAR RCSS 240130Z 12013KT 9999 FEW025 BKN120 35/27 Q1007 NOSIG RMK A2975",
      "metar_wdir": 120,
      "metar_wspd": 13,
      "metar_oat": 35,
      "metar_qnh": 1007,
      "hourly_oat": [
        31,
        32,
        33,
        32,
        32,
        32,
        32,
        32,
        30,
        29,
        28,
        27,
        27,
        27,
        27,
        26,
        26,
        27,
        27,
        27,
        27,
        27,
        28,
        29,
        29
      ]
    },
    "DLC": {
      "icao": "ZYTL",
      "issued": "2026-07-23T21:07:00.000Z",
      "raw": "TAF ZYTL 232107Z 2400/2424 13004MPS 5000 BR SCT012 BKN026 TX30/2406Z TN24/2420Z TEMPO 2406/2409 2000 -SHRA BR SCT012 BKN023 FEW040CB",
      "groups": [
        {
          "text": "TAF ZYTL 232107Z 2400/2424 13004MPS 5000 BR SCT012 BKN026 TX30/2406Z TN24/2420Z",
          "offset_h": -1,
          "wdir": null,
          "wspd": null
        },
        {
          "text": "TEMPO 2406/2409 2000 -SHRA BR SCT012 BKN023 FEW040CB",
          "offset_h": 5,
          "wdir": null,
          "wspd": null
        }
      ],
      "metar_raw": "METAR ZYTL 240130Z 13005MPS 100V160 9999 SCT015 BKN026 29/23 Q1006 NOSIG",
      "metar_wdir": null,
      "metar_wspd": null,
      "metar_oat": 29,
      "metar_qnh": 1006,
      "hourly_oat": [
        28,
        30,
        30,
        31,
        30,
        30,
        30,
        29,
        28,
        27,
        27,
        26,
        26,
        26,
        25,
        24,
        24,
        24,
        24,
        24,
        23,
        24,
        24,
        25,
        26
      ]
    },
    "PEK": {
      "icao": "ZBAA",
      "issued": "2026-07-23T21:03:00.000Z",
      "raw": "TAF ZBAA 232103Z 2400/2506 16003MPS 6000 NSC TX30/2406Z TX31/2506Z TN24/2421Z",
      "groups": [
        {
          "text": "TAF ZBAA 232103Z 2400/2506 16003MPS 6000 NSC TX30/2406Z TX31/2506Z TN24/2421Z",
          "offset_h": -1,
          "wdir": null,
          "wspd": null
        }
      ],
      "metar_raw": "METAR ZBAA 240130Z VRB01MPS CAVOK 26/24 Q1007 NOSIG",
      "metar_wdir": null,
      "metar_wspd": null,
      "metar_oat": 26,
      "metar_qnh": 1007,
      "hourly_oat": [
        26,
        27,
        28,
        29,
        30,
        30,
        30,
        29,
        29,
        29,
        28,
        27,
        26,
        26,
        25,
        24,
        24,
        23,
        23,
        23,
        23,
        23,
        24,
        25,
        27
      ]
    },
    "CAN": {
      "icao": "ZGGG",
      "issued": "2026-07-23T21:03:00.000Z",
      "raw": "TAF ZGGG 232103Z 2400/2506 20003MPS 8000 BKN033 TX36/2407Z TX36/2506Z TN26/2422Z",
      "groups": [
        {
          "text": "TAF ZGGG 232103Z 2400/2506 20003MPS 8000 BKN033 TX36/2407Z TX36/2506Z TN26/2422Z",
          "offset_h": -1,
          "wdir": null,
          "wspd": null
        }
      ],
      "metar_raw": "METAR ZGGG 240130Z VRB02MPS 9999 SCT026 31/25 Q1008 NOSIG",
      "metar_wdir": null,
      "metar_wspd": null,
      "metar_oat": 31,
      "metar_qnh": 1008,
      "hourly_oat": [
        29,
        30,
        32,
        32,
        33,
        34,
        34,
        34,
        34,
        33,
        31,
        30,
        29,
        29,
        28,
        28,
        28,
        27,
        26,
        26,
        26,
        26,
        27,
        29,
        31
      ]
    },
    "SHA": {
      "icao": "ZSSS",
      "issued": "2026-07-23T21:02:00.000Z",
      "raw": "TAF ZSSS 232102Z 2400/2506 17004MPS 8000 SCT030 TX37/2406Z TX37/2506Z TN29/2421Z",
      "groups": [
        {
          "text": "TAF ZSSS 232102Z 2400/2506 17004MPS 8000 SCT030 TX37/2406Z TX37/2506Z TN29/2421Z",
          "offset_h": -1,
          "wdir": null,
          "wspd": null
        }
      ],
      "metar_raw": "METAR ZSSS 240130Z 21005MPS 170V230 CAVOK 33/24 Q1008 NOSIG",
      "metar_wdir": null,
      "metar_wspd": null,
      "metar_oat": 33,
      "metar_qnh": 1008,
      "hourly_oat": [
        32,
        33,
        34,
        36,
        36,
        36,
        36,
        36,
        34,
        33,
        32,
        30,
        30,
        29,
        29,
        29,
        28,
        28,
        28,
        28,
        28,
        28,
        30,
        31,
        32
      ]
    },
    "PVG": {
      "icao": "ZSPD",
      "issued": "2026-07-23T21:02:00.000Z",
      "raw": "TAF ZSPD 232102Z 2400/2506 17004MPS 6000 SCT030 TX37/2406Z TX37/2506Z TN28/2421Z",
      "groups": [
        {
          "text": "TAF ZSPD 232102Z 2400/2506 17004MPS 6000 SCT030 TX37/2406Z TX37/2506Z TN28/2421Z",
          "offset_h": -1,
          "wdir": null,
          "wspd": null
        }
      ],
      "metar_raw": "METAR ZSPD 240130Z 20008MPS CAVOK 33/24 Q1008 NOSIG",
      "metar_wdir": null,
      "metar_wspd": null,
      "metar_oat": 33,
      "metar_qnh": 1008,
      "hourly_oat": [
        33,
        34,
        35,
        36,
        36,
        36,
        36,
        34,
        33,
        32,
        30,
        30,
        29,
        29,
        29,
        29,
        29,
        29,
        29,
        29,
        29,
        29,
        30,
        32,
        33
      ]
    }
  }
}