{
  "updated": "2026-07-12T01:42:39Z",
  "tafs": {
    "SAN": {
      "icao": "KSAN",
      "issued": "2026-07-11T23:32:00.000Z",
      "raw": "TAF KSAN 112332Z 1200/1306 23010KT P6SM FEW020 BKN200 FM120200 VRB05KT P6SM SCT015 SCT150 FM120500 VRB04KT P6SM OVC011 TEMPO 1210/1214 OVC009 FM121700 25010KT P6SM SCT013 FM130200 VRB04KT P6SM SCT010 SCT200 FM130500 VRB03KT P6SM BKN010",
      "groups": [
        {
          "text": "TAF KSAN 112332Z 1200/1306 23010KT P6SM FEW020 BKN200",
          "offset_h": -1,
          "wdir": 230,
          "wspd": 10
        },
        {
          "text": "FM120200 VRB05KT P6SM SCT015 SCT150",
          "offset_h": 1,
          "wdir": "VRB",
          "wspd": 5
        },
        {
          "text": "FM120500 VRB04KT P6SM OVC011",
          "offset_h": 4,
          "wdir": "VRB",
          "wspd": 4
        },
        {
          "text": "TEMPO 1210/1214 OVC009",
          "offset_h": 9,
          "wdir": null,
          "wspd": null
        },
        {
          "text": "FM121700 25010KT P6SM SCT013",
          "offset_h": 16,
          "wdir": 250,
          "wspd": 10
        },
        {
          "text": "FM130200 VRB04KT P6SM SCT010 SCT200",
          "offset_h": 25,
          "wdir": "VRB",
          "wspd": 4
        },
        {
          "text": "FM130500 VRB03KT P6SM BKN010",
          "offset_h": 28,
          "wdir": "VRB",
          "wspd": 3
        }
      ],
      "metar_raw": "METAR KSAN 120051Z 24005KT 10SM FEW020 BKN200 21/16 A2994 RMK AO2 SLP138 T02060161 $",
      "metar_wdir": 240,
      "metar_wspd": 5,
      "metar_oat": 21,
      "metar_qnh": 1014,
      "hourly_oat": [
        21,
        21,
        20,
        20,
        19,
        19,
        18,
        18,
        18,
        18,
        18,
        17,
        17,
        19,
        20,
        22,
        23,
        22,
        23,
        25,
        24,
        24,
        23,
        22,
        21
      ]
    },
    "LAX": {
      "icao": "KLAX",
      "issued": "2026-07-11T23:27:00.000Z",
      "raw": "TAF KLAX 112327Z 1200/1306 23010KT P6SM SCT010 BKN250 FM120500 25006KT P6SM BKN015 FM121200 25004KT 5SM HZ OVC015 FM121600 26005KT P6SM BKN020 FM122000 26010KT P6SM BKN150 FM130300 26008KT P6SM OVC100",
      "groups": [
        {
          "text": "TAF KLAX 112327Z 1200/1306 23010KT P6SM SCT010 BKN250",
          "offset_h": -1,
          "wdir": 230,
          "wspd": 10
        },
        {
          "text": "FM120500 25006KT P6SM BKN015",
          "offset_h": 4,
          "wdir": 250,
          "wspd": 6
        },
        {
          "text": "FM121200 25004KT 5SM HZ OVC015",
          "offset_h": 11,
          "wdir": 250,
          "wspd": 4
        },
        {
          "text": "FM121600 26005KT P6SM BKN020",
          "offset_h": 15,
          "wdir": 260,
          "wspd": 5
        },
        {
          "text": "FM122000 26010KT P6SM BKN150",
          "offset_h": 19,
          "wdir": 260,
          "wspd": 10
        },
        {
          "text": "FM130300 26008KT P6SM OVC100",
          "offset_h": 26,
          "wdir": 260,
          "wspd": 8
        }
      ],
      "metar_raw": "METAR KLAX 120053Z 24009KT 10SM FEW040 SCT200 BKN240 22/16 A2993 RMK AO2 SLP132 T02170156 $",
      "metar_wdir": 240,
      "metar_wspd": 9,
      "metar_oat": 22,
      "metar_qnh": 1014,
      "hourly_oat": [
        21,
        20,
        19,
        19,
        19,
        18,
        17,
        17,
        16,
        16,
        16,
        15,
        16,
        17,
        19,
        22,
        24,
        22,
        22,
        22,
        22,
        23,
        21,
        21,
        20
      ]
    },
    "HNL": {
      "icao": "PHNL",
      "issued": "2026-07-11T23:20:00.000Z",
      "raw": "TAF PHNL 112320Z 1200/1306 06015G25KT P6SM FEW025 SCT040 FM120500 05011KT P6SM SCT025 SCT040 FM122000 06015G25KT P6SM SCT025 SCT040 FM130500 05011KT P6SM SCT025 SCT040",
      "groups": [
        {
          "text": "TAF PHNL 112320Z 1200/1306 06015G25KT P6SM FEW025 SCT040",
          "offset_h": -1,
          "wdir": 60,
          "wspd": 15
        },
        {
          "text": "FM120500 05011KT P6SM SCT025 SCT040",
          "offset_h": 4,
          "wdir": 50,
          "wspd": 11
        },
        {
          "text": "FM122000 06015G25KT P6SM SCT025 SCT040",
          "offset_h": 19,
          "wdir": 60,
          "wspd": 15
        },
        {
          "text": "FM130500 05011KT P6SM SCT025 SCT040",
          "offset_h": 28,
          "wdir": 50,
          "wspd": 11
        }
      ],
      "metar_raw": "METAR PHNL 120053Z 08018G25KT 10SM FEW026 SCT040 31/21 A2998 RMK AO2 PK WND 07029/2359 SLP153 T03060206 $",
      "metar_wdir": 80,
      "metar_wspd": 18,
      "metar_oat": 31,
      "metar_qnh": 1015,
      "hourly_oat": [
        30,
        28,
        27,
        26,
        25,
        24,
        24,
        24,
        24,
        24,
        24,
        23,
        23,
        23,
        23,
        23,
        24,
        25,
        26,
        27,
        28,
        28,
        28,
        28,
        28
      ]
    },
    "OKA": {
      "icao": "ROAH",
      "issued": "2026-07-11T23:12:00.000Z",
      "raw": "TAF ROAH 112312Z 1200/1306 16024KT 9999 FEW015 BKN020 TEMPO 1200/1202 16025G35KT FEW006 BKN008 TEMPO 1202/1209 16025G35KT",
      "groups": [
        {
          "text": "TAF ROAH 112312Z 1200/1306 16024KT 9999 FEW015 BKN020",
          "offset_h": -1,
          "wdir": 160,
          "wspd": 24
        },
        {
          "text": "TEMPO 1200/1202 16025G35KT FEW006 BKN008",
          "offset_h": -1,
          "wdir": 160,
          "wspd": 25
        },
        {
          "text": "TEMPO 1202/1209 16025G35KT",
          "offset_h": 1,
          "wdir": 160,
          "wspd": 25
        }
      ],
      "metar_raw": "METAR ROAH 120130Z 15025KT 9999 FEW009 BKN011 BKN038 29/26 Q1009",
      "metar_wdir": 150,
      "metar_wspd": 25,
      "metar_oat": 29,
      "metar_qnh": 1009,
      "hourly_oat": [
        28,
        29,
        29,
        29,
        29,
        29,
        29,
        28,
        28,
        27,
        27,
        27,
        27,
        27,
        27,
        26,
        26,
        26,
        26,
        26,
        26,
        27,
        28,
        28,
        29
      ]
    },
    "KIX": {
      "icao": "RJBB",
      "issued": "2026-07-11T23:10:00.000Z",
      "raw": "TAF RJBB 112310Z 1200/1306 23012KT 9999 FEW025",
      "groups": [
        {
          "text": "TAF RJBB 112310Z 1200/1306 23012KT 9999 FEW025",
          "offset_h": -1,
          "wdir": 230,
          "wspd": 12
        }
      ],
      "metar_raw": "METAR RJBB 120130Z 28003KT 9999 FEW020 BKN/// 27/24 Q1014 NOSIG",
      "metar_wdir": 280,
      "metar_wspd": 3,
      "metar_oat": 27,
      "metar_qnh": 1014,
      "hourly_oat": [
        26,
        26,
        26,
        26,
        27,
        27,
        28,
        27,
        27,
        27,
        27,
        26,
        26,
        26,
        26,
        26,
        26,
        26,
        26,
        26,
        26,
        26,
        26,
        26,
        26
      ]
    },
    "ITM": {
      "icao": "RJOO",
      "issued": "2026-07-11T23:10:00.000Z",
      "raw": "TAF RJOO 112310Z 1200/1306 24004KT 9999 FEW030 BECMG 1200/1202 22006KT BECMG 1212/1215 32004KT BECMG 1303/1306 22006KT TEMPO 1303/1306 TS FEW020 BKN030 FEW030CB",
      "groups": [
        {
          "text": "TAF RJOO 112310Z 1200/1306 24004KT 9999 FEW030",
          "offset_h": -1,
          "wdir": 240,
          "wspd": 4
        },
        {
          "text": "BECMG 1200/1202 22006KT",
          "offset_h": -1,
          "wdir": 220,
          "wspd": 6
        },
        {
          "text": "BECMG 1212/1215 32004KT",
          "offset_h": 11,
          "wdir": 320,
          "wspd": 4
        },
        {
          "text": "BECMG 1303/1306 22006KT",
          "offset_h": 26,
          "wdir": 220,
          "wspd": 6
        },
        {
          "text": "TEMPO 1303/1306 TS FEW020 BKN030 FEW030CB",
          "offset_h": 26,
          "wdir": null,
          "wspd": null
        }
      ],
      "metar_raw": "METAR RJOO 120100Z 23005KT 150V270 9999 FEW020 SCT030 BKN/// 29/23 Q1014",
      "metar_wdir": 230,
      "metar_wspd": 5,
      "metar_oat": 29,
      "metar_qnh": 1014,
      "hourly_oat": [
        28,
        29,
        30,
        30,
        31,
        31,
        31,
        30,
        30,
        29,
        28,
        27,
        27,
        26,
        26,
        26,
        25,
        25,
        25,
        25,
        25,
        26,
        26,
        27,
        28
      ]
    },
    "CTS": {
      "icao": "RJCC",
      "issued": "2026-07-11T23:08:00.000Z",
      "raw": "TAF RJCC 112308Z 1200/1306 17010KT 6000 FEW005 BKN012 TEMPO 1200/1202 1500 -SHRA BR FEW001 BKN002 TEMPO 1202/1210 3000 -SHRA BR FEW002 BKN004 TEMPO 1210/1218 0700 FG VV001 BECMG 1215/1218 35008KT TEMPO 1218/1300 1500 BR FEW001 BKN003",
      "groups": [
        {
          "text": "TAF RJCC 112308Z 1200/1306 17010KT 6000 FEW005 BKN012",
          "offset_h": -1,
          "wdir": 170,
          "wspd": 10
        },
        {
          "text": "TEMPO 1200/1202 1500 -SHRA BR FEW001 BKN002",
          "offset_h": -1,
          "wdir": null,
          "wspd": null
        },
        {
          "text": "TEMPO 1202/1210 3000 -SHRA BR FEW002 BKN004",
          "offset_h": 1,
          "wdir": null,
          "wspd": null
        },
        {
          "text": "TEMPO 1210/1218 0700 FG VV001",
          "offset_h": 9,
          "wdir": null,
          "wspd": null
        },
        {
          "text": "BECMG 1215/1218 35008KT",
          "offset_h": 14,
          "wdir": 350,
          "wspd": 8
        },
        {
          "text": "TEMPO 1218/1300 1500 BR FEW001 BKN003",
          "offset_h": 17,
          "wdir": null,
          "wspd": null
        }
      ],
      "metar_raw": "METAR RJCC 120130Z 16007KT 7000 -SHRA FEW001 SCT002 BKN003 22/22 Q1006",
      "metar_wdir": 160,
      "metar_wspd": 7,
      "metar_oat": 22,
      "metar_qnh": 1006,
      "hourly_oat": [
        21,
        22,
        23,
        24,
        25,
        24,
        24,
        23,
        22,
        21,
        21,
        21,
        21,
        21,
        20,
        20,
        21,
        21,
        21,
        21,
        22,
        23,
        24,
        25,
        26
      ]
    },
    "FUK": {
      "icao": "RJFF",
      "issued": "2026-07-11T23:06:00.000Z",
      "raw": "TAF RJFF 112306Z 1200/1306 19010KT 9999 FEW030 BECMG 1205/1207 29008KT TEMPO 1207/1210 -TSRA FEW025CB BKN030 BECMG 1212/1215 13004KT BECMG 1303/1306 32010KT",
      "groups": [
        {
          "text": "TAF RJFF 112306Z 1200/1306 19010KT 9999 FEW030",
          "offset_h": -1,
          "wdir": 190,
          "wspd": 10
        },
        {
          "text": "BECMG 1205/1207 29008KT",
          "offset_h": 4,
          "wdir": 290,
          "wspd": 8
        },
        {
          "text": "TEMPO 1207/1210 -TSRA FEW025CB BKN030",
          "offset_h": 6,
          "wdir": null,
          "wspd": null
        },
        {
          "text": "BECMG 1212/1215 13004KT",
          "offset_h": 11,
          "wdir": 130,
          "wspd": 4
        },
        {
          "text": "BECMG 1303/1306 32010KT",
          "offset_h": 26,
          "wdir": 320,
          "wspd": 10
        }
      ],
      "metar_raw": "METAR RJFF 120130Z 11011KT 070V140 9999 FEW025 BKN/// 34/23 Q1012 NOSIG",
      "metar_wdir": 110,
      "metar_wspd": 11,
      "metar_oat": 34,
      "metar_qnh": 1012,
      "hourly_oat": [
        33,
        34,
        34,
        35,
        35,
        34,
        34,
        33,
        32,
        31,
        30,
        30,
        29,
        28,
        28,
        28,
        27,
        27,
        27,
        27,
        27,
        28,
        29,
        30,
        32
      ]
    },
    "NGO": {
      "icao": "RJGG",
      "issued": "2026-07-11T23:05:00.000Z",
      "raw": "TAF RJGG 112305Z 1200/1306 31006KT 9999 FEW030 BECMG 1203/1205 22006KT BECMG 1209/1211 29006KT",
      "groups": [
        {
          "text": "TAF RJGG 112305Z 1200/1306 31006KT 9999 FEW030",
          "offset_h": -1,
          "wdir": 310,
          "wspd": 6
        },
        {
          "text": "BECMG 1203/1205 22006KT",
          "offset_h": 2,
          "wdir": 220,
          "wspd": 6
        },
        {
          "text": "BECMG 1209/1211 29006KT",
          "offset_h": 8,
          "wdir": 290,
          "wspd": 6
        }
      ],
      "metar_raw": "METAR RJGG 120130Z 32006KT 9999 FEW020 BKN/// 29/24 Q1013 NOSIG",
      "metar_wdir": 320,
      "metar_wspd": 6,
      "metar_oat": 29,
      "metar_qnh": 1013,
      "hourly_oat": [
        26,
        26,
        27,
        27,
        27,
        28,
        27,
        27,
        27,
        27,
        27,
        28,
        28,
        27,
        27,
        27,
        27,
        27,
        27,
        26,
        26,
        26,
        27,
        27,
        28
      ]
    },
    "NRT": {
      "icao": "RJAA",
      "issued": "2026-07-11T23:05:00.000Z",
      "raw": "TAF RJAA 112305Z 1200/1306 21006KT 9999 FEW030 TEMPO 1210/1215 FEW001 BKN005 TEMPO 1215/1221 4000 -SHRA BR FEW001 BKN005 TEMPO 1221/1300 FEW003 BKN008 BECMG 1300/1303 26006KT",
      "groups": [
        {
          "text": "TAF RJAA 112305Z 1200/1306 21006KT 9999 FEW030",
          "offset_h": -1,
          "wdir": 210,
          "wspd": 6
        },
        {
          "text": "TEMPO 1210/1215 FEW001 BKN005",
          "offset_h": 9,
          "wdir": null,
          "wspd": null
        },
        {
          "text": "TEMPO 1215/1221 4000 -SHRA BR FEW001 BKN005",
          "offset_h": 14,
          "wdir": null,
          "wspd": null
        },
        {
          "text": "TEMPO 1221/1300 FEW003 BKN008",
          "offset_h": 20,
          "wdir": null,
          "wspd": null
        },
        {
          "text": "BECMG 1300/1303 26006KT",
          "offset_h": 23,
          "wdir": 260,
          "wspd": 6
        }
      ],
      "metar_raw": "METAR RJAA 120130Z 22003KT 140V280 9999 SCT015 BKN120 BKN200 28/24 Q1012 NOSIG",
      "metar_wdir": 220,
      "metar_wspd": 3,
      "metar_oat": 28,
      "metar_qnh": 1012,
      "hourly_oat": [
        26,
        28,
        28,
        28,
        28,
        28,
        28,
        27,
        26,
        26,
        25,
        24,
        24,
        24,
        24,
        24,
        24,
        24,
        24,
        24,
        24,
        24,
        24,
        25,
        26
      ]
    },
    "HND": {
      "icao": "RJTT",
      "issued": "2026-07-11T23:05:00.000Z",
      "raw": "TAF RJTT 112305Z 1200/1306 18008KT 9999 FEW020",
      "groups": [
        {
          "text": "TAF RJTT 112305Z 1200/1306 18008KT 9999 FEW020",
          "offset_h": -1,
          "wdir": 180,
          "wspd": 8
        }
      ],
      "metar_raw": "METAR RJTT 120130Z 16008KT 9999 FEW015 BKN/// 28/24 Q1012 NOSIG",
      "metar_wdir": 160,
      "metar_wspd": 8,
      "metar_oat": 28,
      "metar_qnh": 1012,
      "hourly_oat": [
        27,
        28,
        27,
        27,
        27,
        27,
        26,
        26,
        26,
        25,
        25,
        25,
        25,
        25,
        25,
        25,
        24,
        24,
        24,
        24,
        24,
        25,
        25,
        26,
        26
      ]
    },
    "SGN": {
      "icao": "VVTS",
      "issued": "2026-07-11T23:00:00.000Z",
      "raw": "TAF VVTS 112300Z 1200/1306 25008KT 9999 SCT017 SCT040 TEMPO 1205/1209 25015G26KT 3000 TSRA SCT015 SCT017CB BKN040",
      "groups": [
        {
          "text": "TAF VVTS 112300Z 1200/1306 25008KT 9999 SCT017 SCT040",
          "offset_h": -1,
          "wdir": 250,
          "wspd": 8
        },
        {
          "text": "TEMPO 1205/1209 25015G26KT 3000 TSRA SCT015 SCT017CB BKN040",
          "offset_h": 4,
          "wdir": 250,
          "wspd": 15
        }
      ],
      "metar_raw": "METAR VVTS 120130Z 25012KT 9999 SCT016 30/26 Q1007 NOSIG",
      "metar_wdir": 250,
      "metar_wspd": 12,
      "metar_oat": 30,
      "metar_qnh": 1007,
      "hourly_oat": [
        28,
        30,
        30,
        31,
        31,
        28,
        28,
        28,
        26,
        27,
        27,
        26,
        26,
        26,
        26,
        26,
        26,
        25,
        25,
        25,
        25,
        25,
        25,
        25,
        26
      ]
    },
    "GMP": {
      "icao": "RKSS",
      "issued": "2026-07-11T23:00:00.000Z",
      "raw": "TAF RKSS 112300Z 1200/1306 19005KT CAVOK TX35/1205Z TN25/1220Z TX33/1305Z BECMG 1204/1206 27006KT BECMG 1215/1217 18005KT 9999 SCT035 BECMG 1302/1304 24006KT",
      "groups": [
        {
          "text": "TAF RKSS 112300Z 1200/1306 19005KT CAVOK TX35/1205Z TN25/1220Z TX33/1305Z",
          "offset_h": -1,
          "wdir": 190,
          "wspd": 5
        },
        {
          "text": "BECMG 1204/1206 27006KT",
          "offset_h": 3,
          "wdir": 270,
          "wspd": 6
        },
        {
          "text": "BECMG 1215/1217 18005KT 9999 SCT035",
          "offset_h": 14,
          "wdir": 180,
          "wspd": 5
        },
        {
          "text": "BECMG 1302/1304 24006KT",
          "offset_h": 25,
          "wdir": 240,
          "wspd": 6
        }
      ],
      "metar_raw": "METAR RKSS 120100Z 17008KT 140V220 CAVOK 33/25 Q1011 NOSIG",
      "metar_wdir": 170,
      "metar_wspd": 8,
      "metar_oat": 33,
      "metar_qnh": 1011,
      "hourly_oat": [
        31,
        32,
        33,
        34,
        34,
        34,
        34,
        32,
        31,
        30,
        29,
        28,
        28,
        27,
        26,
        26,
        26,
        25,
        25,
        25,
        25,
        26,
        28,
        29,
        30
      ]
    },
    "BKK": {
      "icao": "VTBS",
      "issued": "2026-07-11T23:00:00.000Z",
      "raw": "TAF VTBS 112300Z 1200/1306 23008KT 9999 FEW020 TEMPO 1202/1206 -TSRA FEW018CB SCT020 BKN080 TEMPO 1210/1214 VRB15KT 4000 TSRA FEW018CB SCT020 BKN080",
      "groups": [
        {
          "text": "TAF VTBS 112300Z 1200/1306 23008KT 9999 FEW020",
          "offset_h": -1,
          "wdir": 230,
          "wspd": 8
        },
        {
          "text": "TEMPO 1202/1206 -TSRA FEW018CB SCT020 BKN080",
          "offset_h": 1,
          "wdir": null,
          "wspd": null
        },
        {
          "text": "TEMPO 1210/1214 VRB15KT 4000 TSRA FEW018CB SCT020 BKN080",
          "offset_h": 9,
          "wdir": "VRB",
          "wspd": 15
        }
      ],
      "metar_raw": "METAR VTBS 120130Z 22011KT 9999 FEW020 SCT045 30/24 Q1005 NOSIG",
      "metar_wdir": 220,
      "metar_wspd": 11,
      "metar_oat": 30,
      "metar_qnh": 1005,
      "hourly_oat": [
        29,
        30,
        30,
        30,
        31,
        30,
        29,
        28,
        28,
        29,
        28,
        28,
        27,
        27,
        26,
        26,
        26,
        26,
        26,
        26,
        26,
        26,
        26,
        26,
        28
      ]
    },
    "SIN": {
      "icao": "WSSS",
      "issued": "2026-07-11T23:00:00.000Z",
      "raw": "TAF WSSS 112300Z 1200/1306 15011KT 9999 FEW015 SCT020",
      "groups": [
        {
          "text": "TAF WSSS 112300Z 1200/1306 15011KT 9999 FEW015 SCT020",
          "offset_h": -1,
          "wdir": 150,
          "wspd": 11
        }
      ],
      "metar_raw": "METAR WSSS 120130Z 15008KT 9999 FEW018 FEW020TCU BKN280 29/25 Q1010 NOSIG",
      "metar_wdir": 150,
      "metar_wspd": 8,
      "metar_oat": 29,
      "metar_qnh": 1010,
      "hourly_oat": [
        29,
        30,
        30,
        30,
        31,
        32,
        32,
        31,
        30,
        30,
        29,
        29,
        29,
        29,
        29,
        28,
        28,
        28,
        28,
        28,
        28,
        28,
        28,
        28,
        29
      ]
    },
    "KUL": {
      "icao": "WMKK",
      "issued": "2026-07-11T23:00:00.000Z",
      "raw": "TAF WMKK 112300Z 1200/1306 VRB03KT 9999 FEW018",
      "groups": [
        {
          "text": "TAF WMKK 112300Z 1200/1306 VRB03KT 9999 FEW018",
          "offset_h": -1,
          "wdir": "VRB",
          "wspd": 3
        }
      ],
      "metar_raw": "METAR WMKK 120130Z VRB02KT 9000 FEW017CB 28/25 Q1010 NOSIG",
      "metar_wdir": "VRB",
      "metar_wspd": 2,
      "metar_oat": 28,
      "metar_qnh": 1010,
      "hourly_oat": [
        28,
        29,
        28,
        29,
        30,
        31,
        31,
        31,
        30,
        30,
        28,
        28,
        27,
        27,
        26,
        26,
        26,
        26,
        26,
        25,
        25,
        25,
        25,
        26,
        27
      ]
    },
    "HAN": {
      "icao": "VVNB",
      "issued": "2026-07-11T23:00:00.000Z",
      "raw": "TAF VVNB 112300Z 1200/1224 06005KT 8000 FEW020 TEMPO 1203/1208 3500 TSRA SCT012 FEW027CB TEMPO 1210/1214 3000 TSRA SCT010 FEW027CB TEMPO 1220/1224 4000 SHRA SCT012 FEW025TCU",
      "groups": [
        {
          "text": "TAF VVNB 112300Z 1200/1224 06005KT 8000 FEW020",
          "offset_h": -1,
          "wdir": 60,
          "wspd": 5
        },
        {
          "text": "TEMPO 1203/1208 3500 TSRA SCT012 FEW027CB",
          "offset_h": 2,
          "wdir": null,
          "wspd": null
        },
        {
          "text": "TEMPO 1210/1214 3000 TSRA SCT010 FEW027CB",
          "offset_h": 9,
          "wdir": null,
          "wspd": null
        },
        {
          "text": "TEMPO 1220/1224 4000 SHRA SCT012 FEW025TCU",
          "offset_h": 19,
          "wdir": null,
          "wspd": null
        }
      ],
      "metar_raw": "METAR VVNB 120130Z 07004KT 020V120 9999 FEW014 30/27 Q1001 NOSIG",
      "metar_wdir": 70,
      "metar_wspd": 4,
      "metar_oat": 30,
      "metar_qnh": 1001,
      "hourly_oat": [
        29,
        30,
        30,
        31,
        32,
        33,
        33,
        33,
        27,
        26,
        27,
        26,
        26,
        27,
        26,
        26,
        26,
        25,
        25,
        25,
        26,
        26,
        26,
        27,
        28
      ]
    },
    "TSA": {
      "icao": "RCSS",
      "issued": "2026-07-11T23:00:00.000Z",
      "raw": "TAF RCSS 112300Z 1200/1224 11008KT 9999 FEW015 BKN032 TEMPO 1200/1203 5000 SHRA SCT008 BKN020 BKN035 TEMPO 1206/1210 VRB05KT 4000 SHRA SCT008 BKN018 BKN030",
      "groups": [
        {
          "text": "TAF RCSS 112300Z 1200/1224 11008KT 9999 FEW015 BKN032",
          "offset_h": -1,
          "wdir": 110,
          "wspd": 8
        },
        {
          "text": "TEMPO 1200/1203 5000 SHRA SCT008 BKN020 BKN035",
          "offset_h": -1,
          "wdir": null,
          "wspd": null
        },
        {
          "text": "TEMPO 1206/1210 VRB05KT 4000 SHRA SCT008 BKN018 BKN030",
          "offset_h": 5,
          "wdir": "VRB",
          "wspd": 5
        }
      ],
      "metar_raw": "METAR RCSS 120130Z 11003KT 080V150 9999 -RA FEW025 SCT060 BKN150 29/27 Q1000 NOSIG RMK A2955",
      "metar_wdir": 110,
      "metar_wspd": 3,
      "metar_oat": 29,
      "metar_qnh": 1000,
      "hourly_oat": [
        28,
        28,
        30,
        30,
        32,
        32,
        32,
        32,
        32,
        30,
        29,
        28,
        27,
        27,
        27,
        26,
        26,
        26,
        26,
        26,
        26,
        26,
        28,
        30,
        31
      ]
    },
    "TPE": {
      "icao": "RCTP",
      "issued": "2026-07-11T23:00:00.000Z",
      "raw": "TAF RCTP 112300Z 1200/1306 22015G32KT 9999 FEW015 BKN032 TEMPO 1205/1211 23010G20KT BECMG 1211/1213 20005KT TEMPO 1219/1224 16005KT TEMPO 1302/1306 VRB05KT 4000 SHRA SCT008 BKN012 BKN030",
      "groups": [
        {
          "text": "TAF RCTP 112300Z 1200/1306 22015G32KT 9999 FEW015 BKN032",
          "offset_h": -1,
          "wdir": 220,
          "wspd": 15
        },
        {
          "text": "TEMPO 1205/1211 23010G20KT",
          "offset_h": 4,
          "wdir": 230,
          "wspd": 10
        },
        {
          "text": "BECMG 1211/1213 20005KT",
          "offset_h": 10,
          "wdir": 200,
          "wspd": 5
        },
        {
          "text": "TEMPO 1219/1224 16005KT",
          "offset_h": 18,
          "wdir": 160,
          "wspd": 5
        },
        {
          "text": "TEMPO 1302/1306 VRB05KT 4000 SHRA SCT008 BKN012 BKN030",
          "offset_h": 25,
          "wdir": "VRB",
          "wspd": 5
        }
      ],
      "metar_raw": "METAR RCTP 120130Z 18009KT 160V220 9999 -DZ FEW015 BKN140 28/25 Q1000 NOSIG RMK A2954",
      "metar_wdir": 180,
      "metar_wspd": 9,
      "metar_oat": 28,
      "metar_qnh": 1000,
      "hourly_oat": [
        30,
        30,
        31,
        31,
        32,
        32,
        32,
        32,
        32,
        30,
        29,
        29,
        28,
        28,
        28,
        28,
        27,
        27,
        27,
        26,
        26,
        27,
        28,
        29,
        30
      ]
    },
    "HKG": {
      "icao": "VHHH",
      "issued": "2026-07-11T23:00:00.000Z",
      "raw": "TAF VHHH 112300Z 1200/1306 23010KT 9999 FEW010 TX34/1206Z TX33/1306Z TN28/1222Z",
      "groups": [
        {
          "text": "TAF VHHH 112300Z 1200/1306 23010KT 9999 FEW010 TX34/1206Z TX33/1306Z TN28/1222Z",
          "offset_h": -1,
          "wdir": 230,
          "wspd": 10
        }
      ],
      "metar_raw": "METAR VHHH 120130Z 23012KT 9999 FEW010 32/27 Q1000 NOSIG",
      "metar_wdir": 230,
      "metar_wspd": 12,
      "metar_oat": 32,
      "metar_qnh": 1000,
      "hourly_oat": [
        30,
        30,
        31,
        31,
        32,
        32,
        31,
        31,
        30,
        30,
        29,
        29,
        29,
        29,
        29,
        29,
        29,
        29,
        29,
        28,
        28,
        28,
        29,
        29,
        30
      ]
    },
    "CGK": {
      "icao": "WIII",
      "issued": "2026-07-11T23:00:00.000Z",
      "raw": "TAF WIII 112300Z 1200/1306 18005KT 4000 HZ FEW020 BECMG 1202/1204 03011KT 8000 NSW",
      "groups": [
        {
          "text": "TAF WIII 112300Z 1200/1306 18005KT 4000 HZ FEW020",
          "offset_h": -1,
          "wdir": 180,
          "wspd": 5
        },
        {
          "text": "BECMG 1202/1204 03011KT 8000 NSW",
          "offset_h": 1,
          "wdir": 30,
          "wspd": 11
        }
      ],
      "metar_raw": "METAR WIII 120130Z 15006KT 4500 HZ FEW020 27/21 Q1012 NOSIG",
      "metar_wdir": 150,
      "metar_wspd": 6,
      "metar_oat": 27,
      "metar_qnh": 1012,
      "hourly_oat": [
        27,
        29,
        31,
        32,
        34,
        32,
        32,
        31,
        31,
        30,
        28,
        28,
        28,
        27,
        27,
        26,
        26,
        25,
        25,
        25,
        24,
        24,
        24,
        25,
        27
      ]
    },
    "PVG": {
      "icao": "ZSPD",
      "issued": "2026-07-11T21:20:00.000Z",
      "raw": "TAF ZSPD 112120Z 1200/1306 10014G24MPS 6000 -SHRA BKN013 TX30/1206Z TX31/1306Z TN27/1221Z TEMPO 1200/1204 +SHRA BKN009 FEW030CB BECMG 1202/1204 16017G26MPS BKN016 TEMPO 1207/1211 SHRA BKN013 FEW030CB BECMG 1213/1215 16012G21MPS",
      "groups": [
        {
          "text": "TAF ZSPD 112120Z 1200/1306 10014G24MPS 6000 -SHRA BKN013 TX30/1206Z TX31/1306Z TN27/1221Z",
          "offset_h": -1,
          "wdir": null,
          "wspd": null
        },
        {
          "text": "TEMPO 1200/1204 +SHRA BKN009 FEW030CB",
          "offset_h": -1,
          "wdir": null,
          "wspd": null
        },
        {
          "text": "BECMG 1202/1204 16017G26MPS BKN016",
          "offset_h": 1,
          "wdir": null,
          "wspd": null
        },
        {
          "text": "TEMPO 1207/1211 SHRA BKN013 FEW030CB",
          "offset_h": 6,
          "wdir": null,
          "wspd": null
        },
        {
          "text": "BECMG 1213/1215 16012G21MPS",
          "offset_h": 12,
          "wdir": null,
          "wspd": null
        }
      ],
      "metar_raw": "METAR ZSPD 120130Z 13014G19MPS 6000 -SHRA BKN015 27/27 Q0994 NOSIG",
      "metar_wdir": null,
      "metar_wspd": null,
      "metar_oat": 27,
      "metar_qnh": 994,
      "hourly_oat": [
        27,
        28,
        30,
        30,
        31,
        30,
        30,
        30,
        29,
        28,
        28,
        28,
        28,
        28,
        28,
        28,
        28,
        28,
        28,
        28,
        28,
        28,
        29,
        30,
        30
      ]
    },
    "SHA": {
      "icao": "ZSSS",
      "issued": "2026-07-11T21:20:00.000Z",
      "raw": "TAF ZSSS 112120Z 1200/1306 10011G20MPS 6000 -SHRA BKN015 TX31/1206Z TX33/1306Z TN28/1221Z TEMPO 1200/1204 +SHRA BKN009 FEW030CB BECMG 1202/1204 16014G24MPS BECMG 1207/1209 16010G18MPS TEMPO 1207/1211 SHRA BKN011",
      "groups": [
        {
          "text": "TAF ZSSS 112120Z 1200/1306 10011G20MPS 6000 -SHRA BKN015 TX31/1206Z TX33/1306Z TN28/1221Z",
          "offset_h": -1,
          "wdir": null,
          "wspd": null
        },
        {
          "text": "TEMPO 1200/1204 +SHRA BKN009 FEW030CB",
          "offset_h": -1,
          "wdir": null,
          "wspd": null
        },
        {
          "text": "BECMG 1202/1204 16014G24MPS",
          "offset_h": 1,
          "wdir": null,
          "wspd": null
        },
        {
          "text": "BECMG 1207/1209 16010G18MPS",
          "offset_h": 6,
          "wdir": null,
          "wspd": null
        },
        {
          "text": "TEMPO 1207/1211 SHRA BKN011",
          "offset_h": 6,
          "wdir": null,
          "wspd": null
        }
      ],
      "metar_raw": "METAR ZSSS 120130Z 14011G19MPS 100V160 9999 BKN026 29/24 Q0992 NOSIG",
      "metar_wdir": null,
      "metar_wspd": null,
      "metar_oat": 29,
      "metar_qnh": 992,
      "hourly_oat": [
        28,
        30,
        30,
        30,
        31,
        31,
        30,
        30,
        30,
        29,
        28,
        28,
        28,
        28,
        28,
        28,
        28,
        28,
        28,
        28,
        28,
        28,
        29,
        30,
        30
      ]
    },
    "PEK": {
      "icao": "ZBAA",
      "issued": "2026-07-11T21:12:00.000Z",
      "raw": "TAF ZBAA 112112Z 1200/1306 12004MPS 5000 BR NSC TX30/1207Z TX31/1306Z TN23/1221Z",
      "groups": [
        {
          "text": "TAF ZBAA 112112Z 1200/1306 12004MPS 5000 BR NSC TX30/1207Z TX31/1306Z TN23/1221Z",
          "offset_h": -1,
          "wdir": null,
          "wspd": null
        }
      ],
      "metar_raw": "METAR ZBAA 120130Z VRB01MPS 9999 FEW010 25/24 Q1004 NOSIG",
      "metar_wdir": null,
      "metar_wspd": null,
      "metar_oat": 25,
      "metar_qnh": 1004,
      "hourly_oat": [
        27,
        28,
        29,
        30,
        31,
        30,
        30,
        30,
        30,
        30,
        29,
        28,
        27,
        27,
        26,
        26,
        26,
        26,
        26,
        25,
        25,
        25,
        26,
        26,
        27
      ]
    },
    "DLC": {
      "icao": "ZYTL",
      "issued": "2026-07-11T21:05:00.000Z",
      "raw": "TAF ZYTL 112105Z 1200/1224 17004MPS 5000 BR SCT020 TX30/1206Z TN24/1220Z",
      "groups": [
        {
          "text": "TAF ZYTL 112105Z 1200/1224 17004MPS 5000 BR SCT020 TX30/1206Z TN24/1220Z",
          "offset_h": -1,
          "wdir": null,
          "wspd": null
        }
      ],
      "metar_raw": "METAR ZYTL 120130Z 16005MPS 120V190 9999 SCT012 BKN020 26/24 Q1007 NOSIG",
      "metar_wdir": null,
      "metar_wspd": null,
      "metar_oat": 26,
      "metar_qnh": 1007,
      "hourly_oat": [
        28,
        28,
        29,
        29,
        29,
        29,
        29,
        29,
        28,
        27,
        26,
        25,
        25,
        25,
        25,
        25,
        25,
        25,
        25,
        24,
        24,
        25,
        26,
        26,
        27
      ]
    },
    "CAN": {
      "icao": "ZGGG",
      "issued": "2026-07-11T21:01:00.000Z",
      "raw": "TAF ZGGG 112101Z 1200/1306 19003MPS 8000 SCT040 TX38/1207Z TX37/1306Z TN29/1222Z",
      "groups": [
        {
          "text": "TAF ZGGG 112101Z 1200/1306 19003MPS 8000 SCT040 TX38/1207Z TX37/1306Z TN29/1222Z",
          "offset_h": -1,
          "wdir": null,
          "wspd": null
        }
      ],
      "metar_raw": "METAR ZGGG 120130Z 21002MPS 140V240 CAVOK 33/27 Q0999 NOSIG",
      "metar_wdir": null,
      "metar_wspd": null,
      "metar_oat": 33,
      "metar_qnh": 999,
      "hourly_oat": [
        32,
        33,
        34,
        35,
        36,
        36,
        36,
        36,
        35,
        35,
        33,
        31,
        30,
        30,
        29,
        29,
        28,
        28,
        28,
        27,
        27,
        27,
        28,
        29,
        30
      ]
    }
  }
}