{
  "updated": "2026-07-05T22:50:59Z",
  "tafs": {
    "DLC": {
      "icao": "ZYTL",
      "issued": "2026-07-05T22:30:00.000Z",
      "raw": "TAF AMD ZYTL 052230Z 0518/0618 13004MPS 5000 BR SCT004 BKN010 TX28/0606Z TN21/0521Z BECMG 0520/0521 1200 TEMPO 0522/0601 0700 FG BKN002 SCT004 BKN010 BECMG 0602/0603 3000 FEW010",
      "groups": [
        {
          "text": "TAF AMD ZYTL 052230Z 0518/0618 13004MPS 5000 BR SCT004 BKN010 TX28/0606Z TN21/0521Z",
          "offset_h": -4,
          "wdir": null,
          "wspd": null
        },
        {
          "text": "BECMG 0520/0521 1200",
          "offset_h": -2,
          "wdir": null,
          "wspd": null
        },
        {
          "text": "TEMPO 0522/0601 0700 FG BKN002 SCT004 BKN010",
          "offset_h": 0,
          "wdir": null,
          "wspd": null
        },
        {
          "text": "BECMG 0602/0603 3000 FEW010",
          "offset_h": 4,
          "wdir": null,
          "wspd": null
        }
      ],
      "metar_raw": "METAR ZYTL 052230Z VRB01MPS 1000 R28/1000U BR BKN002 BKN033 23/23 Q0999 NOSIG",
      "metar_wdir": null,
      "metar_wspd": null,
      "metar_oat": 23,
      "metar_qnh": 999,
      "hourly_oat": [
        22,
        23,
        23,
        24,
        25,
        26,
        28,
        25,
        27,
        29,
        29,
        28,
        26,
        25,
        24,
        24,
        23,
        22,
        22,
        22,
        22,
        22,
        22,
        22,
        22
      ]
    },
    "PVG": {
      "icao": "ZSPD",
      "issued": "2026-07-05T21:04:00.000Z",
      "raw": "TAF ZSPD 052104Z 0600/0706 17004MPS 6000 BKN020 TX32/0606Z TX32/0706Z TN26/0621Z",
      "groups": [
        {
          "text": "TAF ZSPD 052104Z 0600/0706 17004MPS 6000 BKN020 TX32/0606Z TX32/0706Z TN26/0621Z",
          "offset_h": 2,
          "wdir": null,
          "wspd": null
        }
      ],
      "metar_raw": "METAR ZSPD 052230Z 21004MPS CAVOK 28/25 Q1006 NOSIG",
      "metar_wdir": null,
      "metar_wspd": null,
      "metar_oat": 28,
      "metar_qnh": 1006,
      "hourly_oat": [
        26,
        26,
        28,
        28,
        30,
        31,
        32,
        31,
        32,
        32,
        32,
        31,
        30,
        28,
        28,
        28,
        28,
        27,
        27,
        26,
        27,
        27,
        26,
        26,
        27
      ]
    },
    "SHA": {
      "icao": "ZSSS",
      "issued": "2026-07-05T21:04:00.000Z",
      "raw": "TAF ZSSS 052104Z 0600/0706 18004MPS 6000 BKN030 TX33/0606Z TX33/0706Z TN26/0621Z",
      "groups": [
        {
          "text": "TAF ZSSS 052104Z 0600/0706 18004MPS 6000 BKN030 TX33/0606Z TX33/0706Z TN26/0621Z",
          "offset_h": 2,
          "wdir": null,
          "wspd": null
        }
      ],
      "metar_raw": "METAR ZSSS 052230Z 20002MPS CAVOK 27/25 Q1006 NOSIG",
      "metar_wdir": null,
      "metar_wspd": null,
      "metar_oat": 27,
      "metar_qnh": 1006,
      "hourly_oat": [
        26,
        26,
        27,
        28,
        30,
        31,
        32,
        32,
        32,
        33,
        32,
        32,
        32,
        30,
        29,
        29,
        28,
        28,
        28,
        28,
        27,
        27,
        26,
        26,
        27
      ]
    },
    "CAN": {
      "icao": "ZGGG",
      "issued": "2026-07-05T21:03:00.000Z",
      "raw": "TAF ZGGG 052103Z 0600/0706 16004MPS 8000 BKN033 TX34/0607Z TX32/0706Z TN26/0622Z TEMPO 0603/0606 SHRA FEW026CB BKN033 TEMPO 0606/0610 3000 TSRA SCT026CB BKN033 TEMPO 0620/0624 SHRA FEW026CB BKN033 TEMPO 0702/0705 SHRA FEW026CB BKN033",
      "groups": [
        {
          "text": "TAF ZGGG 052103Z 0600/0706 16004MPS 8000 BKN033 TX34/0607Z TX32/0706Z TN26/0622Z",
          "offset_h": 2,
          "wdir": null,
          "wspd": null
        },
        {
          "text": "TEMPO 0603/0606 SHRA FEW026CB BKN033",
          "offset_h": 5,
          "wdir": null,
          "wspd": null
        },
        {
          "text": "TEMPO 0606/0610 3000 TSRA SCT026CB BKN033",
          "offset_h": 8,
          "wdir": null,
          "wspd": null
        },
        {
          "text": "TEMPO 0620/0624 SHRA FEW026CB BKN033",
          "offset_h": 22,
          "wdir": null,
          "wspd": null
        },
        {
          "text": "TEMPO 0702/0705 SHRA FEW026CB BKN033",
          "offset_h": 28,
          "wdir": null,
          "wspd": null
        }
      ],
      "metar_raw": "METAR ZGGG 052230Z 15003MPS 9999 BKN033 28/25 Q1006 NOSIG",
      "metar_wdir": null,
      "metar_wspd": null,
      "metar_oat": 28,
      "metar_qnh": 1006,
      "hourly_oat": [
        25,
        26,
        27,
        28,
        29,
        30,
        29,
        28,
        29,
        26,
        28,
        28,
        27,
        27,
        27,
        26,
        26,
        26,
        26,
        26,
        25,
        25,
        24,
        24,
        25
      ]
    },
    "PEK": {
      "icao": "ZBAA",
      "issued": "2026-07-05T21:02:00.000Z",
      "raw": "TAF ZBAA 052102Z 0600/0706 19004MPS CAVOK TX35/0606Z TX34/0706Z TN22/0621Z TEMPO 0610/0614 -TSRA FEW040CB BKN040",
      "groups": [
        {
          "text": "TAF ZBAA 052102Z 0600/0706 19004MPS CAVOK TX35/0606Z TX34/0706Z TN22/0621Z",
          "offset_h": 2,
          "wdir": null,
          "wspd": null
        },
        {
          "text": "TEMPO 0610/0614 -TSRA FEW040CB BKN040",
          "offset_h": 12,
          "wdir": null,
          "wspd": null
        }
      ],
      "metar_raw": "METAR ZBAA 052230Z 35003MPS CAVOK 23/19 Q0999 NOSIG",
      "metar_wdir": null,
      "metar_wspd": null,
      "metar_oat": 23,
      "metar_qnh": 999,
      "hourly_oat": [
        20,
        22,
        24,
        25,
        27,
        29,
        30,
        32,
        32,
        33,
        33,
        31,
        30,
        29,
        28,
        28,
        27,
        26,
        25,
        24,
        23,
        23,
        22,
        22,
        23
      ]
    },
    "LAX": {
      "icao": "KLAX",
      "issued": "2026-07-05T21:02:00.000Z",
      "raw": "TAF KLAX 052102Z 0521/0624 26012KT P6SM SCT250 FM060700 26007KT P6SM FEW008 FM061100 26004KT P6SM BKN008 FM061700 26006KT P6SM SKC FM062100 26012KT P6SM SKC",
      "groups": [
        {
          "text": "TAF KLAX 052102Z 0521/0624 26012KT P6SM SCT250",
          "offset_h": -1,
          "wdir": 260,
          "wspd": 12
        },
        {
          "text": "FM060700 26007KT P6SM FEW008",
          "offset_h": 9,
          "wdir": 260,
          "wspd": 7
        },
        {
          "text": "FM061100 26004KT P6SM BKN008",
          "offset_h": 13,
          "wdir": 260,
          "wspd": 4
        },
        {
          "text": "FM061700 26006KT P6SM SKC",
          "offset_h": 19,
          "wdir": 260,
          "wspd": 6
        },
        {
          "text": "FM062100 26012KT P6SM SKC",
          "offset_h": 23,
          "wdir": 260,
          "wspd": 12
        }
      ],
      "metar_raw": "METAR KLAX 052153Z 26012KT 10SM FEW010 FEW100 SCT150 23/17 A2997 RMK AO2 SLP145 T02280167",
      "metar_wdir": 260,
      "metar_wspd": 12,
      "metar_oat": 23,
      "metar_qnh": 1015,
      "hourly_oat": [
        23,
        22,
        21,
        21,
        20,
        19,
        18,
        18,
        18,
        17,
        17,
        16,
        16,
        16,
        17,
        17,
        17,
        18,
        19,
        22,
        22,
        22,
        22,
        23,
        22
      ]
    },
    "HNL": {
      "icao": "PHNL",
      "issued": "2026-07-05T20:56:00.000Z",
      "raw": "TAF PHNL 052056Z 0521/0624 05015G25KT P6SM VCSH SCT025 SCT040 FM061200 05007KT P6SM SCT025 SCT045 FM061800 05015G25KT P6SM VCSH SCT025 BKN040",
      "groups": [
        {
          "text": "TAF PHNL 052056Z 0521/0624 05015G25KT P6SM VCSH SCT025 SCT040",
          "offset_h": -1,
          "wdir": 50,
          "wspd": 15
        },
        {
          "text": "FM061200 05007KT P6SM SCT025 SCT045",
          "offset_h": 14,
          "wdir": 50,
          "wspd": 7
        },
        {
          "text": "FM061800 05015G25KT P6SM VCSH SCT025 BKN040",
          "offset_h": 20,
          "wdir": 50,
          "wspd": 15
        }
      ],
      "metar_raw": "METAR PHNL 052153Z 06019G26KT 10SM FEW027 FEW038 30/19 A3004 RMK AO2 PK WND 06026/2153 SLP171 T03000189 $",
      "metar_wdir": 60,
      "metar_wspd": 19,
      "metar_oat": 30,
      "metar_qnh": 1017,
      "hourly_oat": [
        28,
        28,
        28,
        28,
        27,
        27,
        26,
        24,
        24,
        24,
        24,
        24,
        23,
        23,
        23,
        23,
        23,
        22,
        23,
        24,
        25,
        27,
        28,
        28,
        28
      ]
    },
    "FUK": {
      "icao": "RJFF",
      "issued": "2026-07-05T20:44:00.000Z",
      "raw": "TAF AMD RJFF 052044Z 0520/0700 29008KT 9999 FEW010 BKN030 TEMPO 0520/0523 BKN005 BKN008 BECMG 0609/0612 15006KT",
      "groups": [
        {
          "text": "TAF AMD RJFF 052044Z 0520/0700 29008KT 9999 FEW010 BKN030",
          "offset_h": -2,
          "wdir": 290,
          "wspd": 8
        },
        {
          "text": "TEMPO 0520/0523 BKN005 BKN008",
          "offset_h": -2,
          "wdir": null,
          "wspd": null
        },
        {
          "text": "BECMG 0609/0612 15006KT",
          "offset_h": 11,
          "wdir": 150,
          "wspd": 6
        }
      ],
      "metar_raw": "METAR RJFF 052230Z 17005KT 9999 FEW003 SCT025 BKN090 25/24 Q1008 BECMG 28008KT",
      "metar_wdir": 170,
      "metar_wspd": 5,
      "metar_oat": 25,
      "metar_qnh": 1008,
      "hourly_oat": [
        24,
        25,
        26,
        26,
        26,
        27,
        28,
        28,
        28,
        28,
        28,
        28,
        28,
        27,
        26,
        26,
        26,
        26,
        25,
        25,
        25,
        25,
        25,
        25,
        26
      ]
    },
    "SAN": {
      "icao": "KSAN",
      "issued": "2026-07-05T20:36:00.000Z",
      "raw": "TAF KSAN 052036Z 0521/0624 30013KT P6SM SCT250 FM060300 31006KT P6SM SCT015 FM060700 VRB04KT P6SM OVC012 FM061630 VRB04KT P6SM SCT015 FM061800 28012KT P6SM SCT250",
      "groups": [
        {
          "text": "TAF KSAN 052036Z 0521/0624 30013KT P6SM SCT250",
          "offset_h": -1,
          "wdir": 300,
          "wspd": 13
        },
        {
          "text": "FM060300 31006KT P6SM SCT015",
          "offset_h": 5,
          "wdir": 310,
          "wspd": 6
        },
        {
          "text": "FM060700 VRB04KT P6SM OVC012",
          "offset_h": 9,
          "wdir": "VRB",
          "wspd": 4
        },
        {
          "text": "FM061630 VRB04KT P6SM SCT015",
          "offset_h": 18,
          "wdir": "VRB",
          "wspd": 4
        },
        {
          "text": "FM061800 28012KT P6SM SCT250",
          "offset_h": 20,
          "wdir": 280,
          "wspd": 12
        }
      ],
      "metar_raw": "METAR KSAN 052151Z 29010G17KT 10SM FEW018 FEW250 23/17 A2998 RMK AO2 SLP151 T02330167 $",
      "metar_wdir": 290,
      "metar_wspd": 10,
      "metar_oat": 23,
      "metar_qnh": 1015,
      "hourly_oat": [
        23,
        22,
        22,
        21,
        20,
        19,
        19,
        19,
        19,
        19,
        19,
        19,
        19,
        19,
        19,
        18,
        19,
        19,
        20,
        21,
        22,
        23,
        23,
        23,
        22
      ]
    },
    "HKG": {
      "icao": "VHHH",
      "issued": "2026-07-05T20:00:00.000Z",
      "raw": "TAF VHHH 052000Z 0521/0703 16015KT 9999 FEW010 SCT025 TX32/0606Z TN27/0522Z TN28/0622Z TEMPO 0522/0602 16020G30KT 3000 TSRA SHRA FEW008CB SCT020 TEMPO 0602/0606 16015G25KT 3500 SHRA FEW010CB SCT020 TEMPO 0622/0703 3500 SHRA FEW010CB SCT020",
      "groups": [
        {
          "text": "TAF VHHH 052000Z 0521/0703 16015KT 9999 FEW010 SCT025 TX32/0606Z TN27/0522Z TN28/0622Z",
          "offset_h": -1,
          "wdir": 160,
          "wspd": 15
        },
        {
          "text": "TEMPO 0522/0602 16020G30KT 3000 TSRA SHRA FEW008CB SCT020",
          "offset_h": 0,
          "wdir": 160,
          "wspd": 20
        },
        {
          "text": "TEMPO 0602/0606 16015G25KT 3500 SHRA FEW010CB SCT020",
          "offset_h": 4,
          "wdir": 160,
          "wspd": 15
        },
        {
          "text": "TEMPO 0622/0703 3500 SHRA FEW010CB SCT020",
          "offset_h": 24,
          "wdir": null,
          "wspd": null
        }
      ],
      "metar_raw": "SPECI VHHH 052245Z 19019KT 9999 -SHRA VCTS FEW010CB SCT020 28/25 Q1007 RERA TEMPO 16020G30KT 2500 TSRA SHRA FEW008CB SCT020",
      "metar_wdir": 190,
      "metar_wspd": 19,
      "metar_oat": 28,
      "metar_qnh": 1007,
      "hourly_oat": [
        28,
        27,
        27,
        27,
        28,
        28,
        28,
        28,
        28,
        28,
        29,
        28,
        28,
        28,
        28,
        28,
        28,
        28,
        28,
        28,
        28,
        28,
        27,
        27,
        27
      ]
    },
    "HND": {
      "icao": "RJTT",
      "issued": "2026-07-05T19:33:00.000Z",
      "raw": "TAF AMD RJTT 051933Z 0519/0700 09010KT 9999 FEW030 BKN050 BECMG 0609/0612 01010KT",
      "groups": [
        {
          "text": "TAF AMD RJTT 051933Z 0519/0700 09010KT 9999 FEW030 BKN050",
          "offset_h": -3,
          "wdir": 90,
          "wspd": 10
        },
        {
          "text": "BECMG 0609/0612 01010KT",
          "offset_h": 11,
          "wdir": 10,
          "wspd": 10
        }
      ],
      "metar_raw": "METAR RJTT 052230Z 12004KT 090V150 9999 -SHRA FEW015 BKN070 BKN170 23/20 Q1012 NOSIG",
      "metar_wdir": 120,
      "metar_wspd": 4,
      "metar_oat": 23,
      "metar_qnh": 1012,
      "hourly_oat": [
        22,
        22,
        22,
        22,
        22,
        23,
        23,
        23,
        23,
        22,
        22,
        22,
        21,
        21,
        20,
        20,
        20,
        20,
        19,
        19,
        19,
        19,
        19,
        19,
        20
      ]
    },
    "OKA": {
      "icao": "ROAH",
      "issued": "2026-07-05T17:05:00.000Z",
      "raw": "TAF ROAH 051705Z 0518/0700 18008KT 9999 FEW015",
      "groups": [
        {
          "text": "TAF ROAH 051705Z 0518/0700 18008KT 9999 FEW015",
          "offset_h": -4,
          "wdir": 180,
          "wspd": 8
        }
      ],
      "metar_raw": "METAR ROAH 052230Z 20005KT 9999 FEW015 29/26 Q1012",
      "metar_wdir": 200,
      "metar_wspd": 5,
      "metar_oat": 29,
      "metar_qnh": 1012,
      "hourly_oat": [
        28,
        29,
        30,
        30,
        30,
        30,
        30,
        30,
        30,
        30,
        30,
        29,
        28,
        28,
        27,
        27,
        27,
        26,
        26,
        26,
        26,
        25,
        25,
        25,
        27
      ]
    },
    "ITM": {
      "icao": "RJOO",
      "issued": "2026-07-05T17:05:00.000Z",
      "raw": "TAF RJOO 051705Z 0518/0700 07010KT 6000 -SHRA FEW005 SCT008 BKN012 TEMPO 0518/0522 4000 -SHRA BR FEW003 SCT005 BKN008 TEMPO 0522/0605 2000 SHRA BR FEW003 SCT005 BKN008",
      "groups": [
        {
          "text": "TAF RJOO 051705Z 0518/0700 07010KT 6000 -SHRA FEW005 SCT008 BKN012",
          "offset_h": -4,
          "wdir": 70,
          "wspd": 10
        },
        {
          "text": "TEMPO 0518/0522 4000 -SHRA BR FEW003 SCT005 BKN008",
          "offset_h": -4,
          "wdir": null,
          "wspd": null
        },
        {
          "text": "TEMPO 0522/0605 2000 SHRA BR FEW003 SCT005 BKN008",
          "offset_h": 0,
          "wdir": null,
          "wspd": null
        }
      ],
      "metar_raw": "METAR RJOO 052200Z 09005KT 9000 -SHRA BR FEW003 SCT009 BKN012 22/22 Q1009",
      "metar_wdir": 90,
      "metar_wspd": 5,
      "metar_oat": 22,
      "metar_qnh": 1009,
      "hourly_oat": [
        23,
        23,
        23,
        23,
        23,
        23,
        23,
        23,
        23,
        23,
        23,
        23,
        23,
        22,
        22,
        22,
        22,
        22,
        22,
        21,
        21,
        21,
        21,
        22,
        23
      ]
    },
    "NRT": {
      "icao": "RJAA",
      "issued": "2026-07-05T17:05:00.000Z",
      "raw": "TAF RJAA 051705Z 0518/0700 10006KT 9999 FEW012 BKN020 BECMG 0609/0612 02006KT TEMPO 0612/0615 FEW003 BKN005 TEMPO 0615/0621 4000 BR FEW001 BKN003",
      "groups": [
        {
          "text": "TAF RJAA 051705Z 0518/0700 10006KT 9999 FEW012 BKN020",
          "offset_h": -4,
          "wdir": 100,
          "wspd": 6
        },
        {
          "text": "BECMG 0609/0612 02006KT",
          "offset_h": 11,
          "wdir": 20,
          "wspd": 6
        },
        {
          "text": "TEMPO 0612/0615 FEW003 BKN005",
          "offset_h": 14,
          "wdir": null,
          "wspd": null
        },
        {
          "text": "TEMPO 0615/0621 4000 BR FEW001 BKN003",
          "offset_h": 17,
          "wdir": null,
          "wspd": null
        }
      ],
      "metar_raw": "METAR RJAA 052230Z 08006KT CAVOK 23/20 Q1013 NOSIG",
      "metar_wdir": 80,
      "metar_wspd": 6,
      "metar_oat": 23,
      "metar_qnh": 1013,
      "hourly_oat": [
        20,
        21,
        21,
        21,
        22,
        22,
        23,
        23,
        22,
        21,
        21,
        20,
        20,
        19,
        19,
        19,
        19,
        19,
        19,
        19,
        19,
        19,
        19,
        19,
        20
      ]
    },
    "CTS": {
      "icao": "RJCC",
      "issued": "2026-07-05T17:05:00.000Z",
      "raw": "TAF RJCC 051705Z 0518/0700 16012KT 9999 FEW005 BKN012 TEMPO 0521/0603 FEW003 BKN008 TEMPO 0618/0700 FEW003 BKN008",
      "groups": [
        {
          "text": "TAF RJCC 051705Z 0518/0700 16012KT 9999 FEW005 BKN012",
          "offset_h": -4,
          "wdir": 160,
          "wspd": 12
        },
        {
          "text": "TEMPO 0521/0603 FEW003 BKN008",
          "offset_h": -1,
          "wdir": null,
          "wspd": null
        },
        {
          "text": "TEMPO 0618/0700 FEW003 BKN008",
          "offset_h": 20,
          "wdir": null,
          "wspd": null
        }
      ],
      "metar_raw": "METAR RJCC 052230Z 19005KT 9999 FEW010 SCT025 BKN030 20/17 Q1015",
      "metar_wdir": 190,
      "metar_wspd": 5,
      "metar_oat": 20,
      "metar_qnh": 1015,
      "hourly_oat": [
        18,
        19,
        20,
        20,
        20,
        20,
        20,
        20,
        19,
        19,
        18,
        18,
        17,
        17,
        17,
        17,
        17,
        17,
        17,
        17,
        17,
        17,
        17,
        17,
        17
      ]
    },
    "NGO": {
      "icao": "RJGG",
      "issued": "2026-07-05T17:05:00.000Z",
      "raw": "TAF RJGG 051705Z 0518/0700 11014KT 8000 -RA FEW008 BKN020 TEMPO 0518/0521 3000 RA BR FEW003 BKN008 TEMPO 0600/0602 4000 RA BR FEW003 BKN008 TEMPO 0602/0604 FEW003 BKN008 TEMPO 0604/0612 3000 RA BR FEW003 BKN008 BECMG 0618/0621 01004KT",
      "groups": [
        {
          "text": "TAF RJGG 051705Z 0518/0700 11014KT 8000 -RA FEW008 BKN020",
          "offset_h": -4,
          "wdir": 110,
          "wspd": 14
        },
        {
          "text": "TEMPO 0518/0521 3000 RA BR FEW003 BKN008",
          "offset_h": -4,
          "wdir": null,
          "wspd": null
        },
        {
          "text": "TEMPO 0600/0602 4000 RA BR FEW003 BKN008",
          "offset_h": 2,
          "wdir": null,
          "wspd": null
        },
        {
          "text": "TEMPO 0602/0604 FEW003 BKN008",
          "offset_h": 4,
          "wdir": null,
          "wspd": null
        },
        {
          "text": "TEMPO 0604/0612 3000 RA BR FEW003 BKN008",
          "offset_h": 6,
          "wdir": null,
          "wspd": null
        },
        {
          "text": "BECMG 0618/0621 01004KT",
          "offset_h": 20,
          "wdir": 10,
          "wspd": 4
        }
      ],
      "metar_raw": "METAR RJGG 052230Z 09007KT 3000 -RA BR FEW005 BKN007 21/21 Q1010 TEMPO RA BR BECMG 4000 RA BR BKN012",
      "metar_wdir": 90,
      "metar_wspd": 7,
      "metar_oat": 21,
      "metar_qnh": 1010,
      "hourly_oat": [
        23,
        23,
        23,
        23,
        23,
        23,
        23,
        22,
        22,
        22,
        22,
        22,
        21,
        21,
        21,
        21,
        21,
        22,
        22,
        22,
        22,
        21,
        21,
        21,
        21
      ]
    },
    "KIX": {
      "icao": "RJBB",
      "issued": "2026-07-05T17:05:00.000Z",
      "raw": "TAF RJBB 051705Z 0518/0700 18004KT 6000 -SHRA FEW005 SCT008 BKN012 TEMPO 0518/0520 4000 -SHRA BR FEW001 SCT005 BKN008 BECMG 0519/0521 04010KT TEMPO 0520/0604 2000 SHRA BR FEW001 SCT005 BKN008 BECMG 0621/0700 33004KT",
      "groups": [
        {
          "text": "TAF RJBB 051705Z 0518/0700 18004KT 6000 -SHRA FEW005 SCT008 BKN012",
          "offset_h": -4,
          "wdir": 180,
          "wspd": 4
        },
        {
          "text": "TEMPO 0518/0520 4000 -SHRA BR FEW001 SCT005 BKN008",
          "offset_h": -4,
          "wdir": null,
          "wspd": null
        },
        {
          "text": "BECMG 0519/0521 04010KT",
          "offset_h": -3,
          "wdir": 40,
          "wspd": 10
        },
        {
          "text": "TEMPO 0520/0604 2000 SHRA BR FEW001 SCT005 BKN008",
          "offset_h": -2,
          "wdir": null,
          "wspd": null
        },
        {
          "text": "BECMG 0621/0700 33004KT",
          "offset_h": 23,
          "wdir": 330,
          "wspd": 4
        }
      ],
      "metar_raw": "METAR RJBB 052230Z 07006KT 6000 -SHRA BR FEW003 SCT008 BKN020 24/23 Q1009 TEMPO 3000 SHRA BR FEW001 SCT005 BKN008",
      "metar_wdir": 70,
      "metar_wspd": 6,
      "metar_oat": 24,
      "metar_qnh": 1009,
      "hourly_oat": [
        24,
        24,
        24,
        24,
        24,
        24,
        24,
        24,
        24,
        24,
        24,
        24,
        24,
        24,
        24,
        23,
        23,
        23,
        23,
        23,
        23,
        23,
        23,
        23,
        23
      ]
    },
    "BKK": {
      "icao": "VTBS",
      "issued": "2026-07-05T17:00:00.000Z",
      "raw": "TAF VTBS 051700Z 0518/0624 20008KT 9999 FEW020 TEMPO 0610/0614 VRB15KT 4000 TSRA FEW018CB SCT030 BKN080",
      "groups": [
        {
          "text": "TAF VTBS 051700Z 0518/0624 20008KT 9999 FEW020",
          "offset_h": -4,
          "wdir": 200,
          "wspd": 8
        },
        {
          "text": "TEMPO 0610/0614 VRB15KT 4000 TSRA FEW018CB SCT030 BKN080",
          "offset_h": 12,
          "wdir": "VRB",
          "wspd": 15
        }
      ],
      "metar_raw": "METAR VTBS 052230Z 17006KT 9999 FEW020 28/27 Q1009 NOSIG",
      "metar_wdir": 170,
      "metar_wspd": 6,
      "metar_oat": 28,
      "metar_qnh": 1009,
      "hourly_oat": [
        27,
        27,
        28,
        30,
        30,
        30,
        31,
        30,
        32,
        31,
        31,
        31,
        30,
        30,
        29,
        29,
        29,
        28,
        28,
        28,
        28,
        28,
        27,
        27,
        27
      ]
    },
    "CGK": {
      "icao": "WIII",
      "issued": "2026-07-05T17:00:00.000Z",
      "raw": "TAF WIII 051700Z 0518/0700 12005KT 7000 FEW020 BECMG 0519/0521 4000 HZ BECMG 0601/0603 06012KT 8000 NSW",
      "groups": [
        {
          "text": "TAF WIII 051700Z 0518/0700 12005KT 7000 FEW020",
          "offset_h": -4,
          "wdir": 120,
          "wspd": 5
        },
        {
          "text": "BECMG 0519/0521 4000 HZ",
          "offset_h": -3,
          "wdir": null,
          "wspd": null
        },
        {
          "text": "BECMG 0601/0603 06012KT 8000 NSW",
          "offset_h": 3,
          "wdir": 60,
          "wspd": 12
        }
      ],
      "metar_raw": "METAR WIII 052230Z 11003KT 6000 FEW020 26/24 Q1011 NOSIG",
      "metar_wdir": 110,
      "metar_wspd": 3,
      "metar_oat": 26,
      "metar_qnh": 1011,
      "hourly_oat": [
        25,
        25,
        26,
        28,
        30,
        31,
        32,
        33,
        33,
        32,
        31,
        30,
        30,
        28,
        26,
        24,
        24,
        25,
        25,
        24,
        24,
        24,
        24,
        24,
        24
      ]
    },
    "HAN": {
      "icao": "VVNB",
      "issued": "2026-07-05T17:00:00.000Z",
      "raw": "TAF VVNB 051700Z 0518/0618 14005KT 9999 SCT025 TEMPO 0520/0524 4000 SHRA SCT012 FEW027CB TEMPO 0602/0606 3200 SHRA BKN010 FEW027CB",
      "groups": [
        {
          "text": "TAF VVNB 051700Z 0518/0618 14005KT 9999 SCT025",
          "offset_h": -4,
          "wdir": 140,
          "wspd": 5
        },
        {
          "text": "TEMPO 0520/0524 4000 SHRA SCT012 FEW027CB",
          "offset_h": -2,
          "wdir": null,
          "wspd": null
        },
        {
          "text": "TEMPO 0602/0606 3200 SHRA BKN010 FEW027CB",
          "offset_h": 4,
          "wdir": null,
          "wspd": null
        }
      ],
      "metar_raw": "METAR VVNB 052230Z 09003KT CAVOK 27/27 Q1000 NOSIG",
      "metar_wdir": 90,
      "metar_wspd": 3,
      "metar_oat": 27,
      "metar_qnh": 1000,
      "hourly_oat": [
        26,
        26,
        26,
        26,
        27,
        28,
        28,
        29,
        30,
        31,
        31,
        31,
        30,
        30,
        29,
        28,
        28,
        28,
        27,
        27,
        26,
        26,
        26,
        26,
        26
      ]
    },
    "SGN": {
      "icao": "VVTS",
      "issued": "2026-07-05T17:00:00.000Z",
      "raw": "TAF VVTS 051700Z 0518/0624 VRB03KT 9999 SCT017 SCT040 BECMG 0601/0602 26010KT TEMPO 0606/0611 5000 TSRA SCT015 FEW017CB BKN040",
      "groups": [
        {
          "text": "TAF VVTS 051700Z 0518/0624 VRB03KT 9999 SCT017 SCT040",
          "offset_h": -4,
          "wdir": "VRB",
          "wspd": 3
        },
        {
          "text": "BECMG 0601/0602 26010KT",
          "offset_h": 3,
          "wdir": 260,
          "wspd": 10
        },
        {
          "text": "TEMPO 0606/0611 5000 TSRA SCT015 FEW017CB BKN040",
          "offset_h": 8,
          "wdir": null,
          "wspd": null
        }
      ],
      "metar_raw": "METAR VVTS 052230Z 23004KT CAVOK 27/26 Q1010 NOSIG",
      "metar_wdir": 230,
      "metar_wspd": 4,
      "metar_oat": 27,
      "metar_qnh": 1010,
      "hourly_oat": [
        25,
        25,
        26,
        28,
        29,
        30,
        31,
        31,
        32,
        32,
        31,
        28,
        28,
        28,
        27,
        27,
        27,
        27,
        26,
        26,
        26,
        26,
        26,
        26,
        26
      ]
    },
    "KUL": {
      "icao": "WMKK",
      "issued": "2026-07-05T17:00:00.000Z",
      "raw": "TAF WMKK 051700Z 0518/0700 VRB03KT 9999 FEW030 PROB30 TEMPO 0518/0521 6000 -TSRA FEW017CB",
      "groups": [
        {
          "text": "TAF WMKK 051700Z 0518/0700 VRB03KT 9999 FEW030",
          "offset_h": -4,
          "wdir": "VRB",
          "wspd": 3
        },
        {
          "text": "PROB30",
          "offset_h": 0,
          "wdir": null,
          "wspd": null
        },
        {
          "text": "TEMPO 0518/0521 6000 -TSRA FEW017CB",
          "offset_h": -4,
          "wdir": null,
          "wspd": null
        }
      ],
      "metar_raw": "METAR WMKK 052230Z 04004KT 340V100 7000 -RA FEW010 FEW017CB SCT030 25/24 Q1010 NOSIG",
      "metar_wdir": 40,
      "metar_wspd": 4,
      "metar_oat": 25,
      "metar_qnh": 1010,
      "hourly_oat": [
        24,
        24,
        25,
        26,
        28,
        29,
        30,
        30,
        30,
        28,
        29,
        28,
        29,
        27,
        26,
        26,
        26,
        26,
        26,
        26,
        25,
        25,
        25,
        25,
        24
      ]
    },
    "TSA": {
      "icao": "RCSS",
      "issued": "2026-07-05T17:00:00.000Z",
      "raw": "TAF RCSS 051700Z 0518/0618 31005KT 9999 FEW015 BKN032 TEMPO 0518/0524 VRB03KT TEMPO 0605/0611 12005KT 5000 SHRA FEW012 FEW015CB BKN018 BKN040 BECMG 0611/0613 09005KT",
      "groups": [
        {
          "text": "TAF RCSS 051700Z 0518/0618 31005KT 9999 FEW015 BKN032",
          "offset_h": -4,
          "wdir": 310,
          "wspd": 5
        },
        {
          "text": "TEMPO 0518/0524 VRB03KT",
          "offset_h": -4,
          "wdir": "VRB",
          "wspd": 3
        },
        {
          "text": "TEMPO 0605/0611 12005KT 5000 SHRA FEW012 FEW015CB BKN018 BKN040",
          "offset_h": 7,
          "wdir": 120,
          "wspd": 5
        },
        {
          "text": "BECMG 0611/0613 09005KT",
          "offset_h": 13,
          "wdir": 90,
          "wspd": 5
        }
      ],
      "metar_raw": "METAR RCSS 052230Z VRB02KT 9999 FEW020 SCT050 29/27 Q1011 NOSIG RMK A2986",
      "metar_wdir": "VRB",
      "metar_wspd": 2,
      "metar_oat": 29,
      "metar_qnh": 1011,
      "hourly_oat": [
        26,
        27,
        29,
        30,
        32,
        33,
        33,
        33,
        32,
        31,
        28,
        28,
        28,
        27,
        27,
        27,
        26,
        26,
        26,
        26,
        26,
        26,
        25,
        25,
        26
      ]
    },
    "SIN": {
      "icao": "WSSS",
      "issued": "2026-07-05T17:00:00.000Z",
      "raw": "TAF WSSS 051700Z 0518/0700 16006KT 9999 FEW015 SCT020",
      "groups": [
        {
          "text": "TAF WSSS 051700Z 0518/0700 16006KT 9999 FEW015 SCT020",
          "offset_h": -4,
          "wdir": 160,
          "wspd": 6
        }
      ],
      "metar_raw": "METAR WSSS 052230Z 28003KT 200V320 8000 FEW015 FEW018TCU BKN140 28/25 Q1011 NOSIG",
      "metar_wdir": 280,
      "metar_wspd": 3,
      "metar_oat": 28,
      "metar_qnh": 1011,
      "hourly_oat": [
        26,
        26,
        27,
        28,
        29,
        29,
        29,
        30,
        30,
        29,
        29,
        29,
        29,
        29,
        28,
        28,
        28,
        28,
        28,
        28,
        27,
        27,
        25,
        25,
        26
      ]
    },
    "TPE": {
      "icao": "RCTP",
      "issued": "2026-07-05T17:00:00.000Z",
      "raw": "TAF RCTP 051700Z 0518/0624 21005KT 9999 FEW015 BKN032 BECMG 0600/0602 25010KT TEMPO 0604/0608 29015KT TEMPO 0608/0612 FEW012 FEW015TCU BKN022 BKN050 BECMG 0612/0614 21005KT",
      "groups": [
        {
          "text": "TAF RCTP 051700Z 0518/0624 21005KT 9999 FEW015 BKN032",
          "offset_h": -4,
          "wdir": 210,
          "wspd": 5
        },
        {
          "text": "BECMG 0600/0602 25010KT",
          "offset_h": 2,
          "wdir": 250,
          "wspd": 10
        },
        {
          "text": "TEMPO 0604/0608 29015KT",
          "offset_h": 6,
          "wdir": 290,
          "wspd": 15
        },
        {
          "text": "TEMPO 0608/0612 FEW012 FEW015TCU BKN022 BKN050",
          "offset_h": 10,
          "wdir": null,
          "wspd": null
        },
        {
          "text": "BECMG 0612/0614 21005KT",
          "offset_h": 14,
          "wdir": 210,
          "wspd": 5
        }
      ],
      "metar_raw": "METAR RCTP 052230Z 22010KT 9999 FEW015 SCT200 29/25 Q1011 NOSIG RMK A2986",
      "metar_wdir": 220,
      "metar_wspd": 10,
      "metar_oat": 29,
      "metar_qnh": 1011,
      "hourly_oat": [
        26,
        28,
        29,
        30,
        31,
        31,
        31,
        31,
        30,
        30,
        30,
        30,
        30,
        29,
        28,
        28,
        27,
        27,
        27,
        27,
        27,
        26,
        26,
        26,
        26
      ]
    },
    "GMP": {
      "icao": "RKSS",
      "issued": "2026-07-05T17:00:00.000Z",
      "raw": "TAF RKSS 051700Z 0518/0624 16005KT 6000 FEW010 BKN030 OVC080 TN23/0520Z TX29/0603Z TN25/0620Z TEMPO 0519/0521 4000 BR BECMG 0602/0604 21008KT -RA BECMG 0609/0611 18007KT NSW BECMG 0619/0621 4000 BR BECMG 0622/0624 6000 -RA",
      "groups": [
        {
          "text": "TAF RKSS 051700Z 0518/0624 16005KT 6000 FEW010 BKN030 OVC080 TN23/0520Z TX29/0603Z TN25/0620Z",
          "offset_h": -4,
          "wdir": 160,
          "wspd": 5
        },
        {
          "text": "TEMPO 0519/0521 4000 BR",
          "offset_h": -3,
          "wdir": null,
          "wspd": null
        },
        {
          "text": "BECMG 0602/0604 21008KT -RA",
          "offset_h": 4,
          "wdir": 210,
          "wspd": 8
        },
        {
          "text": "BECMG 0609/0611 18007KT NSW",
          "offset_h": 11,
          "wdir": 180,
          "wspd": 7
        },
        {
          "text": "BECMG 0619/0621 4000 BR",
          "offset_h": 21,
          "wdir": null,
          "wspd": null
        },
        {
          "text": "BECMG 0622/0624 6000 -RA",
          "offset_h": 24,
          "wdir": null,
          "wspd": null
        }
      ],
      "metar_raw": "METAR RKSS 052200Z 14007KT 9999 SCT018 BKN040 26/25 Q1004 NOSIG",
      "metar_wdir": 140,
      "metar_wspd": 7,
      "metar_oat": 26,
      "metar_qnh": 1004,
      "hourly_oat": [
        24,
        24,
        24,
        25,
        26,
        26,
        27,
        26,
        26,
        26,
        26,
        25,
        25,
        24,
        24,
        24,
        24,
        24,
        24,
        24,
        24,
        24,
        24,
        24,
        24
      ]
    }
  }
}