{
  "updated": "2026-06-05T22:46:50Z",
  "tafs": {
    "PEK": {
      "icao": "ZBAA",
      "issued": "2026-06-05T21:51:00.000Z",
      "raw": "TAF AMD ZBAA 052151Z 0600/0706 35003MPS 2800 -SHRA BR BKN040 TX19/0607Z TX25/0706Z TN13/0621Z TEMPO 0600/0603 SHRA BECMG 0608/0609 5000 BR",
      "groups": [
        {
          "text": "TAF AMD ZBAA 052151Z 0600/0706 35003MPS 2800 -SHRA BR BKN040 TX19/0607Z TX25/0706Z TN13/0621Z",
          "offset_h": 2,
          "wdir": null,
          "wspd": null
        },
        {
          "text": "TEMPO 0600/0603 SHRA",
          "offset_h": 2,
          "wdir": null,
          "wspd": null
        },
        {
          "text": "BECMG 0608/0609 5000 BR",
          "offset_h": 10,
          "wdir": null,
          "wspd": null
        }
      ],
      "metar_raw": "METAR ZBAA 052230Z 32004MPS 290V360 8000 -SHRA FEW010 17/16 Q1010 RETS NOSIG",
      "metar_wdir": null,
      "metar_wspd": null,
      "metar_oat": 17,
      "metar_qnh": 1010,
      "hourly_oat": [
        16,
        16,
        16,
        17,
        16,
        16,
        17,
        17,
        17,
        18,
        18,
        18,
        18,
        17,
        16,
        15,
        14,
        14,
        13,
        12,
        12,
        11,
        11,
        11,
        12
      ]
    },
    "DLC": {
      "icao": "ZYTL",
      "issued": "2026-06-05T21:13:00.000Z",
      "raw": "TAF ZYTL 052113Z 0600/0624 11004MPS 3000 -SHRA BR SCT010 BKN026 TX20/0606Z TN15/0621Z TEMPO 0602/0606 2000 RA BR SCT004 SCT007 BKN010 BECMG 0618/0619 2800 BECMG 0619/0620 4000 BR",
      "groups": [
        {
          "text": "TAF ZYTL 052113Z 0600/0624 11004MPS 3000 -SHRA BR SCT010 BKN026 TX20/0606Z TN15/0621Z",
          "offset_h": 2,
          "wdir": null,
          "wspd": null
        },
        {
          "text": "TEMPO 0602/0606 2000 RA BR SCT004 SCT007 BKN010",
          "offset_h": 4,
          "wdir": null,
          "wspd": null
        },
        {
          "text": "BECMG 0618/0619 2800",
          "offset_h": 20,
          "wdir": null,
          "wspd": null
        },
        {
          "text": "BECMG 0619/0620 4000 BR",
          "offset_h": 21,
          "wdir": null,
          "wspd": null
        }
      ],
      "metar_raw": "METAR ZYTL 052230Z 15001MPS CAVOK 18/09 Q1012 NOSIG",
      "metar_wdir": null,
      "metar_wspd": null,
      "metar_oat": 18,
      "metar_qnh": 1012,
      "hourly_oat": [
        17,
        18,
        18,
        17,
        17,
        16,
        16,
        17,
        17,
        18,
        17,
        17,
        17,
        16,
        16,
        16,
        15,
        15,
        15,
        15,
        15,
        15,
        15,
        16,
        16
      ]
    },
    "SHA": {
      "icao": "ZSSS",
      "issued": "2026-06-05T21:09:00.000Z",
      "raw": "TAF ZSSS 052109Z 0600/0706 13004MPS 8000 BKN030 TX29/0606Z TX28/0706Z TN20/0621Z BECMG 0614/0615 05004MPS",
      "groups": [
        {
          "text": "TAF ZSSS 052109Z 0600/0706 13004MPS 8000 BKN030 TX29/0606Z TX28/0706Z TN20/0621Z",
          "offset_h": 2,
          "wdir": null,
          "wspd": null
        },
        {
          "text": "BECMG 0614/0615 05004MPS",
          "offset_h": 16,
          "wdir": null,
          "wspd": null
        }
      ],
      "metar_raw": "METAR ZSSS 052230Z 12004MPS CAVOK 22/17 Q1009 NOSIG",
      "metar_wdir": null,
      "metar_wspd": null,
      "metar_oat": 22,
      "metar_qnh": 1009,
      "hourly_oat": [
        20,
        21,
        23,
        24,
        26,
        26,
        26,
        26,
        26,
        25,
        25,
        25,
        24,
        22,
        21,
        21,
        20,
        20,
        19,
        19,
        18,
        18,
        18,
        17,
        18
      ]
    },
    "LAX": {
      "icao": "KLAX",
      "issued": "2026-06-05T21:08:00.000Z",
      "raw": "TAF KLAX 052108Z 0521/0624 26008KT P6SM BKN015 FM052200 26012KT P6SM SCT015 FM060100 26008KT P6SM BKN012 FM060400 VRB03KT P6SM OVC008 FM061400 VRB03KT P6SM OVC010 FM061700 25007KT P6SM OVC015 FM062200 26012KT P6SM SCT015",
      "groups": [
        {
          "text": "TAF KLAX 052108Z 0521/0624 26008KT P6SM BKN015",
          "offset_h": -1,
          "wdir": 260,
          "wspd": 8
        },
        {
          "text": "FM052200 26012KT P6SM SCT015",
          "offset_h": 0,
          "wdir": 260,
          "wspd": 12
        },
        {
          "text": "FM060100 26008KT P6SM BKN012",
          "offset_h": 3,
          "wdir": 260,
          "wspd": 8
        },
        {
          "text": "FM060400 VRB03KT P6SM OVC008",
          "offset_h": 6,
          "wdir": "VRB",
          "wspd": 3
        },
        {
          "text": "FM061400 VRB03KT P6SM OVC010",
          "offset_h": 16,
          "wdir": "VRB",
          "wspd": 3
        },
        {
          "text": "FM061700 25007KT P6SM OVC015",
          "offset_h": 19,
          "wdir": 250,
          "wspd": 7
        },
        {
          "text": "FM062200 26012KT P6SM SCT015",
          "offset_h": 24,
          "wdir": 260,
          "wspd": 12
        }
      ],
      "metar_raw": "METAR KLAX 052153Z 26010KT 10SM FEW011 SCT016 21/16 A2986 RMK AO2 SLP111 T02060156 $",
      "metar_wdir": 260,
      "metar_wspd": 10,
      "metar_oat": 21,
      "metar_qnh": 1011,
      "hourly_oat": [
        19,
        20,
        20,
        19,
        18,
        17,
        16,
        16,
        16,
        17,
        16,
        16,
        17,
        16,
        16,
        16,
        17,
        17,
        18,
        19,
        20,
        20,
        21,
        21,
        21
      ]
    },
    "PVG": {
      "icao": "ZSPD",
      "issued": "2026-06-05T21:08:00.000Z",
      "raw": "TAF ZSPD 052108Z 0600/0706 12004MPS 8000 BKN030 TX26/0606Z TX27/0706Z TN20/0621Z BECMG 0613/0614 05004MPS",
      "groups": [
        {
          "text": "TAF ZSPD 052108Z 0600/0706 12004MPS 8000 BKN030 TX26/0606Z TX27/0706Z TN20/0621Z",
          "offset_h": 2,
          "wdir": null,
          "wspd": null
        },
        {
          "text": "BECMG 0613/0614 05004MPS",
          "offset_h": 15,
          "wdir": null,
          "wspd": null
        }
      ],
      "metar_raw": "METAR ZSPD 052230Z 12003MPS CAVOK 22/19 Q1009 NOSIG",
      "metar_wdir": null,
      "metar_wspd": null,
      "metar_oat": 22,
      "metar_qnh": 1009,
      "hourly_oat": [
        22,
        22,
        23,
        24,
        25,
        25,
        24,
        24,
        24,
        24,
        23,
        23,
        23,
        22,
        21,
        21,
        20,
        20,
        20,
        20,
        19,
        19,
        19,
        18,
        20
      ]
    },
    "CAN": {
      "icao": "ZGGG",
      "issued": "2026-06-05T21:06:00.000Z",
      "raw": "TAF ZGGG 052106Z 0600/0706 18003MPS 8000 BKN033 TX34/0607Z TX30/0706Z TN27/0622Z TEMPO 0606/0610 2500 +TSRA SCT026CB BKN030 TEMPO 0619/0623 TSRA FEW026CB BKN030",
      "groups": [
        {
          "text": "TAF ZGGG 052106Z 0600/0706 18003MPS 8000 BKN033 TX34/0607Z TX30/0706Z TN27/0622Z",
          "offset_h": 2,
          "wdir": null,
          "wspd": null
        },
        {
          "text": "TEMPO 0606/0610 2500 +TSRA SCT026CB BKN030",
          "offset_h": 8,
          "wdir": null,
          "wspd": null
        },
        {
          "text": "TEMPO 0619/0623 TSRA FEW026CB BKN030",
          "offset_h": 21,
          "wdir": null,
          "wspd": null
        }
      ],
      "metar_raw": "METAR ZGGG 052230Z 01003MPS 320V030 9999 FEW013 BKN040 27/26 Q1005 NOSIG",
      "metar_wdir": null,
      "metar_wspd": null,
      "metar_oat": 27,
      "metar_qnh": 1005,
      "hourly_oat": [
        27,
        28,
        29,
        30,
        31,
        32,
        33,
        32,
        30,
        28,
        28,
        29,
        29,
        29,
        28,
        28,
        27,
        27,
        27,
        27,
        26,
        26,
        25,
        25,
        25
      ]
    },
    "HNL": {
      "icao": "PHNL",
      "issued": "2026-06-05T20:53:00.000Z",
      "raw": "TAF PHNL 052053Z 0521/0624 06015G25KT P6SM FEW025 SCT040 FM060800 06011KT P6SM FEW025 SCT040 FM062000 06015G25KT P6SM FEW025 SCT040",
      "groups": [
        {
          "text": "TAF PHNL 052053Z 0521/0624 06015G25KT P6SM FEW025 SCT040",
          "offset_h": -1,
          "wdir": 60,
          "wspd": 15
        },
        {
          "text": "FM060800 06011KT P6SM FEW025 SCT040",
          "offset_h": 10,
          "wdir": 60,
          "wspd": 11
        },
        {
          "text": "FM062000 06015G25KT P6SM FEW025 SCT040",
          "offset_h": 22,
          "wdir": 60,
          "wspd": 15
        }
      ],
      "metar_raw": "METAR PHNL 052153Z 06013G26KT 10SM FEW025 FEW050 29/18 A3014 RMK AO2 PK WND 05026/2136 SLP207 T02890178 $",
      "metar_wdir": 60,
      "metar_wspd": 13,
      "metar_oat": 29,
      "metar_qnh": 1021,
      "hourly_oat": [
        27,
        27,
        27,
        27,
        26,
        25,
        24,
        23,
        23,
        23,
        22,
        22,
        22,
        22,
        22,
        22,
        22,
        22,
        22,
        24,
        25,
        26,
        26,
        27,
        27
      ]
    },
    "OKA": {
      "icao": "ROAH",
      "issued": "2026-06-05T20:32:00.000Z",
      "raw": "TAF AMD ROAH 052032Z 0520/0700 17018KT 8000 FEW005 BKN008 TEMPO 0520/0600 4000 -SHRA BR FEW001 BKN003 BECMG 0600/0601 FEW005 BKN010 TEMPO 0600/0603 FEW003 BKN005 TEMPO 0603/0612 FEW005 BKN008 TEMPO 0612/0618 3000 TSRA BR FEW001 BKN003 FEW015CB TEMPO 0618/0700 3000 -SHRA BR FEW001 BKN003",
      "groups": [
        {
          "text": "TAF AMD ROAH 052032Z 0520/0700 17018KT 8000 FEW005 BKN008",
          "offset_h": -2,
          "wdir": 170,
          "wspd": 18
        },
        {
          "text": "TEMPO 0520/0600 4000 -SHRA BR FEW001 BKN003",
          "offset_h": -2,
          "wdir": null,
          "wspd": null
        },
        {
          "text": "BECMG 0600/0601 FEW005 BKN010",
          "offset_h": 2,
          "wdir": null,
          "wspd": null
        },
        {
          "text": "TEMPO 0600/0603 FEW003 BKN005",
          "offset_h": 2,
          "wdir": null,
          "wspd": null
        },
        {
          "text": "TEMPO 0603/0612 FEW005 BKN008",
          "offset_h": 5,
          "wdir": null,
          "wspd": null
        },
        {
          "text": "TEMPO 0612/0618 3000 TSRA BR FEW001 BKN003 FEW015CB",
          "offset_h": 14,
          "wdir": null,
          "wspd": null
        },
        {
          "text": "TEMPO 0618/0700 3000 -SHRA BR FEW001 BKN003",
          "offset_h": 20,
          "wdir": null,
          "wspd": null
        }
      ],
      "metar_raw": "METAR ROAH 052230Z 17015KT 9000 SCT005 BKN007 BKN180 27/26 Q1007",
      "metar_wdir": 170,
      "metar_wspd": 15,
      "metar_oat": 27,
      "metar_qnh": 1007,
      "hourly_oat": [
        26,
        27,
        28,
        28,
        28,
        28,
        27,
        27,
        28,
        28,
        27,
        26,
        26,
        26,
        26,
        26,
        26,
        26,
        26,
        26,
        26,
        25,
        25,
        25,
        25
      ]
    },
    "SAN": {
      "icao": "KSAN",
      "issued": "2026-06-05T20:25:00.000Z",
      "raw": "TAF KSAN 052025Z 0520/0624 23009KT P6SM BKN015 TEMPO 0522/0524 SCT015 FM060300 VRB04KT P6SM OVC018 FM061600 21007KT P6SM BKN022",
      "groups": [
        {
          "text": "TAF KSAN 052025Z 0520/0624 23009KT P6SM BKN015",
          "offset_h": -2,
          "wdir": 230,
          "wspd": 9
        },
        {
          "text": "TEMPO 0522/0524 SCT015",
          "offset_h": 0,
          "wdir": null,
          "wspd": null
        },
        {
          "text": "FM060300 VRB04KT P6SM OVC018",
          "offset_h": 5,
          "wdir": "VRB",
          "wspd": 4
        },
        {
          "text": "FM061600 21007KT P6SM BKN022",
          "offset_h": 18,
          "wdir": 210,
          "wspd": 7
        }
      ],
      "metar_raw": "METAR KSAN 052151Z 20006KT 10SM BKN017 20/14 A2989 RMK AO2 SLP121 T02000144 $",
      "metar_wdir": 200,
      "metar_wspd": 6,
      "metar_oat": 20,
      "metar_qnh": 1012,
      "hourly_oat": [
        20,
        20,
        20,
        19,
        18,
        17,
        17,
        17,
        17,
        17,
        17,
        16,
        16,
        16,
        16,
        16,
        16,
        17,
        17,
        18,
        19,
        20,
        19,
        19,
        19
      ]
    },
    "HKG": {
      "icao": "VHHH",
      "issued": "2026-06-05T20:00:00.000Z",
      "raw": "TAF VHHH 052000Z 0521/0703 24010KT 9999 FEW015 SCT025 TX34/0606Z TN28/0523Z TN28/0623Z TEMPO 0523/0606 4000 SHRA FEW010CB SCT020 TEMPO 0606/0609 VRB15G25KT 2500 TSRA SHRA FEW008CB SCT020 PROB30 TEMPO 0612/0618 VRB15G25KT 2500 TSRA SHRA FEW008CB SCT020",
      "groups": [
        {
          "text": "TAF VHHH 052000Z 0521/0703 24010KT 9999 FEW015 SCT025 TX34/0606Z TN28/0523Z TN28/0623Z",
          "offset_h": -1,
          "wdir": 240,
          "wspd": 10
        },
        {
          "text": "TEMPO 0523/0606 4000 SHRA FEW010CB SCT020",
          "offset_h": 1,
          "wdir": null,
          "wspd": null
        },
        {
          "text": "TEMPO 0606/0609 VRB15G25KT 2500 TSRA SHRA FEW008CB SCT020",
          "offset_h": 8,
          "wdir": "VRB",
          "wspd": 15
        },
        {
          "text": "PROB30",
          "offset_h": 0,
          "wdir": null,
          "wspd": null
        },
        {
          "text": "TEMPO 0612/0618 VRB15G25KT 2500 TSRA SHRA FEW008CB SCT020",
          "offset_h": 14,
          "wdir": "VRB",
          "wspd": 15
        }
      ],
      "metar_raw": "METAR VHHH 052230Z 19004KT 120V210 9999 FEW012 31/26 Q1005 NOSIG",
      "metar_wdir": 190,
      "metar_wspd": 4,
      "metar_oat": 31,
      "metar_qnh": 1005,
      "hourly_oat": [
        28,
        29,
        28,
        29,
        30,
        28,
        28,
        28,
        29,
        29,
        29,
        30,
        29,
        29,
        28,
        28,
        29,
        28,
        27,
        27,
        27,
        27,
        27,
        28,
        27
      ]
    },
    "FUK": {
      "icao": "RJFF",
      "issued": "2026-06-05T17:05:00.000Z",
      "raw": "TAF RJFF 051705Z 0518/0700 14004KT 9999 FEW007 BECMG 0600/0602 32011KT BECMG 0609/0612 10004KT TEMPO 0618/0700 3000 SHRA BR",
      "groups": [
        {
          "text": "TAF RJFF 051705Z 0518/0700 14004KT 9999 FEW007",
          "offset_h": -4,
          "wdir": 140,
          "wspd": 4
        },
        {
          "text": "BECMG 0600/0602 32011KT",
          "offset_h": 2,
          "wdir": 320,
          "wspd": 11
        },
        {
          "text": "BECMG 0609/0612 10004KT",
          "offset_h": 11,
          "wdir": 100,
          "wspd": 4
        },
        {
          "text": "TEMPO 0618/0700 3000 SHRA BR",
          "offset_h": 20,
          "wdir": null,
          "wspd": null
        }
      ],
      "metar_raw": "METAR RJFF 052230Z 18004KT 140V210 9999 FEW005 BKN/// 22/19 Q1012 NOSIG",
      "metar_wdir": 180,
      "metar_wspd": 4,
      "metar_oat": 22,
      "metar_qnh": 1012,
      "hourly_oat": [
        19,
        21,
        23,
        25,
        25,
        26,
        27,
        27,
        27,
        27,
        27,
        27,
        26,
        25,
        24,
        24,
        24,
        23,
        23,
        23,
        23,
        23,
        23,
        23,
        23
      ]
    },
    "CTS": {
      "icao": "RJCC",
      "issued": "2026-06-05T17:05:00.000Z",
      "raw": "TAF RJCC 051705Z 0518/0700 16016KT 9999 FEW012 BKN020 BECMG 0615/0618 19005KT TEMPO 0618/0700 FEW003 BKN008",
      "groups": [
        {
          "text": "TAF RJCC 051705Z 0518/0700 16016KT 9999 FEW012 BKN020",
          "offset_h": -4,
          "wdir": 160,
          "wspd": 16
        },
        {
          "text": "BECMG 0615/0618 19005KT",
          "offset_h": 17,
          "wdir": 190,
          "wspd": 5
        },
        {
          "text": "TEMPO 0618/0700 FEW003 BKN008",
          "offset_h": 20,
          "wdir": null,
          "wspd": null
        }
      ],
      "metar_raw": "METAR RJCC 052230Z 18018KT 9999 FEW015 BKN020 BKN/// 12/06 Q1019",
      "metar_wdir": 180,
      "metar_wspd": 18,
      "metar_oat": 12,
      "metar_qnh": 1019,
      "hourly_oat": [
        11,
        11,
        12,
        12,
        11,
        13,
        15,
        14,
        12,
        13,
        12,
        11,
        11,
        11,
        10,
        10,
        10,
        10,
        10,
        10,
        10,
        10,
        10,
        11,
        11
      ]
    },
    "NRT": {
      "icao": "RJAA",
      "issued": "2026-06-05T17:05:00.000Z",
      "raw": "TAF RJAA 051705Z 0518/0700 02012KT 9999 FEW008 BKN015 TEMPO 0518/0521 FEW002 BKN005 TEMPO 0521/0600 FEW003 BKN008 TEMPO 0615/0618 FEW003 BKN008 TEMPO 0618/0700 FEW001 BKN005",
      "groups": [
        {
          "text": "TAF RJAA 051705Z 0518/0700 02012KT 9999 FEW008 BKN015",
          "offset_h": -4,
          "wdir": 20,
          "wspd": 12
        },
        {
          "text": "TEMPO 0518/0521 FEW002 BKN005",
          "offset_h": -4,
          "wdir": null,
          "wspd": null
        },
        {
          "text": "TEMPO 0521/0600 FEW003 BKN008",
          "offset_h": -1,
          "wdir": null,
          "wspd": null
        },
        {
          "text": "TEMPO 0615/0618 FEW003 BKN008",
          "offset_h": 17,
          "wdir": null,
          "wspd": null
        },
        {
          "text": "TEMPO 0618/0700 FEW001 BKN005",
          "offset_h": 20,
          "wdir": null,
          "wspd": null
        }
      ],
      "metar_raw": "METAR RJAA 052230Z 02013KT 9999 -SHRA BKN008 15/12 Q1017 BECMG FEW008 BKN012",
      "metar_wdir": 20,
      "metar_wspd": 13,
      "metar_oat": 15,
      "metar_qnh": 1017,
      "hourly_oat": [
        17,
        17,
        18,
        19,
        20,
        21,
        21,
        21,
        22,
        22,
        21,
        20,
        19,
        18,
        18,
        17,
        17,
        17,
        17,
        16,
        16,
        16,
        17,
        17,
        18
      ]
    },
    "KIX": {
      "icao": "RJBB",
      "issued": "2026-06-05T17:05:00.000Z",
      "raw": "TAF RJBB 051705Z 0518/0700 03006KT 9999 FEW030 SCT040 BECMG 0602/0604 26010KT BECMG 0612/0615 09006KT",
      "groups": [
        {
          "text": "TAF RJBB 051705Z 0518/0700 03006KT 9999 FEW030 SCT040",
          "offset_h": -4,
          "wdir": 30,
          "wspd": 6
        },
        {
          "text": "BECMG 0602/0604 26010KT",
          "offset_h": 4,
          "wdir": 260,
          "wspd": 10
        },
        {
          "text": "BECMG 0612/0615 09006KT",
          "offset_h": 14,
          "wdir": 90,
          "wspd": 6
        }
      ],
      "metar_raw": "METAR RJBB 052230Z 08005KT 9999 FEW030 SCT080 BKN/// 22/18 Q1014 NOSIG",
      "metar_wdir": 80,
      "metar_wspd": 5,
      "metar_oat": 22,
      "metar_qnh": 1014,
      "hourly_oat": [
        20,
        20,
        20,
        21,
        21,
        21,
        22,
        22,
        22,
        23,
        23,
        23,
        23,
        23,
        22,
        22,
        22,
        22,
        22,
        22,
        22,
        22,
        22,
        21,
        21
      ]
    },
    "HND": {
      "icao": "RJTT",
      "issued": "2026-06-05T17:05:00.000Z",
      "raw": "TAF RJTT 051705Z 0518/0700 01012KT 9999 FEW010 BKN015 BECMG 0602/0604 09006KT",
      "groups": [
        {
          "text": "TAF RJTT 051705Z 0518/0700 01012KT 9999 FEW010 BKN015",
          "offset_h": -4,
          "wdir": 10,
          "wspd": 12
        },
        {
          "text": "BECMG 0602/0604 09006KT",
          "offset_h": 4,
          "wdir": 90,
          "wspd": 6
        }
      ],
      "metar_raw": "METAR RJTT 052230Z 03013KT 9999 FEW010 BKN070 17/13 Q1017 NOSIG",
      "metar_wdir": 30,
      "metar_wspd": 13,
      "metar_oat": 17,
      "metar_qnh": 1017,
      "hourly_oat": [
        17,
        17,
        18,
        19,
        20,
        21,
        21,
        22,
        23,
        23,
        23,
        23,
        22,
        21,
        21,
        20,
        20,
        20,
        19,
        19,
        18,
        18,
        18,
        18,
        19
      ]
    },
    "ITM": {
      "icao": "RJOO",
      "issued": "2026-06-05T17:05:00.000Z",
      "raw": "TAF RJOO 051705Z 0518/0700 08006KT 9999 FEW030 SCT040 BECMG 0606/0609 29006KT BECMG 0618/0621 08010KT",
      "groups": [
        {
          "text": "TAF RJOO 051705Z 0518/0700 08006KT 9999 FEW030 SCT040",
          "offset_h": -4,
          "wdir": 80,
          "wspd": 6
        },
        {
          "text": "BECMG 0606/0609 29006KT",
          "offset_h": 8,
          "wdir": 290,
          "wspd": 6
        },
        {
          "text": "BECMG 0618/0621 08010KT",
          "offset_h": 20,
          "wdir": 80,
          "wspd": 10
        }
      ],
      "metar_raw": "METAR RJOO 052200Z 07006KT 040V110 9999 FEW020 SCT090 BKN/// 22/15 Q1014",
      "metar_wdir": 70,
      "metar_wspd": 6,
      "metar_oat": 22,
      "metar_qnh": 1014,
      "hourly_oat": [
        19,
        21,
        22,
        24,
        25,
        26,
        26,
        27,
        26,
        25,
        25,
        24,
        23,
        23,
        22,
        22,
        22,
        21,
        21,
        21,
        20,
        20,
        20,
        20,
        21
      ]
    },
    "NGO": {
      "icao": "RJGG",
      "issued": "2026-06-05T17:05:00.000Z",
      "raw": "TAF RJGG 051705Z 0518/0700 14006KT 9999 FEW015 BKN030",
      "groups": [
        {
          "text": "TAF RJGG 051705Z 0518/0700 14006KT 9999 FEW015 BKN030",
          "offset_h": -4,
          "wdir": 140,
          "wspd": 6
        }
      ],
      "metar_raw": "METAR RJGG 052230Z 17009KT 9999 FEW010 SCT025 BKN050 21/18 Q1015 NOSIG",
      "metar_wdir": 170,
      "metar_wspd": 9,
      "metar_oat": 21,
      "metar_qnh": 1015,
      "hourly_oat": [
        20,
        21,
        21,
        21,
        21,
        22,
        22,
        22,
        22,
        22,
        22,
        21,
        21,
        21,
        21,
        21,
        21,
        21,
        21,
        21,
        21,
        20,
        20,
        20,
        20
      ]
    },
    "GMP": {
      "icao": "RKSS",
      "issued": "2026-06-05T17:00:00.000Z",
      "raw": "TAF RKSS 051700Z 0518/0624 06005KT CAVOK TN14/0520Z TX29/0606Z TN17/0620Z BECMG 0602/0604 29007KT BECMG 0610/0612 09005KT",
      "groups": [
        {
          "text": "TAF RKSS 051700Z 0518/0624 06005KT CAVOK TN14/0520Z TX29/0606Z TN17/0620Z",
          "offset_h": -4,
          "wdir": 60,
          "wspd": 5
        },
        {
          "text": "BECMG 0602/0604 29007KT",
          "offset_h": 4,
          "wdir": 290,
          "wspd": 7
        },
        {
          "text": "BECMG 0610/0612 09005KT",
          "offset_h": 12,
          "wdir": 90,
          "wspd": 5
        }
      ],
      "metar_raw": "METAR RKSS 052200Z 15002KT 6000 NSC 17/17 Q1014 NOSIG",
      "metar_wdir": 150,
      "metar_wspd": 2,
      "metar_oat": 17,
      "metar_qnh": 1014,
      "hourly_oat": [
        14,
        16,
        19,
        21,
        23,
        25,
        26,
        26,
        26,
        26,
        24,
        22,
        21,
        20,
        20,
        19,
        18,
        19,
        19,
        18,
        18,
        18,
        18,
        17,
        18
      ]
    },
    "SGN": {
      "icao": "VVTS",
      "issued": "2026-06-05T17:00:00.000Z",
      "raw": "TAF VVTS 051700Z 0518/0624 22008KT 9999 SCT017 TEMPO 0607/0610 22015G28KT 4000 TSRA SCT015 FEW017CB",
      "groups": [
        {
          "text": "TAF VVTS 051700Z 0518/0624 22008KT 9999 SCT017",
          "offset_h": -4,
          "wdir": 220,
          "wspd": 8
        },
        {
          "text": "TEMPO 0607/0610 22015G28KT 4000 TSRA SCT015 FEW017CB",
          "offset_h": 9,
          "wdir": 220,
          "wspd": 15
        }
      ],
      "metar_raw": "METAR VVTS 052230Z 21006KT CAVOK 28/27 Q1010 NOSIG",
      "metar_wdir": 210,
      "metar_wspd": 6,
      "metar_oat": 28,
      "metar_qnh": 1010,
      "hourly_oat": [
        26,
        26,
        28,
        29,
        30,
        32,
        33,
        33,
        34,
        33,
        33,
        31,
        28,
        28,
        27,
        27,
        27,
        27,
        27,
        27,
        27,
        26,
        26,
        26,
        25
      ]
    },
    "CGK": {
      "icao": "WIII",
      "issued": "2026-06-05T17:00:00.000Z",
      "raw": "TAF WIII 051700Z 0518/0700 VRB02KT 5000 HZ FEW020 BECMG 0601/0603 02015KT 9000 NSW",
      "groups": [
        {
          "text": "TAF WIII 051700Z 0518/0700 VRB02KT 5000 HZ FEW020",
          "offset_h": -4,
          "wdir": "VRB",
          "wspd": 2
        },
        {
          "text": "BECMG 0601/0603 02015KT 9000 NSW",
          "offset_h": 3,
          "wdir": 20,
          "wspd": 15
        }
      ],
      "metar_raw": "METAR WIII 052230Z 16005KT 7000 SCT020 28/25 Q1011 NOSIG",
      "metar_wdir": 160,
      "metar_wspd": 5,
      "metar_oat": 28,
      "metar_qnh": 1011,
      "hourly_oat": [
        26,
        26,
        26,
        28,
        30,
        31,
        32,
        34,
        34,
        34,
        34,
        32,
        31,
        30,
        29,
        28,
        28,
        27,
        27,
        26,
        26,
        26,
        25,
        25,
        25
      ]
    },
    "HAN": {
      "icao": "VVNB",
      "issued": "2026-06-05T17:00:00.000Z",
      "raw": "TAF VVNB 051700Z 0518/0618 06006KT 6000 FEW020 PROB40 TEMPO 0610/0614 24015G25KT 3000 +TSRA SCT010 FEW027CB",
      "groups": [
        {
          "text": "TAF VVNB 051700Z 0518/0618 06006KT 6000 FEW020",
          "offset_h": -4,
          "wdir": 60,
          "wspd": 6
        },
        {
          "text": "PROB40",
          "offset_h": 0,
          "wdir": null,
          "wspd": null
        },
        {
          "text": "TEMPO 0610/0614 24015G25KT 3000 +TSRA SCT010 FEW027CB",
          "offset_h": 12,
          "wdir": 240,
          "wspd": 15
        }
      ],
      "metar_raw": "METAR VVNB 052230Z VRB02KT 4800 BR NSC 28/27 Q1003 NOSIG",
      "metar_wdir": "VRB",
      "metar_wspd": 2,
      "metar_oat": 28,
      "metar_qnh": 1003,
      "hourly_oat": [
        27,
        27,
        29,
        30,
        31,
        32,
        33,
        34,
        34,
        34,
        35,
        34,
        33,
        32,
        31,
        31,
        30,
        30,
        30,
        30,
        30,
        29,
        29,
        28,
        28
      ]
    },
    "KUL": {
      "icao": "WMKK",
      "issued": "2026-06-05T17:00:00.000Z",
      "raw": "TAF WMKK 051700Z 0518/0700 VRB03KT 9000 FEW030 PROB30 TEMPO 0519/0523 5000 TSRA FEW017CB",
      "groups": [
        {
          "text": "TAF WMKK 051700Z 0518/0700 VRB03KT 9000 FEW030",
          "offset_h": -4,
          "wdir": "VRB",
          "wspd": 3
        },
        {
          "text": "PROB30",
          "offset_h": 0,
          "wdir": null,
          "wspd": null
        },
        {
          "text": "TEMPO 0519/0523 5000 TSRA FEW017CB",
          "offset_h": -3,
          "wdir": null,
          "wspd": null
        }
      ],
      "metar_raw": "METAR WMKK 052230Z VRB01KT 9000 FEW017CB 28/25 Q1010 NOSIG",
      "metar_wdir": "VRB",
      "metar_wspd": 1,
      "metar_oat": 28,
      "metar_qnh": 1010,
      "hourly_oat": [
        24,
        24,
        24,
        26,
        28,
        30,
        31,
        32,
        32,
        32,
        30,
        31,
        31,
        30,
        28,
        27,
        25,
        25,
        24,
        24,
        24,
        24,
        24,
        24,
        24
      ]
    },
    "BKK": {
      "icao": "VTBS",
      "issued": "2026-06-05T17:00:00.000Z",
      "raw": "TAF VTBS 051700Z 0518/0624 20010KT 9999 FEW020 TEMPO 0608/0612 VRB15KT 4000 TSRA FEW018CB SCT020 BKN080",
      "groups": [
        {
          "text": "TAF VTBS 051700Z 0518/0624 20010KT 9999 FEW020",
          "offset_h": -4,
          "wdir": 200,
          "wspd": 10
        },
        {
          "text": "TEMPO 0608/0612 VRB15KT 4000 TSRA FEW018CB SCT020 BKN080",
          "offset_h": 10,
          "wdir": "VRB",
          "wspd": 15
        }
      ],
      "metar_raw": "METAR VTBS 052230Z 19009KT 9999 FEW020 29/23 Q1007 NOSIG",
      "metar_wdir": 190,
      "metar_wspd": 9,
      "metar_oat": 29,
      "metar_qnh": 1007,
      "hourly_oat": [
        27,
        28,
        28,
        30,
        31,
        32,
        32,
        32,
        32,
        30,
        31,
        31,
        30,
        29,
        30,
        29,
        29,
        29,
        29,
        29,
        28,
        28,
        28,
        28,
        28
      ]
    },
    "TPE": {
      "icao": "RCTP",
      "issued": "2026-06-05T17:00:00.000Z",
      "raw": "TAF RCTP 051700Z 0518/0624 02010KT 8000 SCT008 BKN016 BKN040 TEMPO 0518/0524 36015KT 5000 RA SCT006 BKN011 BKN030 BECMG 0600/0602 33005KT FEW010 BKN032 TEMPO 0604/0610 26010KT BECMG 0610/0612 21005KT TEMPO 0618/0624 SCT008 BKN016 BKN040",
      "groups": [
        {
          "text": "TAF RCTP 051700Z 0518/0624 02010KT 8000 SCT008 BKN016 BKN040",
          "offset_h": -4,
          "wdir": 20,
          "wspd": 10
        },
        {
          "text": "TEMPO 0518/0524 36015KT 5000 RA SCT006 BKN011 BKN030",
          "offset_h": -4,
          "wdir": 360,
          "wspd": 15
        },
        {
          "text": "BECMG 0600/0602 33005KT FEW010 BKN032",
          "offset_h": 2,
          "wdir": 330,
          "wspd": 5
        },
        {
          "text": "TEMPO 0604/0610 26010KT",
          "offset_h": 6,
          "wdir": 260,
          "wspd": 10
        },
        {
          "text": "BECMG 0610/0612 21005KT",
          "offset_h": 12,
          "wdir": 210,
          "wspd": 5
        },
        {
          "text": "TEMPO 0618/0624 SCT008 BKN016 BKN040",
          "offset_h": 20,
          "wdir": null,
          "wspd": null
        }
      ],
      "metar_raw": "METAR RCTP 052230Z 33009KT 300V360 9999 SCT005 BKN008 BKN015 25/25 Q1006 NOSIG RMK A2971",
      "metar_wdir": 330,
      "metar_wspd": 9,
      "metar_oat": 25,
      "metar_qnh": 1006,
      "hourly_oat": [
        25,
        25,
        26,
        26,
        26,
        26,
        27,
        27,
        28,
        27,
        27,
        26,
        26,
        25,
        25,
        25,
        25,
        25,
        25,
        25,
        25,
        25,
        25,
        25,
        25
      ]
    },
    "TSA": {
      "icao": "RCSS",
      "issued": "2026-06-05T17:00:00.000Z",
      "raw": "TAF RCSS 051700Z 0518/0618 31005KT 8000 FEW010 BKN032 TEMPO 0518/0524 09005KT 5000 SHRA SCT008 FEW015TCU BKN017 BKN040 TEMPO 0604/0610 28010KT BECMG 0610/0612 09005KT",
      "groups": [
        {
          "text": "TAF RCSS 051700Z 0518/0618 31005KT 8000 FEW010 BKN032",
          "offset_h": -4,
          "wdir": 310,
          "wspd": 5
        },
        {
          "text": "TEMPO 0518/0524 09005KT 5000 SHRA SCT008 FEW015TCU BKN017 BKN040",
          "offset_h": -4,
          "wdir": 90,
          "wspd": 5
        },
        {
          "text": "TEMPO 0604/0610 28010KT",
          "offset_h": 6,
          "wdir": 280,
          "wspd": 10
        },
        {
          "text": "BECMG 0610/0612 09005KT",
          "offset_h": 12,
          "wdir": 90,
          "wspd": 5
        }
      ],
      "metar_raw": "METAR RCSS 052230Z 30011KT 260V330 9000 -SHRA SCT005 BKN012 BKN035 26/20 Q1005 NOSIG RMK 31013KT/R10 A2968",
      "metar_wdir": 300,
      "metar_wspd": 11,
      "metar_oat": 26,
      "metar_qnh": 1005,
      "hourly_oat": [
        25,
        26,
        26,
        26,
        27,
        27,
        28,
        28,
        29,
        29,
        28,
        28,
        27,
        26,
        26,
        26,
        25,
        25,
        25,
        25,
        25,
        25,
        25,
        25,
        25
      ]
    },
    "SIN": {
      "icao": "WSSS",
      "issued": "2026-06-05T17:00:00.000Z",
      "raw": "TAF WSSS 051700Z 0518/0700 14008KT 9999 FEW015 SCT020 PROB30 TEMPO 0605/0608 3000 TSRA FEW012CB BKN015",
      "groups": [
        {
          "text": "TAF WSSS 051700Z 0518/0700 14008KT 9999 FEW015 SCT020",
          "offset_h": -4,
          "wdir": 140,
          "wspd": 8
        },
        {
          "text": "PROB30",
          "offset_h": 0,
          "wdir": null,
          "wspd": null
        },
        {
          "text": "TEMPO 0605/0608 3000 TSRA FEW012CB BKN015",
          "offset_h": 7,
          "wdir": null,
          "wspd": null
        }
      ],
      "metar_raw": "METAR WSSS 052230Z 15004KT 9999 FEW016 BKN300 29/26 Q1010 NOSIG",
      "metar_wdir": 150,
      "metar_wspd": 4,
      "metar_oat": 29,
      "metar_qnh": 1010,
      "hourly_oat": [
        30,
        30,
        30,
        26,
        28,
        30,
        31,
        32,
        32,
        32,
        32,
        32,
        31,
        30,
        30,
        30,
        30,
        30,
        29,
        29,
        28,
        26,
        24,
        25,
        25
      ]
    }
  }
}