{
  "updated": "2026-06-21T13:05:22Z",
  "tafs": {
    "HNL": {
      "icao": "PHNL",
      "issued": "2026-06-21T11:39:00.000Z",
      "raw": "TAF PHNL 211139Z 2112/2218 09008KT P6SM FEW020 FM212000 06012G20KT P6SM FEW035 SCT050 FM220600 05007KT P6SM FEW020",
      "groups": [
        {
          "text": "TAF PHNL 211139Z 2112/2218 09008KT P6SM FEW020",
          "offset_h": -1,
          "wdir": 90,
          "wspd": 8
        },
        {
          "text": "FM212000 06012G20KT P6SM FEW035 SCT050",
          "offset_h": 7,
          "wdir": 60,
          "wspd": 12
        },
        {
          "text": "FM220600 05007KT P6SM FEW020",
          "offset_h": 17,
          "wdir": 50,
          "wspd": 7
        }
      ],
      "metar_raw": "METAR PHNL 211253Z 00000KT 10SM FEW023 25/21 A3001 RMK AO2 SLP161 T02500206 $",
      "metar_wdir": 0,
      "metar_wspd": 0,
      "metar_oat": 25,
      "metar_qnh": 1016,
      "hourly_oat": [
        23,
        23,
        23,
        23,
        25,
        26,
        28,
        29,
        30,
        30,
        30,
        30,
        30,
        29,
        28,
        27,
        25,
        24,
        24,
        24,
        24,
        24,
        23,
        23,
        23
      ]
    },
    "LAX": {
      "icao": "KLAX",
      "issued": "2026-06-21T11:20:00.000Z",
      "raw": "TAF KLAX 211120Z 2112/2218 25005KT P6SM SKC FM211900 26012KT P6SM SKC FM220500 VRB03KT P6SM SKC FM220900 VRB03KT P6SM OVC010 FM221700 25006KT P6SM SCT012",
      "groups": [
        {
          "text": "TAF KLAX 211120Z 2112/2218 25005KT P6SM SKC",
          "offset_h": -1,
          "wdir": 250,
          "wspd": 5
        },
        {
          "text": "FM211900 26012KT P6SM SKC",
          "offset_h": 6,
          "wdir": 260,
          "wspd": 12
        },
        {
          "text": "FM220500 VRB03KT P6SM SKC",
          "offset_h": 16,
          "wdir": "VRB",
          "wspd": 3
        },
        {
          "text": "FM220900 VRB03KT P6SM OVC010",
          "offset_h": 20,
          "wdir": "VRB",
          "wspd": 3
        },
        {
          "text": "FM221700 25006KT P6SM SCT012",
          "offset_h": 28,
          "wdir": 250,
          "wspd": 6
        }
      ],
      "metar_raw": "METAR KLAX 211153Z COR 00000KT 10SM SCT015 16/14 A2990 RMK AO2 SLP123 T01560139 10167 20156 55001",
      "metar_wdir": 0,
      "metar_wspd": 0,
      "metar_oat": 16,
      "metar_qnh": 1013,
      "hourly_oat": [
        13,
        15,
        17,
        19,
        21,
        21,
        21,
        21,
        21,
        20,
        20,
        20,
        19,
        18,
        17,
        16,
        16,
        15,
        15,
        15,
        16,
        16,
        16,
        16,
        16
      ]
    },
    "SAN": {
      "icao": "KSAN",
      "issued": "2026-06-21T11:20:00.000Z",
      "raw": "TAF KSAN 211120Z 2112/2218 VRB04KT P6SM BKN020 FM211800 30011KT P6SM FEW026 FM220300 VRB04KT P6SM BKN018",
      "groups": [
        {
          "text": "TAF KSAN 211120Z 2112/2218 VRB04KT P6SM BKN020",
          "offset_h": -1,
          "wdir": "VRB",
          "wspd": 4
        },
        {
          "text": "FM211800 30011KT P6SM FEW026",
          "offset_h": 5,
          "wdir": 300,
          "wspd": 11
        },
        {
          "text": "FM220300 VRB04KT P6SM BKN018",
          "offset_h": 14,
          "wdir": "VRB",
          "wspd": 4
        }
      ],
      "metar_raw": "METAR KSAN 211251Z 27005KT 10SM OVC024 18/12 A2993 RMK AO2 SLP133 T01830122 $",
      "metar_wdir": 270,
      "metar_wspd": 5,
      "metar_oat": 18,
      "metar_qnh": 1014,
      "hourly_oat": [
        18,
        18,
        18,
        18,
        18,
        19,
        20,
        21,
        21,
        22,
        22,
        21,
        20,
        19,
        18,
        18,
        18,
        18,
        18,
        18,
        17,
        16,
        15,
        16,
        16
      ]
    },
    "ITM": {
      "icao": "RJOO",
      "issued": "2026-06-21T11:05:00.000Z",
      "raw": "TAF RJOO 211105Z 2112/2218 32010KT 9999 FEW015 SCT020",
      "groups": [
        {
          "text": "TAF RJOO 211105Z 2112/2218 32010KT 9999 FEW015 SCT020",
          "offset_h": -1,
          "wdir": 320,
          "wspd": 10
        }
      ],
      "metar_raw": "METAR RJOO 211200Z AUTO 26005KT 230V310 9999 FEW049 OVC050 25/18 Q1005",
      "metar_wdir": 260,
      "metar_wspd": 5,
      "metar_oat": 25,
      "metar_qnh": 1005,
      "hourly_oat": [
        24,
        23,
        23,
        22,
        22,
        22,
        22,
        22,
        22,
        23,
        24,
        25,
        26,
        25,
        25,
        25,
        25,
        24,
        24,
        24,
        23,
        23,
        22,
        22,
        21
      ]
    },
    "OKA": {
      "icao": "ROAH",
      "issued": "2026-06-21T11:05:00.000Z",
      "raw": "TAF ROAH 211105Z 2112/2218 18006KT 9999 FEW008 BKN012 TEMPO 2114/2116 FEW005 BKN008 TEMPO 2116/2121 FEW003 BKN005 TEMPO 2121/2200 FEW005 BKN008 TEMPO 2212/2218 FEW005 BKN008",
      "groups": [
        {
          "text": "TAF ROAH 211105Z 2112/2218 18006KT 9999 FEW008 BKN012",
          "offset_h": -1,
          "wdir": 180,
          "wspd": 6
        },
        {
          "text": "TEMPO 2114/2116 FEW005 BKN008",
          "offset_h": 1,
          "wdir": null,
          "wspd": null
        },
        {
          "text": "TEMPO 2116/2121 FEW003 BKN005",
          "offset_h": 3,
          "wdir": null,
          "wspd": null
        },
        {
          "text": "TEMPO 2121/2200 FEW005 BKN008",
          "offset_h": 8,
          "wdir": null,
          "wspd": null
        },
        {
          "text": "TEMPO 2212/2218 FEW005 BKN008",
          "offset_h": 23,
          "wdir": null,
          "wspd": null
        }
      ],
      "metar_raw": "METAR ROAH 211230Z 20004KT 9999 FEW010 26/25 Q1010",
      "metar_wdir": 200,
      "metar_wspd": 4,
      "metar_oat": 26,
      "metar_qnh": 1010,
      "hourly_oat": [
        26,
        26,
        26,
        25,
        25,
        25,
        25,
        25,
        25,
        26,
        27,
        28,
        29,
        29,
        30,
        29,
        30,
        30,
        29,
        29,
        28,
        28,
        27,
        27,
        27
      ]
    },
    "NGO": {
      "icao": "RJGG",
      "issued": "2026-06-21T11:05:00.000Z",
      "raw": "TAF RJGG 211105Z 2112/2218 29012KT 9999 FEW020 BKN030 BECMG 2200/2203 31024KT",
      "groups": [
        {
          "text": "TAF RJGG 211105Z 2112/2218 29012KT 9999 FEW020 BKN030",
          "offset_h": -1,
          "wdir": 290,
          "wspd": 12
        },
        {
          "text": "BECMG 2200/2203 31024KT",
          "offset_h": 11,
          "wdir": 310,
          "wspd": 24
        }
      ],
      "metar_raw": "METAR RJGG 211230Z 31011KT 9999 VCSH FEW015 SCT030 BKN040 24/20 Q1003 NOSIG",
      "metar_wdir": 310,
      "metar_wspd": 11,
      "metar_oat": 24,
      "metar_qnh": 1003,
      "hourly_oat": [
        24,
        24,
        24,
        24,
        24,
        24,
        24,
        23,
        23,
        23,
        24,
        24,
        24,
        24,
        24,
        24,
        24,
        24,
        24,
        24,
        24,
        23,
        23,
        23,
        23
      ]
    },
    "FUK": {
      "icao": "RJFF",
      "issued": "2026-06-21T11:05:00.000Z",
      "raw": "TAF RJFF 211105Z 2112/2218 35006KT 9999 FEW030 BECMG 2215/2218 10004KT",
      "groups": [
        {
          "text": "TAF RJFF 211105Z 2112/2218 35006KT 9999 FEW030",
          "offset_h": -1,
          "wdir": 350,
          "wspd": 6
        },
        {
          "text": "BECMG 2215/2218 10004KT",
          "offset_h": 26,
          "wdir": 100,
          "wspd": 4
        }
      ],
      "metar_raw": "METAR RJFF 211230Z 01005KT 340V040 CAVOK 22/17 Q1009 NOSIG",
      "metar_wdir": 10,
      "metar_wspd": 5,
      "metar_oat": 22,
      "metar_qnh": 1009,
      "hourly_oat": [
        22,
        22,
        22,
        21,
        21,
        21,
        21,
        21,
        21,
        22,
        22,
        23,
        23,
        24,
        24,
        23,
        23,
        22,
        22,
        22,
        21,
        21,
        20,
        20,
        20
      ]
    },
    "CTS": {
      "icao": "RJCC",
      "issued": "2026-06-21T11:05:00.000Z",
      "raw": "TAF RJCC 211105Z 2112/2218 23006KT 9999 FEW012 BKN020 BECMG 2114/2116 34004KT BECMG 2122/2200 19010KT TEMPO 2206/2212 FEW004 BKN006 TEMPO 2212/2218 4000 -SHRA BR FEW003 BKN005",
      "groups": [
        {
          "text": "TAF RJCC 211105Z 2112/2218 23006KT 9999 FEW012 BKN020",
          "offset_h": -1,
          "wdir": 230,
          "wspd": 6
        },
        {
          "text": "BECMG 2114/2116 34004KT",
          "offset_h": 1,
          "wdir": 340,
          "wspd": 4
        },
        {
          "text": "BECMG 2122/2200 19010KT",
          "offset_h": 9,
          "wdir": 190,
          "wspd": 10
        },
        {
          "text": "TEMPO 2206/2212 FEW004 BKN006",
          "offset_h": 17,
          "wdir": null,
          "wspd": null
        },
        {
          "text": "TEMPO 2212/2218 4000 -SHRA BR FEW003 BKN005",
          "offset_h": 23,
          "wdir": null,
          "wspd": null
        }
      ],
      "metar_raw": "METAR RJCC 211230Z 18003KT 9999 FEW015 SCT040 BKN/// 16/12 Q1009",
      "metar_wdir": 180,
      "metar_wspd": 3,
      "metar_oat": 16,
      "metar_qnh": 1009,
      "hourly_oat": [
        15,
        14,
        14,
        14,
        13,
        13,
        13,
        14,
        15,
        17,
        19,
        20,
        20,
        20,
        20,
        19,
        18,
        18,
        17,
        16,
        15,
        15,
        14,
        14,
        13
      ]
    },
    "KIX": {
      "icao": "RJBB",
      "issued": "2026-06-21T11:05:00.000Z",
      "raw": "TAF RJBB 211105Z 2112/2218 28014KT 9999 FEW020 BKN040 BECMG 2203/2206 35010KT",
      "groups": [
        {
          "text": "TAF RJBB 211105Z 2112/2218 28014KT 9999 FEW020 BKN040",
          "offset_h": -1,
          "wdir": 280,
          "wspd": 14
        },
        {
          "text": "BECMG 2203/2206 35010KT",
          "offset_h": 14,
          "wdir": 350,
          "wspd": 10
        }
      ],
      "metar_raw": "METAR RJBB 211230Z 26013KT 9999 FEW030 BKN050 23/20 Q1006 NOSIG",
      "metar_wdir": 260,
      "metar_wspd": 13,
      "metar_oat": 23,
      "metar_qnh": 1006,
      "hourly_oat": [
        24,
        23,
        23,
        23,
        23,
        23,
        23,
        23,
        22,
        22,
        23,
        23,
        23,
        23,
        24,
        24,
        24,
        24,
        24,
        24,
        24,
        24,
        23,
        23,
        23
      ]
    },
    "NRT": {
      "icao": "RJAA",
      "issued": "2026-06-21T11:05:00.000Z",
      "raw": "TAF RJAA 211105Z 2112/2218 02010KT 9999 FEW015 BKN030 TEMPO 2117/2121 4000 BR FEW001 BKN005 TEMPO 2121/2200 FEW003 BKN008 TEMPO 2212/2215 FEW003 BKN008 TEMPO 2215/2218 FEW001 BKN005",
      "groups": [
        {
          "text": "TAF RJAA 211105Z 2112/2218 02010KT 9999 FEW015 BKN030",
          "offset_h": -1,
          "wdir": 20,
          "wspd": 10
        },
        {
          "text": "TEMPO 2117/2121 4000 BR FEW001 BKN005",
          "offset_h": 4,
          "wdir": null,
          "wspd": null
        },
        {
          "text": "TEMPO 2121/2200 FEW003 BKN008",
          "offset_h": 8,
          "wdir": null,
          "wspd": null
        },
        {
          "text": "TEMPO 2212/2215 FEW003 BKN008",
          "offset_h": 23,
          "wdir": null,
          "wspd": null
        },
        {
          "text": "TEMPO 2215/2218 FEW001 BKN005",
          "offset_h": 26,
          "wdir": null,
          "wspd": null
        }
      ],
      "metar_raw": "METAR RJAA 211230Z 03004KT 350V060 9999 FEW012 BKN/// 21/19 Q0999 NOSIG",
      "metar_wdir": 30,
      "metar_wspd": 4,
      "metar_oat": 21,
      "metar_qnh": 999,
      "hourly_oat": [
        22,
        22,
        21,
        21,
        21,
        21,
        20,
        20,
        20,
        21,
        22,
        23,
        24,
        26,
        27,
        27,
        26,
        24,
        23,
        23,
        22,
        21,
        21,
        20,
        19
      ]
    },
    "HND": {
      "icao": "RJTT",
      "issued": "2026-06-21T11:05:00.000Z",
      "raw": "TAF RJTT 211105Z 2112/2218 08006KT 9999 FEW010 BKN020 BECMG 2113/2115 35008KT BECMG 2200/2203 12006KT BECMG 2203/2206 18010KT BECMG 2212/2215 10006KT",
      "groups": [
        {
          "text": "TAF RJTT 211105Z 2112/2218 08006KT 9999 FEW010 BKN020",
          "offset_h": -1,
          "wdir": 80,
          "wspd": 6
        },
        {
          "text": "BECMG 2113/2115 35008KT",
          "offset_h": 0,
          "wdir": 350,
          "wspd": 8
        },
        {
          "text": "BECMG 2200/2203 12006KT",
          "offset_h": 11,
          "wdir": 120,
          "wspd": 6
        },
        {
          "text": "BECMG 2203/2206 18010KT",
          "offset_h": 14,
          "wdir": 180,
          "wspd": 10
        },
        {
          "text": "BECMG 2212/2215 10006KT",
          "offset_h": 23,
          "wdir": 100,
          "wspd": 6
        }
      ],
      "metar_raw": "METAR RJTT 211230Z 07012KT 9999 FEW013 BKN035 BKN050 24/21 Q0999 BECMG TL1330 05006KT",
      "metar_wdir": 70,
      "metar_wspd": 12,
      "metar_oat": 24,
      "metar_qnh": 999,
      "hourly_oat": [
        23,
        23,
        23,
        23,
        22,
        22,
        21,
        21,
        21,
        22,
        23,
        23,
        24,
        25,
        26,
        26,
        26,
        26,
        26,
        26,
        26,
        24,
        23,
        22,
        22
      ]
    },
    "HAN": {
      "icao": "VVNB",
      "issued": "2026-06-21T11:00:00.000Z",
      "raw": "TAF VVNB 211100Z 2112/2212 20006KT 9999 FEW030 TEMPO 2112/2114 22015G25KT 2500 +TSRA BKN012 FEW027CB",
      "groups": [
        {
          "text": "TAF VVNB 211100Z 2112/2212 20006KT 9999 FEW030",
          "offset_h": -1,
          "wdir": 200,
          "wspd": 6
        },
        {
          "text": "TEMPO 2112/2114 22015G25KT 2500 +TSRA BKN012 FEW027CB",
          "offset_h": -1,
          "wdir": 220,
          "wspd": 15
        }
      ],
      "metar_raw": "METAR VVNB 211230Z 32010KT 5000 TSRA BKN010 SCT030CB 25/25 Q1006 BECMG TL1300 6000 -RA",
      "metar_wdir": 320,
      "metar_wspd": 10,
      "metar_oat": 25,
      "metar_qnh": 1006,
      "hourly_oat": [
        31,
        31,
        30,
        30,
        29,
        29,
        29,
        28,
        28,
        28,
        28,
        30,
        31,
        33,
        34,
        35,
        36,
        37,
        37,
        37,
        36,
        35,
        34,
        33,
        32
      ]
    },
    "SGN": {
      "icao": "VVTS",
      "issued": "2026-06-21T11:00:00.000Z",
      "raw": "TAF VVTS 211100Z 2112/2218 25008KT 9999 SCT017 TEMPO 2112/2114 5000 TSRA SCT015 FEW017CB TEMPO 2210/2213 26016G30KT 1500 +TSRA BKN013 SCT015CB",
      "groups": [
        {
          "text": "TAF VVTS 211100Z 2112/2218 25008KT 9999 SCT017",
          "offset_h": -1,
          "wdir": 250,
          "wspd": 8
        },
        {
          "text": "TEMPO 2112/2114 5000 TSRA SCT015 FEW017CB",
          "offset_h": -1,
          "wdir": null,
          "wspd": null
        },
        {
          "text": "TEMPO 2210/2213 26016G30KT 1500 +TSRA BKN013 SCT015CB",
          "offset_h": 21,
          "wdir": 260,
          "wspd": 16
        }
      ],
      "metar_raw": "METAR VVTS 211230Z 24005KT 9999 SCT020 FEW023CB BKN050 30/25 Q1010 NOSIG",
      "metar_wdir": 240,
      "metar_wspd": 5,
      "metar_oat": 30,
      "metar_qnh": 1010,
      "hourly_oat": [
        27,
        27,
        27,
        27,
        27,
        27,
        27,
        26,
        26,
        26,
        26,
        27,
        29,
        30,
        32,
        33,
        34,
        34,
        34,
        34,
        34,
        27,
        26,
        26,
        26
      ]
    },
    "CGK": {
      "icao": "WIII",
      "issued": "2026-06-21T11:00:00.000Z",
      "raw": "TAF WIII 211100Z 2112/2218 05010KT 8000 SCT020 BECMG 2113/2115 16005KT 5000 HZ BECMG 2201/2203 05011KT 8000 NSW",
      "groups": [
        {
          "text": "TAF WIII 211100Z 2112/2218 05010KT 8000 SCT020",
          "offset_h": -1,
          "wdir": 50,
          "wspd": 10
        },
        {
          "text": "BECMG 2113/2115 16005KT 5000 HZ",
          "offset_h": 0,
          "wdir": 160,
          "wspd": 5
        },
        {
          "text": "BECMG 2201/2203 05011KT 8000 NSW",
          "offset_h": 12,
          "wdir": 50,
          "wspd": 11
        }
      ],
      "metar_raw": "METAR WIII 211300Z 17005KT 090V210 6000 SCT020 28/24 Q1012 NOSIG",
      "metar_wdir": 170,
      "metar_wspd": 5,
      "metar_oat": 28,
      "metar_qnh": 1012,
      "hourly_oat": [
        27,
        26,
        26,
        26,
        25,
        25,
        25,
        24,
        24,
        24,
        24,
        24,
        26,
        28,
        30,
        31,
        31,
        31,
        31,
        30,
        29,
        28,
        28,
        27,
        27
      ]
    },
    "HKG": {
      "icao": "VHHH",
      "issued": "2026-06-21T11:00:00.000Z",
      "raw": "TAF VHHH 211100Z 2112/2218 22010KT 9999 FEW015 SCT025 TX34/2206Z TN29/2122Z TEMPO 2115/2121 16010KT",
      "groups": [
        {
          "text": "TAF VHHH 211100Z 2112/2218 22010KT 9999 FEW015 SCT025 TX34/2206Z TN29/2122Z",
          "offset_h": -1,
          "wdir": 220,
          "wspd": 10
        },
        {
          "text": "TEMPO 2115/2121 16010KT",
          "offset_h": 2,
          "wdir": 160,
          "wspd": 10
        }
      ],
      "metar_raw": "METAR VHHH 211300Z 19007KT 120V210 9999 FEW012 30/25 Q1008 NOSIG",
      "metar_wdir": 190,
      "metar_wspd": 7,
      "metar_oat": 30,
      "metar_qnh": 1008,
      "hourly_oat": [
        28,
        28,
        28,
        28,
        28,
        28,
        28,
        28,
        28,
        28,
        28,
        29,
        29,
        30,
        30,
        30,
        30,
        30,
        30,
        30,
        30,
        29,
        29,
        29,
        29
      ]
    },
    "GMP": {
      "icao": "RKSS",
      "issued": "2026-06-21T11:00:00.000Z",
      "raw": "TAF RKSS 211100Z 2112/2218 32005KT 9999 SCT045 TN20/2120Z TX29/2205Z BECMG 2117/2119 07005KT 6000 BECMG 2202/2204 27007KT 9999 BKN035 TEMPO 2206/2209 6000 -SHRA FEW008CB BKN025 OVC070 BECMG 2210/2212 16006KT 6000 SCT010 BKN030 BECMG 2216/2218 12005KT 4000 BR",
      "groups": [
        {
          "text": "TAF RKSS 211100Z 2112/2218 32005KT 9999 SCT045 TN20/2120Z TX29/2205Z",
          "offset_h": -1,
          "wdir": 320,
          "wspd": 5
        },
        {
          "text": "BECMG 2117/2119 07005KT 6000",
          "offset_h": 4,
          "wdir": 70,
          "wspd": 5
        },
        {
          "text": "BECMG 2202/2204 27007KT 9999 BKN035",
          "offset_h": 13,
          "wdir": 270,
          "wspd": 7
        },
        {
          "text": "TEMPO 2206/2209 6000 -SHRA FEW008CB BKN025 OVC070",
          "offset_h": 17,
          "wdir": null,
          "wspd": null
        },
        {
          "text": "BECMG 2210/2212 16006KT 6000 SCT010 BKN030",
          "offset_h": 21,
          "wdir": 160,
          "wspd": 6
        },
        {
          "text": "BECMG 2216/2218 12005KT 4000 BR",
          "offset_h": 27,
          "wdir": 120,
          "wspd": 5
        }
      ],
      "metar_raw": "METAR RKSS 211300Z 26004KT CAVOK 23/21 Q1010 NOSIG",
      "metar_wdir": 260,
      "metar_wspd": 4,
      "metar_oat": 23,
      "metar_qnh": 1010,
      "hourly_oat": [
        22,
        21,
        21,
        21,
        21,
        20,
        20,
        20,
        20,
        20,
        22,
        23,
        24,
        26,
        26,
        27,
        28,
        27,
        27,
        26,
        25,
        24,
        22,
        21,
        21
      ]
    },
    "BKK": {
      "icao": "VTBS",
      "issued": "2026-06-21T11:00:00.000Z",
      "raw": "TAF VTBS 211100Z 2112/2218 21008KT 9999 FEW020 TEMPO 2112/2115 VRB15KT 4000 TSRA FEW018CB SCT020 BKN080 TEMPO 2210/2214 VRB15KT 4000 TSRA FEW018CB SCT020 BKN080",
      "groups": [
        {
          "text": "TAF VTBS 211100Z 2112/2218 21008KT 9999 FEW020",
          "offset_h": -1,
          "wdir": 210,
          "wspd": 8
        },
        {
          "text": "TEMPO 2112/2115 VRB15KT 4000 TSRA FEW018CB SCT020 BKN080",
          "offset_h": -1,
          "wdir": "VRB",
          "wspd": 15
        },
        {
          "text": "TEMPO 2210/2214 VRB15KT 4000 TSRA FEW018CB SCT020 BKN080",
          "offset_h": 21,
          "wdir": "VRB",
          "wspd": 15
        }
      ],
      "metar_raw": "METAR VTBS 211300Z 27007KT 9999 FEW020 30/22 Q1011 NOSIG",
      "metar_wdir": 270,
      "metar_wspd": 7,
      "metar_oat": 30,
      "metar_qnh": 1011,
      "hourly_oat": [
        28,
        28,
        27,
        27,
        27,
        26,
        26,
        26,
        26,
        26,
        26,
        27,
        29,
        30,
        32,
        33,
        34,
        34,
        34,
        33,
        32,
        32,
        31,
        30,
        29
      ]
    },
    "SIN": {
      "icao": "WSSS",
      "issued": "2026-06-21T11:00:00.000Z",
      "raw": "TAF WSSS 211100Z 2112/2218 17006KT 9999 FEW015 SCT020 TEMPO 2203/2206 3000 TSRA FEW012CB BKN015",
      "groups": [
        {
          "text": "TAF WSSS 211100Z 2112/2218 17006KT 9999 FEW015 SCT020",
          "offset_h": -1,
          "wdir": 170,
          "wspd": 6
        },
        {
          "text": "TEMPO 2203/2206 3000 TSRA FEW012CB BKN015",
          "offset_h": 14,
          "wdir": null,
          "wspd": null
        }
      ],
      "metar_raw": "METAR WSSS 211300Z 30003KT 9999 FEW016 BKN300 27/26 Q1011 NOSIG",
      "metar_wdir": 300,
      "metar_wspd": 3,
      "metar_oat": 27,
      "metar_qnh": 1011,
      "hourly_oat": [
        27,
        26,
        26,
        26,
        26,
        26,
        25,
        24,
        24,
        24,
        23,
        24,
        24,
        25,
        26,
        27,
        27,
        28,
        28,
        28,
        28,
        28,
        27,
        27,
        27
      ]
    },
    "KUL": {
      "icao": "WMKK",
      "issued": "2026-06-21T11:00:00.000Z",
      "raw": "TAF WMKK 211100Z 2112/2218 VRB03KT 9999 FEW018 PROB30 TEMPO 2119/2122 5000 TSRA FEW017CB",
      "groups": [
        {
          "text": "TAF WMKK 211100Z 2112/2218 VRB03KT 9999 FEW018",
          "offset_h": -1,
          "wdir": "VRB",
          "wspd": 3
        },
        {
          "text": "PROB30",
          "offset_h": 0,
          "wdir": null,
          "wspd": null
        },
        {
          "text": "TEMPO 2119/2122 5000 TSRA FEW017CB",
          "offset_h": 6,
          "wdir": null,
          "wspd": null
        }
      ],
      "metar_raw": "METAR WMKK 211230Z 32003KT 280V050 9999 FEW017CB 30/25 Q1010 NOSIG",
      "metar_wdir": 320,
      "metar_wspd": 3,
      "metar_oat": 30,
      "metar_qnh": 1010,
      "hourly_oat": [
        25,
        24,
        23,
        23,
        24,
        23,
        23,
        23,
        23,
        23,
        23,
        24,
        25,
        26,
        28,
        29,
        30,
        30,
        27,
        28,
        27,
        26,
        26,
        25,
        25
      ]
    },
    "TSA": {
      "icao": "RCSS",
      "issued": "2026-06-21T11:00:00.000Z",
      "raw": "TAF RCSS 211100Z 2112/2212 09005KT 9999 FEW015 BECMG 2118/2120 30005KT TEMPO 2202/2208 31010KT TEMPO 2208/2212 09005KT",
      "groups": [
        {
          "text": "TAF RCSS 211100Z 2112/2212 09005KT 9999 FEW015",
          "offset_h": -1,
          "wdir": 90,
          "wspd": 5
        },
        {
          "text": "BECMG 2118/2120 30005KT",
          "offset_h": 5,
          "wdir": 300,
          "wspd": 5
        },
        {
          "text": "TEMPO 2202/2208 31010KT",
          "offset_h": 13,
          "wdir": 310,
          "wspd": 10
        },
        {
          "text": "TEMPO 2208/2212 09005KT",
          "offset_h": 19,
          "wdir": 90,
          "wspd": 5
        }
      ],
      "metar_raw": "METAR RCSS 211230Z 10007KT 9999 FEW022 29/24 Q1009 NOSIG RMK A2980",
      "metar_wdir": 100,
      "metar_wspd": 7,
      "metar_oat": 29,
      "metar_qnh": 1009,
      "hourly_oat": [
        28,
        27,
        27,
        26,
        25,
        25,
        25,
        25,
        25,
        25,
        26,
        28,
        30,
        31,
        33,
        33,
        33,
        33,
        33,
        33,
        31,
        30,
        28,
        28,
        27
      ]
    },
    "TPE": {
      "icao": "RCTP",
      "issued": "2026-06-21T11:00:00.000Z",
      "raw": "TAF RCTP 211100Z 2112/2218 22005KT 9999 FEW012 BKN032 TEMPO 2116/2122 16005KT FEW010 BKN020 BECMG 2123/2201 24010KT FEW015 TEMPO 2203/2209 26015KT BECMG 2210/2212 22005KT",
      "groups": [
        {
          "text": "TAF RCTP 211100Z 2112/2218 22005KT 9999 FEW012 BKN032",
          "offset_h": -1,
          "wdir": 220,
          "wspd": 5
        },
        {
          "text": "TEMPO 2116/2122 16005KT FEW010 BKN020",
          "offset_h": 3,
          "wdir": 160,
          "wspd": 5
        },
        {
          "text": "BECMG 2123/2201 24010KT FEW015",
          "offset_h": 10,
          "wdir": 240,
          "wspd": 10
        },
        {
          "text": "TEMPO 2203/2209 26015KT",
          "offset_h": 14,
          "wdir": 260,
          "wspd": 15
        },
        {
          "text": "BECMG 2210/2212 22005KT",
          "offset_h": 21,
          "wdir": 220,
          "wspd": 5
        }
      ],
      "metar_raw": "METAR RCTP 211230Z 24007KT 9999 FEW020 28/24 Q1009 NOSIG RMK A2980",
      "metar_wdir": 240,
      "metar_wspd": 7,
      "metar_oat": 28,
      "metar_qnh": 1009,
      "hourly_oat": [
        27,
        26,
        26,
        26,
        26,
        26,
        25,
        26,
        25,
        25,
        26,
        28,
        29,
        30,
        30,
        30,
        30,
        30,
        30,
        30,
        29,
        29,
        28,
        27,
        27
      ]
    },
    "SHA": {
      "icao": "ZSSS",
      "issued": "2026-06-21T09:07:00.000Z",
      "raw": "TAF ZSSS 210907Z 2112/2218 12004MPS 6000 BKN011 TX25/2112Z TX26/2206Z TN22/2121Z TEMPO 2200/2204 TSRA BKN008 SCT030CB BECMG 2201/2202 06004MPS TEMPO 2206/2210 -TSRA BKN008 SCT030CB",
      "groups": [
        {
          "text": "TAF ZSSS 210907Z 2112/2218 12004MPS 6000 BKN011 TX25/2112Z TX26/2206Z TN22/2121Z",
          "offset_h": -1,
          "wdir": null,
          "wspd": null
        },
        {
          "text": "TEMPO 2200/2204 TSRA BKN008 SCT030CB",
          "offset_h": 11,
          "wdir": null,
          "wspd": null
        },
        {
          "text": "BECMG 2201/2202 06004MPS",
          "offset_h": 12,
          "wdir": null,
          "wspd": null
        },
        {
          "text": "TEMPO 2206/2210 -TSRA BKN008 SCT030CB",
          "offset_h": 17,
          "wdir": null,
          "wspd": null
        }
      ],
      "metar_raw": "METAR ZSSS 211230Z 13004MPS 9999 BKN013 25/23 Q1009 NOSIG",
      "metar_wdir": null,
      "metar_wspd": null,
      "metar_oat": 25,
      "metar_qnh": 1009,
      "hourly_oat": [
        23,
        23,
        23,
        23,
        23,
        22,
        22,
        22,
        22,
        23,
        23,
        24,
        25,
        26,
        26,
        26,
        26,
        24,
        24,
        25,
        26,
        26,
        25,
        24,
        23
      ]
    },
    "PVG": {
      "icao": "ZSPD",
      "issued": "2026-06-21T09:07:00.000Z",
      "raw": "TAF ZSPD 210907Z 2112/2218 12004MPS 6000 BKN008 TX23/2112Z TX25/2206Z TN21/2121Z BECMG 2201/2202 06005MPS TEMPO 2201/2205 TSRA SCT030CB TEMPO 2207/2211 -TSRA SCT030CB",
      "groups": [
        {
          "text": "TAF ZSPD 210907Z 2112/2218 12004MPS 6000 BKN008 TX23/2112Z TX25/2206Z TN21/2121Z",
          "offset_h": -1,
          "wdir": null,
          "wspd": null
        },
        {
          "text": "BECMG 2201/2202 06005MPS",
          "offset_h": 12,
          "wdir": null,
          "wspd": null
        },
        {
          "text": "TEMPO 2201/2205 TSRA SCT030CB",
          "offset_h": 12,
          "wdir": null,
          "wspd": null
        },
        {
          "text": "TEMPO 2207/2211 -TSRA SCT030CB",
          "offset_h": 18,
          "wdir": null,
          "wspd": null
        }
      ],
      "metar_raw": "METAR ZSPD 211230Z 12004MPS 9999 -SHRA FEW023 24/22 Q1009 NOSIG",
      "metar_wdir": null,
      "metar_wspd": null,
      "metar_oat": 24,
      "metar_qnh": 1009,
      "hourly_oat": [
        23,
        23,
        23,
        23,
        22,
        22,
        22,
        22,
        23,
        23,
        24,
        24,
        24,
        25,
        24,
        24,
        24,
        24,
        23,
        23,
        24,
        25,
        24,
        24,
        24
      ]
    },
    "DLC": {
      "icao": "ZYTL",
      "issued": "2026-06-21T09:04:00.000Z",
      "raw": "TAF ZYTL 210904Z 2112/2212 30004MPS 5000 BR FEW033 TX26/2206Z TN20/2120Z",
      "groups": [
        {
          "text": "TAF ZYTL 210904Z 2112/2212 30004MPS 5000 BR FEW033 TX26/2206Z TN20/2120Z",
          "offset_h": -1,
          "wdir": null,
          "wspd": null
        }
      ],
      "metar_raw": "METAR ZYTL 211230Z 28003MPS CAVOK 20/12 Q1011 NOSIG",
      "metar_wdir": null,
      "metar_wspd": null,
      "metar_oat": 20,
      "metar_qnh": 1011,
      "hourly_oat": [
        22,
        21,
        21,
        21,
        20,
        20,
        20,
        19,
        19,
        20,
        24,
        26,
        28,
        29,
        29,
        30,
        30,
        29,
        29,
        28,
        27,
        26,
        25,
        24,
        22
      ]
    },
    "CAN": {
      "icao": "ZGGG",
      "issued": "2026-06-21T09:01:00.000Z",
      "raw": "TAF ZGGG 210901Z 2112/2218 17004MPS 8000 SCT040 TX31/2112Z TX37/2207Z TN28/2122Z",
      "groups": [
        {
          "text": "TAF ZGGG 210901Z 2112/2218 17004MPS 8000 SCT040 TX31/2112Z TX37/2207Z TN28/2122Z",
          "offset_h": -1,
          "wdir": null,
          "wspd": null
        }
      ],
      "metar_raw": "METAR ZGGG 211230Z 15004MPS 9999 FEW033 31/26 Q1007 NOSIG",
      "metar_wdir": null,
      "metar_wspd": null,
      "metar_oat": 31,
      "metar_qnh": 1007,
      "hourly_oat": [
        29,
        28,
        28,
        27,
        27,
        26,
        26,
        26,
        26,
        26,
        27,
        28,
        30,
        31,
        32,
        33,
        34,
        34,
        35,
        34,
        34,
        33,
        31,
        30,
        29
      ]
    },
    "PEK": {
      "icao": "ZBAA",
      "issued": "2026-06-21T09:00:00.000Z",
      "raw": "TAF ZBAA 210900Z 2112/2218 16004MPS CAVOK TX31/2206Z TN16/2121Z TN18/2218Z TEMPO 2208/2212 -TSRA FEW040CB BKN040",
      "groups": [
        {
          "text": "TAF ZBAA 210900Z 2112/2218 16004MPS CAVOK TX31/2206Z TN16/2121Z TN18/2218Z",
          "offset_h": -1,
          "wdir": null,
          "wspd": null
        },
        {
          "text": "TEMPO 2208/2212 -TSRA FEW040CB BKN040",
          "offset_h": 19,
          "wdir": null,
          "wspd": null
        }
      ],
      "metar_raw": "METAR ZBAA 211230Z 19004MPS CAVOK 25/12 Q1009 NOSIG",
      "metar_wdir": null,
      "metar_wspd": null,
      "metar_oat": 25,
      "metar_qnh": 1009,
      "hourly_oat": [
        23,
        22,
        22,
        21,
        20,
        19,
        18,
        18,
        17,
        18,
        20,
        22,
        23,
        25,
        26,
        28,
        30,
        30,
        31,
        31,
        30,
        28,
        26,
        25,
        23
      ]
    }
  }
}