{
  "updated": "2026-06-27T22:53:30Z",
  "tafs": {
    "CAN": {
      "icao": "ZGGG",
      "issued": "2026-06-27T22:33:00.000Z",
      "raw": "TAF AMD ZGGG 272233Z 2800/2906 15004MPS 4000 +TSRA SCT010 SCT026CB BKN033 TX33/2807Z TX35/2906Z TN26/2822Z BECMG 2801/2802 6000 NSW BKN033 TEMPO 2805/2809 TSRA SCT010 SCT026CB BKN033 TEMPO 2819/2823 SHRA FEW026CB BKN033",
      "groups": [
        {
          "text": "TAF AMD ZGGG 272233Z 2800/2906 15004MPS 4000 +TSRA SCT010 SCT026CB BKN033 TX33/2807Z TX35/2906Z TN26/2822Z",
          "offset_h": 2,
          "wdir": null,
          "wspd": null
        },
        {
          "text": "BECMG 2801/2802 6000 NSW BKN033",
          "offset_h": 3,
          "wdir": null,
          "wspd": null
        },
        {
          "text": "TEMPO 2805/2809 TSRA SCT010 SCT026CB BKN033",
          "offset_h": 7,
          "wdir": null,
          "wspd": null
        },
        {
          "text": "TEMPO 2819/2823 SHRA FEW026CB BKN033",
          "offset_h": 21,
          "wdir": null,
          "wspd": null
        }
      ],
      "metar_raw": "METAR ZGGG 272230Z 05002MPS 9999 FEW006 OVC020 27/26 Q1003 BECMG AT2340 TSRA SCT026CB BKN033",
      "metar_wdir": null,
      "metar_wspd": null,
      "metar_oat": 27,
      "metar_qnh": 1003,
      "hourly_oat": [
        25,
        25,
        26,
        27,
        27,
        28,
        30,
        31,
        28,
        27,
        28,
        28,
        28,
        28,
        27,
        27,
        27,
        27,
        26,
        26,
        25,
        25,
        25,
        24,
        24
      ]
    },
    "SAN": {
      "icao": "KSAN",
      "issued": "2026-06-27T21:47:00.000Z",
      "raw": "TAF KSAN 272147Z 2722/2824 22008G16KT P6SM SCT022 TEMPO 2722/2802 BKN018 FM280200 28007KT P6SM OVC022 FM281700 22010KT P6SM OVC030",
      "groups": [
        {
          "text": "TAF KSAN 272147Z 2722/2824 22008G16KT P6SM SCT022",
          "offset_h": 0,
          "wdir": 220,
          "wspd": 8
        },
        {
          "text": "TEMPO 2722/2802 BKN018",
          "offset_h": 0,
          "wdir": null,
          "wspd": null
        },
        {
          "text": "FM280200 28007KT P6SM OVC022",
          "offset_h": 4,
          "wdir": 280,
          "wspd": 7
        },
        {
          "text": "FM281700 22010KT P6SM OVC030",
          "offset_h": 19,
          "wdir": 220,
          "wspd": 10
        }
      ],
      "metar_raw": "METAR KSAN 272151Z 20009G18KT 10SM BKN016 21/16 A2998 RMK AO2 SLP150 T02110156 $",
      "metar_wdir": 200,
      "metar_wspd": 9,
      "metar_oat": 21,
      "metar_qnh": 1015,
      "hourly_oat": [
        21,
        20,
        20,
        19,
        19,
        18,
        18,
        18,
        18,
        18,
        18,
        17,
        17,
        17,
        16,
        16,
        17,
        17,
        17,
        18,
        19,
        19,
        19,
        20,
        21
      ]
    },
    "NGO": {
      "icao": "RJGG",
      "issued": "2026-06-27T21:43:00.000Z",
      "raw": "TAF AMD RJGG 272143Z 2721/2900 32006KT 9999 FEW015 BKN030 TEMPO 2721/2800 2000 +SHRA BR BECMG 2803/2805 15006KT BECMG 2815/2818 36004KT",
      "groups": [
        {
          "text": "TAF AMD RJGG 272143Z 2721/2900 32006KT 9999 FEW015 BKN030",
          "offset_h": -1,
          "wdir": 320,
          "wspd": 6
        },
        {
          "text": "TEMPO 2721/2800 2000 +SHRA BR",
          "offset_h": -1,
          "wdir": null,
          "wspd": null
        },
        {
          "text": "BECMG 2803/2805 15006KT",
          "offset_h": 5,
          "wdir": 150,
          "wspd": 6
        },
        {
          "text": "BECMG 2815/2818 36004KT",
          "offset_h": 17,
          "wdir": 360,
          "wspd": 4
        }
      ],
      "metar_raw": "METAR RJGG 272230Z 34003KT 4000 -SHRA BR FEW004 BKN008 BKN040 20/20 Q1008 TEMPO TL2350 2000 +SHRA BR BECMG TL0000 FEW003 SCT009",
      "metar_wdir": 340,
      "metar_wspd": 3,
      "metar_oat": 20,
      "metar_qnh": 1008,
      "hourly_oat": [
        22,
        23,
        22,
        22,
        22,
        23,
        23,
        23,
        23,
        24,
        24,
        24,
        24,
        23,
        23,
        23,
        23,
        23,
        23,
        23,
        23,
        23,
        23,
        23,
        23
      ]
    },
    "PEK": {
      "icao": "ZBAA",
      "issued": "2026-06-27T21:16:00.000Z",
      "raw": "TAF ZBAA 272116Z 2800/2906 18004MPS CAVOK TX31/2806Z TX29/2906Z TN19/2821Z TEMPO 2805/2807 -TSRA FEW030CB BKN040 TEMPO 2814/2816 -TSRA FEW030CB BKN040",
      "groups": [
        {
          "text": "TAF ZBAA 272116Z 2800/2906 18004MPS CAVOK TX31/2806Z TX29/2906Z TN19/2821Z",
          "offset_h": 2,
          "wdir": null,
          "wspd": null
        },
        {
          "text": "TEMPO 2805/2807 -TSRA FEW030CB BKN040",
          "offset_h": 7,
          "wdir": null,
          "wspd": null
        },
        {
          "text": "TEMPO 2814/2816 -TSRA FEW030CB BKN040",
          "offset_h": 16,
          "wdir": null,
          "wspd": null
        }
      ],
      "metar_raw": "METAR ZBAA 272230Z 36002MPS 320V020 CAVOK 25/20 Q1004 NOSIG",
      "metar_wdir": null,
      "metar_wspd": null,
      "metar_oat": 25,
      "metar_qnh": 1004,
      "hourly_oat": [
        22,
        24,
        25,
        24,
        25,
        28,
        30,
        31,
        32,
        31,
        28,
        27,
        27,
        25,
        24,
        24,
        23,
        22,
        22,
        22,
        22,
        22,
        21,
        21,
        21
      ]
    },
    "HNL": {
      "icao": "PHNL",
      "issued": "2026-06-27T21:04:00.000Z",
      "raw": "TAF PHNL 272104Z 2721/2824 06015G25KT P6SM FEW025 SCT040 FM280800 05010KT P6SM FEW025 SCT040 FM282000 06015G25KT P6SM FEW025 SCT040",
      "groups": [
        {
          "text": "TAF PHNL 272104Z 2721/2824 06015G25KT P6SM FEW025 SCT040",
          "offset_h": -1,
          "wdir": 60,
          "wspd": 15
        },
        {
          "text": "FM280800 05010KT P6SM FEW025 SCT040",
          "offset_h": 10,
          "wdir": 50,
          "wspd": 10
        },
        {
          "text": "FM282000 06015G25KT P6SM FEW025 SCT040",
          "offset_h": 22,
          "wdir": 60,
          "wspd": 15
        }
      ],
      "metar_raw": "METAR PHNL 272153Z 06017G24KT 10SM FEW025 SCT040 SCT060 30/18 A3000 RMK AO2 PK WND 06027/2101 SLP159 T03000178 $",
      "metar_wdir": 60,
      "metar_wspd": 17,
      "metar_oat": 30,
      "metar_qnh": 1016,
      "hourly_oat": [
        29,
        30,
        30,
        29,
        28,
        27,
        26,
        25,
        24,
        24,
        24,
        24,
        24,
        23,
        23,
        23,
        23,
        23,
        23,
        24,
        25,
        26,
        28,
        29,
        29
      ]
    },
    "DLC": {
      "icao": "ZYTL",
      "issued": "2026-06-27T21:02:00.000Z",
      "raw": "TAF ZYTL 272102Z 2800/2824 16004MPS 6000 FEW040 TX29/2806Z TN20/2821Z",
      "groups": [
        {
          "text": "TAF ZYTL 272102Z 2800/2824 16004MPS 6000 FEW040 TX29/2806Z TN20/2821Z",
          "offset_h": 2,
          "wdir": null,
          "wspd": null
        }
      ],
      "metar_raw": "METAR ZYTL 272230Z 13002MPS 100V160 CAVOK 25/18 Q1006 NOSIG",
      "metar_wdir": null,
      "metar_wspd": null,
      "metar_oat": 25,
      "metar_qnh": 1006,
      "hourly_oat": [
        22,
        24,
        26,
        27,
        28,
        28,
        29,
        29,
        29,
        29,
        28,
        28,
        27,
        26,
        25,
        25,
        24,
        24,
        23,
        23,
        22,
        22,
        22,
        22,
        22
      ]
    },
    "SHA": {
      "icao": "ZSSS",
      "issued": "2026-06-27T21:01:00.000Z",
      "raw": "TAF ZSSS 272101Z 2800/2906 12004MPS 8000 BKN020 TX30/2806Z TX29/2906Z TN23/2821Z",
      "groups": [
        {
          "text": "TAF ZSSS 272101Z 2800/2906 12004MPS 8000 BKN020 TX30/2806Z TX29/2906Z TN23/2821Z",
          "offset_h": 2,
          "wdir": null,
          "wspd": null
        }
      ],
      "metar_raw": "METAR ZSSS 272230Z 14003MPS 6000 NSC 24/22 Q1007 NOSIG",
      "metar_wdir": null,
      "metar_wspd": null,
      "metar_oat": 24,
      "metar_qnh": 1007,
      "hourly_oat": [
        23,
        24,
        26,
        27,
        28,
        29,
        29,
        29,
        28,
        28,
        28,
        27,
        26,
        25,
        25,
        24,
        24,
        24,
        23,
        23,
        23,
        23,
        23,
        23,
        24
      ]
    },
    "PVG": {
      "icao": "ZSPD",
      "issued": "2026-06-27T21:01:00.000Z",
      "raw": "TAF ZSPD 272101Z 2800/2906 12004MPS 8000 BKN020 TX29/2806Z TX28/2906Z TN23/2821Z",
      "groups": [
        {
          "text": "TAF ZSPD 272101Z 2800/2906 12004MPS 8000 BKN020 TX29/2806Z TX28/2906Z TN23/2821Z",
          "offset_h": 2,
          "wdir": null,
          "wspd": null
        }
      ],
      "metar_raw": "METAR ZSPD 272230Z 14002MPS 6000 NSC 24/23 Q1007 NOSIG",
      "metar_wdir": null,
      "metar_wspd": null,
      "metar_oat": 24,
      "metar_qnh": 1007,
      "hourly_oat": [
        23,
        25,
        26,
        27,
        28,
        28,
        28,
        28,
        28,
        27,
        27,
        26,
        25,
        25,
        24,
        24,
        24,
        23,
        23,
        23,
        23,
        23,
        23,
        23,
        24
      ]
    },
    "LAX": {
      "icao": "KLAX",
      "issued": "2026-06-27T20:46:00.000Z",
      "raw": "TAF KLAX 272046Z 2721/2824 26012KT P6SM SCT035 FM280400 25008KT P6SM BKN025 FM280800 VRB03KT P6SM OVC020 FM281200 13008KT P6SM BKN025 FM282000 25012KT P6SM SCT050",
      "groups": [
        {
          "text": "TAF KLAX 272046Z 2721/2824 26012KT P6SM SCT035",
          "offset_h": -1,
          "wdir": 260,
          "wspd": 12
        },
        {
          "text": "FM280400 25008KT P6SM BKN025",
          "offset_h": 6,
          "wdir": 250,
          "wspd": 8
        },
        {
          "text": "FM280800 VRB03KT P6SM OVC020",
          "offset_h": 10,
          "wdir": "VRB",
          "wspd": 3
        },
        {
          "text": "FM281200 13008KT P6SM BKN025",
          "offset_h": 14,
          "wdir": 130,
          "wspd": 8
        },
        {
          "text": "FM282000 25012KT P6SM SCT050",
          "offset_h": 22,
          "wdir": 250,
          "wspd": 12
        }
      ],
      "metar_raw": "METAR KLAX 272153Z 24013G27KT 10SM FEW016 FEW024 22/15 A2995 RMK AO2 PK WND 22027/2151 SLP142 T02220150",
      "metar_wdir": 240,
      "metar_wspd": 13,
      "metar_oat": 22,
      "metar_qnh": 1014,
      "hourly_oat": [
        22,
        21,
        20,
        20,
        19,
        18,
        17,
        16,
        16,
        15,
        15,
        16,
        15,
        16,
        16,
        16,
        16,
        17,
        18,
        20,
        22,
        23,
        23,
        21,
        21
      ]
    },
    "KIX": {
      "icao": "RJBB",
      "issued": "2026-06-27T20:38:00.000Z",
      "raw": "TAF AMD RJBB 272038Z 2720/2900 04008KT 7000 -SHRA FEW010 BKN020 TEMPO 2720/2800 3000 SHRA BR FEW005 BKN008 BECMG 2804/2806 24005KT",
      "groups": [
        {
          "text": "TAF AMD RJBB 272038Z 2720/2900 04008KT 7000 -SHRA FEW010 BKN020",
          "offset_h": -2,
          "wdir": 40,
          "wspd": 8
        },
        {
          "text": "TEMPO 2720/2800 3000 SHRA BR FEW005 BKN008",
          "offset_h": -2,
          "wdir": null,
          "wspd": null
        },
        {
          "text": "BECMG 2804/2806 24005KT",
          "offset_h": 6,
          "wdir": 240,
          "wspd": 5
        }
      ],
      "metar_raw": "METAR RJBB 272230Z 05006KT 9999 SHRA FEW005 SCT010 BKN040 21/20 Q1008 TEMPO 3000 SHRA BR FEW005 BKN008",
      "metar_wdir": 50,
      "metar_wspd": 6,
      "metar_oat": 21,
      "metar_qnh": 1008,
      "hourly_oat": [
        22,
        22,
        22,
        22,
        22,
        23,
        23,
        23,
        23,
        23,
        23,
        23,
        23,
        23,
        23,
        23,
        23,
        23,
        23,
        23,
        23,
        23,
        23,
        23,
        22
      ]
    },
    "ITM": {
      "icao": "RJOO",
      "issued": "2026-06-27T20:27:00.000Z",
      "raw": "TAF AMD RJOO 272027Z 2720/2900 02005KT 9999 FEW020 BKN040 TEMPO 2720/2800 4000 SHRA BR BECMG 2800/2802 22005KT BECMG 2809/2812 32006KT BECMG 2821/2900 15005KT",
      "groups": [
        {
          "text": "TAF AMD RJOO 272027Z 2720/2900 02005KT 9999 FEW020 BKN040",
          "offset_h": -2,
          "wdir": 20,
          "wspd": 5
        },
        {
          "text": "TEMPO 2720/2800 4000 SHRA BR",
          "offset_h": -2,
          "wdir": null,
          "wspd": null
        },
        {
          "text": "BECMG 2800/2802 22005KT",
          "offset_h": 2,
          "wdir": 220,
          "wspd": 5
        },
        {
          "text": "BECMG 2809/2812 32006KT",
          "offset_h": 11,
          "wdir": 320,
          "wspd": 6
        },
        {
          "text": "BECMG 2821/2900 15005KT",
          "offset_h": 23,
          "wdir": 150,
          "wspd": 5
        }
      ],
      "metar_raw": "METAR RJOO 272200Z 27003KT 220V290 7000 -SHRA FEW003 SCT008 BKN020 20/20 Q1008",
      "metar_wdir": 270,
      "metar_wspd": 3,
      "metar_oat": 20,
      "metar_qnh": 1008,
      "hourly_oat": [
        21,
        22,
        23,
        24,
        25,
        26,
        26,
        27,
        27,
        27,
        27,
        27,
        26,
        25,
        24,
        24,
        23,
        22,
        22,
        22,
        22,
        21,
        21,
        21,
        22
      ]
    },
    "HND": {
      "icao": "RJTT",
      "issued": "2026-06-27T20:09:00.000Z",
      "raw": "TAF AMD RJTT 272009Z 2720/2900 16006KT 8000 -SHRA FEW012 BKN020 BECMG 2723/2801 10010KT TEMPO 2812/2900 4000 -SHRA BR FEW005 BKN008 BECMG 2815/2818 03008KT",
      "groups": [
        {
          "text": "TAF AMD RJTT 272009Z 2720/2900 16006KT 8000 -SHRA FEW012 BKN020",
          "offset_h": -2,
          "wdir": 160,
          "wspd": 6
        },
        {
          "text": "BECMG 2723/2801 10010KT",
          "offset_h": 1,
          "wdir": 100,
          "wspd": 10
        },
        {
          "text": "TEMPO 2812/2900 4000 -SHRA BR FEW005 BKN008",
          "offset_h": 14,
          "wdir": null,
          "wspd": null
        },
        {
          "text": "BECMG 2815/2818 03008KT",
          "offset_h": 17,
          "wdir": 30,
          "wspd": 8
        }
      ],
      "metar_raw": "METAR RJTT 272230Z 20005KT 9999 -RA FEW010 BKN050 24/22 Q1008 TEMPO FM2330 4000 SHRA BR FEW005 BKN008",
      "metar_wdir": 200,
      "metar_wspd": 5,
      "metar_oat": 24,
      "metar_qnh": 1008,
      "hourly_oat": [
        23,
        23,
        23,
        22,
        22,
        22,
        22,
        22,
        22,
        21,
        21,
        21,
        21,
        21,
        21,
        21,
        21,
        21,
        21,
        21,
        21,
        21,
        20,
        20,
        20
      ]
    },
    "HKG": {
      "icao": "VHHH",
      "issued": "2026-06-27T20:00:00.000Z",
      "raw": "TAF VHHH 272000Z 2721/2903 18010KT 9999 FEW010 SCT025 TX32/2806Z TN28/2722Z TN29/2822Z TEMPO 2721/2803 22015G25KT 2500 TSRA SHRA FEW008CB SCT015 TEMPO 2804/2810 24010KT PROB30 TEMPO 2816/2821 VRB15G25KT 2500 TSRA SHRA FEW008CB SCT015",
      "groups": [
        {
          "text": "TAF VHHH 272000Z 2721/2903 18010KT 9999 FEW010 SCT025 TX32/2806Z TN28/2722Z TN29/2822Z",
          "offset_h": -1,
          "wdir": 180,
          "wspd": 10
        },
        {
          "text": "TEMPO 2721/2803 22015G25KT 2500 TSRA SHRA FEW008CB SCT015",
          "offset_h": -1,
          "wdir": 220,
          "wspd": 15
        },
        {
          "text": "TEMPO 2804/2810 24010KT",
          "offset_h": 6,
          "wdir": 240,
          "wspd": 10
        },
        {
          "text": "PROB30",
          "offset_h": 0,
          "wdir": null,
          "wspd": null
        },
        {
          "text": "TEMPO 2816/2821 VRB15G25KT 2500 TSRA SHRA FEW008CB SCT015",
          "offset_h": 18,
          "wdir": "VRB",
          "wspd": 15
        }
      ],
      "metar_raw": "METAR VHHH 272230Z 19007KT 9999 FEW010 30/24 Q1004 NOSIG",
      "metar_wdir": 190,
      "metar_wspd": 7,
      "metar_oat": 30,
      "metar_qnh": 1004,
      "hourly_oat": [
        26,
        26,
        27,
        28,
        28,
        28,
        26,
        26,
        27,
        27,
        27,
        27,
        28,
        28,
        28,
        28,
        28,
        28,
        28,
        28,
        26,
        26,
        26,
        26,
        27
      ]
    },
    "HAN": {
      "icao": "VVNB",
      "issued": "2026-06-27T18:00:00.000Z",
      "raw": "TAF AMD VVNB 271800Z 2718/2818 05005KT 9999 FEW030 TEMPO 2718/2719 3500 TSRA SCT015 FEW027CB TEMPO 2721/2724 4000 TSRA SCT012 FEW027CB TEMPO 2809/2812 3500 TSRA SCT012 FEW027CB",
      "groups": [
        {
          "text": "TAF AMD VVNB 271800Z 2718/2818 05005KT 9999 FEW030",
          "offset_h": -4,
          "wdir": 50,
          "wspd": 5
        },
        {
          "text": "TEMPO 2718/2719 3500 TSRA SCT015 FEW027CB",
          "offset_h": -4,
          "wdir": null,
          "wspd": null
        },
        {
          "text": "TEMPO 2721/2724 4000 TSRA SCT012 FEW027CB",
          "offset_h": -1,
          "wdir": null,
          "wspd": null
        },
        {
          "text": "TEMPO 2809/2812 3500 TSRA SCT012 FEW027CB",
          "offset_h": 11,
          "wdir": null,
          "wspd": null
        }
      ],
      "metar_raw": "METAR VVNB 272230Z 07005KT 5000 BR BKN005 BKN009 26/26 Q1004 NOSIG",
      "metar_wdir": 70,
      "metar_wspd": 5,
      "metar_oat": 26,
      "metar_qnh": 1004,
      "hourly_oat": [
        25,
        25,
        25,
        26,
        27,
        29,
        30,
        31,
        32,
        33,
        33,
        32,
        30,
        28,
        27,
        27,
        27,
        27,
        27,
        26,
        25,
        25,
        25,
        25,
        25
      ]
    },
    "NRT": {
      "icao": "RJAA",
      "issued": "2026-06-27T17:05:00.000Z",
      "raw": "TAF RJAA 271705Z 2718/2900 08006KT 8000 -SHRA FEW005 BKN012 TEMPO 2718/2721 0700 FG FEW001 BKN003 TEMPO 2721/2800 2000 BR FEW002 BKN005 TEMPO 2800/2812 FEW001 BKN003 BECMG 2812/2815 04006KT TEMPO 2812/2821 3000 SHRA BR FEW001 BKN003 TEMPO 2821/2900 FEW001 BKN003",
      "groups": [
        {
          "text": "TAF RJAA 271705Z 2718/2900 08006KT 8000 -SHRA FEW005 BKN012",
          "offset_h": -4,
          "wdir": 80,
          "wspd": 6
        },
        {
          "text": "TEMPO 2718/2721 0700 FG FEW001 BKN003",
          "offset_h": -4,
          "wdir": null,
          "wspd": null
        },
        {
          "text": "TEMPO 2721/2800 2000 BR FEW002 BKN005",
          "offset_h": -1,
          "wdir": null,
          "wspd": null
        },
        {
          "text": "TEMPO 2800/2812 FEW001 BKN003",
          "offset_h": 2,
          "wdir": null,
          "wspd": null
        },
        {
          "text": "BECMG 2812/2815 04006KT",
          "offset_h": 14,
          "wdir": 40,
          "wspd": 6
        },
        {
          "text": "TEMPO 2812/2821 3000 SHRA BR FEW001 BKN003",
          "offset_h": 14,
          "wdir": null,
          "wspd": null
        },
        {
          "text": "TEMPO 2821/2900 FEW001 BKN003",
          "offset_h": 23,
          "wdir": null,
          "wspd": null
        }
      ],
      "metar_raw": "METAR RJAA 272230Z VRB02KT 9999 FEW002 BKN050 21/21 Q1008 BECMG 08006KT",
      "metar_wdir": "VRB",
      "metar_wspd": 2,
      "metar_oat": 21,
      "metar_qnh": 1008,
      "hourly_oat": [
        21,
        21,
        21,
        20,
        20,
        20,
        20,
        21,
        21,
        21,
        21,
        21,
        20,
        20,
        20,
        20,
        20,
        20,
        19,
        19,
        19,
        19,
        19,
        19,
        20
      ]
    },
    "CTS": {
      "icao": "RJCC",
      "issued": "2026-06-27T17:05:00.000Z",
      "raw": "TAF RJCC 271705Z 2718/2900 35016KT 9999 FEW012 SCT020 TEMPO 2718/2721 FEW005 BKN008 TEMPO 2815/2821 FEW005 BKN008",
      "groups": [
        {
          "text": "TAF RJCC 271705Z 2718/2900 35016KT 9999 FEW012 SCT020",
          "offset_h": -4,
          "wdir": 350,
          "wspd": 16
        },
        {
          "text": "TEMPO 2718/2721 FEW005 BKN008",
          "offset_h": -4,
          "wdir": null,
          "wspd": null
        },
        {
          "text": "TEMPO 2815/2821 FEW005 BKN008",
          "offset_h": 17,
          "wdir": null,
          "wspd": null
        }
      ],
      "metar_raw": "METAR RJCC 272230Z 35007KT 9999 FEW005 SCT008 BKN010 19/16 Q1007",
      "metar_wdir": 350,
      "metar_wspd": 7,
      "metar_oat": 19,
      "metar_qnh": 1007,
      "hourly_oat": [
        18,
        19,
        20,
        21,
        21,
        22,
        21,
        21,
        20,
        19,
        18,
        17,
        16,
        15,
        15,
        15,
        14,
        14,
        14,
        14,
        14,
        14,
        14,
        16,
        17
      ]
    },
    "OKA": {
      "icao": "ROAH",
      "issued": "2026-06-27T17:05:00.000Z",
      "raw": "TAF ROAH 271705Z 2718/2900 19014KT 8000 -SHRA FEW008 BKN012 TEMPO 2718/2721 FEW002 BKN005 TEMPO 2721/2800 4000 SHRA BR FEW005 BKN008 FEW020CB TEMPO 2800/2803 4000 TSRA BR FEW005 BKN008 FEW020CB",
      "groups": [
        {
          "text": "TAF ROAH 271705Z 2718/2900 19014KT 8000 -SHRA FEW008 BKN012",
          "offset_h": -4,
          "wdir": 190,
          "wspd": 14
        },
        {
          "text": "TEMPO 2718/2721 FEW002 BKN005",
          "offset_h": -4,
          "wdir": null,
          "wspd": null
        },
        {
          "text": "TEMPO 2721/2800 4000 SHRA BR FEW005 BKN008 FEW020CB",
          "offset_h": -1,
          "wdir": null,
          "wspd": null
        },
        {
          "text": "TEMPO 2800/2803 4000 TSRA BR FEW005 BKN008 FEW020CB",
          "offset_h": 2,
          "wdir": null,
          "wspd": null
        }
      ],
      "metar_raw": "METAR ROAH 272230Z 17012KT 9999 SHRA FEW005 BKN009 BKN030 27/26 Q1009",
      "metar_wdir": 170,
      "metar_wspd": 12,
      "metar_oat": 27,
      "metar_qnh": 1009,
      "hourly_oat": [
        26,
        27,
        28,
        28,
        28,
        28,
        28,
        28,
        28,
        28,
        27,
        27,
        27,
        27,
        26,
        26,
        26,
        26,
        26,
        26,
        26,
        26,
        26,
        26,
        27
      ]
    },
    "FUK": {
      "icao": "RJFF",
      "issued": "2026-06-27T17:05:00.000Z",
      "raw": "TAF RJFF 271705Z 2718/2900 32008KT 9999 FEW006 SCT025 BECMG 2812/2815 15004KT BECMG 2821/2900 28006KT",
      "groups": [
        {
          "text": "TAF RJFF 271705Z 2718/2900 32008KT 9999 FEW006 SCT025",
          "offset_h": -4,
          "wdir": 320,
          "wspd": 8
        },
        {
          "text": "BECMG 2812/2815 15004KT",
          "offset_h": 14,
          "wdir": 150,
          "wspd": 4
        },
        {
          "text": "BECMG 2821/2900 28006KT",
          "offset_h": 23,
          "wdir": 280,
          "wspd": 6
        }
      ],
      "metar_raw": "METAR RJFF 272230Z 35004KT 300V040 9999 FEW005 SCT015 BKN030 22/19 Q1009 NOSIG",
      "metar_wdir": 350,
      "metar_wspd": 4,
      "metar_oat": 22,
      "metar_qnh": 1009,
      "hourly_oat": [
        22,
        22,
        23,
        23,
        24,
        24,
        24,
        24,
        24,
        24,
        23,
        23,
        22,
        22,
        22,
        22,
        21,
        21,
        20,
        20,
        20,
        20,
        19,
        20,
        20
      ]
    },
    "BKK": {
      "icao": "VTBS",
      "issued": "2026-06-27T17:00:00.000Z",
      "raw": "TAF VTBS 271700Z 2718/2824 22008KT 9999 FEW020 TEMPO 2810/2814 VRB15KT 4000 TSRA FEW018CB SCT030 BKN080",
      "groups": [
        {
          "text": "TAF VTBS 271700Z 2718/2824 22008KT 9999 FEW020",
          "offset_h": -4,
          "wdir": 220,
          "wspd": 8
        },
        {
          "text": "TEMPO 2810/2814 VRB15KT 4000 TSRA FEW018CB SCT030 BKN080",
          "offset_h": 12,
          "wdir": "VRB",
          "wspd": 15
        }
      ],
      "metar_raw": "METAR VTBS 272230Z 27003KT 9999 FEW030 28/22 Q1007 NOSIG",
      "metar_wdir": 270,
      "metar_wspd": 3,
      "metar_oat": 28,
      "metar_qnh": 1007,
      "hourly_oat": [
        26,
        26,
        27,
        29,
        30,
        32,
        33,
        34,
        34,
        31,
        33,
        33,
        31,
        26,
        27,
        27,
        27,
        26,
        26,
        27,
        27,
        27,
        27,
        26,
        26
      ]
    },
    "GMP": {
      "icao": "RKSS",
      "issued": "2026-06-27T17:00:00.000Z",
      "raw": "TAF RKSS 271700Z 2718/2824 15005KT CAVOK TN20/2720Z TX32/2806Z TN20/2820Z BECMG 2800/2802 27007KT 9999 SCT040 TEMPO 2806/2808 6000 -SHRA FEW010 BKN030 OVC080 BECMG 2813/2815 21005KT 6000 NSC",
      "groups": [
        {
          "text": "TAF RKSS 271700Z 2718/2824 15005KT CAVOK TN20/2720Z TX32/2806Z TN20/2820Z",
          "offset_h": -4,
          "wdir": 150,
          "wspd": 5
        },
        {
          "text": "BECMG 2800/2802 27007KT 9999 SCT040",
          "offset_h": 2,
          "wdir": 270,
          "wspd": 7
        },
        {
          "text": "TEMPO 2806/2808 6000 -SHRA FEW010 BKN030 OVC080",
          "offset_h": 8,
          "wdir": null,
          "wspd": null
        },
        {
          "text": "BECMG 2813/2815 21005KT 6000 NSC",
          "offset_h": 15,
          "wdir": 210,
          "wspd": 5
        }
      ],
      "metar_raw": "METAR RKSS 272200Z 16003KT 120V190 CAVOK 23/21 Q1008 NOSIG",
      "metar_wdir": 160,
      "metar_wspd": 3,
      "metar_oat": 23,
      "metar_qnh": 1008,
      "hourly_oat": [
        20,
        22,
        24,
        26,
        27,
        28,
        29,
        29,
        29,
        28,
        27,
        26,
        24,
        23,
        22,
        21,
        21,
        21,
        20,
        20,
        20,
        20,
        20,
        20,
        21
      ]
    },
    "SGN": {
      "icao": "VVTS",
      "issued": "2026-06-27T17:00:00.000Z",
      "raw": "TAF VVTS 271700Z 2718/2824 26010KT 9999 SCT017 TEMPO 2805/2810 26015G28KT 3000 TSRA BKN015 SCT017CB TEMPO 2810/2812 TS SCT015 FEW017CB",
      "groups": [
        {
          "text": "TAF VVTS 271700Z 2718/2824 26010KT 9999 SCT017",
          "offset_h": -4,
          "wdir": 260,
          "wspd": 10
        },
        {
          "text": "TEMPO 2805/2810 26015G28KT 3000 TSRA BKN015 SCT017CB",
          "offset_h": 7,
          "wdir": 260,
          "wspd": 15
        },
        {
          "text": "TEMPO 2810/2812 TS SCT015 FEW017CB",
          "offset_h": 12,
          "wdir": null,
          "wspd": null
        }
      ],
      "metar_raw": "METAR VVTS 272230Z 24004KT CAVOK 28/26 Q1007 NOSIG",
      "metar_wdir": 240,
      "metar_wspd": 4,
      "metar_oat": 28,
      "metar_qnh": 1007,
      "hourly_oat": [
        26,
        26,
        27,
        29,
        31,
        32,
        33,
        34,
        34,
        27,
        27,
        29,
        29,
        28,
        28,
        28,
        27,
        27,
        27,
        27,
        26,
        26,
        26,
        26,
        26
      ]
    },
    "SIN": {
      "icao": "WSSS",
      "issued": "2026-06-27T17:00:00.000Z",
      "raw": "TAF WSSS 271700Z 2718/2900 18008KT 9999 FEW015 SCT020",
      "groups": [
        {
          "text": "TAF WSSS 271700Z 2718/2900 18008KT 9999 FEW015 SCT020",
          "offset_h": -4,
          "wdir": 180,
          "wspd": 8
        }
      ],
      "metar_raw": "METAR WSSS 272230Z VRB02KT 9999 FEW015 BKN300 27/25 Q1009 NOSIG",
      "metar_wdir": "VRB",
      "metar_wspd": 2,
      "metar_oat": 27,
      "metar_qnh": 1009,
      "hourly_oat": [
        27,
        27,
        28,
        29,
        30,
        31,
        31,
        32,
        32,
        30,
        30,
        30,
        30,
        29,
        29,
        28,
        28,
        28,
        28,
        28,
        27,
        25,
        24,
        24,
        24
      ]
    },
    "CGK": {
      "icao": "WIII",
      "issued": "2026-06-27T17:00:00.000Z",
      "raw": "TAF WIII 271700Z 2718/2900 18005KT 5000 HZ SCT020 BECMG 2803/2805 03011KT 8000 NSW",
      "groups": [
        {
          "text": "TAF WIII 271700Z 2718/2900 18005KT 5000 HZ SCT020",
          "offset_h": -4,
          "wdir": 180,
          "wspd": 5
        },
        {
          "text": "BECMG 2803/2805 03011KT 8000 NSW",
          "offset_h": 5,
          "wdir": 30,
          "wspd": 11
        }
      ],
      "metar_raw": "METAR WIII 272230Z VRB02KT 3500 HZ FEW020 26/24 Q1009 NOSIG",
      "metar_wdir": "VRB",
      "metar_wspd": 2,
      "metar_oat": 26,
      "metar_qnh": 1009,
      "hourly_oat": [
        24,
        24,
        25,
        27,
        29,
        31,
        32,
        33,
        33,
        33,
        31,
        30,
        29,
        29,
        27,
        27,
        26,
        26,
        25,
        25,
        25,
        24,
        24,
        24,
        24
      ]
    },
    "KUL": {
      "icao": "WMKK",
      "issued": "2026-06-27T17:00:00.000Z",
      "raw": "TAF WMKK 271700Z 2718/2900 VRB03KT 9999 FEW030",
      "groups": [
        {
          "text": "TAF WMKK 271700Z 2718/2900 VRB03KT 9999 FEW030",
          "offset_h": -4,
          "wdir": "VRB",
          "wspd": 3
        }
      ],
      "metar_raw": "METAR WMKK 272230Z 00000KT 9999 FEW017CB 26/24 Q1008 NOSIG",
      "metar_wdir": 0,
      "metar_wspd": 0,
      "metar_oat": 26,
      "metar_qnh": 1008,
      "hourly_oat": [
        24,
        23,
        24,
        25,
        27,
        29,
        30,
        30,
        30,
        31,
        30,
        30,
        29,
        28,
        27,
        26,
        26,
        25,
        25,
        24,
        24,
        24,
        24,
        24,
        23
      ]
    },
    "TPE": {
      "icao": "RCTP",
      "issued": "2026-06-27T17:00:00.000Z",
      "raw": "TAF RCTP 271700Z 2718/2824 14005KT 9999 FEW012 BKN032 TEMPO 2722/2802 27007KT 6000 SHRA FEW010 BKN017 BECMG 2802/2804 34005KT TEMPO 2808/2812 09005KT 6000 SHRA FEW010 BKN017 BECMG 2812/2813 16005KT",
      "groups": [
        {
          "text": "TAF RCTP 271700Z 2718/2824 14005KT 9999 FEW012 BKN032",
          "offset_h": -4,
          "wdir": 140,
          "wspd": 5
        },
        {
          "text": "TEMPO 2722/2802 27007KT 6000 SHRA FEW010 BKN017",
          "offset_h": 0,
          "wdir": 270,
          "wspd": 7
        },
        {
          "text": "BECMG 2802/2804 34005KT",
          "offset_h": 4,
          "wdir": 340,
          "wspd": 5
        },
        {
          "text": "TEMPO 2808/2812 09005KT 6000 SHRA FEW010 BKN017",
          "offset_h": 10,
          "wdir": 90,
          "wspd": 5
        },
        {
          "text": "BECMG 2812/2813 16005KT",
          "offset_h": 14,
          "wdir": 160,
          "wspd": 5
        }
      ],
      "metar_raw": "METAR RCTP 272230Z 16006KT 130V190 9999 FEW015 FEW018TCU BKN035 BKN180 28/25 Q1007 NOSIG RMK TCU W-NW-N A2975",
      "metar_wdir": 160,
      "metar_wspd": 6,
      "metar_oat": 28,
      "metar_qnh": 1007,
      "hourly_oat": [
        24,
        25,
        26,
        28,
        27,
        27,
        27,
        26,
        26,
        26,
        27,
        26,
        26,
        26,
        26,
        26,
        25,
        25,
        25,
        25,
        24,
        24,
        24,
        24,
        25
      ]
    },
    "TSA": {
      "icao": "RCSS",
      "issued": "2026-06-27T17:00:00.000Z",
      "raw": "TAF RCSS 271700Z 2718/2818 09005KT 8000 FEW010 BKN032 BECMG 2722/2724 27005KT TEMPO 2806/2812 10007KT 3000 SHRA FEW008 FEW010CB BKN014",
      "groups": [
        {
          "text": "TAF RCSS 271700Z 2718/2818 09005KT 8000 FEW010 BKN032",
          "offset_h": -4,
          "wdir": 90,
          "wspd": 5
        },
        {
          "text": "BECMG 2722/2724 27005KT",
          "offset_h": 0,
          "wdir": 270,
          "wspd": 5
        },
        {
          "text": "TEMPO 2806/2812 10007KT 3000 SHRA FEW008 FEW010CB BKN014",
          "offset_h": 8,
          "wdir": 100,
          "wspd": 7
        }
      ],
      "metar_raw": "METAR RCSS 272230Z VRB01KT 9999 FEW008 SCT050 BKN100 27/27 Q1007 NOSIG RMK A2976",
      "metar_wdir": "VRB",
      "metar_wspd": 1,
      "metar_oat": 27,
      "metar_qnh": 1007,
      "hourly_oat": [
        25,
        25,
        26,
        28,
        29,
        30,
        29,
        29,
        29,
        29,
        27,
        27,
        27,
        26,
        26,
        25,
        25,
        25,
        25,
        25,
        25,
        24,
        25,
        25,
        25
      ]
    }
  }
}