{
  "updated": "2026-07-08T07:26:13Z",
  "tafs": {
    "HKG": {
      "icao": "VHHH",
      "issued": "2026-07-08T07:05:00.000Z",
      "raw": "TAF AMD VHHH 080705Z 0807/0912 16010KT 9999 FEW010 SCT025 TX31/0807Z TX33/0906Z TN28/0822Z TEMPO 0807/0810 18020G30KT 1500 TSRA +SHRA FEW008CB SCT015 TEMPO 0821/0824 3000 SHRA FEW008CB SCT020 TEMPO 0904/0909 24010KT",
      "groups": [
        {
          "text": "TAF AMD VHHH 080705Z 0807/0912 16010KT 9999 FEW010 SCT025 TX31/0807Z TX33/0906Z TN28/0822Z",
          "offset_h": 0,
          "wdir": 160,
          "wspd": 10
        },
        {
          "text": "TEMPO 0807/0810 18020G30KT 1500 TSRA +SHRA FEW008CB SCT015",
          "offset_h": 0,
          "wdir": 180,
          "wspd": 20
        },
        {
          "text": "TEMPO 0821/0824 3000 SHRA FEW008CB SCT020",
          "offset_h": 14,
          "wdir": null,
          "wspd": null
        },
        {
          "text": "TEMPO 0904/0909 24010KT",
          "offset_h": 21,
          "wdir": 240,
          "wspd": 10
        }
      ],
      "metar_raw": "SPECI VHHH 080714Z 16009KT 130V210 9999 TS VCSH FEW010 FEW018CB SCT025 31/25 Q1005 TEMPO 18020G30KT 2000 TSRA SHRA FEW008CB SCT015",
      "metar_wdir": 160,
      "metar_wspd": 9,
      "metar_oat": 31,
      "metar_qnh": 1005,
      "hourly_oat": [
        29,
        29,
        29,
        29,
        29,
        28,
        29,
        29,
        29,
        29,
        29,
        28,
        27,
        28,
        28,
        27,
        27,
        27,
        27,
        28,
        28,
        29,
        29,
        30,
        29
      ]
    },
    "LAX": {
      "icao": "KLAX",
      "issued": "2026-07-08T05:38:00.000Z",
      "raw": "TAF KLAX 080538Z 0806/0912 25006KT P6SM SKC FM080900 VRB03KT 5SM BR SCT008 FM081700 25012KT P6SM SKC FM090300 26006KT P6SM SKC FM090900 VRB03KT P6SM SKC",
      "groups": [
        {
          "text": "TAF KLAX 080538Z 0806/0912 25006KT P6SM SKC",
          "offset_h": -1,
          "wdir": 250,
          "wspd": 6
        },
        {
          "text": "FM080900 VRB03KT 5SM BR SCT008",
          "offset_h": 2,
          "wdir": "VRB",
          "wspd": 3
        },
        {
          "text": "FM081700 25012KT P6SM SKC",
          "offset_h": 10,
          "wdir": 250,
          "wspd": 12
        },
        {
          "text": "FM090300 26006KT P6SM SKC",
          "offset_h": 20,
          "wdir": 260,
          "wspd": 6
        },
        {
          "text": "FM090900 VRB03KT P6SM SKC",
          "offset_h": 26,
          "wdir": "VRB",
          "wspd": 3
        }
      ],
      "metar_raw": "METAR KLAX 080653Z 23006KT 10SM CLR 18/14 A2994 RMK AO2 SLP134 T01830144 $",
      "metar_wdir": 230,
      "metar_wspd": 6,
      "metar_oat": 18,
      "metar_qnh": 1014,
      "hourly_oat": [
        17,
        16,
        16,
        15,
        15,
        14,
        14,
        17,
        20,
        23,
        25,
        25,
        25,
        24,
        24,
        24,
        24,
        23,
        23,
        22,
        20,
        19,
        18,
        18,
        17
      ]
    },
    "HNL": {
      "icao": "PHNL",
      "issued": "2026-07-08T05:36:00.000Z",
      "raw": "TAF PHNL 080536Z 0806/0912 05014G22KT P6SM FEW025 SCT030 FM081000 05011KT P6SM SCT025 SCT040 FM082000 06018G26KT P6SM FEW025 SCT040 FM090500 05014G22KT P6SM SCT025 SCT040",
      "groups": [
        {
          "text": "TAF PHNL 080536Z 0806/0912 05014G22KT P6SM FEW025 SCT030",
          "offset_h": -1,
          "wdir": 50,
          "wspd": 14
        },
        {
          "text": "FM081000 05011KT P6SM SCT025 SCT040",
          "offset_h": 3,
          "wdir": 50,
          "wspd": 11
        },
        {
          "text": "FM082000 06018G26KT P6SM FEW025 SCT040",
          "offset_h": 13,
          "wdir": 60,
          "wspd": 18
        },
        {
          "text": "FM090500 05014G22KT P6SM SCT025 SCT040",
          "offset_h": 22,
          "wdir": 50,
          "wspd": 14
        }
      ],
      "metar_raw": "METAR PHNL 080653Z 06007KT 10SM FEW024 FEW032 25/19 A3004 RMK AO2 SLP170 T02500194 $",
      "metar_wdir": 60,
      "metar_wspd": 7,
      "metar_oat": 25,
      "metar_qnh": 1017,
      "hourly_oat": [
        24,
        24,
        24,
        23,
        23,
        23,
        23,
        23,
        23,
        23,
        24,
        25,
        27,
        28,
        29,
        29,
        29,
        29,
        28,
        27,
        27,
        26,
        25,
        24,
        24
      ]
    },
    "SAN": {
      "icao": "KSAN",
      "issued": "2026-07-08T05:20:00.000Z",
      "raw": "TAF KSAN 080520Z 0806/0912 VRB03KT P6SM BKN011 FM081600 VRB04KT P6SM FEW015 FM081800 27011KT P6SM SKC FM090200 VRB04KT P6SM FEW010 FM090800 VRB03KT P6SM BKN010",
      "groups": [
        {
          "text": "TAF KSAN 080520Z 0806/0912 VRB03KT P6SM BKN011",
          "offset_h": -1,
          "wdir": "VRB",
          "wspd": 3
        },
        {
          "text": "FM081600 VRB04KT P6SM FEW015",
          "offset_h": 9,
          "wdir": "VRB",
          "wspd": 4
        },
        {
          "text": "FM081800 27011KT P6SM SKC",
          "offset_h": 11,
          "wdir": 270,
          "wspd": 11
        },
        {
          "text": "FM090200 VRB04KT P6SM FEW010",
          "offset_h": 19,
          "wdir": "VRB",
          "wspd": 4
        },
        {
          "text": "FM090800 VRB03KT P6SM BKN010",
          "offset_h": 25,
          "wdir": "VRB",
          "wspd": 3
        }
      ],
      "metar_raw": "METAR KSAN 080651Z 29003KT 10SM SCT010 19/17 A2997 RMK AO2 SLP149 T01940167 $",
      "metar_wdir": 290,
      "metar_wspd": 3,
      "metar_oat": 19,
      "metar_qnh": 1015,
      "hourly_oat": [
        18,
        18,
        17,
        18,
        18,
        18,
        18,
        18,
        19,
        20,
        23,
        24,
        25,
        25,
        24,
        24,
        24,
        24,
        22,
        21,
        20,
        20,
        19,
        18,
        18
      ]
    },
    "ITM": {
      "icao": "RJOO",
      "issued": "2026-07-08T05:09:00.000Z",
      "raw": "TAF RJOO 080509Z 0806/0912 24006KT 9999 FEW020 SCT040 BECMG 0821/0900 22007KT BECMG 0906/0909 25006KT",
      "groups": [
        {
          "text": "TAF RJOO 080509Z 0806/0912 24006KT 9999 FEW020 SCT040",
          "offset_h": -1,
          "wdir": 240,
          "wspd": 6
        },
        {
          "text": "BECMG 0821/0900 22007KT",
          "offset_h": 14,
          "wdir": 220,
          "wspd": 7
        },
        {
          "text": "BECMG 0906/0909 25006KT",
          "offset_h": 23,
          "wdir": 250,
          "wspd": 6
        }
      ],
      "metar_raw": "METAR RJOO 080700Z 22007KT 110V270 9999 FEW035 SCT/// 30/20 Q1011",
      "metar_wdir": 220,
      "metar_wspd": 7,
      "metar_oat": 30,
      "metar_qnh": 1011,
      "hourly_oat": [
        27,
        27,
        26,
        26,
        25,
        25,
        24,
        24,
        24,
        24,
        24,
        23,
        23,
        23,
        23,
        24,
        25,
        26,
        28,
        30,
        31,
        31,
        31,
        30,
        29
      ]
    },
    "KIX": {
      "icao": "RJBB",
      "issued": "2026-07-08T05:09:00.000Z",
      "raw": "TAF RJBB 080509Z 0806/0912 22012KT 9999 FEW020 SCT040 BECMG 0818/0821 06005KT BECMG 0900/0903 24014KT",
      "groups": [
        {
          "text": "TAF RJBB 080509Z 0806/0912 22012KT 9999 FEW020 SCT040",
          "offset_h": -1,
          "wdir": 220,
          "wspd": 12
        },
        {
          "text": "BECMG 0818/0821 06005KT",
          "offset_h": 11,
          "wdir": 60,
          "wspd": 5
        },
        {
          "text": "BECMG 0900/0903 24014KT",
          "offset_h": 17,
          "wdir": 240,
          "wspd": 14
        }
      ],
      "metar_raw": "METAR RJBB 080700Z 24014KT 9999 FEW025 BKN070 26/23 Q1012 NOSIG",
      "metar_wdir": 240,
      "metar_wspd": 14,
      "metar_oat": 26,
      "metar_qnh": 1012,
      "hourly_oat": [
        25,
        25,
        25,
        25,
        25,
        25,
        25,
        25,
        25,
        24,
        24,
        24,
        24,
        24,
        24,
        24,
        24,
        24,
        24,
        24,
        24,
        25,
        25,
        26,
        26
      ]
    },
    "NGO": {
      "icao": "RJGG",
      "issued": "2026-07-08T05:05:00.000Z",
      "raw": "TAF RJGG 080505Z 0806/0912 14010KT 9999 FEW030 BECMG 0818/0821 23008KT BECMG 0906/0909 15012KT",
      "groups": [
        {
          "text": "TAF RJGG 080505Z 0806/0912 14010KT 9999 FEW030",
          "offset_h": -1,
          "wdir": 140,
          "wspd": 10
        },
        {
          "text": "BECMG 0818/0821 23008KT",
          "offset_h": 11,
          "wdir": 230,
          "wspd": 8
        },
        {
          "text": "BECMG 0906/0909 15012KT",
          "offset_h": 23,
          "wdir": 150,
          "wspd": 12
        }
      ],
      "metar_raw": "METAR RJGG 080700Z 17012KT 9999 FEW020 BKN/// 27/20 Q1013 NOSIG",
      "metar_wdir": 170,
      "metar_wspd": 12,
      "metar_oat": 27,
      "metar_qnh": 1013,
      "hourly_oat": [
        24,
        24,
        24,
        24,
        24,
        23,
        23,
        23,
        23,
        23,
        23,
        23,
        23,
        23,
        22,
        23,
        23,
        23,
        23,
        23,
        23,
        24,
        25,
        25,
        25
      ]
    },
    "FUK": {
      "icao": "RJFF",
      "issued": "2026-07-08T05:05:00.000Z",
      "raw": "TAF RJFF 080505Z 0806/0912 33006KT 9999 FEW025 BKN030 BECMG 0812/0814 14004KT BECMG 0900/0903 31011KT",
      "groups": [
        {
          "text": "TAF RJFF 080505Z 0806/0912 33006KT 9999 FEW025 BKN030",
          "offset_h": -1,
          "wdir": 330,
          "wspd": 6
        },
        {
          "text": "BECMG 0812/0814 14004KT",
          "offset_h": 5,
          "wdir": 140,
          "wspd": 4
        },
        {
          "text": "BECMG 0900/0903 31011KT",
          "offset_h": 17,
          "wdir": 310,
          "wspd": 11
        }
      ],
      "metar_raw": "METAR RJFF 080700Z 36008KT 310V030 9999 FEW030 SCT050 32/24 Q1009 NOSIG",
      "metar_wdir": 360,
      "metar_wspd": 8,
      "metar_oat": 32,
      "metar_qnh": 1009,
      "hourly_oat": [
        29,
        29,
        29,
        29,
        28,
        28,
        27,
        27,
        26,
        26,
        26,
        26,
        26,
        25,
        25,
        26,
        27,
        29,
        30,
        30,
        29,
        29,
        29,
        30,
        29
      ]
    },
    "CTS": {
      "icao": "RJCC",
      "issued": "2026-07-08T05:05:00.000Z",
      "raw": "TAF RJCC 080505Z 0806/0912 17010KT 6000 FEW005 BKN012 TEMPO 0806/0808 FEW002 BKN006 TEMPO 0808/0815 3000 BR FEW002 BKN005 TEMPO 0815/0900 1500 -SHRA BR FEW001 BKN003 TEMPO 0900/0912 3000 -SHRA BR FEW002 BKN005",
      "groups": [
        {
          "text": "TAF RJCC 080505Z 0806/0912 17010KT 6000 FEW005 BKN012",
          "offset_h": -1,
          "wdir": 170,
          "wspd": 10
        },
        {
          "text": "TEMPO 0806/0808 FEW002 BKN006",
          "offset_h": -1,
          "wdir": null,
          "wspd": null
        },
        {
          "text": "TEMPO 0808/0815 3000 BR FEW002 BKN005",
          "offset_h": 1,
          "wdir": null,
          "wspd": null
        },
        {
          "text": "TEMPO 0815/0900 1500 -SHRA BR FEW001 BKN003",
          "offset_h": 8,
          "wdir": null,
          "wspd": null
        },
        {
          "text": "TEMPO 0900/0912 3000 -SHRA BR FEW002 BKN005",
          "offset_h": 17,
          "wdir": null,
          "wspd": null
        }
      ],
      "metar_raw": "METAR RJCC 080700Z 18013KT 9999 FEW010 SCT018 BKN020 22/18 Q1014",
      "metar_wdir": 180,
      "metar_wspd": 13,
      "metar_oat": 22,
      "metar_qnh": 1014,
      "hourly_oat": [
        21,
        20,
        19,
        18,
        18,
        18,
        18,
        18,
        18,
        17,
        17,
        18,
        17,
        18,
        19,
        20,
        19,
        18,
        19,
        19,
        19,
        19,
        20,
        20,
        20
      ]
    },
    "NRT": {
      "icao": "RJAA",
      "issued": "2026-07-08T05:05:00.000Z",
      "raw": "TAF RJAA 080505Z 0806/0912 14008KT 9999 FEW020",
      "groups": [
        {
          "text": "TAF RJAA 080505Z 0806/0912 14008KT 9999 FEW020",
          "offset_h": -1,
          "wdir": 140,
          "wspd": 8
        }
      ],
      "metar_raw": "METAR RJAA 080700Z 12010KT 9999 SCT030 BKN/// 26/21 Q1013 NOSIG",
      "metar_wdir": 120,
      "metar_wspd": 10,
      "metar_oat": 26,
      "metar_qnh": 1013,
      "hourly_oat": [
        26,
        25,
        24,
        23,
        23,
        22,
        22,
        22,
        22,
        21,
        21,
        20,
        20,
        20,
        22,
        23,
        24,
        25,
        26,
        28,
        28,
        28,
        28,
        28,
        27
      ]
    },
    "HND": {
      "icao": "RJTT",
      "issued": "2026-07-08T05:05:00.000Z",
      "raw": "TAF RJTT 080505Z 0806/0912 12006KT 9999 FEW020 SCT040 BECMG 0806/0808 19010KT",
      "groups": [
        {
          "text": "TAF RJTT 080505Z 0806/0912 12006KT 9999 FEW020 SCT040",
          "offset_h": -1,
          "wdir": 120,
          "wspd": 6
        },
        {
          "text": "BECMG 0806/0808 19010KT",
          "offset_h": -1,
          "wdir": 190,
          "wspd": 10
        }
      ],
      "metar_raw": "METAR RJTT 080700Z 09011KT 9999 FEW030 BKN/// 27/21 Q1013 BECMG FM0800 TL0830 19008KT",
      "metar_wdir": 90,
      "metar_wspd": 11,
      "metar_oat": 27,
      "metar_qnh": 1013,
      "hourly_oat": [
        28,
        26,
        25,
        25,
        24,
        24,
        24,
        24,
        23,
        23,
        23,
        23,
        22,
        22,
        23,
        23,
        24,
        25,
        26,
        27,
        28,
        28,
        28,
        28,
        28
      ]
    },
    "OKA": {
      "icao": "ROAH",
      "issued": "2026-07-08T05:05:00.000Z",
      "raw": "TAF ROAH 080505Z 0806/0912 06012KT 9999 FEW020 SCT025",
      "groups": [
        {
          "text": "TAF ROAH 080505Z 0806/0912 06012KT 9999 FEW020 SCT025",
          "offset_h": -1,
          "wdir": 60,
          "wspd": 12
        }
      ],
      "metar_raw": "METAR ROAH 080700Z 05013KT 9999 FEW035 33/25 Q1007",
      "metar_wdir": 50,
      "metar_wspd": 13,
      "metar_oat": 33,
      "metar_qnh": 1007,
      "hourly_oat": [
        32,
        32,
        30,
        29,
        29,
        29,
        28,
        28,
        28,
        28,
        28,
        28,
        28,
        28,
        28,
        29,
        30,
        31,
        32,
        32,
        33,
        33,
        33,
        32,
        32
      ]
    },
    "HAN": {
      "icao": "VVNB",
      "issued": "2026-07-08T05:00:00.000Z",
      "raw": "TAF VVNB 080500Z 0806/0906 09005KT 9999 SCT020 TEMPO 0806/0809 3500 TSRA SCT010 FEW027CB TEMPO 0811/0815 3000 +TSRA BKN010 FEW027CB",
      "groups": [
        {
          "text": "TAF VVNB 080500Z 0806/0906 09005KT 9999 SCT020",
          "offset_h": -1,
          "wdir": 90,
          "wspd": 5
        },
        {
          "text": "TEMPO 0806/0809 3500 TSRA SCT010 FEW027CB",
          "offset_h": -1,
          "wdir": null,
          "wspd": null
        },
        {
          "text": "TEMPO 0811/0815 3000 +TSRA BKN010 FEW027CB",
          "offset_h": 4,
          "wdir": null,
          "wspd": null
        }
      ],
      "metar_raw": "METAR VVNB 080700Z 32004KT 260V030 9999 FEW032 SCT041 34/28 Q1000 NOSIG",
      "metar_wdir": 320,
      "metar_wspd": 4,
      "metar_oat": 34,
      "metar_qnh": 1000,
      "hourly_oat": [
        33,
        28,
        28,
        28,
        28,
        28,
        28,
        27,
        27,
        27,
        25,
        25,
        25,
        24,
        24,
        25,
        25,
        25,
        25,
        27,
        28,
        29,
        30,
        30,
        30
      ]
    },
    "KUL": {
      "icao": "WMKK",
      "issued": "2026-07-08T05:00:00.000Z",
      "raw": "TAF WMKK 080500Z 0806/0912 VRB03KT 9999 FEW018 TEMPO 0807/0811 5000 TSRA FEW017CB",
      "groups": [
        {
          "text": "TAF WMKK 080500Z 0806/0912 VRB03KT 9999 FEW018",
          "offset_h": -1,
          "wdir": "VRB",
          "wspd": 3
        },
        {
          "text": "TEMPO 0807/0811 5000 TSRA FEW017CB",
          "offset_h": 0,
          "wdir": null,
          "wspd": null
        }
      ],
      "metar_raw": "METAR WMKK 080700Z VRB04KT 9999 FEW018 33/21 Q1009 NOSIG",
      "metar_wdir": "VRB",
      "metar_wspd": 4,
      "metar_oat": 33,
      "metar_qnh": 1009,
      "hourly_oat": [
        30,
        30,
        30,
        29,
        28,
        27,
        27,
        26,
        26,
        26,
        26,
        25,
        25,
        25,
        25,
        25,
        25,
        25,
        27,
        28,
        29,
        30,
        30,
        30,
        30
      ]
    },
    "BKK": {
      "icao": "VTBS",
      "issued": "2026-07-08T05:00:00.000Z",
      "raw": "TAF VTBS 080500Z 0806/0912 21008KT 9999 FEW020 TEMPO 0810/0814 VRB15KT 4000 TSRA FEW018CB SCT030 BKN100 BECMG 0814/0816 27008KT TEMPO 0908/0912 VRB15G25KT 4000 TSRA FEW018CB SCT030 BKN100",
      "groups": [
        {
          "text": "TAF VTBS 080500Z 0806/0912 21008KT 9999 FEW020",
          "offset_h": -1,
          "wdir": 210,
          "wspd": 8
        },
        {
          "text": "TEMPO 0810/0814 VRB15KT 4000 TSRA FEW018CB SCT030 BKN100",
          "offset_h": 3,
          "wdir": "VRB",
          "wspd": 15
        },
        {
          "text": "BECMG 0814/0816 27008KT",
          "offset_h": 7,
          "wdir": 270,
          "wspd": 8
        },
        {
          "text": "TEMPO 0908/0912 VRB15G25KT 4000 TSRA FEW018CB SCT030 BKN100",
          "offset_h": 25,
          "wdir": "VRB",
          "wspd": 15
        }
      ],
      "metar_raw": "METAR VTBS 080700Z 22012KT 9999 FEW020 33/22 Q1008 NOSIG",
      "metar_wdir": 220,
      "metar_wspd": 12,
      "metar_oat": 33,
      "metar_qnh": 1008,
      "hourly_oat": [
        31,
        31,
        32,
        28,
        26,
        26,
        26,
        27,
        28,
        28,
        27,
        27,
        26,
        26,
        26,
        26,
        26,
        28,
        29,
        30,
        31,
        32,
        32,
        33,
        33
      ]
    },
    "SGN": {
      "icao": "VVTS",
      "issued": "2026-07-08T05:00:00.000Z",
      "raw": "TAF VVTS 080500Z 0806/0912 24012KT 9999 SCT017 TEMPO 0806/0809 24015G25KT 5000 TSRA BKN015 FEW017CB TEMPO 0809/0812 24016G28KT 2000 +TSRA BKN013 SCT015CB TEMPO 0812/0814 5000 TSRA BKN015 FEW017CB TEMPO 0904/0910 2415G25KT 4000 TSRA BKN015 FEW017CB",
      "groups": [
        {
          "text": "TAF VVTS 080500Z 0806/0912 24012KT 9999 SCT017",
          "offset_h": -1,
          "wdir": 240,
          "wspd": 12
        },
        {
          "text": "TEMPO 0806/0809 24015G25KT 5000 TSRA BKN015 FEW017CB",
          "offset_h": -1,
          "wdir": 240,
          "wspd": 15
        },
        {
          "text": "TEMPO 0809/0812 24016G28KT 2000 +TSRA BKN013 SCT015CB",
          "offset_h": 2,
          "wdir": 240,
          "wspd": 16
        },
        {
          "text": "TEMPO 0812/0814 5000 TSRA BKN015 FEW017CB",
          "offset_h": 5,
          "wdir": null,
          "wspd": null
        },
        {
          "text": "TEMPO 0904/0910 2415G25KT 4000 TSRA BKN015 FEW017CB",
          "offset_h": 21,
          "wdir": null,
          "wspd": null
        }
      ],
      "metar_raw": "METAR VVTS 080700Z 25014KT 220V280 9999 SCT021 FEW023CB SCT043 33/25 Q1007 NOSIG",
      "metar_wdir": 250,
      "metar_wspd": 14,
      "metar_oat": 33,
      "metar_qnh": 1007,
      "hourly_oat": [
        26,
        29,
        29,
        26,
        26,
        26,
        26,
        26,
        26,
        26,
        26,
        26,
        25,
        25,
        25,
        25,
        25,
        26,
        28,
        28,
        30,
        32,
        32,
        33,
        33
      ]
    },
    "TSA": {
      "icao": "RCSS",
      "issued": "2026-07-08T05:00:00.000Z",
      "raw": "TAF RCSS 080500Z 0806/0906 32010KT 9999 FEW015 TEMPO 0806/0810 10005KT 4000 SHRA FEW012 FEW015CB BKN025 BKN060 BECMG 0812/0814 09005KT TEMPO 0900/0906 08010KT",
      "groups": [
        {
          "text": "TAF RCSS 080500Z 0806/0906 32010KT 9999 FEW015",
          "offset_h": -1,
          "wdir": 320,
          "wspd": 10
        },
        {
          "text": "TEMPO 0806/0810 10005KT 4000 SHRA FEW012 FEW015CB BKN025 BKN060",
          "offset_h": -1,
          "wdir": 100,
          "wspd": 5
        },
        {
          "text": "BECMG 0812/0814 09005KT",
          "offset_h": 5,
          "wdir": 90,
          "wspd": 5
        },
        {
          "text": "TEMPO 0900/0906 08010KT",
          "offset_h": 17,
          "wdir": 80,
          "wspd": 10
        }
      ],
      "metar_raw": "METAR RCSS 080700Z 29009KT 260V330 9999 FEW025 34/26 Q1007 NOSIG RMK 31007KT/R10 A2974",
      "metar_wdir": 290,
      "metar_wspd": 9,
      "metar_oat": 34,
      "metar_qnh": 1007,
      "hourly_oat": [
        33,
        33,
        33,
        32,
        30,
        29,
        28,
        27,
        26,
        26,
        25,
        24,
        24,
        24,
        24,
        24,
        25,
        28,
        30,
        32,
        33,
        34,
        33,
        33,
        33
      ]
    },
    "TPE": {
      "icao": "RCTP",
      "issued": "2026-07-08T05:00:00.000Z",
      "raw": "TAF RCTP 080500Z 0806/0912 28012KT 9999 FEW015 BECMG 0812/0814 22005KT BECMG 0900/0902 02010KT BECMG 0906/0908 03015KT TEMPO 0908/0912 04020KT",
      "groups": [
        {
          "text": "TAF RCTP 080500Z 0806/0912 28012KT 9999 FEW015",
          "offset_h": -1,
          "wdir": 280,
          "wspd": 12
        },
        {
          "text": "BECMG 0812/0814 22005KT",
          "offset_h": 5,
          "wdir": 220,
          "wspd": 5
        },
        {
          "text": "BECMG 0900/0902 02010KT",
          "offset_h": 17,
          "wdir": 20,
          "wspd": 10
        },
        {
          "text": "BECMG 0906/0908 03015KT",
          "offset_h": 23,
          "wdir": 30,
          "wspd": 15
        },
        {
          "text": "TEMPO 0908/0912 04020KT",
          "offset_h": 25,
          "wdir": 40,
          "wspd": 20
        }
      ],
      "metar_raw": "METAR RCTP 080700Z 29010KT 260V320 9999 FEW020 33/25 Q1007 NOSIG RMK A2975",
      "metar_wdir": 290,
      "metar_wspd": 10,
      "metar_oat": 33,
      "metar_qnh": 1007,
      "hourly_oat": [
        31,
        31,
        31,
        30,
        30,
        29,
        29,
        28,
        28,
        27,
        27,
        26,
        26,
        26,
        26,
        26,
        27,
        28,
        30,
        30,
        30,
        30,
        30,
        30,
        31
      ]
    },
    "GMP": {
      "icao": "RKSS",
      "issued": "2026-07-08T05:00:00.000Z",
      "raw": "TAF RKSS 080500Z 0806/0912 22008KT 9999 FEW010 BKN035 OVC070 TN24/0820Z TX27/0906Z TEMPO 0807/0811 6000 -RA FEW010 BKN020 OVC070 BECMG 0814/0816 16006KT 6000 -RA TEMPO 0820/0823 3500 RA SCT010CB BKN020 OVC070 BECMG 0900/0902 22010KT BECMG 0910/0912 16006KT NSW FEW010 BKN035 OVC080",
      "groups": [
        {
          "text": "TAF RKSS 080500Z 0806/0912 22008KT 9999 FEW010 BKN035 OVC070 TN24/0820Z TX27/0906Z",
          "offset_h": -1,
          "wdir": 220,
          "wspd": 8
        },
        {
          "text": "TEMPO 0807/0811 6000 -RA FEW010 BKN020 OVC070",
          "offset_h": 0,
          "wdir": null,
          "wspd": null
        },
        {
          "text": "BECMG 0814/0816 16006KT 6000 -RA",
          "offset_h": 7,
          "wdir": 160,
          "wspd": 6
        },
        {
          "text": "TEMPO 0820/0823 3500 RA SCT010CB BKN020 OVC070",
          "offset_h": 13,
          "wdir": null,
          "wspd": null
        },
        {
          "text": "BECMG 0900/0902 22010KT",
          "offset_h": 17,
          "wdir": 220,
          "wspd": 10
        },
        {
          "text": "BECMG 0910/0912 16006KT NSW FEW010 BKN035 OVC080",
          "offset_h": 27,
          "wdir": 160,
          "wspd": 6
        }
      ],
      "metar_raw": "METAR RKSS 080700Z 21011KT 9999 SCT015 SCT030 BKN080 28/23 Q1005 NOSIG",
      "metar_wdir": 210,
      "metar_wspd": 11,
      "metar_oat": 28,
      "metar_qnh": 1005,
      "hourly_oat": [
        27,
        26,
        25,
        25,
        24,
        24,
        24,
        24,
        24,
        24,
        24,
        24,
        24,
        24,
        24,
        24,
        25,
        25,
        26,
        27,
        27,
        27,
        26,
        26,
        26
      ]
    },
    "SIN": {
      "icao": "WSSS",
      "issued": "2026-07-08T05:00:00.000Z",
      "raw": "TAF WSSS 080500Z 0806/0912 17008KT 9999 FEW015 SCT020",
      "groups": [
        {
          "text": "TAF WSSS 080500Z 0806/0912 17008KT 9999 FEW015 SCT020",
          "offset_h": -1,
          "wdir": 170,
          "wspd": 8
        }
      ],
      "metar_raw": "METAR WSSS 080700Z 19007KT 140V210 9999 FEW018TCU SCT300 31/25 Q1010 NOSIG",
      "metar_wdir": 190,
      "metar_wspd": 7,
      "metar_oat": 31,
      "metar_qnh": 1010,
      "hourly_oat": [
        30,
        29,
        29,
        29,
        28,
        28,
        28,
        27,
        27,
        27,
        27,
        27,
        27,
        27,
        27,
        27,
        26,
        27,
        27,
        28,
        29,
        30,
        29,
        30,
        30
      ]
    },
    "CGK": {
      "icao": "WIII",
      "issued": "2026-07-08T05:00:00.000Z",
      "raw": "TAF WIII 080500Z 0806/0912 32012KT 5000 HZ FEW020 BECMG 0812/0814 20005KT",
      "groups": [
        {
          "text": "TAF WIII 080500Z 0806/0912 32012KT 5000 HZ FEW020",
          "offset_h": -1,
          "wdir": 320,
          "wspd": 12
        },
        {
          "text": "BECMG 0812/0814 20005KT",
          "offset_h": 5,
          "wdir": 200,
          "wspd": 5
        }
      ],
      "metar_raw": "METAR WIII 080700Z 02009KT 330V050 7000 FEW020 33/20 Q1009 NOSIG",
      "metar_wdir": 20,
      "metar_wspd": 9,
      "metar_oat": 33,
      "metar_qnh": 1009,
      "hourly_oat": [
        32,
        32,
        31,
        30,
        29,
        28,
        28,
        28,
        28,
        27,
        26,
        26,
        25,
        25,
        24,
        24,
        24,
        25,
        27,
        29,
        30,
        31,
        31,
        32,
        32
      ]
    },
    "DLC": {
      "icao": "ZYTL",
      "issued": "2026-07-08T04:31:00.000Z",
      "raw": "TAF AMD ZYTL 080431Z 0800/0824 18004MPS 5000 BR FEW030 TX29/0806Z TN22/0820Z",
      "groups": [
        {
          "text": "TAF AMD ZYTL 080431Z 0800/0824 18004MPS 5000 BR FEW030 TX29/0806Z TN22/0820Z",
          "offset_h": -7,
          "wdir": null,
          "wspd": null
        }
      ],
      "metar_raw": "METAR ZYTL 080700Z 15006MPS 9999 FEW030 28/20 Q1001 NOSIG",
      "metar_wdir": null,
      "metar_wspd": null,
      "metar_oat": 28,
      "metar_qnh": 1001,
      "hourly_oat": [
        29,
        28,
        28,
        27,
        25,
        24,
        24,
        24,
        24,
        24,
        22,
        22,
        22,
        22,
        22,
        22,
        23,
        24,
        26,
        28,
        30,
        31,
        28,
        27,
        27
      ]
    },
    "PEK": {
      "icao": "ZBAA",
      "issued": "2026-07-08T03:12:00.000Z",
      "raw": "TAF ZBAA 080312Z 0806/0912 17004MPS CAVOK TX33/0807Z TX33/0906Z TN22/0821Z TEMPO 0807/0810 -TSRA FEW040CB BKN040 TEMPO 0815/0819 -TSRA FEW040CB BKN040",
      "groups": [
        {
          "text": "TAF ZBAA 080312Z 0806/0912 17004MPS CAVOK TX33/0807Z TX33/0906Z TN22/0821Z",
          "offset_h": -1,
          "wdir": null,
          "wspd": null
        },
        {
          "text": "TEMPO 0807/0810 -TSRA FEW040CB BKN040",
          "offset_h": 0,
          "wdir": null,
          "wspd": null
        },
        {
          "text": "TEMPO 0815/0819 -TSRA FEW040CB BKN040",
          "offset_h": 8,
          "wdir": null,
          "wspd": null
        }
      ],
      "metar_raw": "METAR ZBAA 080700Z 16004MPS 120V190 9999 FEW040 31/22 Q0998 NOSIG",
      "metar_wdir": null,
      "metar_wspd": null,
      "metar_oat": 31,
      "metar_qnh": 998,
      "hourly_oat": [
        31,
        31,
        30,
        30,
        28,
        26,
        26,
        26,
        25,
        24,
        24,
        24,
        23,
        24,
        24,
        24,
        25,
        26,
        26,
        28,
        29,
        30,
        31,
        32,
        32
      ]
    },
    "PVG": {
      "icao": "ZSPD",
      "issued": "2026-07-08T03:05:00.000Z",
      "raw": "TAF ZSPD 080305Z 0806/0912 17004MPS 8000 SCT030 TX36/0806Z TX35/0906Z TN28/0821Z",
      "groups": [
        {
          "text": "TAF ZSPD 080305Z 0806/0912 17004MPS 8000 SCT030 TX36/0806Z TX35/0906Z TN28/0821Z",
          "offset_h": -1,
          "wdir": null,
          "wspd": null
        }
      ],
      "metar_raw": "METAR ZSPD 080700Z 25004MPS 210V290 CAVOK 36/24 Q1004 NOSIG",
      "metar_wdir": null,
      "metar_wspd": null,
      "metar_oat": 36,
      "metar_qnh": 1004,
      "hourly_oat": [
        34,
        34,
        33,
        31,
        30,
        29,
        29,
        28,
        28,
        28,
        28,
        27,
        27,
        27,
        27,
        27,
        28,
        29,
        30,
        30,
        30,
        31,
        31,
        30,
        30
      ]
    },
    "SHA": {
      "icao": "ZSSS",
      "issued": "2026-07-08T03:04:00.000Z",
      "raw": "TAF ZSSS 080304Z 0806/0912 18004MPS 8000 SCT030 TX36/0806Z TX35/0906Z TN28/0821Z TEMPO 0818/0822 TSRA BKN013 SCT030CB",
      "groups": [
        {
          "text": "TAF ZSSS 080304Z 0806/0912 18004MPS 8000 SCT030 TX36/0806Z TX35/0906Z TN28/0821Z",
          "offset_h": -1,
          "wdir": null,
          "wspd": null
        },
        {
          "text": "TEMPO 0818/0822 TSRA BKN013 SCT030CB",
          "offset_h": 11,
          "wdir": null,
          "wspd": null
        }
      ],
      "metar_raw": "METAR ZSSS 080700Z 26006MPS CAVOK 35/23 Q1004 NOSIG",
      "metar_wdir": null,
      "metar_wspd": null,
      "metar_oat": 35,
      "metar_qnh": 1004,
      "hourly_oat": [
        34,
        33,
        32,
        32,
        31,
        30,
        30,
        29,
        29,
        28,
        28,
        28,
        28,
        28,
        27,
        28,
        28,
        30,
        30,
        30,
        32,
        32,
        32,
        32,
        31
      ]
    },
    "CAN": {
      "icao": "ZGGG",
      "issued": "2026-07-08T03:03:00.000Z",
      "raw": "TAF ZGGG 080303Z 0806/0912 15004MPS 8000 BKN033 TX31/0807Z TX33/0907Z TN26/0822Z TEMPO 0807/0810 TSRA FEW026CB BKN033 TEMPO 0821/0901 SHRA FEW026CB BKN033 TEMPO 0905/0909 TSRA SCT026CB BKN033",
      "groups": [
        {
          "text": "TAF ZGGG 080303Z 0806/0912 15004MPS 8000 BKN033 TX31/0807Z TX33/0907Z TN26/0822Z",
          "offset_h": -1,
          "wdir": null,
          "wspd": null
        },
        {
          "text": "TEMPO 0807/0810 TSRA FEW026CB BKN033",
          "offset_h": 0,
          "wdir": null,
          "wspd": null
        },
        {
          "text": "TEMPO 0821/0901 SHRA FEW026CB BKN033",
          "offset_h": 14,
          "wdir": null,
          "wspd": null
        },
        {
          "text": "TEMPO 0905/0909 TSRA SCT026CB BKN033",
          "offset_h": 22,
          "wdir": null,
          "wspd": null
        }
      ],
      "metar_raw": "METAR ZGGG 080700Z VRB01MPS 9999 -SHRA FEW010 27/25 Q1005 NOSIG",
      "metar_wdir": null,
      "metar_wspd": null,
      "metar_oat": 27,
      "metar_qnh": 1005,
      "hourly_oat": [
        31,
        30,
        31,
        29,
        28,
        28,
        28,
        27,
        27,
        26,
        26,
        26,
        26,
        25,
        25,
        25,
        26,
        27,
        28,
        30,
        30,
        30,
        32,
        32,
        31
      ]
    }
  }
}