{
  "updated": "2026-07-07T11:36:42Z",
  "tafs": {
    "LAX": {
      "icao": "KLAX",
      "issued": "2026-07-07T11:29:00.000Z",
      "raw": "TAF KLAX 071129Z 0712/0818 VRB03KT P6SM SKC FM071300 VRB03KT P6SM BKN012 FM071600 25006KT P6SM SCT015 FM071700 25012KT P6SM SKC FM080300 25006KT P6SM SKC FM080900 VRB03KT P6SM SCT008 FM081700 25012KT P6SM SKC",
      "groups": [
        {
          "text": "TAF KLAX 071129Z 0712/0818 VRB03KT P6SM SKC",
          "offset_h": 1,
          "wdir": "VRB",
          "wspd": 3
        },
        {
          "text": "FM071300 VRB03KT P6SM BKN012",
          "offset_h": 2,
          "wdir": "VRB",
          "wspd": 3
        },
        {
          "text": "FM071600 25006KT P6SM SCT015",
          "offset_h": 5,
          "wdir": 250,
          "wspd": 6
        },
        {
          "text": "FM071700 25012KT P6SM SKC",
          "offset_h": 6,
          "wdir": 250,
          "wspd": 12
        },
        {
          "text": "FM080300 25006KT P6SM SKC",
          "offset_h": 16,
          "wdir": 250,
          "wspd": 6
        },
        {
          "text": "FM080900 VRB03KT P6SM SCT008",
          "offset_h": 22,
          "wdir": "VRB",
          "wspd": 3
        },
        {
          "text": "FM081700 25012KT P6SM SKC",
          "offset_h": 30,
          "wdir": 250,
          "wspd": 12
        }
      ],
      "metar_raw": "METAR KLAX 071053Z VRB03KT 10SM FEW011 17/15 A2992 RMK AO2 SLP130 T01720150 $",
      "metar_wdir": "VRB",
      "metar_wspd": 3,
      "metar_oat": 17,
      "metar_qnh": 1013,
      "hourly_oat": [
        16,
        15,
        14,
        16,
        19,
        22,
        23,
        24,
        24,
        24,
        24,
        23,
        22,
        22,
        22,
        21,
        20,
        19,
        18,
        18,
        17,
        16,
        16,
        15,
        15
      ]
    },
    "SAN": {
      "icao": "KSAN",
      "issued": "2026-07-07T11:20:00.000Z",
      "raw": "TAF KSAN 071120Z 0712/0818 VRB04KT P6SM BKN012 TEMPO 0712/0714 SCT011 FM071700 29010KT P6SM FEW010 FM080400 VRB04KT P6SM FEW009 FM080900 VRB03KT P6SM BKN009 FM081600 VRB04KT P6SM FEW012",
      "groups": [
        {
          "text": "TAF KSAN 071120Z 0712/0818 VRB04KT P6SM BKN012",
          "offset_h": 1,
          "wdir": "VRB",
          "wspd": 4
        },
        {
          "text": "TEMPO 0712/0714 SCT011",
          "offset_h": 1,
          "wdir": null,
          "wspd": null
        },
        {
          "text": "FM071700 29010KT P6SM FEW010",
          "offset_h": 6,
          "wdir": 290,
          "wspd": 10
        },
        {
          "text": "FM080400 VRB04KT P6SM FEW009",
          "offset_h": 17,
          "wdir": "VRB",
          "wspd": 4
        },
        {
          "text": "FM080900 VRB03KT P6SM BKN009",
          "offset_h": 22,
          "wdir": "VRB",
          "wspd": 3
        },
        {
          "text": "FM081600 VRB04KT P6SM FEW012",
          "offset_h": 29,
          "wdir": "VRB",
          "wspd": 4
        }
      ],
      "metar_raw": "METAR KSAN 071051Z 36003KT 10SM BKN014 19/16 A2993 RMK AO2 SLP135 T01940161 $",
      "metar_wdir": 360,
      "metar_wspd": 3,
      "metar_oat": 19,
      "metar_qnh": 1014,
      "hourly_oat": [
        19,
        18,
        18,
        19,
        19,
        20,
        22,
        23,
        24,
        24,
        23,
        23,
        23,
        22,
        21,
        20,
        20,
        19,
        19,
        18,
        18,
        17,
        17,
        17,
        17
      ]
    },
    "CTS": {
      "icao": "RJCC",
      "issued": "2026-07-07T11:05:00.000Z",
      "raw": "TAF RJCC 071105Z 0712/0818 17006KT 9999 FEW008 BKN012 TEMPO 0712/0800 FEW005 BKN008 TEMPO 0806/0809 FEW005 BKN008 TEMPO 0809/0818 FEW003 BKN005",
      "groups": [
        {
          "text": "TAF RJCC 071105Z 0712/0818 17006KT 9999 FEW008 BKN012",
          "offset_h": 1,
          "wdir": 170,
          "wspd": 6
        },
        {
          "text": "TEMPO 0712/0800 FEW005 BKN008",
          "offset_h": 1,
          "wdir": null,
          "wspd": null
        },
        {
          "text": "TEMPO 0806/0809 FEW005 BKN008",
          "offset_h": 19,
          "wdir": null,
          "wspd": null
        },
        {
          "text": "TEMPO 0809/0818 FEW003 BKN005",
          "offset_h": 22,
          "wdir": null,
          "wspd": null
        }
      ],
      "metar_raw": "METAR RJCC 071100Z 16008KT 9999 FEW008 BKN012 18/16 Q1016",
      "metar_wdir": 160,
      "metar_wspd": 8,
      "metar_oat": 18,
      "metar_qnh": 1016,
      "hourly_oat": [
        17,
        17,
        17,
        17,
        17,
        17,
        16,
        16,
        16,
        17,
        18,
        19,
        20,
        21,
        21,
        21,
        22,
        23,
        22,
        22,
        21,
        20,
        20,
        19,
        19
      ]
    },
    "FUK": {
      "icao": "RJFF",
      "issued": "2026-07-07T11:05:00.000Z",
      "raw": "TAF RJFF 071105Z 0712/0818 15006KT 9999 FEW045 BECMG 0803/0806 34012KT BECMG 0812/0815 13006KT",
      "groups": [
        {
          "text": "TAF RJFF 071105Z 0712/0818 15006KT 9999 FEW045",
          "offset_h": 1,
          "wdir": 150,
          "wspd": 6
        },
        {
          "text": "BECMG 0803/0806 34012KT",
          "offset_h": 16,
          "wdir": 340,
          "wspd": 12
        },
        {
          "text": "BECMG 0812/0815 13006KT",
          "offset_h": 25,
          "wdir": 130,
          "wspd": 6
        }
      ],
      "metar_raw": "METAR RJFF 071100Z 08006KT 040V110 9999 FEW025 SCT040 30/26 Q1008 NOSIG",
      "metar_wdir": 80,
      "metar_wspd": 6,
      "metar_oat": 30,
      "metar_qnh": 1008,
      "hourly_oat": [
        28,
        28,
        27,
        27,
        26,
        26,
        26,
        26,
        26,
        26,
        26,
        27,
        28,
        30,
        31,
        31,
        31,
        30,
        30,
        29,
        29,
        29,
        29,
        28,
        28
      ]
    },
    "NGO": {
      "icao": "RJGG",
      "issued": "2026-07-07T11:05:00.000Z",
      "raw": "TAF RJGG 071105Z 0712/0818 13006KT 9999 FEW015 BKN030",
      "groups": [
        {
          "text": "TAF RJGG 071105Z 0712/0818 13006KT 9999 FEW015 BKN030",
          "offset_h": 1,
          "wdir": 130,
          "wspd": 6
        }
      ],
      "metar_raw": "METAR RJGG 071100Z 17010KT 9999 FEW020 BKN040 BKN080 24/20 Q1013 NOSIG",
      "metar_wdir": 170,
      "metar_wspd": 10,
      "metar_oat": 24,
      "metar_qnh": 1013,
      "hourly_oat": [
        24,
        24,
        24,
        24,
        24,
        24,
        24,
        23,
        23,
        23,
        23,
        23,
        24,
        24,
        24,
        24,
        24,
        24,
        25,
        25,
        25,
        25,
        24,
        24,
        24
      ]
    },
    "OKA": {
      "icao": "ROAH",
      "issued": "2026-07-07T11:05:00.000Z",
      "raw": "TAF ROAH 071105Z 0712/0818 10008KT 9999 FEW020 BECMG 0714/0716 04010KT",
      "groups": [
        {
          "text": "TAF ROAH 071105Z 0712/0818 10008KT 9999 FEW020",
          "offset_h": 1,
          "wdir": 100,
          "wspd": 8
        },
        {
          "text": "BECMG 0714/0716 04010KT",
          "offset_h": 3,
          "wdir": 40,
          "wspd": 10
        }
      ],
      "metar_raw": "METAR ROAH 071100Z 11009KT 9999 FEW020 29/25 Q1009",
      "metar_wdir": 110,
      "metar_wspd": 9,
      "metar_oat": 29,
      "metar_qnh": 1009,
      "hourly_oat": [
        29,
        29,
        28,
        28,
        27,
        27,
        27,
        27,
        27,
        26,
        26,
        27,
        28,
        30,
        31,
        32,
        32,
        33,
        32,
        33,
        32,
        32,
        31,
        30,
        29
      ]
    },
    "ITM": {
      "icao": "RJOO",
      "issued": "2026-07-07T11:05:00.000Z",
      "raw": "TAF RJOO 071105Z 0712/0818 06006KT 9999 FEW015 BKN030 BECMG 0806/0809 24006KT",
      "groups": [
        {
          "text": "TAF RJOO 071105Z 0712/0818 06006KT 9999 FEW015 BKN030",
          "offset_h": 1,
          "wdir": 60,
          "wspd": 6
        },
        {
          "text": "BECMG 0806/0809 24006KT",
          "offset_h": 19,
          "wdir": 240,
          "wspd": 6
        }
      ],
      "metar_raw": "METAR RJOO 071100Z 10006KT 040V130 9999 FEW025 SCT045 BKN080 27/21 Q1011",
      "metar_wdir": 100,
      "metar_wspd": 6,
      "metar_oat": 27,
      "metar_qnh": 1011,
      "hourly_oat": [
        25,
        25,
        25,
        24,
        24,
        24,
        24,
        24,
        23,
        23,
        23,
        24,
        25,
        26,
        27,
        28,
        29,
        30,
        30,
        30,
        30,
        28,
        27,
        26,
        25
      ]
    },
    "NRT": {
      "icao": "RJAA",
      "issued": "2026-07-07T11:05:00.000Z",
      "raw": "TAF RJAA 071105Z 0712/0818 03004KT 9999 FEW030 BECMG 0722/0800 13010KT",
      "groups": [
        {
          "text": "TAF RJAA 071105Z 0712/0818 03004KT 9999 FEW030",
          "offset_h": 1,
          "wdir": 30,
          "wspd": 4
        },
        {
          "text": "BECMG 0722/0800 13010KT",
          "offset_h": 11,
          "wdir": 130,
          "wspd": 10
        }
      ],
      "metar_raw": "METAR RJAA 071100Z 07006KT 9999 FEW030 BKN060 22/19 Q1014 BECMG 05006KT",
      "metar_wdir": 70,
      "metar_wspd": 6,
      "metar_oat": 22,
      "metar_qnh": 1014,
      "hourly_oat": [
        22,
        22,
        21,
        21,
        20,
        20,
        20,
        19,
        19,
        19,
        20,
        22,
        24,
        25,
        26,
        26,
        26,
        26,
        26,
        26,
        26,
        25,
        24,
        23,
        22
      ]
    },
    "KIX": {
      "icao": "RJBB",
      "issued": "2026-07-07T11:05:00.000Z",
      "raw": "TAF RJBB 071105Z 0712/0818 23008KT 9999 FEW020 BKN030 BECMG 0713/0715 05004KT BECMG 0800/0803 21006KT",
      "groups": [
        {
          "text": "TAF RJBB 071105Z 0712/0818 23008KT 9999 FEW020 BKN030",
          "offset_h": 1,
          "wdir": 230,
          "wspd": 8
        },
        {
          "text": "BECMG 0713/0715 05004KT",
          "offset_h": 2,
          "wdir": 50,
          "wspd": 4
        },
        {
          "text": "BECMG 0800/0803 21006KT",
          "offset_h": 13,
          "wdir": 210,
          "wspd": 6
        }
      ],
      "metar_raw": "METAR RJBB 071100Z 21011KT 9999 FEW020 BKN080 25/22 Q1011 NOSIG",
      "metar_wdir": 210,
      "metar_wspd": 11,
      "metar_oat": 25,
      "metar_qnh": 1011,
      "hourly_oat": [
        25,
        25,
        25,
        24,
        24,
        24,
        24,
        24,
        24,
        24,
        24,
        24,
        24,
        24,
        24,
        24,
        24,
        24,
        24,
        25,
        25,
        26,
        26,
        25,
        25
      ]
    },
    "HND": {
      "icao": "RJTT",
      "issued": "2026-07-07T11:05:00.000Z",
      "raw": "TAF RJTT 071105Z 0712/0818 09006KT 9999 FEW020 BKN050 BECMG 0715/0717 05006KT BECMG 0803/0806 12006KT BECMG 0806/0809 18010KT",
      "groups": [
        {
          "text": "TAF RJTT 071105Z 0712/0818 09006KT 9999 FEW020 BKN050",
          "offset_h": 1,
          "wdir": 90,
          "wspd": 6
        },
        {
          "text": "BECMG 0715/0717 05006KT",
          "offset_h": 4,
          "wdir": 50,
          "wspd": 6
        },
        {
          "text": "BECMG 0803/0806 12006KT",
          "offset_h": 16,
          "wdir": 120,
          "wspd": 6
        },
        {
          "text": "BECMG 0806/0809 18010KT",
          "offset_h": 19,
          "wdir": 180,
          "wspd": 10
        }
      ],
      "metar_raw": "METAR RJTT 071100Z 08006KT 9999 FEW012 BKN050 24/20 Q1014 NOSIG",
      "metar_wdir": 80,
      "metar_wspd": 6,
      "metar_oat": 24,
      "metar_qnh": 1014,
      "hourly_oat": [
        23,
        23,
        23,
        23,
        22,
        22,
        22,
        22,
        22,
        21,
        22,
        22,
        23,
        24,
        24,
        26,
        27,
        28,
        28,
        28,
        27,
        26,
        25,
        25,
        24
      ]
    },
    "CGK": {
      "icao": "WIII",
      "issued": "2026-07-07T11:00:00.000Z",
      "raw": "TAF WIII 071100Z 0712/0818 04010KT 5000 HZ FEW020 BECMG 0714/0716 VRB02KT BECMG 0717/0719 3000 BR BECMG 0802/0804 02010KT 8000 NSW",
      "groups": [
        {
          "text": "TAF WIII 071100Z 0712/0818 04010KT 5000 HZ FEW020",
          "offset_h": 1,
          "wdir": 40,
          "wspd": 10
        },
        {
          "text": "BECMG 0714/0716 VRB02KT",
          "offset_h": 3,
          "wdir": "VRB",
          "wspd": 2
        },
        {
          "text": "BECMG 0717/0719 3000 BR",
          "offset_h": 6,
          "wdir": null,
          "wspd": null
        },
        {
          "text": "BECMG 0802/0804 02010KT 8000 NSW",
          "offset_h": 15,
          "wdir": 20,
          "wspd": 10
        }
      ],
      "metar_raw": "METAR WIII 071130Z 05006KT 5000 HZ FEW020 29/22 Q1010 NOSIG",
      "metar_wdir": 50,
      "metar_wspd": 6,
      "metar_oat": 29,
      "metar_qnh": 1010,
      "hourly_oat": [
        29,
        28,
        28,
        28,
        28,
        27,
        27,
        26,
        26,
        25,
        25,
        25,
        25,
        26,
        28,
        29,
        31,
        32,
        33,
        33,
        32,
        32,
        31,
        29,
        28
      ]
    },
    "GMP": {
      "icao": "RKSS",
      "issued": "2026-07-07T11:00:00.000Z",
      "raw": "TAF RKSS 071100Z 0712/0818 22007KT 6000 SCT040 BKN110 TN24/0720Z TX27/0806Z BECMG 0715/0717 16010KT BKN035 BKN100 BECMG 0720/0722 16015G25KT 4000 RA SCT008CB BKN020 OVC070 BECMG 0723/0801 18016G35KT 6000 BECMG 0805/0807 20015G25KT -RA SCT010 BKN035 OVC070 BECMG 0809/0811 20008KT",
      "groups": [
        {
          "text": "TAF RKSS 071100Z 0712/0818 22007KT 6000 SCT040 BKN110 TN24/0720Z TX27/0806Z",
          "offset_h": 1,
          "wdir": 220,
          "wspd": 7
        },
        {
          "text": "BECMG 0715/0717 16010KT BKN035 BKN100",
          "offset_h": 4,
          "wdir": 160,
          "wspd": 10
        },
        {
          "text": "BECMG 0720/0722 16015G25KT 4000 RA SCT008CB BKN020 OVC070",
          "offset_h": 9,
          "wdir": 160,
          "wspd": 15
        },
        {
          "text": "BECMG 0723/0801 18016G35KT 6000",
          "offset_h": 12,
          "wdir": 180,
          "wspd": 16
        },
        {
          "text": "BECMG 0805/0807 20015G25KT -RA SCT010 BKN035 OVC070",
          "offset_h": 18,
          "wdir": 200,
          "wspd": 15
        },
        {
          "text": "BECMG 0809/0811 20008KT",
          "offset_h": 22,
          "wdir": 200,
          "wspd": 8
        }
      ],
      "metar_raw": "METAR RKSS 071100Z 11002KT 9999 FEW035 SCT100 BKN200 29/26 Q1004 NOSIG",
      "metar_wdir": 110,
      "metar_wspd": 2,
      "metar_oat": 29,
      "metar_qnh": 1004,
      "hourly_oat": [
        26,
        25,
        25,
        24,
        24,
        24,
        25,
        25,
        25,
        24,
        24,
        24,
        24,
        24,
        24,
        25,
        26,
        25,
        25,
        26,
        26,
        25,
        25,
        25,
        24
      ]
    },
    "BKK": {
      "icao": "VTBS",
      "issued": "2026-07-07T11:00:00.000Z",
      "raw": "TAF VTBS 071100Z 0712/0818 21008KT 9999 FEW020 TEMPO 0712/0715 -TSRA FEW018CB SCT020 BKN080 TEMPO 0810/0814 VRB15KT 4000 TSRA FEW018CB SCT020 BKN080",
      "groups": [
        {
          "text": "TAF VTBS 071100Z 0712/0818 21008KT 9999 FEW020",
          "offset_h": 1,
          "wdir": 210,
          "wspd": 8
        },
        {
          "text": "TEMPO 0712/0715 -TSRA FEW018CB SCT020 BKN080",
          "offset_h": 1,
          "wdir": null,
          "wspd": null
        },
        {
          "text": "TEMPO 0810/0814 VRB15KT 4000 TSRA FEW018CB SCT020 BKN080",
          "offset_h": 23,
          "wdir": "VRB",
          "wspd": 15
        }
      ],
      "metar_raw": "METAR VTBS 071130Z 21008KT 9999 FEW020 30/25 Q1008 NOSIG",
      "metar_wdir": 210,
      "metar_wspd": 8,
      "metar_oat": 30,
      "metar_qnh": 1008,
      "hourly_oat": [
        27,
        27,
        28,
        28,
        28,
        28,
        28,
        27,
        27,
        27,
        26,
        26,
        26,
        28,
        30,
        30,
        31,
        32,
        32,
        33,
        33,
        32,
        32,
        32,
        30
      ]
    },
    "HAN": {
      "icao": "VVNB",
      "issued": "2026-07-07T11:00:00.000Z",
      "raw": "TAF VVNB 071100Z 0712/0812 09006KT 9999 FEW025 TEMPO 0712/0716 3000 TSRA SCT015 FEW027CB",
      "groups": [
        {
          "text": "TAF VVNB 071100Z 0712/0812 09006KT 9999 FEW025",
          "offset_h": 1,
          "wdir": 90,
          "wspd": 6
        },
        {
          "text": "TEMPO 0712/0716 3000 TSRA SCT015 FEW027CB",
          "offset_h": 1,
          "wdir": null,
          "wspd": null
        }
      ],
      "metar_raw": "METAR VVNB 071130Z 12007KT CAVOK 32/27 Q0999 NOSIG",
      "metar_wdir": 120,
      "metar_wspd": 7,
      "metar_oat": 32,
      "metar_qnh": 999,
      "hourly_oat": [
        28,
        28,
        28,
        28,
        27,
        27,
        27,
        27,
        26,
        26,
        25,
        25,
        25,
        26,
        27,
        28,
        29,
        30,
        31,
        32,
        33,
        33,
        30,
        29,
        28
      ]
    },
    "SGN": {
      "icao": "VVTS",
      "issued": "2026-07-07T11:00:00.000Z",
      "raw": "TAF VVTS 071100Z 0712/0818 22008KT 9999 SCT017 SCT040 TEMPO 0713/0716 5000 SHRA SCT015 FEW017CB SCT040 TEMPO 0807/0810 4000 TSRA SCT015 FEW017CB SCT040",
      "groups": [
        {
          "text": "TAF VVTS 071100Z 0712/0818 22008KT 9999 SCT017 SCT040",
          "offset_h": 1,
          "wdir": 220,
          "wspd": 8
        },
        {
          "text": "TEMPO 0713/0716 5000 SHRA SCT015 FEW017CB SCT040",
          "offset_h": 2,
          "wdir": null,
          "wspd": null
        },
        {
          "text": "TEMPO 0807/0810 4000 TSRA SCT015 FEW017CB SCT040",
          "offset_h": 20,
          "wdir": null,
          "wspd": null
        }
      ],
      "metar_raw": "METAR VVTS 071130Z 07003KT 010V140 9999 SCT026 FEW028CB BKN074 28/25 Q1009 NOSIG",
      "metar_wdir": 70,
      "metar_wspd": 3,
      "metar_oat": 28,
      "metar_qnh": 1009,
      "hourly_oat": [
        28,
        27,
        27,
        27,
        26,
        26,
        26,
        26,
        26,
        26,
        25,
        25,
        26,
        27,
        28,
        28,
        29,
        30,
        32,
        29,
        27,
        27,
        27,
        28,
        27
      ]
    },
    "SIN": {
      "icao": "WSSS",
      "issued": "2026-07-07T11:00:00.000Z",
      "raw": "TAF WSSS 071100Z 0712/0818 18008KT 9999 FEW015 SCT020 TEMPO 0803/0806 3000 TSRA FEW012CB BKN015",
      "groups": [
        {
          "text": "TAF WSSS 071100Z 0712/0818 18008KT 9999 FEW015 SCT020",
          "offset_h": 1,
          "wdir": 180,
          "wspd": 8
        },
        {
          "text": "TEMPO 0803/0806 3000 TSRA FEW012CB BKN015",
          "offset_h": 16,
          "wdir": null,
          "wspd": null
        }
      ],
      "metar_raw": "METAR WSSS 071130Z 13010KT 9999 FEW018 SCT070 BKN300 30/24 Q1010 NOSIG",
      "metar_wdir": 130,
      "metar_wspd": 10,
      "metar_oat": 30,
      "metar_qnh": 1010,
      "hourly_oat": [
        30,
        29,
        29,
        29,
        29,
        29,
        29,
        29,
        29,
        29,
        28,
        28,
        28,
        28,
        29,
        29,
        29,
        30,
        30,
        30,
        29,
        29,
        29,
        29,
        28
      ]
    },
    "KUL": {
      "icao": "WMKK",
      "issued": "2026-07-07T11:00:00.000Z",
      "raw": "TAF WMKK 071100Z 0712/0818 VRB03KT 9999 FEW030 TEMPO 0719/0723 5000 TSRA FEW017CB",
      "groups": [
        {
          "text": "TAF WMKK 071100Z 0712/0818 VRB03KT 9999 FEW030",
          "offset_h": 1,
          "wdir": "VRB",
          "wspd": 3
        },
        {
          "text": "TEMPO 0719/0723 5000 TSRA FEW017CB",
          "offset_h": 8,
          "wdir": null,
          "wspd": null
        }
      ],
      "metar_raw": "METAR WMKK 071100Z VRB02KT 9000 FEW030 30/26 Q1009 NOSIG",
      "metar_wdir": "VRB",
      "metar_wspd": 2,
      "metar_oat": 30,
      "metar_qnh": 1009,
      "hourly_oat": [
        27,
        26,
        26,
        26,
        25,
        25,
        25,
        25,
        25,
        25,
        24,
        24,
        24,
        24,
        26,
        27,
        28,
        29,
        29,
        30,
        30,
        30,
        30,
        29,
        28
      ]
    },
    "TSA": {
      "icao": "RCSS",
      "issued": "2026-07-07T11:00:00.000Z",
      "raw": "TAF RCSS 071100Z 0712/0812 09005KT 9999 FEW020 BKN032 TEMPO 0716/0722 VRB05KT BECMG 0722/0724 27005KT TEMPO 0806/0810 09005KT 7000 -SHRA FEW010TCU FEW015 BKN025",
      "groups": [
        {
          "text": "TAF RCSS 071100Z 0712/0812 09005KT 9999 FEW020 BKN032",
          "offset_h": 1,
          "wdir": 90,
          "wspd": 5
        },
        {
          "text": "TEMPO 0716/0722 VRB05KT",
          "offset_h": 5,
          "wdir": "VRB",
          "wspd": 5
        },
        {
          "text": "BECMG 0722/0724 27005KT",
          "offset_h": 11,
          "wdir": 270,
          "wspd": 5
        },
        {
          "text": "TEMPO 0806/0810 09005KT 7000 -SHRA FEW010TCU FEW015 BKN025",
          "offset_h": 19,
          "wdir": 90,
          "wspd": 5
        }
      ],
      "metar_raw": "METAR RCSS 071130Z 06005KT 9999 FEW025 SCT040 29/26 Q1007 NOSIG RMK A2976",
      "metar_wdir": 60,
      "metar_wspd": 5,
      "metar_oat": 29,
      "metar_qnh": 1007,
      "hourly_oat": [
        30,
        29,
        29,
        28,
        28,
        28,
        27,
        27,
        27,
        26,
        26,
        26,
        28,
        29,
        30,
        32,
        33,
        33,
        34,
        34,
        34,
        33,
        33,
        31,
        29
      ]
    },
    "TPE": {
      "icao": "RCTP",
      "issued": "2026-07-07T11:00:00.000Z",
      "raw": "TAF RCTP 071100Z 0712/0818 24007KT 9999 FEW020 TEMPO 0716/0722 18005KT BECMG 0800/0802 27010KT TEMPO 0809/0811 34005KT BECMG 0811/0813 22005KT",
      "groups": [
        {
          "text": "TAF RCTP 071100Z 0712/0818 24007KT 9999 FEW020",
          "offset_h": 1,
          "wdir": 240,
          "wspd": 7
        },
        {
          "text": "TEMPO 0716/0722 18005KT",
          "offset_h": 5,
          "wdir": 180,
          "wspd": 5
        },
        {
          "text": "BECMG 0800/0802 27010KT",
          "offset_h": 13,
          "wdir": 270,
          "wspd": 10
        },
        {
          "text": "TEMPO 0809/0811 34005KT",
          "offset_h": 22,
          "wdir": 340,
          "wspd": 5
        },
        {
          "text": "BECMG 0811/0813 22005KT",
          "offset_h": 24,
          "wdir": 220,
          "wspd": 5
        }
      ],
      "metar_raw": "METAR RCTP 071130Z 23009KT 9999 FEW020 29/23 Q1008 NOSIG RMK A2977",
      "metar_wdir": 230,
      "metar_wspd": 9,
      "metar_oat": 29,
      "metar_qnh": 1008,
      "hourly_oat": [
        28,
        28,
        28,
        27,
        27,
        27,
        27,
        26,
        26,
        26,
        26,
        26,
        28,
        29,
        30,
        31,
        31,
        32,
        32,
        32,
        32,
        31,
        30,
        29,
        28
      ]
    },
    "HKG": {
      "icao": "VHHH",
      "issued": "2026-07-07T11:00:00.000Z",
      "raw": "TAF VHHH 071100Z 0712/0818 19015KT 9999 FEW010 SCT025 TX31/0806Z TN27/0722Z TEMPO 0712/0714 20025G35KT 1500 TSRA +SHRA FEW008CB SCT020 TEMPO 0714/0718 3000 SHRA FEW008CB SCT020 TEMPO 0718/0803 20015G25KT 1500 TSRA +SHRA FEW008CB SCT015 TEMPO 0803/0809 3000 SHRA FEW008CB SCT020",
      "groups": [
        {
          "text": "TAF VHHH 071100Z 0712/0818 19015KT 9999 FEW010 SCT025 TX31/0806Z TN27/0722Z",
          "offset_h": 1,
          "wdir": 190,
          "wspd": 15
        },
        {
          "text": "TEMPO 0712/0714 20025G35KT 1500 TSRA +SHRA FEW008CB SCT020",
          "offset_h": 1,
          "wdir": 200,
          "wspd": 25
        },
        {
          "text": "TEMPO 0714/0718 3000 SHRA FEW008CB SCT020",
          "offset_h": 3,
          "wdir": null,
          "wspd": null
        },
        {
          "text": "TEMPO 0718/0803 20015G25KT 1500 TSRA +SHRA FEW008CB SCT015",
          "offset_h": 7,
          "wdir": 200,
          "wspd": 15
        },
        {
          "text": "TEMPO 0803/0809 3000 SHRA FEW008CB SCT020",
          "offset_h": 16,
          "wdir": null,
          "wspd": null
        }
      ],
      "metar_raw": "METAR VHHH 071130Z 21006KT 130V250 9999 -TSRA FEW010 FEW015CB SCT025 27/24 Q1006 RERA TEMPO 20025G35KT 1200 TSRA +SHRA FEW008CB SCT020",
      "metar_wdir": 210,
      "metar_wspd": 6,
      "metar_oat": 27,
      "metar_qnh": 1006,
      "hourly_oat": [
        28,
        28,
        28,
        28,
        28,
        27,
        26,
        26,
        26,
        27,
        27,
        27,
        28,
        28,
        29,
        29,
        29,
        30,
        30,
        29,
        29,
        29,
        29,
        29,
        28
      ]
    },
    "DLC": {
      "icao": "ZYTL",
      "issued": "2026-07-07T09:12:00.000Z",
      "raw": "TAF ZYTL 070912Z 0712/0812 14005MPS 5000 BR SCT040 TX28/0806Z TN22/0720Z BECMG 0715/0716 33004MPS BECMG 0805/0806 23005MPS BECMG 0808/0809 17004MPS",
      "groups": [
        {
          "text": "TAF ZYTL 070912Z 0712/0812 14005MPS 5000 BR SCT040 TX28/0806Z TN22/0720Z",
          "offset_h": 1,
          "wdir": null,
          "wspd": null
        },
        {
          "text": "BECMG 0715/0716 33004MPS",
          "offset_h": 4,
          "wdir": null,
          "wspd": null
        },
        {
          "text": "BECMG 0805/0806 23005MPS",
          "offset_h": 18,
          "wdir": null,
          "wspd": null
        },
        {
          "text": "BECMG 0808/0809 17004MPS",
          "offset_h": 21,
          "wdir": null,
          "wspd": null
        }
      ],
      "metar_raw": "METAR ZYTL 071130Z 11003MPS 080V140 9999 FEW015 BKN030 24/21 Q1000 NOSIG",
      "metar_wdir": null,
      "metar_wspd": null,
      "metar_oat": 24,
      "metar_qnh": 1000,
      "hourly_oat": [
        24,
        23,
        23,
        23,
        23,
        23,
        22,
        22,
        22,
        22,
        22,
        23,
        25,
        26,
        28,
        29,
        30,
        31,
        31,
        31,
        30,
        29,
        29,
        28,
        26
      ]
    },
    "PVG": {
      "icao": "ZSPD",
      "issued": "2026-07-07T09:02:00.000Z",
      "raw": "TAF ZSPD 070902Z 0712/0818 18004MPS 8000 SCT020 TX31/0712Z TX34/0806Z TN27/0721Z",
      "groups": [
        {
          "text": "TAF ZSPD 070902Z 0712/0818 18004MPS 8000 SCT020 TX31/0712Z TX34/0806Z TN27/0721Z",
          "offset_h": 1,
          "wdir": null,
          "wspd": null
        }
      ],
      "metar_raw": "METAR ZSPD 071130Z 19005MPS CAVOK 31/26 Q1001 NOSIG",
      "metar_wdir": null,
      "metar_wspd": null,
      "metar_oat": 31,
      "metar_qnh": 1001,
      "hourly_oat": [
        30,
        30,
        30,
        29,
        29,
        28,
        28,
        27,
        27,
        27,
        27,
        28,
        28,
        30,
        31,
        31,
        31,
        32,
        33,
        33,
        32,
        31,
        30,
        30,
        29
      ]
    },
    "SHA": {
      "icao": "ZSSS",
      "issued": "2026-07-07T09:02:00.000Z",
      "raw": "TAF ZSSS 070902Z 0712/0818 18004MPS 8000 SCT030 TX33/0712Z TX36/0806Z TN27/0721Z",
      "groups": [
        {
          "text": "TAF ZSSS 070902Z 0712/0818 18004MPS 8000 SCT030 TX33/0712Z TX36/0806Z TN27/0721Z",
          "offset_h": 1,
          "wdir": null,
          "wspd": null
        }
      ],
      "metar_raw": "METAR ZSSS 071130Z 19005MPS CAVOK 33/26 Q1001 NOSIG",
      "metar_wdir": null,
      "metar_wspd": null,
      "metar_oat": 33,
      "metar_qnh": 1001,
      "hourly_oat": [
        30,
        30,
        30,
        30,
        29,
        29,
        29,
        28,
        28,
        27,
        27,
        28,
        29,
        30,
        30,
        29,
        29,
        31,
        32,
        32,
        33,
        33,
        32,
        30,
        30
      ]
    },
    "CAN": {
      "icao": "ZGGG",
      "issued": "2026-07-07T09:02:00.000Z",
      "raw": "TAF ZGGG 070902Z 0712/0818 14004MPS 8000 BKN033 TX28/0712Z TX32/0807Z TN26/0722Z TEMPO 0722/0802 SHRA FEW026CB BKN033 TEMPO 0804/0810 2500 +TSRA SCT010 SCT026CB BKN033",
      "groups": [
        {
          "text": "TAF ZGGG 070902Z 0712/0818 14004MPS 8000 BKN033 TX28/0712Z TX32/0807Z TN26/0722Z",
          "offset_h": 1,
          "wdir": null,
          "wspd": null
        },
        {
          "text": "TEMPO 0722/0802 SHRA FEW026CB BKN033",
          "offset_h": 11,
          "wdir": null,
          "wspd": null
        },
        {
          "text": "TEMPO 0804/0810 2500 +TSRA SCT010 SCT026CB BKN033",
          "offset_h": 17,
          "wdir": null,
          "wspd": null
        }
      ],
      "metar_raw": "METAR ZGGG 071130Z 12003MPS 7000 -SHRA SCT010 OVC030 26/26 Q1006 RESHRA BECMG AT1220 SHRA",
      "metar_wdir": null,
      "metar_wspd": null,
      "metar_oat": 26,
      "metar_qnh": 1006,
      "hourly_oat": [
        26,
        26,
        26,
        26,
        26,
        25,
        25,
        25,
        25,
        24,
        24,
        24,
        25,
        26,
        28,
        30,
        31,
        30,
        27,
        29,
        29,
        28,
        27,
        27,
        27
      ]
    },
    "PEK": {
      "icao": "ZBAA",
      "issued": "2026-07-07T09:00:00.000Z",
      "raw": "TAF ZBAA 070900Z 0712/0818 15003MPS CAVOK TX33/0807Z TN22/0721Z TN24/0818Z TEMPO 0806/0812 -TSRA FEW040CB BKN040",
      "groups": [
        {
          "text": "TAF ZBAA 070900Z 0712/0818 15003MPS CAVOK TX33/0807Z TN22/0721Z TN24/0818Z",
          "offset_h": 1,
          "wdir": null,
          "wspd": null
        },
        {
          "text": "TEMPO 0806/0812 -TSRA FEW040CB BKN040",
          "offset_h": 19,
          "wdir": null,
          "wspd": null
        }
      ],
      "metar_raw": "METAR ZBAA 071130Z 34006MPS 9999 TS FEW050CB 23/21 Q1000 NOSIG",
      "metar_wdir": null,
      "metar_wspd": null,
      "metar_oat": 23,
      "metar_qnh": 1000,
      "hourly_oat": [
        26,
        24,
        24,
        23,
        23,
        23,
        22,
        22,
        22,
        22,
        22,
        23,
        24,
        25,
        27,
        28,
        29,
        30,
        31,
        31,
        31,
        32,
        31,
        30,
        30
      ]
    },
    "HNL": {
      "icao": "PHNL",
      "issued": "2026-07-07T08:58:00.000Z",
      "raw": "TAF PHNL 070858Z 0709/0812 05011G18KT P6SM SCT025 SCT040 FM072000 06018G26KT P6SM SCT025 BKN040 FM080500 05013KT P6SM SCT025 SCT040",
      "groups": [
        {
          "text": "TAF PHNL 070858Z 0709/0812 05011G18KT P6SM SCT025 SCT040",
          "offset_h": -2,
          "wdir": 50,
          "wspd": 11
        },
        {
          "text": "FM072000 06018G26KT P6SM SCT025 BKN040",
          "offset_h": 9,
          "wdir": 60,
          "wspd": 18
        },
        {
          "text": "FM080500 05013KT P6SM SCT025 SCT040",
          "offset_h": 18,
          "wdir": 50,
          "wspd": 13
        }
      ],
      "metar_raw": "METAR PHNL 071053Z 05006KT 10SM FEW024 FEW035 BKN040 24/20 A3002 RMK AO2 RAB03E19 SLP165 P0000 T02440200 $",
      "metar_wdir": 50,
      "metar_wspd": 6,
      "metar_oat": 24,
      "metar_qnh": 1017,
      "hourly_oat": [
        23,
        23,
        22,
        22,
        22,
        22,
        22,
        24,
        26,
        27,
        28,
        28,
        28,
        28,
        28,
        27,
        26,
        25,
        24,
        24,
        24,
        24,
        23,
        23,
        23
      ]
    }
  }
}