{
  "updated": "2026-06-08T12:50:09Z",
  "tafs": {
    "SAN": {
      "icao": "KSAN",
      "issued": "2026-06-08T11:50:00.000Z",
      "raw": "TAF KSAN 081150Z 0812/0918 VRB04KT P6SM OVC025 FM081700 23009KT P6SM FEW025 FM090400 VRB04KT P6SM BKN015 FM091700 26007KT P6SM FEW018",
      "groups": [
        {
          "text": "TAF KSAN 081150Z 0812/0918 VRB04KT P6SM OVC025",
          "offset_h": 0,
          "wdir": "VRB",
          "wspd": 4
        },
        {
          "text": "FM081700 23009KT P6SM FEW025",
          "offset_h": 5,
          "wdir": 230,
          "wspd": 9
        },
        {
          "text": "FM090400 VRB04KT P6SM BKN015",
          "offset_h": 16,
          "wdir": "VRB",
          "wspd": 4
        },
        {
          "text": "FM091700 26007KT P6SM FEW018",
          "offset_h": 29,
          "wdir": 260,
          "wspd": 7
        }
      ],
      "metar_raw": "METAR KSAN 081151Z 18003KT 10SM SCT019 OVC028 19/14 A2985 RMK AO2 SLP108 T01890144 10189 20183 56001 $",
      "metar_wdir": 180,
      "metar_wspd": 3,
      "metar_oat": 19,
      "metar_qnh": 1011,
      "hourly_oat": [
        18,
        17,
        18,
        18,
        19,
        20,
        22,
        22,
        21,
        21,
        22,
        21,
        20,
        19,
        18,
        18,
        17,
        17,
        15,
        14,
        14,
        14,
        13,
        13,
        13
      ]
    },
    "LAX": {
      "icao": "KLAX",
      "issued": "2026-06-08T11:42:00.000Z",
      "raw": "TAF KLAX 081142Z 0812/0918 VRB03KT P6SM OVC025 FM081700 25008KT P6SM FEW015 BKN025 FM082000 25015KT P6SM FEW015 SCT250 FM090400 26008KT P6SM BKN025 FM090800 VRB03KT P6SM BKN015",
      "groups": [
        {
          "text": "TAF KLAX 081142Z 0812/0918 VRB03KT P6SM OVC025",
          "offset_h": 0,
          "wdir": "VRB",
          "wspd": 3
        },
        {
          "text": "FM081700 25008KT P6SM FEW015 BKN025",
          "offset_h": 5,
          "wdir": 250,
          "wspd": 8
        },
        {
          "text": "FM082000 25015KT P6SM FEW015 SCT250",
          "offset_h": 8,
          "wdir": 250,
          "wspd": 15
        },
        {
          "text": "FM090400 26008KT P6SM BKN025",
          "offset_h": 16,
          "wdir": 260,
          "wspd": 8
        },
        {
          "text": "FM090800 VRB03KT P6SM BKN015",
          "offset_h": 20,
          "wdir": "VRB",
          "wspd": 3
        }
      ],
      "metar_raw": "METAR KLAX 081153Z 11005KT 10SM OVC022 18/12 A2984 RMK AO2 SLP102 T01780122 10178 20167 55004 $",
      "metar_wdir": 110,
      "metar_wspd": 5,
      "metar_oat": 18,
      "metar_qnh": 1011,
      "hourly_oat": [
        17,
        17,
        17,
        18,
        19,
        21,
        21,
        22,
        22,
        21,
        21,
        20,
        20,
        18,
        18,
        17,
        16,
        16,
        15,
        14,
        14,
        13,
        13,
        13,
        13
      ]
    },
    "PEK": {
      "icao": "ZBAA",
      "issued": "2026-06-08T11:29:00.000Z",
      "raw": "TAF AMD ZBAA 081129Z 0812/0918 13004MPS CAVOK TX25/0907Z TN14/0820Z TN16/0918Z TEMPO 0812/0814 -TSRA FEW030CB BKN040 BECMG 0901/0902 02006MPS BECMG 0904/0905 -TSRA FEW030CB BKN040 BECMG 0906/0907 NSW NSC",
      "groups": [
        {
          "text": "TAF AMD ZBAA 081129Z 0812/0918 13004MPS CAVOK TX25/0907Z TN14/0820Z TN16/0918Z",
          "offset_h": 0,
          "wdir": null,
          "wspd": null
        },
        {
          "text": "TEMPO 0812/0814 -TSRA FEW030CB BKN040",
          "offset_h": 0,
          "wdir": null,
          "wspd": null
        },
        {
          "text": "BECMG 0901/0902 02006MPS",
          "offset_h": 13,
          "wdir": null,
          "wspd": null
        },
        {
          "text": "BECMG 0904/0905 -TSRA FEW030CB BKN040",
          "offset_h": 16,
          "wdir": null,
          "wspd": null
        },
        {
          "text": "BECMG 0906/0907 NSW NSC",
          "offset_h": 18,
          "wdir": null,
          "wspd": null
        }
      ],
      "metar_raw": "METAR ZBAA 081230Z VRB01MPS 9999 FEW050CB 19/16 Q1006 NOSIG",
      "metar_wdir": null,
      "metar_wspd": null,
      "metar_oat": 19,
      "metar_qnh": 1006,
      "hourly_oat": [
        19,
        18,
        17,
        16,
        16,
        16,
        15,
        15,
        15,
        14,
        15,
        17,
        19,
        21,
        22,
        23,
        23,
        23,
        24,
        24,
        24,
        24,
        23,
        21,
        20
      ]
    },
    "HNL": {
      "icao": "PHNL",
      "issued": "2026-06-08T11:27:00.000Z",
      "raw": "TAF PHNL 081127Z 0812/0918 06012KT P6SM FEW025 SCT040 FM082000 06015G23KT P6SM FEW025 SCT040 FM090700 06012KT P6SM FEW025 SCT040",
      "groups": [
        {
          "text": "TAF PHNL 081127Z 0812/0918 06012KT P6SM FEW025 SCT040",
          "offset_h": 0,
          "wdir": 60,
          "wspd": 12
        },
        {
          "text": "FM082000 06015G23KT P6SM FEW025 SCT040",
          "offset_h": 8,
          "wdir": 60,
          "wspd": 15
        },
        {
          "text": "FM090700 06012KT P6SM FEW025 SCT040",
          "offset_h": 19,
          "wdir": 60,
          "wspd": 12
        }
      ],
      "metar_raw": "METAR PHNL 081153Z 04007KT 10SM FEW020 SCT035 BKN065 24/21 A3005 RMK AO2 RAB15E25 SLP175 P0000 60000 7//// T02390206 10256 20233 58011 $",
      "metar_wdir": 40,
      "metar_wspd": 7,
      "metar_oat": 24,
      "metar_qnh": 1018,
      "hourly_oat": [
        21,
        21,
        21,
        22,
        21,
        22,
        23,
        24,
        26,
        27,
        28,
        28,
        27,
        27,
        26,
        25,
        24,
        24,
        23,
        23,
        23,
        22,
        22,
        22,
        22
      ]
    },
    "FUK": {
      "icao": "RJFF",
      "issued": "2026-06-08T11:05:00.000Z",
      "raw": "TAF RJFF 081105Z 0812/0918 02004KT 9999 FEW011 BKN012 TEMPO 0812/0814 4000 -SHRA BR",
      "groups": [
        {
          "text": "TAF RJFF 081105Z 0812/0918 02004KT 9999 FEW011 BKN012",
          "offset_h": 0,
          "wdir": 20,
          "wspd": 4
        },
        {
          "text": "TEMPO 0812/0814 4000 -SHRA BR",
          "offset_h": 0,
          "wdir": null,
          "wspd": null
        }
      ],
      "metar_raw": "METAR RJFF 081230Z 17005KT 140V210 9999 VCSH FEW008 BKN150 19/18 Q1006 TEMPO 4000 -SHRA BR BECMG 04004KT",
      "metar_wdir": 170,
      "metar_wspd": 5,
      "metar_oat": 19,
      "metar_qnh": 1006,
      "hourly_oat": [
        20,
        19,
        19,
        19,
        19,
        19,
        19,
        19,
        18,
        18,
        19,
        21,
        21,
        22,
        22,
        23,
        24,
        24,
        24,
        23,
        23,
        22,
        22,
        21,
        20
      ]
    },
    "CTS": {
      "icao": "RJCC",
      "issued": "2026-06-08T11:05:00.000Z",
      "raw": "TAF RJCC 081105Z 0812/0918 33006KT 8000 -SHRA FEW005 BKN012 TEMPO 0812/0815 1500 SHRA BR FEW001 BKN003 TEMPO 0815/0818 3000 SHRA BR FEW003 BKN005 TEMPO 0818/0900 4000 -SHRA BR FEW003 BKN005 BECMG 0821/0823 17010KT BECMG 0900/0903 33016KT TEMPO 0912/0918 33018G30KT",
      "groups": [
        {
          "text": "TAF RJCC 081105Z 0812/0918 33006KT 8000 -SHRA FEW005 BKN012",
          "offset_h": 0,
          "wdir": 330,
          "wspd": 6
        },
        {
          "text": "TEMPO 0812/0815 1500 SHRA BR FEW001 BKN003",
          "offset_h": 0,
          "wdir": null,
          "wspd": null
        },
        {
          "text": "TEMPO 0815/0818 3000 SHRA BR FEW003 BKN005",
          "offset_h": 3,
          "wdir": null,
          "wspd": null
        },
        {
          "text": "TEMPO 0818/0900 4000 -SHRA BR FEW003 BKN005",
          "offset_h": 6,
          "wdir": null,
          "wspd": null
        },
        {
          "text": "BECMG 0821/0823 17010KT",
          "offset_h": 9,
          "wdir": 170,
          "wspd": 10
        },
        {
          "text": "BECMG 0900/0903 33016KT",
          "offset_h": 12,
          "wdir": 330,
          "wspd": 16
        },
        {
          "text": "TEMPO 0912/0918 33018G30KT",
          "offset_h": 24,
          "wdir": 330,
          "wspd": 18
        }
      ],
      "metar_raw": "METAR RJCC 081230Z 34005KT 8000 SHRA FEW002 BKN020 BKN040 12/11 Q1005",
      "metar_wdir": 340,
      "metar_wspd": 5,
      "metar_oat": 12,
      "metar_qnh": 1005,
      "hourly_oat": [
        12,
        11,
        11,
        11,
        11,
        11,
        11,
        11,
        11,
        12,
        14,
        16,
        17,
        16,
        15,
        14,
        14,
        16,
        15,
        15,
        14,
        12,
        11,
        11,
        11
      ]
    },
    "OKA": {
      "icao": "ROAH",
      "issued": "2026-06-08T11:05:00.000Z",
      "raw": "TAF ROAH 081105Z 0812/0918 19020KT 8000 FEW005 BKN010 TEMPO 0812/0821 FEW003 BKN005 TEMPO 0821/0900 FEW005 BKN008 TEMPO 0912/0915 FEW005 BKN008 TEMPO 0915/0918 3000 +TSRA BR FEW003 BKN005 SCT015CB",
      "groups": [
        {
          "text": "TAF ROAH 081105Z 0812/0918 19020KT 8000 FEW005 BKN010",
          "offset_h": 0,
          "wdir": 190,
          "wspd": 20
        },
        {
          "text": "TEMPO 0812/0821 FEW003 BKN005",
          "offset_h": 0,
          "wdir": null,
          "wspd": null
        },
        {
          "text": "TEMPO 0821/0900 FEW005 BKN008",
          "offset_h": 9,
          "wdir": null,
          "wspd": null
        },
        {
          "text": "TEMPO 0912/0915 FEW005 BKN008",
          "offset_h": 24,
          "wdir": null,
          "wspd": null
        },
        {
          "text": "TEMPO 0915/0918 3000 +TSRA BR FEW003 BKN005 SCT015CB",
          "offset_h": 27,
          "wdir": null,
          "wspd": null
        }
      ],
      "metar_raw": "METAR ROAH 081230Z 19016KT 9000 -SHRA FEW005 SCT009 BKN040 26/26 Q1007",
      "metar_wdir": 190,
      "metar_wspd": 16,
      "metar_oat": 26,
      "metar_qnh": 1007,
      "hourly_oat": [
        26,
        27,
        26,
        26,
        26,
        26,
        26,
        26,
        26,
        26,
        26,
        27,
        27,
        27,
        28,
        28,
        28,
        27,
        27,
        27,
        27,
        26,
        26,
        26,
        26
      ]
    },
    "NRT": {
      "icao": "RJAA",
      "issued": "2026-06-08T11:05:00.000Z",
      "raw": "TAF RJAA 081105Z 0812/0918 14004KT 6000 -SHRA FEW003 BKN012 TEMPO 0812/0814 FEW003 BKN005 TEMPO 0814/0823 2000 -SHRA BR FEW001 BKN003 BECMG 0818/0820 36006KT TEMPO 0823/0903 FEW003 BKN005 BECMG 0903/0906 13008KT BECMG 0909/0912 04006KT",
      "groups": [
        {
          "text": "TAF RJAA 081105Z 0812/0918 14004KT 6000 -SHRA FEW003 BKN012",
          "offset_h": 0,
          "wdir": 140,
          "wspd": 4
        },
        {
          "text": "TEMPO 0812/0814 FEW003 BKN005",
          "offset_h": 0,
          "wdir": null,
          "wspd": null
        },
        {
          "text": "TEMPO 0814/0823 2000 -SHRA BR FEW001 BKN003",
          "offset_h": 2,
          "wdir": null,
          "wspd": null
        },
        {
          "text": "BECMG 0818/0820 36006KT",
          "offset_h": 6,
          "wdir": 360,
          "wspd": 6
        },
        {
          "text": "TEMPO 0823/0903 FEW003 BKN005",
          "offset_h": 11,
          "wdir": null,
          "wspd": null
        },
        {
          "text": "BECMG 0903/0906 13008KT",
          "offset_h": 15,
          "wdir": 130,
          "wspd": 8
        },
        {
          "text": "BECMG 0909/0912 04006KT",
          "offset_h": 21,
          "wdir": 40,
          "wspd": 6
        }
      ],
      "metar_raw": "METAR RJAA 081230Z VRB01KT 9999 FEW002 BKN050 BKN/// 19/18 Q1004 TEMPO FEW002 BKN003",
      "metar_wdir": "VRB",
      "metar_wspd": 1,
      "metar_oat": 19,
      "metar_qnh": 1004,
      "hourly_oat": [
        19,
        19,
        19,
        18,
        18,
        19,
        19,
        19,
        19,
        19,
        19,
        19,
        19,
        20,
        20,
        20,
        22,
        22,
        22,
        22,
        22,
        20,
        20,
        19,
        18
      ]
    },
    "NGO": {
      "icao": "RJGG",
      "issued": "2026-06-08T11:05:00.000Z",
      "raw": "TAF RJGG 081105Z 0812/0918 31014KT 9000 -SHRA FEW015 BKN030",
      "groups": [
        {
          "text": "TAF RJGG 081105Z 0812/0918 31014KT 9000 -SHRA FEW015 BKN030",
          "offset_h": 0,
          "wdir": 310,
          "wspd": 14
        }
      ],
      "metar_raw": "METAR RJGG 081230Z 35012KT 5000 -SHRA BR FEW008 BKN015 BKN020 20/19 Q1005 NOSIG",
      "metar_wdir": 350,
      "metar_wspd": 12,
      "metar_oat": 20,
      "metar_qnh": 1005,
      "hourly_oat": [
        21,
        21,
        21,
        21,
        20,
        20,
        20,
        20,
        20,
        20,
        20,
        20,
        21,
        22,
        22,
        22,
        22,
        23,
        23,
        23,
        23,
        22,
        22,
        21,
        21
      ]
    },
    "KIX": {
      "icao": "RJBB",
      "issued": "2026-06-08T11:05:00.000Z",
      "raw": "TAF RJBB 081105Z 0812/0918 36010KT 6000 -SHRA FEW005 SCT010 BKN015 TEMPO 0812/0816 3000 SHRA BR FEW002 SCT004 BKN008",
      "groups": [
        {
          "text": "TAF RJBB 081105Z 0812/0918 36010KT 6000 -SHRA FEW005 SCT010 BKN015",
          "offset_h": 0,
          "wdir": 360,
          "wspd": 10
        },
        {
          "text": "TEMPO 0812/0816 3000 SHRA BR FEW002 SCT004 BKN008",
          "offset_h": 0,
          "wdir": null,
          "wspd": null
        }
      ],
      "metar_raw": "METAR RJBB 081230Z 33006KT 9999 -SHRA FEW004 SCT015 BKN030 19/18 Q1007 TEMPO 4000 SHRA BR",
      "metar_wdir": 330,
      "metar_wspd": 6,
      "metar_oat": 19,
      "metar_qnh": 1007,
      "hourly_oat": [
        21,
        21,
        21,
        21,
        20,
        20,
        19,
        19,
        19,
        19,
        19,
        20,
        20,
        20,
        21,
        21,
        22,
        22,
        22,
        22,
        22,
        22,
        22,
        21,
        20
      ]
    },
    "HND": {
      "icao": "RJTT",
      "issued": "2026-06-08T11:05:00.000Z",
      "raw": "TAF RJTT 081105Z 0812/0918 12006KT 9999 FEW015 BKN030 BECMG 0812/0814 19012KT TEMPO 0815/0818 FEW005 BKN008 BECMG 0817/0819 30006KT TEMPO 0818/0822 3000 -SHRA BR FEW005 BKN008 BECMG 0900/0903 09006KT BECMG 0903/0906 17012KT BECMG 0912/0915 30006KT BECMG 0915/0918 36012KT",
      "groups": [
        {
          "text": "TAF RJTT 081105Z 0812/0918 12006KT 9999 FEW015 BKN030",
          "offset_h": 0,
          "wdir": 120,
          "wspd": 6
        },
        {
          "text": "BECMG 0812/0814 19012KT",
          "offset_h": 0,
          "wdir": 190,
          "wspd": 12
        },
        {
          "text": "TEMPO 0815/0818 FEW005 BKN008",
          "offset_h": 3,
          "wdir": null,
          "wspd": null
        },
        {
          "text": "BECMG 0817/0819 30006KT",
          "offset_h": 5,
          "wdir": 300,
          "wspd": 6
        },
        {
          "text": "TEMPO 0818/0822 3000 -SHRA BR FEW005 BKN008",
          "offset_h": 6,
          "wdir": null,
          "wspd": null
        },
        {
          "text": "BECMG 0900/0903 09006KT",
          "offset_h": 12,
          "wdir": 90,
          "wspd": 6
        },
        {
          "text": "BECMG 0903/0906 17012KT",
          "offset_h": 15,
          "wdir": 170,
          "wspd": 12
        },
        {
          "text": "BECMG 0912/0915 30006KT",
          "offset_h": 24,
          "wdir": 300,
          "wspd": 6
        },
        {
          "text": "BECMG 0915/0918 36012KT",
          "offset_h": 27,
          "wdir": 360,
          "wspd": 12
        }
      ],
      "metar_raw": "METAR RJTT 081230Z 13005KT 9999 FEW010 SCT015 BKN030 21/20 Q1004 BECMG 19010KT",
      "metar_wdir": 130,
      "metar_wspd": 5,
      "metar_oat": 21,
      "metar_qnh": 1004,
      "hourly_oat": [
        21,
        21,
        21,
        21,
        21,
        20,
        20,
        20,
        20,
        20,
        20,
        20,
        21,
        21,
        21,
        22,
        22,
        22,
        22,
        22,
        21,
        21,
        21,
        21,
        20
      ]
    },
    "ITM": {
      "icao": "RJOO",
      "issued": "2026-06-08T11:05:00.000Z",
      "raw": "TAF RJOO 081105Z 0812/0918 31006KT 9999 FEW020 SCT030 BKN040 TEMPO 0812/0815 4000 SHRA BR",
      "groups": [
        {
          "text": "TAF RJOO 081105Z 0812/0918 31006KT 9999 FEW020 SCT030 BKN040",
          "offset_h": 0,
          "wdir": 310,
          "wspd": 6
        },
        {
          "text": "TEMPO 0812/0815 4000 SHRA BR",
          "offset_h": 0,
          "wdir": null,
          "wspd": null
        }
      ],
      "metar_raw": "METAR RJOO 081200Z AUTO VRB02KT 9999 -RA NSC 20/18 Q1006",
      "metar_wdir": "VRB",
      "metar_wspd": 2,
      "metar_oat": 20,
      "metar_qnh": 1006,
      "hourly_oat": [
        20,
        19,
        19,
        19,
        18,
        18,
        18,
        18,
        18,
        18,
        18,
        20,
        20,
        21,
        22,
        22,
        22,
        22,
        22,
        22,
        21,
        21,
        20,
        19,
        18
      ]
    },
    "CGK": {
      "icao": "WIII",
      "issued": "2026-06-08T11:00:00.000Z",
      "raw": "TAF WIII 081100Z 0812/0918 03010KT 4000 HZ SCT020 BECMG 0816/0818 14005KT BECMG 0902/0904 04011KT 8000 NSW",
      "groups": [
        {
          "text": "TAF WIII 081100Z 0812/0918 03010KT 4000 HZ SCT020",
          "offset_h": 0,
          "wdir": 30,
          "wspd": 10
        },
        {
          "text": "BECMG 0816/0818 14005KT",
          "offset_h": 4,
          "wdir": 140,
          "wspd": 5
        },
        {
          "text": "BECMG 0902/0904 04011KT 8000 NSW",
          "offset_h": 14,
          "wdir": 40,
          "wspd": 11
        }
      ],
      "metar_raw": "METAR WIII 081230Z 06006KT 5000 HZ FEW020 28/24 Q1011 NOSIG",
      "metar_wdir": 60,
      "metar_wspd": 6,
      "metar_oat": 28,
      "metar_qnh": 1011,
      "hourly_oat": [
        29,
        29,
        28,
        28,
        28,
        27,
        27,
        26,
        26,
        25,
        25,
        25,
        26,
        28,
        30,
        32,
        34,
        34,
        34,
        33,
        32,
        31,
        30,
        30,
        29
      ]
    },
    "BKK": {
      "icao": "VTBS",
      "issued": "2026-06-08T11:00:00.000Z",
      "raw": "TAF VTBS 081100Z 0812/0918 21008KT 9999 FEW020 TEMPO 0906/0912 VRB15KT 4000 TSRA FEW018CB SCT030 BKN100",
      "groups": [
        {
          "text": "TAF VTBS 081100Z 0812/0918 21008KT 9999 FEW020",
          "offset_h": 0,
          "wdir": 210,
          "wspd": 8
        },
        {
          "text": "TEMPO 0906/0912 VRB15KT 4000 TSRA FEW018CB SCT030 BKN100",
          "offset_h": 18,
          "wdir": "VRB",
          "wspd": 15
        }
      ],
      "metar_raw": "METAR VTBS 081230Z 21008KT 9999 FEW020 30/27 Q1006 NOSIG",
      "metar_wdir": 210,
      "metar_wspd": 8,
      "metar_oat": 30,
      "metar_qnh": 1006,
      "hourly_oat": [
        29,
        29,
        29,
        29,
        29,
        28,
        28,
        27,
        27,
        27,
        28,
        28,
        29,
        31,
        30,
        32,
        31,
        32,
        32,
        33,
        32,
        29,
        30,
        30,
        29
      ]
    },
    "SIN": {
      "icao": "WSSS",
      "issued": "2026-06-08T11:00:00.000Z",
      "raw": "TAF WSSS 081100Z 0812/0918 17007KT 9999 FEW015 SCT020 TEMPO 0902/0905 3000 TSRA FEW012CB BKN015",
      "groups": [
        {
          "text": "TAF WSSS 081100Z 0812/0918 17007KT 9999 FEW015 SCT020",
          "offset_h": 0,
          "wdir": 170,
          "wspd": 7
        },
        {
          "text": "TEMPO 0902/0905 3000 TSRA FEW012CB BKN015",
          "offset_h": 14,
          "wdir": null,
          "wspd": null
        }
      ],
      "metar_raw": "METAR WSSS 081230Z 14005KT 9999 FEW018 FEW020CB BKN300 27/24 Q1010 NOSIG",
      "metar_wdir": 140,
      "metar_wspd": 5,
      "metar_oat": 27,
      "metar_qnh": 1010,
      "hourly_oat": [
        26,
        27,
        27,
        27,
        27,
        27,
        27,
        26,
        26,
        26,
        24,
        24,
        25,
        26,
        27,
        28,
        29,
        30,
        30,
        31,
        29,
        28,
        28,
        28,
        27
      ]
    },
    "KUL": {
      "icao": "WMKK",
      "issued": "2026-06-08T11:00:00.000Z",
      "raw": "TAF WMKK 081100Z 0812/0918 VRB03KT 9999 FEW018 TEMPO 0817/0820 23006KT 4000 +TSRA FEW017CB",
      "groups": [
        {
          "text": "TAF WMKK 081100Z 0812/0918 VRB03KT 9999 FEW018",
          "offset_h": 0,
          "wdir": "VRB",
          "wspd": 3
        },
        {
          "text": "TEMPO 0817/0820 23006KT 4000 +TSRA FEW017CB",
          "offset_h": 5,
          "wdir": 230,
          "wspd": 6
        }
      ],
      "metar_raw": "METAR WMKK 081230Z VRB02KT 9999 FEW017CB 29/25 Q1008 NOSIG",
      "metar_wdir": "VRB",
      "metar_wspd": 2,
      "metar_oat": 29,
      "metar_qnh": 1008,
      "hourly_oat": [
        24,
        25,
        25,
        24,
        24,
        23,
        23,
        23,
        23,
        23,
        23,
        23,
        23,
        25,
        27,
        29,
        30,
        30,
        30,
        29,
        30,
        27,
        26,
        26,
        25
      ]
    },
    "HAN": {
      "icao": "VVNB",
      "issued": "2026-06-08T11:00:00.000Z",
      "raw": "TAF VVNB 081100Z 0812/0912 03012KT 9999 SCT020 TEMPO 0812/0815 03015G25KT 4000 SHRA SCT010 FEW027CB",
      "groups": [
        {
          "text": "TAF VVNB 081100Z 0812/0912 03012KT 9999 SCT020",
          "offset_h": 0,
          "wdir": 30,
          "wspd": 12
        },
        {
          "text": "TEMPO 0812/0815 03015G25KT 4000 SHRA SCT010 FEW027CB",
          "offset_h": 0,
          "wdir": 30,
          "wspd": 15
        }
      ],
      "metar_raw": "METAR VVNB 081230Z 05011KT 020V090 9999 TS FEW030CB BKN070 26/23 Q1003 TEMPO FM1400 4000 TSRA",
      "metar_wdir": 50,
      "metar_wspd": 11,
      "metar_oat": 26,
      "metar_qnh": 1003,
      "hourly_oat": [
        29,
        28,
        28,
        27,
        27,
        26,
        26,
        26,
        26,
        25,
        25,
        24,
        24,
        24,
        24,
        24,
        26,
        27,
        27,
        26,
        26,
        26,
        26,
        26,
        25
      ]
    },
    "SGN": {
      "icao": "VVTS",
      "issued": "2026-06-08T11:00:00.000Z",
      "raw": "TAF VVTS 081100Z 0812/0918 26010KT 9999 SCT017 TEMPO 0822/0901 3000 TSRA SCT013 SCT015CB TEMPO 0905/0908 26015G28KT 5000 TSRA SCT015 FEW017CB",
      "groups": [
        {
          "text": "TAF VVTS 081100Z 0812/0918 26010KT 9999 SCT017",
          "offset_h": 0,
          "wdir": 260,
          "wspd": 10
        },
        {
          "text": "TEMPO 0822/0901 3000 TSRA SCT013 SCT015CB",
          "offset_h": 10,
          "wdir": null,
          "wspd": null
        },
        {
          "text": "TEMPO 0905/0908 26015G28KT 5000 TSRA SCT015 FEW017CB",
          "offset_h": 17,
          "wdir": 260,
          "wspd": 15
        }
      ],
      "metar_raw": "METAR VVTS 081230Z 23009KT CAVOK 30/27 Q1008 NOSIG",
      "metar_wdir": 230,
      "metar_wspd": 9,
      "metar_oat": 30,
      "metar_qnh": 1008,
      "hourly_oat": [
        29,
        29,
        28,
        28,
        28,
        27,
        27,
        27,
        27,
        27,
        25,
        25,
        25,
        27,
        29,
        30,
        30,
        27,
        28,
        30,
        31,
        31,
        30,
        30,
        29
      ]
    },
    "TSA": {
      "icao": "RCSS",
      "issued": "2026-06-08T11:00:00.000Z",
      "raw": "TAF RCSS 081100Z 0812/0912 08005KT 6000 FEW010 BKN032 TEMPO 0812/0818 3000 SHRA SCT008 BKN013 TEMPO 0818/0824 4500 RA FEW010 BKN017 TEMPO 0900/0906 30005KT 4000 SHRA FEW010 BKN015 TEMPO 0906/0912 12012KT 3200 SHRA FEW008 BKN013 FEW020CB",
      "groups": [
        {
          "text": "TAF RCSS 081100Z 0812/0912 08005KT 6000 FEW010 BKN032",
          "offset_h": 0,
          "wdir": 80,
          "wspd": 5
        },
        {
          "text": "TEMPO 0812/0818 3000 SHRA SCT008 BKN013",
          "offset_h": 0,
          "wdir": null,
          "wspd": null
        },
        {
          "text": "TEMPO 0818/0824 4500 RA FEW010 BKN017",
          "offset_h": 6,
          "wdir": null,
          "wspd": null
        },
        {
          "text": "TEMPO 0900/0906 30005KT 4000 SHRA FEW010 BKN015",
          "offset_h": 12,
          "wdir": 300,
          "wspd": 5
        },
        {
          "text": "TEMPO 0906/0912 12012KT 3200 SHRA FEW008 BKN013 FEW020CB",
          "offset_h": 18,
          "wdir": 120,
          "wspd": 12
        }
      ],
      "metar_raw": "METAR RCSS 081230Z 10004KT 9999 -RA FEW008 BKN020 BKN040 26/25 Q1004 NOSIG RMK A2966",
      "metar_wdir": 100,
      "metar_wspd": 4,
      "metar_oat": 26,
      "metar_qnh": 1004,
      "hourly_oat": [
        25,
        25,
        25,
        25,
        25,
        25,
        25,
        25,
        25,
        25,
        25,
        25,
        25,
        25,
        26,
        26,
        26,
        26,
        26,
        26,
        25,
        25,
        24,
        24,
        24
      ]
    },
    "TPE": {
      "icao": "RCTP",
      "issued": "2026-06-08T11:00:00.000Z",
      "raw": "TAF RCTP 081100Z 0812/0918 35005KT 7000 FEW008 BKN022 TEMPO 0812/0816 02010KT 3500 SHRA SCT008 BKN013 BECMG 0816/0818 04010KT FEW005 BKN011 TEMPO 0818/0824 3200 SHRA SCT005 BKN007 TEMPO 0900/0906 4000 SHRA SCT005 BKN008 TEMPO 0906/0912 03015KT 5000 RA SCT005 BKN009 TEMPO 0912/0918 05017KT",
      "groups": [
        {
          "text": "TAF RCTP 081100Z 0812/0918 35005KT 7000 FEW008 BKN022",
          "offset_h": 0,
          "wdir": 350,
          "wspd": 5
        },
        {
          "text": "TEMPO 0812/0816 02010KT 3500 SHRA SCT008 BKN013",
          "offset_h": 0,
          "wdir": 20,
          "wspd": 10
        },
        {
          "text": "BECMG 0816/0818 04010KT FEW005 BKN011",
          "offset_h": 4,
          "wdir": 40,
          "wspd": 10
        },
        {
          "text": "TEMPO 0818/0824 3200 SHRA SCT005 BKN007",
          "offset_h": 6,
          "wdir": null,
          "wspd": null
        },
        {
          "text": "TEMPO 0900/0906 4000 SHRA SCT005 BKN008",
          "offset_h": 12,
          "wdir": null,
          "wspd": null
        },
        {
          "text": "TEMPO 0906/0912 03015KT 5000 RA SCT005 BKN009",
          "offset_h": 18,
          "wdir": 30,
          "wspd": 15
        },
        {
          "text": "TEMPO 0912/0918 05017KT",
          "offset_h": 24,
          "wdir": 50,
          "wspd": 17
        }
      ],
      "metar_raw": "METAR RCTP 081230Z 12005KT 7000 -RA SCT006 BKN010 BKN020 26/26 Q1004 NOSIG RMK A2967",
      "metar_wdir": 120,
      "metar_wspd": 5,
      "metar_oat": 26,
      "metar_qnh": 1004,
      "hourly_oat": [
        25,
        25,
        25,
        25,
        25,
        25,
        25,
        24,
        24,
        24,
        24,
        24,
        25,
        25,
        25,
        25,
        25,
        24,
        25,
        25,
        24,
        24,
        24,
        24,
        23
      ]
    },
    "HKG": {
      "icao": "VHHH",
      "issued": "2026-06-08T11:00:00.000Z",
      "raw": "TAF VHHH 081100Z 0812/0918 16010KT 9999 FEW010 SCT025 TX30/0906Z TN26/0823Z TEMPO 0812/0816 24020G35KT 2000 TSRA +SHRA FEW008CB SCT015 TEMPO 0816/0818 3000 SHRA FEW010CB SCT020 TEMPO 0818/0902 32020G35KT 2000 TSRA +SHRA FEW008CB SCT015 BECMG 0902/0904 03010KT TEMPO 0902/0906 4000 SHRA FEW010CB SCT020",
      "groups": [
        {
          "text": "TAF VHHH 081100Z 0812/0918 16010KT 9999 FEW010 SCT025 TX30/0906Z TN26/0823Z",
          "offset_h": 0,
          "wdir": 160,
          "wspd": 10
        },
        {
          "text": "TEMPO 0812/0816 24020G35KT 2000 TSRA +SHRA FEW008CB SCT015",
          "offset_h": 0,
          "wdir": 240,
          "wspd": 20
        },
        {
          "text": "TEMPO 0816/0818 3000 SHRA FEW010CB SCT020",
          "offset_h": 4,
          "wdir": null,
          "wspd": null
        },
        {
          "text": "TEMPO 0818/0902 32020G35KT 2000 TSRA +SHRA FEW008CB SCT015",
          "offset_h": 6,
          "wdir": 320,
          "wspd": 20
        },
        {
          "text": "BECMG 0902/0904 03010KT",
          "offset_h": 14,
          "wdir": 30,
          "wspd": 10
        },
        {
          "text": "TEMPO 0902/0906 4000 SHRA FEW010CB SCT020",
          "offset_h": 14,
          "wdir": null,
          "wspd": null
        }
      ],
      "metar_raw": "METAR VHHH 081230Z 20015KT 6000 +TSRA FEW006 FEW012CB SCT020 25/24 Q1002 TEMPO 24025G40KT 2000 TSRA +SHRA FEW008CB SCT015",
      "metar_wdir": 200,
      "metar_wspd": 15,
      "metar_oat": 25,
      "metar_qnh": 1002,
      "hourly_oat": [
        27,
        28,
        27,
        27,
        26,
        27,
        26,
        26,
        26,
        27,
        27,
        27,
        26,
        27,
        27,
        28,
        27,
        27,
        27,
        27,
        27,
        27,
        27,
        27,
        26
      ]
    },
    "GMP": {
      "icao": "RKSS",
      "issued": "2026-06-08T11:00:00.000Z",
      "raw": "TAF RKSS 081100Z 0812/0918 30005KT CAVOK TN14/0820Z TX28/0906Z BECMG 0815/0817 06005KT BECMG 0901/0903 26007KT BECMG 0913/0915 20005KT 6000 SCT040",
      "groups": [
        {
          "text": "TAF RKSS 081100Z 0812/0918 30005KT CAVOK TN14/0820Z TX28/0906Z",
          "offset_h": 0,
          "wdir": 300,
          "wspd": 5
        },
        {
          "text": "BECMG 0815/0817 06005KT",
          "offset_h": 3,
          "wdir": 60,
          "wspd": 5
        },
        {
          "text": "BECMG 0901/0903 26007KT",
          "offset_h": 13,
          "wdir": 260,
          "wspd": 7
        },
        {
          "text": "BECMG 0913/0915 20005KT 6000 SCT040",
          "offset_h": 25,
          "wdir": 200,
          "wspd": 5
        }
      ],
      "metar_raw": "METAR RKSS 081200Z 28007KT CAVOK 20/15 Q1007 NOSIG",
      "metar_wdir": 280,
      "metar_wspd": 7,
      "metar_oat": 20,
      "metar_qnh": 1007,
      "hourly_oat": [
        19,
        19,
        18,
        16,
        16,
        15,
        15,
        14,
        14,
        14,
        16,
        18,
        20,
        22,
        24,
        25,
        26,
        26,
        26,
        26,
        25,
        23,
        21,
        19,
        19
      ]
    },
    "CAN": {
      "icao": "ZGGG",
      "issued": "2026-06-08T10:41:00.000Z",
      "raw": "TAF AMD ZGGG 081041Z 0812/0918 16003MPS 6000 -SHRA FEW010 FEW026CB BKN033 TX27/0812Z TX29/0907Z TN24/0822Z TEMPO 0812/0818 +SHRA SCT026CB BKN030 TEMPO 0819/0824 SHRA BECMG 0820/0821 36005MPS BKN030",
      "groups": [
        {
          "text": "TAF AMD ZGGG 081041Z 0812/0918 16003MPS 6000 -SHRA FEW010 FEW026CB BKN033 TX27/0812Z TX29/0907Z TN24/0822Z",
          "offset_h": 0,
          "wdir": null,
          "wspd": null
        },
        {
          "text": "TEMPO 0812/0818 +SHRA SCT026CB BKN030",
          "offset_h": 0,
          "wdir": null,
          "wspd": null
        },
        {
          "text": "TEMPO 0819/0824 SHRA",
          "offset_h": 7,
          "wdir": null,
          "wspd": null
        },
        {
          "text": "BECMG 0820/0821 36005MPS BKN030",
          "offset_h": 8,
          "wdir": null,
          "wspd": null
        }
      ],
      "metar_raw": "METAR ZGGG 081230Z 13002MPS 9999 -SHRA FEW010 BKN033 28/27 Q1000 NOSIG",
      "metar_wdir": null,
      "metar_wspd": null,
      "metar_oat": 28,
      "metar_qnh": 1000,
      "hourly_oat": [
        26,
        26,
        26,
        25,
        25,
        25,
        25,
        25,
        25,
        24,
        23,
        23,
        23,
        23,
        23,
        24,
        26,
        28,
        29,
        29,
        29,
        28,
        28,
        27,
        27
      ]
    },
    "DLC": {
      "icao": "ZYTL",
      "issued": "2026-06-08T09:18:00.000Z",
      "raw": "TAF ZYTL 080918Z 0812/0912 19004MPS 5000 BR FEW033 TX23/0906Z TN16/0820Z BECMG 0821/0822 2000 -TSRA BR SCT005 BKN010 SCT033CB BECMG 0823/0824 3000 BR SCT010 BKN033 BECMG 0902/0903 2000 -TSRA BR SCT005 BKN010 SCT033CB BECMG 0905/0906 5000 BR SCT020",
      "groups": [
        {
          "text": "TAF ZYTL 080918Z 0812/0912 19004MPS 5000 BR FEW033 TX23/0906Z TN16/0820Z",
          "offset_h": 0,
          "wdir": null,
          "wspd": null
        },
        {
          "text": "BECMG 0821/0822 2000 -TSRA BR SCT005 BKN010 SCT033CB",
          "offset_h": 9,
          "wdir": null,
          "wspd": null
        },
        {
          "text": "BECMG 0823/0824 3000 BR SCT010 BKN033",
          "offset_h": 11,
          "wdir": null,
          "wspd": null
        },
        {
          "text": "BECMG 0902/0903 2000 -TSRA BR SCT005 BKN010 SCT033CB",
          "offset_h": 14,
          "wdir": null,
          "wspd": null
        },
        {
          "text": "BECMG 0905/0906 5000 BR SCT020",
          "offset_h": 17,
          "wdir": null,
          "wspd": null
        }
      ],
      "metar_raw": "METAR ZYTL 081230Z 12002MPS 080V160 CAVOK 18/12 Q1008 NOSIG",
      "metar_wdir": null,
      "metar_wspd": null,
      "metar_oat": 18,
      "metar_qnh": 1008,
      "hourly_oat": [
        19,
        18,
        18,
        18,
        18,
        17,
        17,
        17,
        17,
        17,
        17,
        18,
        18,
        20,
        21,
        22,
        22,
        22,
        22,
        22,
        21,
        21,
        18,
        18,
        17
      ]
    },
    "PVG": {
      "icao": "ZSPD",
      "issued": "2026-06-08T09:02:00.000Z",
      "raw": "TAF ZSPD 080902Z 0812/0918 03004MPS 8000 BKN030 TX20/0812Z TX25/0906Z TN18/0821Z",
      "groups": [
        {
          "text": "TAF ZSPD 080902Z 0812/0918 03004MPS 8000 BKN030 TX20/0812Z TX25/0906Z TN18/0821Z",
          "offset_h": 0,
          "wdir": null,
          "wspd": null
        }
      ],
      "metar_raw": "METAR ZSPD 081230Z 31002MPS 9999 FEW026 20/17 Q1010 NOSIG",
      "metar_wdir": null,
      "metar_wspd": null,
      "metar_oat": 20,
      "metar_qnh": 1010,
      "hourly_oat": [
        21,
        20,
        20,
        21,
        20,
        21,
        20,
        20,
        20,
        20,
        21,
        21,
        21,
        22,
        22,
        22,
        23,
        24,
        24,
        24,
        23,
        23,
        22,
        21,
        20
      ]
    },
    "SHA": {
      "icao": "ZSSS",
      "issued": "2026-06-08T09:02:00.000Z",
      "raw": "TAF ZSSS 080902Z 0812/0918 03004MPS 8000 BKN030 TX21/0812Z TX26/0906Z TN19/0821Z",
      "groups": [
        {
          "text": "TAF ZSSS 080902Z 0812/0918 03004MPS 8000 BKN030 TX21/0812Z TX26/0906Z TN19/0821Z",
          "offset_h": 0,
          "wdir": null,
          "wspd": null
        }
      ],
      "metar_raw": "METAR ZSSS 081230Z 36004MPS CAVOK 21/15 Q1010 NOSIG",
      "metar_wdir": null,
      "metar_wspd": null,
      "metar_oat": 21,
      "metar_qnh": 1010,
      "hourly_oat": [
        21,
        21,
        21,
        20,
        20,
        20,
        20,
        20,
        20,
        20,
        20,
        21,
        21,
        22,
        23,
        24,
        25,
        25,
        26,
        26,
        26,
        25,
        25,
        24,
        22
      ]
    }
  }
}