{
  "updated": "2026-06-20T20:10:01Z",
  "tafs": {
    "HKG": {
      "icao": "VHHH",
      "issued": "2026-06-20T20:00:00.000Z",
      "raw": "TAF VHHH 202000Z 2021/2203 18010KT 9999 FEW010 SCT025 TX34/2106Z TN29/2022Z TN29/2122Z",
      "groups": [
        {
          "text": "TAF VHHH 202000Z 2021/2203 18010KT 9999 FEW010 SCT025 TX34/2106Z TN29/2022Z TN29/2122Z",
          "offset_h": 1,
          "wdir": 180,
          "wspd": 10
        }
      ],
      "metar_raw": "METAR VHHH 202000Z 19010KT 9999 FEW012 29/24 Q1010 NOSIG",
      "metar_wdir": 190,
      "metar_wspd": 10,
      "metar_oat": 29,
      "metar_qnh": 1010,
      "hourly_oat": [
        28,
        28,
        28,
        28,
        29,
        29,
        30,
        30,
        30,
        30,
        30,
        30,
        30,
        29,
        29,
        29,
        29,
        28,
        28,
        28,
        28,
        28,
        28,
        28,
        28
      ]
    },
    "NGO": {
      "icao": "RJGG",
      "issued": "2026-06-20T19:45:00.000Z",
      "raw": "TAF AMD RJGG 201945Z 2019/2200 36004KT 9999 FEW020 SCT030 BECMG 2022/2100 16005KT BECMG 2101/2103 24012KT BECMG 2106/2109 29014KT",
      "groups": [
        {
          "text": "TAF AMD RJGG 201945Z 2019/2200 36004KT 9999 FEW020 SCT030",
          "offset_h": -1,
          "wdir": 360,
          "wspd": 4
        },
        {
          "text": "BECMG 2022/2100 16005KT",
          "offset_h": 2,
          "wdir": 160,
          "wspd": 5
        },
        {
          "text": "BECMG 2101/2103 24012KT",
          "offset_h": 5,
          "wdir": 240,
          "wspd": 12
        },
        {
          "text": "BECMG 2106/2109 29014KT",
          "offset_h": 10,
          "wdir": 290,
          "wspd": 14
        }
      ],
      "metar_raw": "METAR RJGG 202000Z AUTO VRB01KT 8000 BKN043 22/22 Q1002 NOSIG",
      "metar_wdir": "VRB",
      "metar_wspd": 1,
      "metar_oat": 22,
      "metar_qnh": 1002,
      "hourly_oat": [
        23,
        23,
        23,
        23,
        24,
        24,
        25,
        26,
        26,
        26,
        26,
        26,
        25,
        25,
        24,
        24,
        24,
        24,
        24,
        24,
        24,
        23,
        23,
        23,
        23
      ]
    },
    "NRT": {
      "icao": "RJAA",
      "issued": "2026-06-20T18:56:00.000Z",
      "raw": "TAF AMD RJAA 201856Z 2018/2200 14012KT 6000 -SHRA FEW003 BKN012 TEMPO 2018/2021 3000 TSRA BR FEW001 BKN003 FEW020CB TEMPO 2021/2100 3000 SHRA BR FEW001 BKN003 BECMG 2022/2100 22012KT BECMG 2106/2109 02006KT TEMPO 2109/2115 FEW003 BKN008 TEMPO 2118/2200 FEW001 BKN003",
      "groups": [
        {
          "text": "TAF AMD RJAA 201856Z 2018/2200 14012KT 6000 -SHRA FEW003 BKN012",
          "offset_h": -2,
          "wdir": 140,
          "wspd": 12
        },
        {
          "text": "TEMPO 2018/2021 3000 TSRA BR FEW001 BKN003 FEW020CB",
          "offset_h": -2,
          "wdir": null,
          "wspd": null
        },
        {
          "text": "TEMPO 2021/2100 3000 SHRA BR FEW001 BKN003",
          "offset_h": 1,
          "wdir": null,
          "wspd": null
        },
        {
          "text": "BECMG 2022/2100 22012KT",
          "offset_h": 2,
          "wdir": 220,
          "wspd": 12
        },
        {
          "text": "BECMG 2106/2109 02006KT",
          "offset_h": 10,
          "wdir": 20,
          "wspd": 6
        },
        {
          "text": "TEMPO 2109/2115 FEW003 BKN008",
          "offset_h": 13,
          "wdir": null,
          "wspd": null
        },
        {
          "text": "TEMPO 2118/2200 FEW001 BKN003",
          "offset_h": 22,
          "wdir": null,
          "wspd": null
        }
      ],
      "metar_raw": "METAR RJAA 202000Z AUTO 15012KT 9000 RA OVC003 //////CB 22/21 Q1003 TEMPO 3000 TSRA BR",
      "metar_wdir": 150,
      "metar_wspd": 12,
      "metar_oat": 22,
      "metar_qnh": 1003,
      "hourly_oat": [
        21,
        22,
        22,
        24,
        26,
        27,
        27,
        27,
        28,
        28,
        28,
        28,
        25,
        23,
        22,
        22,
        22,
        22,
        21,
        21,
        21,
        20,
        20,
        19,
        19
      ]
    },
    "KIX": {
      "icao": "RJBB",
      "issued": "2026-06-20T18:12:00.000Z",
      "raw": "TAF AMD RJBB 201812Z 2018/2200 20016KT 9999 FEW030 BKN050 TEMPO 2018/2021 FEW005 BKN008 BKN015 BECMG 2022/2100 26012KT",
      "groups": [
        {
          "text": "TAF AMD RJBB 201812Z 2018/2200 20016KT 9999 FEW030 BKN050",
          "offset_h": -2,
          "wdir": 200,
          "wspd": 16
        },
        {
          "text": "TEMPO 2018/2021 FEW005 BKN008 BKN015",
          "offset_h": -2,
          "wdir": null,
          "wspd": null
        },
        {
          "text": "BECMG 2022/2100 26012KT",
          "offset_h": 2,
          "wdir": 260,
          "wspd": 12
        }
      ],
      "metar_raw": "METAR RJBB 202000Z AUTO 23014KT 7000 R24L/P2000N R24R/1100VP2000D FEW027 SCT031 BKN033 //////TCU 24/24 Q1003 TEMPO 4000 SHRA BR FEW005 BKN008 BKN015",
      "metar_wdir": 230,
      "metar_wspd": 14,
      "metar_oat": 24,
      "metar_qnh": 1003,
      "hourly_oat": [
        24,
        24,
        24,
        24,
        24,
        24,
        25,
        24,
        24,
        24,
        24,
        24,
        24,
        24,
        24,
        24,
        24,
        23,
        23,
        23,
        23,
        23,
        23,
        23,
        23
      ]
    },
    "HND": {
      "icao": "RJTT",
      "issued": "2026-06-20T18:11:00.000Z",
      "raw": "TAF AMD RJTT 201811Z 2018/2200 19012KT 8000 -SHRA FEW005 BKN012 TEMPO 2018/2021 3000 TSRA BR FEW003 BKN005 FEW015CB TEMPO 2021/2100 4000 SHRA BR FEW003 BKN005 BECMG 2106/2109 01008KT BECMG 2121/2200 07006KT",
      "groups": [
        {
          "text": "TAF AMD RJTT 201811Z 2018/2200 19012KT 8000 -SHRA FEW005 BKN012",
          "offset_h": -2,
          "wdir": 190,
          "wspd": 12
        },
        {
          "text": "TEMPO 2018/2021 3000 TSRA BR FEW003 BKN005 FEW015CB",
          "offset_h": -2,
          "wdir": null,
          "wspd": null
        },
        {
          "text": "TEMPO 2021/2100 4000 SHRA BR FEW003 BKN005",
          "offset_h": 1,
          "wdir": null,
          "wspd": null
        },
        {
          "text": "BECMG 2106/2109 01008KT",
          "offset_h": 10,
          "wdir": 10,
          "wspd": 8
        },
        {
          "text": "BECMG 2121/2200 07006KT",
          "offset_h": 25,
          "wdir": 70,
          "wspd": 6
        }
      ],
      "metar_raw": "METAR RJTT 202000Z 15017KT 6000 -SHRA FEW004 BKN006 23/22 Q1002 TEMPO 4000 -SHRA BR",
      "metar_wdir": 150,
      "metar_wspd": 17,
      "metar_oat": 23,
      "metar_qnh": 1002,
      "hourly_oat": [
        22,
        23,
        24,
        25,
        24,
        24,
        25,
        25,
        26,
        26,
        27,
        27,
        26,
        25,
        24,
        24,
        24,
        24,
        23,
        22,
        22,
        21,
        21,
        20,
        20
      ]
    },
    "LAX": {
      "icao": "KLAX",
      "issued": "2026-06-20T17:35:00.000Z",
      "raw": "TAF KLAX 201735Z 2018/2124 24010KT P6SM SCT020 FM202100 25011KT P6SM SCT250 FM210500 26006KT P6SM BKN020 FM212000 23008KT P6SM SCT020",
      "groups": [
        {
          "text": "TAF KLAX 201735Z 2018/2124 24010KT P6SM SCT020",
          "offset_h": -2,
          "wdir": 240,
          "wspd": 10
        },
        {
          "text": "FM202100 25011KT P6SM SCT250",
          "offset_h": 1,
          "wdir": 250,
          "wspd": 11
        },
        {
          "text": "FM210500 26006KT P6SM BKN020",
          "offset_h": 9,
          "wdir": 260,
          "wspd": 6
        },
        {
          "text": "FM212000 23008KT P6SM SCT020",
          "offset_h": 24,
          "wdir": 230,
          "wspd": 8
        }
      ],
      "metar_raw": "METAR KLAX 201953Z 25011KT 10SM FEW016 SCT021 SCT028 21/13 A3000 RMK AO2 SLP156 T02060128",
      "metar_wdir": 250,
      "metar_wspd": 11,
      "metar_oat": 21,
      "metar_qnh": 1016,
      "hourly_oat": [
        20,
        20,
        20,
        20,
        19,
        19,
        18,
        17,
        16,
        16,
        15,
        15,
        14,
        13,
        13,
        13,
        14,
        15,
        16,
        16,
        18,
        19,
        18,
        19,
        20
      ]
    },
    "SAN": {
      "icao": "KSAN",
      "issued": "2026-06-20T17:29:00.000Z",
      "raw": "TAF KSAN 201729Z 2018/2124 30013KT P6SM FEW028 FM210100 31008KT P6SM SCT022 FM210200 VRB05KT P6SM BKN018 FM211200 VRB03KT P6SM OVC022 FM211800 30011KT P6SM SCT026",
      "groups": [
        {
          "text": "TAF KSAN 201729Z 2018/2124 30013KT P6SM FEW028",
          "offset_h": -2,
          "wdir": 300,
          "wspd": 13
        },
        {
          "text": "FM210100 31008KT P6SM SCT022",
          "offset_h": 5,
          "wdir": 310,
          "wspd": 8
        },
        {
          "text": "FM210200 VRB05KT P6SM BKN018",
          "offset_h": 6,
          "wdir": "VRB",
          "wspd": 5
        },
        {
          "text": "FM211200 VRB03KT P6SM OVC022",
          "offset_h": 16,
          "wdir": "VRB",
          "wspd": 3
        },
        {
          "text": "FM211800 30011KT P6SM SCT026",
          "offset_h": 22,
          "wdir": 300,
          "wspd": 11
        }
      ],
      "metar_raw": "METAR KSAN 201951Z 29013G17KT 10SM FEW028 22/13 A3000 RMK AO2 SLP158 T02220128 $",
      "metar_wdir": 290,
      "metar_wspd": 13,
      "metar_oat": 22,
      "metar_qnh": 1016,
      "hourly_oat": [
        22,
        22,
        22,
        21,
        20,
        19,
        19,
        18,
        18,
        18,
        18,
        18,
        17,
        17,
        17,
        17,
        17,
        16,
        17,
        17,
        17,
        18,
        19,
        19,
        22
      ]
    },
    "HNL": {
      "icao": "PHNL",
      "issued": "2026-06-20T17:20:00.000Z",
      "raw": "TAF PHNL 201720Z 2018/2124 VRB05KT P6SM FEW025 FEW045 FM202000 09010KT P6SM FEW025 SCT045 FM210000 07010KT P6SM FEW025 SCT045 FM210900 VRB06KT P6SM FEW025 SCT045 FM212000 09010KT P6SM FEW025 SCT045",
      "groups": [
        {
          "text": "TAF PHNL 201720Z 2018/2124 VRB05KT P6SM FEW025 FEW045",
          "offset_h": -2,
          "wdir": "VRB",
          "wspd": 5
        },
        {
          "text": "FM202000 09010KT P6SM FEW025 SCT045",
          "offset_h": 0,
          "wdir": 90,
          "wspd": 10
        },
        {
          "text": "FM210000 07010KT P6SM FEW025 SCT045",
          "offset_h": 4,
          "wdir": 70,
          "wspd": 10
        },
        {
          "text": "FM210900 VRB06KT P6SM FEW025 SCT045",
          "offset_h": 13,
          "wdir": "VRB",
          "wspd": 6
        },
        {
          "text": "FM212000 09010KT P6SM FEW025 SCT045",
          "offset_h": 24,
          "wdir": 90,
          "wspd": 10
        }
      ],
      "metar_raw": "METAR PHNL 201953Z 03009G15KT 10SM FEW024 FEW036 FEW050 30/20 A3006 RMK AO2 SLP180 T03000200 $",
      "metar_wdir": 30,
      "metar_wspd": 9,
      "metar_oat": 30,
      "metar_qnh": 1018,
      "hourly_oat": [
        28,
        30,
        31,
        31,
        30,
        29,
        28,
        28,
        27,
        25,
        24,
        24,
        24,
        24,
        24,
        23,
        23,
        23,
        23,
        23,
        23,
        24,
        26,
        28,
        29
      ]
    },
    "CTS": {
      "icao": "RJCC",
      "issued": "2026-06-20T17:05:00.000Z",
      "raw": "TAF RJCC 201705Z 2018/2200 17006KT 9999 FEW015 SCT050 BECMG 2101/2103 17016KT BECMG 2112/2115 33004KT BECMG 2121/2200 21006KT",
      "groups": [
        {
          "text": "TAF RJCC 201705Z 2018/2200 17006KT 9999 FEW015 SCT050",
          "offset_h": -2,
          "wdir": 170,
          "wspd": 6
        },
        {
          "text": "BECMG 2101/2103 17016KT",
          "offset_h": 5,
          "wdir": 170,
          "wspd": 16
        },
        {
          "text": "BECMG 2112/2115 33004KT",
          "offset_h": 16,
          "wdir": 330,
          "wspd": 4
        },
        {
          "text": "BECMG 2121/2200 21006KT",
          "offset_h": 25,
          "wdir": 210,
          "wspd": 6
        }
      ],
      "metar_raw": "METAR RJCC 202000Z 00000KT 9999 FEW010 SCT025 BKN070 16/14 Q1013",
      "metar_wdir": 0,
      "metar_wspd": 0,
      "metar_oat": 16,
      "metar_qnh": 1013,
      "hourly_oat": [
        14,
        15,
        17,
        18,
        19,
        19,
        20,
        20,
        20,
        20,
        20,
        19,
        18,
        17,
        16,
        15,
        15,
        14,
        14,
        14,
        13,
        13,
        13,
        13,
        13
      ]
    },
    "FUK": {
      "icao": "RJFF",
      "issued": "2026-06-20T17:05:00.000Z",
      "raw": "TAF RJFF 201705Z 2018/2200 29010KT 9999 FEW015 SCT025 BKN030 BECMG 2109/2112 35008KT BECMG 2115/2118 13004KT BECMG 2121/2200 01006KT",
      "groups": [
        {
          "text": "TAF RJFF 201705Z 2018/2200 29010KT 9999 FEW015 SCT025 BKN030",
          "offset_h": -2,
          "wdir": 290,
          "wspd": 10
        },
        {
          "text": "BECMG 2109/2112 35008KT",
          "offset_h": 13,
          "wdir": 350,
          "wspd": 8
        },
        {
          "text": "BECMG 2115/2118 13004KT",
          "offset_h": 19,
          "wdir": 130,
          "wspd": 4
        },
        {
          "text": "BECMG 2121/2200 01006KT",
          "offset_h": 25,
          "wdir": 10,
          "wspd": 6
        }
      ],
      "metar_raw": "METAR RJFF 202000Z AUTO 28008KT 240V330 9999 BKN022 24/19 Q1007 NOSIG",
      "metar_wdir": 280,
      "metar_wspd": 8,
      "metar_oat": 24,
      "metar_qnh": 1007,
      "hourly_oat": [
        23,
        23,
        23,
        24,
        24,
        24,
        25,
        25,
        25,
        25,
        25,
        25,
        24,
        24,
        24,
        23,
        22,
        22,
        22,
        21,
        21,
        21,
        21,
        21,
        20
      ]
    },
    "OKA": {
      "icao": "ROAH",
      "issued": "2026-06-20T17:05:00.000Z",
      "raw": "TAF ROAH 201705Z 2018/2200 20010KT 9999 FEW005 BKN010 TEMPO 2018/2022 FEW003 BKN005 TEMPO 2022/2100 FEW005 BKN008 TEMPO 2112/2115 FEW005 BKN008 TEMPO 2115/2200 FEW003 BKN005",
      "groups": [
        {
          "text": "TAF ROAH 201705Z 2018/2200 20010KT 9999 FEW005 BKN010",
          "offset_h": -2,
          "wdir": 200,
          "wspd": 10
        },
        {
          "text": "TEMPO 2018/2022 FEW003 BKN005",
          "offset_h": -2,
          "wdir": null,
          "wspd": null
        },
        {
          "text": "TEMPO 2022/2100 FEW005 BKN008",
          "offset_h": 2,
          "wdir": null,
          "wspd": null
        },
        {
          "text": "TEMPO 2112/2115 FEW005 BKN008",
          "offset_h": 16,
          "wdir": null,
          "wspd": null
        },
        {
          "text": "TEMPO 2115/2200 FEW003 BKN005",
          "offset_h": 19,
          "wdir": null,
          "wspd": null
        }
      ],
      "metar_raw": "METAR ROAH 202000Z AUTO 19007KT 9999 FEW012 OVC014 26/26 Q1011",
      "metar_wdir": 190,
      "metar_wspd": 7,
      "metar_oat": 26,
      "metar_qnh": 1011,
      "hourly_oat": [
        25,
        25,
        26,
        27,
        28,
        28,
        28,
        29,
        29,
        29,
        28,
        28,
        28,
        27,
        27,
        26,
        26,
        26,
        26,
        25,
        25,
        25,
        25,
        24,
        24
      ]
    },
    "ITM": {
      "icao": "RJOO",
      "issued": "2026-06-20T17:05:00.000Z",
      "raw": "TAF RJOO 201705Z 2018/2200 26010KT 9999 FEW015 SCT020 BKN030 BECMG 2121/2200 32012KT",
      "groups": [
        {
          "text": "TAF RJOO 201705Z 2018/2200 26010KT 9999 FEW015 SCT020 BKN030",
          "offset_h": -2,
          "wdir": 260,
          "wspd": 10
        },
        {
          "text": "BECMG 2121/2200 32012KT",
          "offset_h": 25,
          "wdir": 320,
          "wspd": 12
        }
      ],
      "metar_raw": "METAR RJOO 202000Z AUTO 24007KT 190V270 9000 FEW005 SCT007 BKN013 //////TCU 24/23 Q1002",
      "metar_wdir": 240,
      "metar_wspd": 7,
      "metar_oat": 24,
      "metar_qnh": 1002,
      "hourly_oat": [
        24,
        24,
        25,
        26,
        27,
        28,
        27,
        28,
        28,
        28,
        28,
        27,
        27,
        26,
        25,
        24,
        24,
        24,
        23,
        23,
        23,
        23,
        23,
        22,
        22
      ]
    },
    "SGN": {
      "icao": "VVTS",
      "issued": "2026-06-20T17:00:00.000Z",
      "raw": "TAF VVTS 201700Z 2018/2124 22008KT 9999 SCT017 TEMPO 2108/2112 22015G25KT 5000 TSRA BKN015 FEW017CB",
      "groups": [
        {
          "text": "TAF VVTS 201700Z 2018/2124 22008KT 9999 SCT017",
          "offset_h": -2,
          "wdir": 220,
          "wspd": 8
        },
        {
          "text": "TEMPO 2108/2112 22015G25KT 5000 TSRA BKN015 FEW017CB",
          "offset_h": 12,
          "wdir": 220,
          "wspd": 15
        }
      ],
      "metar_raw": "METAR VVTS 202000Z 21007KT 9999 FEW021 SCT050 28/26 Q1010 NOSIG",
      "metar_wdir": 210,
      "metar_wspd": 7,
      "metar_oat": 28,
      "metar_qnh": 1010,
      "hourly_oat": [
        26,
        26,
        26,
        26,
        28,
        29,
        31,
        32,
        32,
        33,
        34,
        34,
        27,
        29,
        30,
        26,
        26,
        26,
        26,
        25,
        25,
        26,
        25,
        25,
        25
      ]
    },
    "BKK": {
      "icao": "VTBS",
      "issued": "2026-06-20T17:00:00.000Z",
      "raw": "TAF VTBS 201700Z 2018/2124 20008KT 9999 FEW020 TEMPO 2110/2114 VRB15KT 4000 TSRA FEW018CB SCT030 BKN100",
      "groups": [
        {
          "text": "TAF VTBS 201700Z 2018/2124 20008KT 9999 FEW020",
          "offset_h": -2,
          "wdir": 200,
          "wspd": 8
        },
        {
          "text": "TEMPO 2110/2114 VRB15KT 4000 TSRA FEW018CB SCT030 BKN100",
          "offset_h": 14,
          "wdir": "VRB",
          "wspd": 15
        }
      ],
      "metar_raw": "METAR VTBS 202000Z 20003KT 9999 FEW020 29/25 Q1009 NOSIG",
      "metar_wdir": 200,
      "metar_wspd": 3,
      "metar_oat": 29,
      "metar_qnh": 1009,
      "hourly_oat": [
        28,
        28,
        27,
        27,
        27,
        29,
        31,
        32,
        33,
        33,
        32,
        32,
        33,
        32,
        31,
        28,
        28,
        28,
        28,
        27,
        27,
        27,
        26,
        26,
        26
      ]
    },
    "HAN": {
      "icao": "VVNB",
      "issued": "2026-06-20T17:00:00.000Z",
      "raw": "TAF VVNB 201700Z 2018/2118 08006KT 6000 FEW030 PROB40 TEMPO 2111/2114 4000 TSRA SCT012 FEW027CB",
      "groups": [
        {
          "text": "TAF VVNB 201700Z 2018/2118 08006KT 6000 FEW030",
          "offset_h": -2,
          "wdir": 80,
          "wspd": 6
        },
        {
          "text": "PROB40",
          "offset_h": 0,
          "wdir": null,
          "wspd": null
        },
        {
          "text": "TEMPO 2111/2114 4000 TSRA SCT012 FEW027CB",
          "offset_h": 15,
          "wdir": null,
          "wspd": null
        }
      ],
      "metar_raw": "METAR VVNB 202000Z 08005KT 9999 FEW018 26/25 Q1006 NOSIG",
      "metar_wdir": 80,
      "metar_wspd": 5,
      "metar_oat": 26,
      "metar_qnh": 1006,
      "hourly_oat": [
        28,
        28,
        28,
        28,
        30,
        31,
        32,
        33,
        34,
        35,
        35,
        35,
        35,
        34,
        34,
        33,
        32,
        31,
        30,
        30,
        29,
        29,
        29,
        29,
        29
      ]
    },
    "TSA": {
      "icao": "RCSS",
      "issued": "2026-06-20T17:00:00.000Z",
      "raw": "TAF RCSS 201700Z 2018/2118 30005KT 9999 FEW015 TEMPO 2106/2112 09007KT",
      "groups": [
        {
          "text": "TAF RCSS 201700Z 2018/2118 30005KT 9999 FEW015",
          "offset_h": -2,
          "wdir": 300,
          "wspd": 5
        },
        {
          "text": "TEMPO 2106/2112 09007KT",
          "offset_h": 10,
          "wdir": 90,
          "wspd": 7
        }
      ],
      "metar_raw": "METAR RCSS 202000Z VRB02KT 9999 FEW020 26/24 Q1010 NOSIG RMK A2984",
      "metar_wdir": "VRB",
      "metar_wspd": 2,
      "metar_oat": 26,
      "metar_qnh": 1010,
      "hourly_oat": [
        23,
        23,
        24,
        26,
        28,
        30,
        31,
        32,
        33,
        34,
        34,
        33,
        32,
        31,
        30,
        29,
        28,
        28,
        27,
        26,
        26,
        25,
        25,
        25,
        25
      ]
    },
    "TPE": {
      "icao": "RCTP",
      "issued": "2026-06-20T17:00:00.000Z",
      "raw": "TAF RCTP 201700Z 2018/2124 23005KT 9999 FEW015 TEMPO 2018/2023 16005KT BECMG 2023/2101 24010KT TEMPO 2104/2109 25015KT BECMG 2109/2111 22005KT TEMPO 2118/2124 17005KT",
      "groups": [
        {
          "text": "TAF RCTP 201700Z 2018/2124 23005KT 9999 FEW015",
          "offset_h": -2,
          "wdir": 230,
          "wspd": 5
        },
        {
          "text": "TEMPO 2018/2023 16005KT",
          "offset_h": -2,
          "wdir": 160,
          "wspd": 5
        },
        {
          "text": "BECMG 2023/2101 24010KT",
          "offset_h": 3,
          "wdir": 240,
          "wspd": 10
        },
        {
          "text": "TEMPO 2104/2109 25015KT",
          "offset_h": 8,
          "wdir": 250,
          "wspd": 15
        },
        {
          "text": "BECMG 2109/2111 22005KT",
          "offset_h": 13,
          "wdir": 220,
          "wspd": 5
        },
        {
          "text": "TEMPO 2118/2124 17005KT",
          "offset_h": 22,
          "wdir": 170,
          "wspd": 5
        }
      ],
      "metar_raw": "METAR RCTP 202000Z 22009KT 9999 FEW012 26/24 Q1010 NOSIG RMK A2984",
      "metar_wdir": 220,
      "metar_wspd": 9,
      "metar_oat": 26,
      "metar_qnh": 1010,
      "hourly_oat": [
        25,
        25,
        25,
        27,
        28,
        29,
        30,
        31,
        31,
        31,
        30,
        30,
        30,
        29,
        29,
        28,
        27,
        27,
        26,
        26,
        26,
        26,
        26,
        25,
        25
      ]
    },
    "GMP": {
      "icao": "RKSS",
      "issued": "2026-06-20T17:00:00.000Z",
      "raw": "TAF RKSS 201700Z 2018/2124 36007KT CAVOK TN19/2020Z TX30/2106Z TN20/2120Z BECMG 2112/2114 06005KT",
      "groups": [
        {
          "text": "TAF RKSS 201700Z 2018/2124 36007KT CAVOK TN19/2020Z TX30/2106Z TN20/2120Z",
          "offset_h": -2,
          "wdir": 360,
          "wspd": 7
        },
        {
          "text": "BECMG 2112/2114 06005KT",
          "offset_h": 16,
          "wdir": 60,
          "wspd": 5
        }
      ],
      "metar_raw": "METAR RKSS 202000Z 35004KT CAVOK 20/17 Q1008 NOSIG",
      "metar_wdir": 350,
      "metar_wspd": 4,
      "metar_oat": 20,
      "metar_qnh": 1008,
      "hourly_oat": [
        17,
        17,
        18,
        20,
        22,
        24,
        26,
        27,
        28,
        28,
        28,
        26,
        26,
        25,
        24,
        22,
        21,
        21,
        21,
        20,
        20,
        20,
        20,
        20,
        20
      ]
    },
    "SIN": {
      "icao": "WSSS",
      "issued": "2026-06-20T17:00:00.000Z",
      "raw": "TAF WSSS 201700Z 2018/2200 20003KT 9999 FEW015 SCT020 PROB30 TEMPO 2104/2107 3000 TSRA FEW012CB BKN015",
      "groups": [
        {
          "text": "TAF WSSS 201700Z 2018/2200 20003KT 9999 FEW015 SCT020",
          "offset_h": -2,
          "wdir": 200,
          "wspd": 3
        },
        {
          "text": "PROB30",
          "offset_h": 0,
          "wdir": null,
          "wspd": null
        },
        {
          "text": "TEMPO 2104/2107 3000 TSRA FEW012CB BKN015",
          "offset_h": 8,
          "wdir": null,
          "wspd": null
        }
      ],
      "metar_raw": "METAR WSSS 202000Z 00000KT 9999 FEW015TCU BKN300 27/25 Q1010 NOSIG",
      "metar_wdir": 0,
      "metar_wspd": 0,
      "metar_oat": 27,
      "metar_qnh": 1010,
      "hourly_oat": [
        27,
        27,
        25,
        25,
        26,
        27,
        28,
        28,
        29,
        29,
        30,
        29,
        28,
        28,
        28,
        27,
        27,
        26,
        26,
        26,
        26,
        25,
        25,
        25,
        25
      ]
    },
    "CGK": {
      "icao": "WIII",
      "issued": "2026-06-20T17:00:00.000Z",
      "raw": "TAF WIII 201700Z 2018/2200 VRB05KT 5000 HZ SCT020 BECMG 2102/2104 05012KT 7000 NSW",
      "groups": [
        {
          "text": "TAF WIII 201700Z 2018/2200 VRB05KT 5000 HZ SCT020",
          "offset_h": -2,
          "wdir": "VRB",
          "wspd": 5
        },
        {
          "text": "BECMG 2102/2104 05012KT 7000 NSW",
          "offset_h": 6,
          "wdir": 50,
          "wspd": 12
        }
      ],
      "metar_raw": "METAR WIII 202000Z 16004KT 6000 SCT020 26/24 Q1011 NOSIG",
      "metar_wdir": 160,
      "metar_wspd": 4,
      "metar_oat": 26,
      "metar_qnh": 1011,
      "hourly_oat": [
        25,
        25,
        24,
        24,
        26,
        28,
        29,
        31,
        32,
        32,
        32,
        30,
        30,
        28,
        27,
        24,
        25,
        25,
        24,
        25,
        24,
        24,
        24,
        24,
        24
      ]
    },
    "KUL": {
      "icao": "WMKK",
      "issued": "2026-06-20T17:00:00.000Z",
      "raw": "TAF WMKK 201700Z 2018/2200 VRB03KT 9999 FEW030 PROB30 TEMPO 2022/2102 5000 TSRA FEW017CB PROB40 TEMPO 2109/2113 5000 TSRA FEW017CB",
      "groups": [
        {
          "text": "TAF WMKK 201700Z 2018/2200 VRB03KT 9999 FEW030",
          "offset_h": -2,
          "wdir": "VRB",
          "wspd": 3
        },
        {
          "text": "PROB30",
          "offset_h": 0,
          "wdir": null,
          "wspd": null
        },
        {
          "text": "TEMPO 2022/2102 5000 TSRA FEW017CB",
          "offset_h": 2,
          "wdir": null,
          "wspd": null
        },
        {
          "text": "PROB40",
          "offset_h": 0,
          "wdir": null,
          "wspd": null
        },
        {
          "text": "TEMPO 2109/2113 5000 TSRA FEW017CB",
          "offset_h": 13,
          "wdir": null,
          "wspd": null
        }
      ],
      "metar_raw": "METAR WMKK 202000Z VRB02KT 9999 FEW030 26/24 Q1010 NOSIG",
      "metar_wdir": "VRB",
      "metar_wspd": 2,
      "metar_oat": 26,
      "metar_qnh": 1010,
      "hourly_oat": [
        24,
        24,
        24,
        23,
        24,
        25,
        26,
        27,
        28,
        28,
        27,
        28,
        28,
        28,
        28,
        26,
        25,
        25,
        25,
        24,
        24,
        24,
        24,
        24,
        24
      ]
    },
    "PVG": {
      "icao": "ZSPD",
      "issued": "2026-06-20T15:05:00.000Z",
      "raw": "TAF ZSPD 201505Z 2018/2124 10004MPS 6000 BKN010 TX27/2106Z TN23/2021Z TN21/2121Z TEMPO 2019/2023 BKN004 BECMG 2020/2021 -SHRA TEMPO 2109/2112 SHRA BKN008 FEW030CB",
      "groups": [
        {
          "text": "TAF ZSPD 201505Z 2018/2124 10004MPS 6000 BKN010 TX27/2106Z TN23/2021Z TN21/2121Z",
          "offset_h": -2,
          "wdir": null,
          "wspd": null
        },
        {
          "text": "TEMPO 2019/2023 BKN004",
          "offset_h": -1,
          "wdir": null,
          "wspd": null
        },
        {
          "text": "BECMG 2020/2021 -SHRA",
          "offset_h": 0,
          "wdir": null,
          "wspd": null
        },
        {
          "text": "TEMPO 2109/2112 SHRA BKN008 FEW030CB",
          "offset_h": 13,
          "wdir": null,
          "wspd": null
        }
      ],
      "metar_raw": "METAR ZSPD 202000Z 16003MPS 7000 BKN007 24/24 Q1008 NOSIG",
      "metar_wdir": null,
      "metar_wspd": null,
      "metar_oat": 24,
      "metar_qnh": 1008,
      "hourly_oat": [
        24,
        24,
        24,
        25,
        26,
        26,
        26,
        25,
        25,
        25,
        26,
        25,
        24,
        24,
        23,
        23,
        23,
        23,
        23,
        23,
        23,
        23,
        23,
        23,
        23
      ]
    },
    "SHA": {
      "icao": "ZSSS",
      "issued": "2026-06-20T15:04:00.000Z",
      "raw": "TAF ZSSS 201504Z 2018/2124 10004MPS 6000 BKN015 TX28/2106Z TN24/2021Z TN22/2121Z BECMG 2019/2020 -SHRA BKN011 TEMPO 2108/2111 SHRA BKN008 FEW030CB",
      "groups": [
        {
          "text": "TAF ZSSS 201504Z 2018/2124 10004MPS 6000 BKN015 TX28/2106Z TN24/2021Z TN22/2121Z",
          "offset_h": -2,
          "wdir": null,
          "wspd": null
        },
        {
          "text": "BECMG 2019/2020 -SHRA BKN011",
          "offset_h": -1,
          "wdir": null,
          "wspd": null
        },
        {
          "text": "TEMPO 2108/2111 SHRA BKN008 FEW030CB",
          "offset_h": 12,
          "wdir": null,
          "wspd": null
        }
      ],
      "metar_raw": "METAR ZSSS 202000Z 15002MPS 130V200 5000 BR BKN007 25/24 Q1008 NOSIG",
      "metar_wdir": null,
      "metar_wspd": null,
      "metar_oat": 25,
      "metar_qnh": 1008,
      "hourly_oat": [
        24,
        24,
        24,
        25,
        26,
        27,
        27,
        28,
        27,
        28,
        27,
        26,
        26,
        25,
        24,
        23,
        23,
        23,
        23,
        23,
        22,
        22,
        22,
        22,
        22
      ]
    },
    "PEK": {
      "icao": "ZBAA",
      "issued": "2026-06-20T15:02:00.000Z",
      "raw": "TAF ZBAA 201502Z 2018/2124 18004MPS CAVOK TX30/2107Z TN14/2021Z TN16/2121Z",
      "groups": [
        {
          "text": "TAF ZBAA 201502Z 2018/2124 18004MPS CAVOK TX30/2107Z TN14/2021Z TN16/2121Z",
          "offset_h": -2,
          "wdir": null,
          "wspd": null
        }
      ],
      "metar_raw": "METAR ZBAA 202000Z 03001MPS CAVOK 13/11 Q1011 NOSIG",
      "metar_wdir": null,
      "metar_wspd": null,
      "metar_oat": 13,
      "metar_qnh": 1011,
      "hourly_oat": [
        15,
        15,
        16,
        18,
        20,
        22,
        24,
        26,
        27,
        28,
        28,
        28,
        29,
        29,
        27,
        24,
        23,
        23,
        22,
        21,
        20,
        19,
        18,
        18,
        17
      ]
    },
    "DLC": {
      "icao": "ZYTL",
      "issued": "2026-06-20T15:02:00.000Z",
      "raw": "TAF ZYTL 201502Z 2018/2118 33004MPS 5000 BR FEW033 TX28/2106Z TN19/2020Z",
      "groups": [
        {
          "text": "TAF ZYTL 201502Z 2018/2118 33004MPS 5000 BR FEW033 TX28/2106Z TN19/2020Z",
          "offset_h": -2,
          "wdir": null,
          "wspd": null
        }
      ],
      "metar_raw": "METAR ZYTL 202000Z 31002MPS 270V330 6000 FEW008 21/20 Q1009 NOSIG",
      "metar_wdir": null,
      "metar_wspd": null,
      "metar_oat": 21,
      "metar_qnh": 1009,
      "hourly_oat": [
        21,
        21,
        21,
        22,
        23,
        25,
        25,
        26,
        27,
        28,
        28,
        27,
        26,
        25,
        24,
        23,
        22,
        22,
        22,
        21,
        21,
        20,
        20,
        19,
        19
      ]
    },
    "CAN": {
      "icao": "ZGGG",
      "issued": "2026-06-20T15:01:00.000Z",
      "raw": "TAF ZGGG 201501Z 2018/2124 18004MPS 8000 SCT040 TX37/2107Z TN26/2022Z TN27/2122Z TEMPO 2107/2111 TSRA SCT026CB BKN033",
      "groups": [
        {
          "text": "TAF ZGGG 201501Z 2018/2124 18004MPS 8000 SCT040 TX37/2107Z TN26/2022Z TN27/2122Z",
          "offset_h": -2,
          "wdir": null,
          "wspd": null
        },
        {
          "text": "TEMPO 2107/2111 TSRA SCT026CB BKN033",
          "offset_h": 11,
          "wdir": null,
          "wspd": null
        }
      ],
      "metar_raw": "METAR ZGGG 202000Z 12003MPS 9999 BKN033 28/26 Q1009 NOSIG",
      "metar_wdir": null,
      "metar_wspd": null,
      "metar_oat": 28,
      "metar_qnh": 1009,
      "hourly_oat": [
        26,
        26,
        26,
        27,
        28,
        30,
        31,
        32,
        33,
        33,
        32,
        31,
        33,
        33,
        32,
        31,
        30,
        29,
        28,
        28,
        27,
        27,
        26,
        26,
        26
      ]
    }
  }
}