{
  "updated": "2026-07-04T11:16:26Z",
  "tafs": {
    "TSA": {
      "icao": "RCSS",
      "issued": "2026-07-04T11:00:00.000Z",
      "raw": "TAF RCSS 041100Z 0412/0512 30005KT 9999 FEW010 BKN032 TEMPO 0412/0418 09005KT TEMPO 0418/0424 14005KT TEMPO 0504/0510 28010KT 4000 SHRA FEW010 BKN015 FEW022CB",
      "groups": [
        {
          "text": "TAF RCSS 041100Z 0412/0512 30005KT 9999 FEW010 BKN032",
          "offset_h": 1,
          "wdir": 300,
          "wspd": 5
        },
        {
          "text": "TEMPO 0412/0418 09005KT",
          "offset_h": 1,
          "wdir": 90,
          "wspd": 5
        },
        {
          "text": "TEMPO 0418/0424 14005KT",
          "offset_h": 7,
          "wdir": 140,
          "wspd": 5
        },
        {
          "text": "TEMPO 0504/0510 28010KT 4000 SHRA FEW010 BKN015 FEW022CB",
          "offset_h": 17,
          "wdir": 280,
          "wspd": 10
        }
      ],
      "metar_raw": "METAR RCSS 041100Z 32005KT 290V010 9999 FEW020 BKN040 31/26 Q1010 NOSIG RMK A2984",
      "metar_wdir": 320,
      "metar_wspd": 5,
      "metar_oat": 31,
      "metar_qnh": 1010,
      "hourly_oat": [
        29,
        29,
        28,
        28,
        28,
        27,
        27,
        26,
        26,
        26,
        26,
        26,
        28,
        30,
        31,
        32,
        33,
        34,
        34,
        34,
        33,
        32,
        31,
        30,
        29
      ]
    },
    "TPE": {
      "icao": "RCTP",
      "issued": "2026-07-04T11:00:00.000Z",
      "raw": "TAF RCTP 041100Z 0412/0518 24008KT 9999 FEW010 BKN032 TEMPO 0418/0424 15005KT TEMPO 0504/0510 30012KT FEW010 BKN017 FEW022TCU TEMPO 0512/0518 15005KT",
      "groups": [
        {
          "text": "TAF RCTP 041100Z 0412/0518 24008KT 9999 FEW010 BKN032",
          "offset_h": 1,
          "wdir": 240,
          "wspd": 8
        },
        {
          "text": "TEMPO 0418/0424 15005KT",
          "offset_h": 7,
          "wdir": 150,
          "wspd": 5
        },
        {
          "text": "TEMPO 0504/0510 30012KT FEW010 BKN017 FEW022TCU",
          "offset_h": 17,
          "wdir": 300,
          "wspd": 12
        },
        {
          "text": "TEMPO 0512/0518 15005KT",
          "offset_h": 25,
          "wdir": 150,
          "wspd": 5
        }
      ],
      "metar_raw": "METAR RCTP 041100Z 25011KT 9999 FEW020 SCT040 30/25 Q1010 NOSIG RMK A2985",
      "metar_wdir": 250,
      "metar_wspd": 11,
      "metar_oat": 30,
      "metar_qnh": 1010,
      "hourly_oat": [
        28,
        28,
        28,
        28,
        28,
        27,
        27,
        26,
        26,
        26,
        26,
        26,
        28,
        29,
        30,
        31,
        31,
        31,
        31,
        31,
        30,
        30,
        29,
        29,
        28
      ]
    },
    "HKG": {
      "icao": "VHHH",
      "issued": "2026-07-04T11:00:00.000Z",
      "raw": "TAF VHHH 041100Z 0412/0518 16015KT 9999 FEW010 SCT025 TX32/0506Z TN27/0422Z TEMPO 0412/0415 18015G25KT 2000 TSRA +SHRA FEW008CB SCT015 TEMPO 0415/0418 3000 SHRA FEW010CB SCT020 TEMPO 0418/0502 16020G30KT 1500 TSRA +SHRA FEW010CB SCT020 TEMPO 0502/0506 3000 SHRA FEW010CB SCT020",
      "groups": [
        {
          "text": "TAF VHHH 041100Z 0412/0518 16015KT 9999 FEW010 SCT025 TX32/0506Z TN27/0422Z",
          "offset_h": 1,
          "wdir": 160,
          "wspd": 15
        },
        {
          "text": "TEMPO 0412/0415 18015G25KT 2000 TSRA +SHRA FEW008CB SCT015",
          "offset_h": 1,
          "wdir": 180,
          "wspd": 15
        },
        {
          "text": "TEMPO 0415/0418 3000 SHRA FEW010CB SCT020",
          "offset_h": 4,
          "wdir": null,
          "wspd": null
        },
        {
          "text": "TEMPO 0418/0502 16020G30KT 1500 TSRA +SHRA FEW010CB SCT020",
          "offset_h": 7,
          "wdir": 160,
          "wspd": 20
        },
        {
          "text": "TEMPO 0502/0506 3000 SHRA FEW010CB SCT020",
          "offset_h": 15,
          "wdir": null,
          "wspd": null
        }
      ],
      "metar_raw": "METAR VHHH 041100Z 16008KT 130V200 9999 FEW012 29/24 Q1008 NOSIG",
      "metar_wdir": 160,
      "metar_wspd": 8,
      "metar_oat": 29,
      "metar_qnh": 1008,
      "hourly_oat": [
        27,
        28,
        28,
        28,
        29,
        28,
        27,
        27,
        27,
        27,
        27,
        27,
        27,
        28,
        29,
        29,
        30,
        30,
        30,
        30,
        29,
        29,
        28,
        29,
        29
      ]
    },
    "CGK": {
      "icao": "WIII",
      "issued": "2026-07-04T11:00:00.000Z",
      "raw": "TAF WIII 041100Z 0412/0518 06012KT 4000 HZ FEW020 BECMG 0413/0415 12007KT BECMG 0501/0503 06011KT 8000 NSW",
      "groups": [
        {
          "text": "TAF WIII 041100Z 0412/0518 06012KT 4000 HZ FEW020",
          "offset_h": 1,
          "wdir": 60,
          "wspd": 12
        },
        {
          "text": "BECMG 0413/0415 12007KT",
          "offset_h": 2,
          "wdir": 120,
          "wspd": 7
        },
        {
          "text": "BECMG 0501/0503 06011KT 8000 NSW",
          "offset_h": 14,
          "wdir": 60,
          "wspd": 11
        }
      ],
      "metar_raw": "METAR WIII 041100Z 06015KT 5000 HZ FEW020 29/24 Q1010 NOSIG",
      "metar_wdir": 60,
      "metar_wspd": 15,
      "metar_oat": 29,
      "metar_qnh": 1010,
      "hourly_oat": [
        29,
        28,
        28,
        28,
        27,
        27,
        26,
        26,
        25,
        25,
        25,
        24,
        24,
        25,
        27,
        29,
        31,
        32,
        33,
        33,
        32,
        31,
        31,
        30,
        27
      ]
    },
    "GMP": {
      "icao": "RKSS",
      "issued": "2026-07-04T11:00:00.000Z",
      "raw": "TAF RKSS 041100Z 0412/0518 17005KT 6000 NSC TN22/0419Z TX31/0505Z BECMG 0419/0421 BKN040 BECMG 0506/0508 20006KT -RA FEW010 BKN030 OVC070 BECMG 0512/0514 NSW",
      "groups": [
        {
          "text": "TAF RKSS 041100Z 0412/0518 17005KT 6000 NSC TN22/0419Z TX31/0505Z",
          "offset_h": 1,
          "wdir": 170,
          "wspd": 5
        },
        {
          "text": "BECMG 0419/0421 BKN040",
          "offset_h": 8,
          "wdir": null,
          "wspd": null
        },
        {
          "text": "BECMG 0506/0508 20006KT -RA FEW010 BKN030 OVC070",
          "offset_h": 19,
          "wdir": 200,
          "wspd": 6
        },
        {
          "text": "BECMG 0512/0514 NSW",
          "offset_h": 25,
          "wdir": null,
          "wspd": null
        }
      ],
      "metar_raw": "METAR RKSS 041100Z 27007KT CAVOK 25/24 Q1005 NOSIG",
      "metar_wdir": 270,
      "metar_wspd": 7,
      "metar_oat": 25,
      "metar_qnh": 1005,
      "hourly_oat": [
        24,
        23,
        22,
        22,
        22,
        22,
        22,
        21,
        21,
        22,
        22,
        22,
        23,
        24,
        24,
        26,
        27,
        27,
        26,
        26,
        26,
        25,
        25,
        24,
        24
      ]
    },
    "PVG": {
      "icao": "ZSPD",
      "issued": "2026-07-04T09:16:00.000Z",
      "raw": "TAF ZSPD 040916Z 0412/0518 29004MPS 6000 SHRA BKN020 FEW030CB TX26/0412Z TX31/0506Z TN24/0421Z BECMG 0412/0414 20004MPS -SHRA BKN020 TEMPO 0422/0502 2800 TSRA BKN011 SCT030CB TEMPO 0506/0511 2400 +TSRA BKN011 SCT030CB",
      "groups": [
        {
          "text": "TAF ZSPD 040916Z 0412/0518 29004MPS 6000 SHRA BKN020 FEW030CB TX26/0412Z TX31/0506Z TN24/0421Z",
          "offset_h": 1,
          "wdir": null,
          "wspd": null
        },
        {
          "text": "BECMG 0412/0414 20004MPS -SHRA BKN020",
          "offset_h": 1,
          "wdir": null,
          "wspd": null
        },
        {
          "text": "TEMPO 0422/0502 2800 TSRA BKN011 SCT030CB",
          "offset_h": 11,
          "wdir": null,
          "wspd": null
        },
        {
          "text": "TEMPO 0506/0511 2400 +TSRA BKN011 SCT030CB",
          "offset_h": 19,
          "wdir": null,
          "wspd": null
        }
      ],
      "metar_raw": "METAR ZSPD 041100Z 18004MPS CAVOK 27/27 Q1008 NOSIG",
      "metar_wdir": null,
      "metar_wspd": null,
      "metar_oat": 27,
      "metar_qnh": 1008,
      "hourly_oat": [
        26,
        27,
        27,
        27,
        26,
        26,
        26,
        26,
        26,
        26,
        26,
        26,
        27,
        27,
        26,
        27,
        29,
        29,
        30,
        30,
        27,
        26,
        27,
        27,
        26
      ]
    },
    "SHA": {
      "icao": "ZSSS",
      "issued": "2026-07-04T09:16:00.000Z",
      "raw": "TAF ZSSS 040916Z 0412/0518 20004MPS 6000 SHRA BKN023 FEW030CB TX28/0412Z TX32/0506Z TN25/0421Z BECMG 0412/0414 -SHRA BKN030 TEMPO 0422/0502 2800 TSRA BKN013 SCT030CB TEMPO 0505/0510 2500 +TSRA BKN013 SCT030CB",
      "groups": [
        {
          "text": "TAF ZSSS 040916Z 0412/0518 20004MPS 6000 SHRA BKN023 FEW030CB TX28/0412Z TX32/0506Z TN25/0421Z",
          "offset_h": 1,
          "wdir": null,
          "wspd": null
        },
        {
          "text": "BECMG 0412/0414 -SHRA BKN030",
          "offset_h": 1,
          "wdir": null,
          "wspd": null
        },
        {
          "text": "TEMPO 0422/0502 2800 TSRA BKN013 SCT030CB",
          "offset_h": 11,
          "wdir": null,
          "wspd": null
        },
        {
          "text": "TEMPO 0505/0510 2500 +TSRA BKN013 SCT030CB",
          "offset_h": 18,
          "wdir": null,
          "wspd": null
        }
      ],
      "metar_raw": "METAR ZSSS 041100Z 20003MPS 170V250 9999 -SHRA NSC 26/24 Q1008 NOSIG",
      "metar_wdir": null,
      "metar_wspd": null,
      "metar_oat": 26,
      "metar_qnh": 1008,
      "hourly_oat": [
        26,
        27,
        27,
        27,
        27,
        26,
        26,
        26,
        26,
        26,
        26,
        26,
        27,
        26,
        26,
        29,
        29,
        29,
        30,
        28,
        28,
        28,
        27,
        27,
        26
      ]
    },
    "DLC": {
      "icao": "ZYTL",
      "issued": "2026-07-04T09:09:00.000Z",
      "raw": "TAF ZYTL 040909Z 0412/0512 15004MPS 5000 BR FEW033 TX32/0506Z TN23/0420Z",
      "groups": [
        {
          "text": "TAF ZYTL 040909Z 0412/0512 15004MPS 5000 BR FEW033 TX32/0506Z TN23/0420Z",
          "offset_h": 1,
          "wdir": null,
          "wspd": null
        }
      ],
      "metar_raw": "METAR ZYTL 041100Z 16005MPS 130V200 CAVOK 27/21 Q1001 NOSIG",
      "metar_wdir": null,
      "metar_wspd": null,
      "metar_oat": 27,
      "metar_qnh": 1001,
      "hourly_oat": [
        26,
        26,
        25,
        25,
        24,
        24,
        23,
        23,
        22,
        22,
        22,
        23,
        24,
        26,
        28,
        28,
        28,
        28,
        28,
        28,
        27,
        27,
        26,
        25,
        24
      ]
    },
    "CAN": {
      "icao": "ZGGG",
      "issued": "2026-07-04T09:04:00.000Z",
      "raw": "TAF ZGGG 040904Z 0412/0518 16004MPS 8000 BKN033 TX27/0412Z TX32/0507Z TN25/0422Z TEMPO 0420/0424 SHRA FEW011 FEW026CB BKN033 TEMPO 0504/0508 TSRA SCT011 SCT026CB BKN033 TEMPO 0508/0512 TSRA FEW030CB BKN033",
      "groups": [
        {
          "text": "TAF ZGGG 040904Z 0412/0518 16004MPS 8000 BKN033 TX27/0412Z TX32/0507Z TN25/0422Z",
          "offset_h": 1,
          "wdir": null,
          "wspd": null
        },
        {
          "text": "TEMPO 0420/0424 SHRA FEW011 FEW026CB BKN033",
          "offset_h": 9,
          "wdir": null,
          "wspd": null
        },
        {
          "text": "TEMPO 0504/0508 TSRA SCT011 SCT026CB BKN033",
          "offset_h": 17,
          "wdir": null,
          "wspd": null
        },
        {
          "text": "TEMPO 0508/0512 TSRA FEW030CB BKN033",
          "offset_h": 21,
          "wdir": null,
          "wspd": null
        }
      ],
      "metar_raw": "METAR ZGGG 041100Z 12005MPS 100V160 9999 OVC033 28/25 Q1008 BECMG AT1130 SHRA FEW030CB BKN033",
      "metar_wdir": null,
      "metar_wspd": null,
      "metar_oat": 28,
      "metar_qnh": 1008,
      "hourly_oat": [
        27,
        27,
        27,
        26,
        25,
        25,
        24,
        24,
        24,
        24,
        24,
        24,
        24,
        25,
        27,
        28,
        28,
        29,
        29,
        30,
        30,
        30,
        30,
        28,
        28
      ]
    },
    "HNL": {
      "icao": "PHNL",
      "issued": "2026-07-04T09:03:00.000Z",
      "raw": "TAF PHNL 040903Z 0409/0512 06010KT P6SM VCSH FEW025 SCT035 FM042000 05012G20KT P6SM FEW025 SCT040 FM050500 05010KT P6SM VCSH FEW025 SCT040",
      "groups": [
        {
          "text": "TAF PHNL 040903Z 0409/0512 06010KT P6SM VCSH FEW025 SCT035",
          "offset_h": -2,
          "wdir": 60,
          "wspd": 10
        },
        {
          "text": "FM042000 05012G20KT P6SM FEW025 SCT040",
          "offset_h": 9,
          "wdir": 50,
          "wspd": 12
        },
        {
          "text": "FM050500 05010KT P6SM VCSH FEW025 SCT040",
          "offset_h": 18,
          "wdir": 50,
          "wspd": 10
        }
      ],
      "metar_raw": "METAR PHNL 041053Z 07013KT 10SM -RA FEW022 FEW032 FEW060 25/19 A3001 RMK AO2 RAB46 SLP161 P0000 T02500189 $",
      "metar_wdir": 70,
      "metar_wspd": 13,
      "metar_oat": 25,
      "metar_qnh": 1016,
      "hourly_oat": [
        23,
        23,
        23,
        23,
        23,
        23,
        24,
        25,
        26,
        28,
        28,
        29,
        29,
        29,
        29,
        28,
        27,
        26,
        25,
        24,
        24,
        24,
        24,
        24,
        24
      ]
    },
    "PEK": {
      "icao": "ZBAA",
      "issued": "2026-07-04T09:00:00.000Z",
      "raw": "TAF ZBAA 040900Z 0412/0518 17004MPS 6000 NSC TX33/0507Z TN24/0421Z TN22/0518Z TEMPO 0415/0421 TS FEW040CB TEMPO 0507/0513 -TSRA FEW040CB BKN040",
      "groups": [
        {
          "text": "TAF ZBAA 040900Z 0412/0518 17004MPS 6000 NSC TX33/0507Z TN24/0421Z TN22/0518Z",
          "offset_h": 1,
          "wdir": null,
          "wspd": null
        },
        {
          "text": "TEMPO 0415/0421 TS FEW040CB",
          "offset_h": 4,
          "wdir": null,
          "wspd": null
        },
        {
          "text": "TEMPO 0507/0513 -TSRA FEW040CB BKN040",
          "offset_h": 20,
          "wdir": null,
          "wspd": null
        }
      ],
      "metar_raw": "METAR ZBAA 041100Z VRB01MPS CAVOK 30/25 Q0997 NOSIG",
      "metar_wdir": null,
      "metar_wspd": null,
      "metar_oat": 30,
      "metar_qnh": 997,
      "hourly_oat": [
        32,
        31,
        30,
        29,
        28,
        28,
        27,
        26,
        26,
        25,
        24,
        24,
        26,
        28,
        30,
        31,
        32,
        32,
        32,
        34,
        34,
        34,
        31,
        30,
        29
      ]
    },
    "LAX": {
      "icao": "KLAX",
      "issued": "2026-07-04T08:59:00.000Z",
      "raw": "TAF KLAX 040859Z 0409/0512 25005KT P6SM BKN010 BKN200 FM041100 VRB03KT P6SM OVC007 FM041600 VRB03KT P6SM BKN010 FM041800 26007KT P6SM SCT250 FM042100 26012KT P6SM SCT250 FM050500 25008KT P6SM BKN250 FM050900 26006KT P6SM SCT015 SCT250",
      "groups": [
        {
          "text": "TAF KLAX 040859Z 0409/0512 25005KT P6SM BKN010 BKN200",
          "offset_h": -2,
          "wdir": 250,
          "wspd": 5
        },
        {
          "text": "FM041100 VRB03KT P6SM OVC007",
          "offset_h": 0,
          "wdir": "VRB",
          "wspd": 3
        },
        {
          "text": "FM041600 VRB03KT P6SM BKN010",
          "offset_h": 5,
          "wdir": "VRB",
          "wspd": 3
        },
        {
          "text": "FM041800 26007KT P6SM SCT250",
          "offset_h": 7,
          "wdir": 260,
          "wspd": 7
        },
        {
          "text": "FM042100 26012KT P6SM SCT250",
          "offset_h": 10,
          "wdir": 260,
          "wspd": 12
        },
        {
          "text": "FM050500 25008KT P6SM BKN250",
          "offset_h": 18,
          "wdir": 250,
          "wspd": 8
        },
        {
          "text": "FM050900 26006KT P6SM SCT015 SCT250",
          "offset_h": 22,
          "wdir": 260,
          "wspd": 6
        }
      ],
      "metar_raw": "METAR KLAX 041053Z VRB06KT 10SM SCT010 17/15 A2998 RMK AO2 SLP150 T01720150 $",
      "metar_wdir": "VRB",
      "metar_wspd": 6,
      "metar_oat": 17,
      "metar_qnh": 1015,
      "hourly_oat": [
        16,
        15,
        15,
        17,
        18,
        20,
        21,
        22,
        22,
        23,
        23,
        22,
        21,
        21,
        20,
        19,
        18,
        18,
        18,
        17,
        17,
        17,
        17,
        16,
        17
      ]
    },
    "SAN": {
      "icao": "KSAN",
      "issued": "2026-07-04T08:59:00.000Z",
      "raw": "TAF KSAN 040859Z 0409/0512 VRB04KT P6SM SCT015 BKN250 TEMPO 0410/0414 BKN015 FM041800 29010KT P6SM BKN100 FM050300 VRB04KT P6SM SCT015 SCT150 FM050600 VRB03KT P6SM BKN012",
      "groups": [
        {
          "text": "TAF KSAN 040859Z 0409/0512 VRB04KT P6SM SCT015 BKN250",
          "offset_h": -2,
          "wdir": "VRB",
          "wspd": 4
        },
        {
          "text": "TEMPO 0410/0414 BKN015",
          "offset_h": -1,
          "wdir": null,
          "wspd": null
        },
        {
          "text": "FM041800 29010KT P6SM BKN100",
          "offset_h": 7,
          "wdir": 290,
          "wspd": 10
        },
        {
          "text": "FM050300 VRB04KT P6SM SCT015 SCT150",
          "offset_h": 16,
          "wdir": "VRB",
          "wspd": 4
        },
        {
          "text": "FM050600 VRB03KT P6SM BKN012",
          "offset_h": 19,
          "wdir": "VRB",
          "wspd": 3
        }
      ],
      "metar_raw": "METAR KSAN 041051Z 06004KT 10SM SCT015 BKN250 18/16 A2999 RMK AO2 SLP156 T01830156 $",
      "metar_wdir": 60,
      "metar_wspd": 4,
      "metar_oat": 18,
      "metar_qnh": 1016,
      "hourly_oat": [
        18,
        17,
        16,
        18,
        20,
        21,
        22,
        23,
        24,
        24,
        24,
        23,
        23,
        22,
        21,
        20,
        19,
        19,
        19,
        18,
        18,
        18,
        18,
        18,
        18
      ]
    },
    "KIX": {
      "icao": "RJBB",
      "issued": "2026-07-04T05:06:00.000Z",
      "raw": "TAF RJBB 040506Z 0406/0512 06006KT 6000 -SHRA FEW005 SCT008 BKN015 TEMPO 0406/0413 3000 SHRA BR FEW003 SCT005 BKN008 BECMG 0418/0421 29006KT BECMG 0503/0506 01004KT",
      "groups": [
        {
          "text": "TAF RJBB 040506Z 0406/0512 06006KT 6000 -SHRA FEW005 SCT008 BKN015",
          "offset_h": -5,
          "wdir": 60,
          "wspd": 6
        },
        {
          "text": "TEMPO 0406/0413 3000 SHRA BR FEW003 SCT005 BKN008",
          "offset_h": -5,
          "wdir": null,
          "wspd": null
        },
        {
          "text": "BECMG 0418/0421 29006KT",
          "offset_h": 7,
          "wdir": 290,
          "wspd": 6
        },
        {
          "text": "BECMG 0503/0506 01004KT",
          "offset_h": 16,
          "wdir": 10,
          "wspd": 4
        }
      ],
      "metar_raw": "METAR RJBB 041100Z 08005KT 9999 -SHRA FEW005 BKN025 BKN070 23/22 Q1008 NOSIG",
      "metar_wdir": 80,
      "metar_wspd": 5,
      "metar_oat": 23,
      "metar_qnh": 1008,
      "hourly_oat": [
        23,
        23,
        23,
        23,
        23,
        23,
        23,
        23,
        23,
        23,
        23,
        23,
        23,
        23,
        23,
        23,
        24,
        24,
        24,
        24,
        24,
        24,
        24,
        24,
        24
      ]
    },
    "ITM": {
      "icao": "RJOO",
      "issued": "2026-07-04T05:06:00.000Z",
      "raw": "TAF RJOO 040506Z 0406/0512 15004KT 9999 -SHRA FEW005 SCT008 BKN015 TEMPO 0406/0413 1500 SHRA BR FEW003 SCT005 BKN008 BECMG 0409/0411 08010KT TEMPO 0413/0415 4000 -SHRA BR FEW003 SCT005 BKN008 BECMG 0415/0417 03004KT",
      "groups": [
        {
          "text": "TAF RJOO 040506Z 0406/0512 15004KT 9999 -SHRA FEW005 SCT008 BKN015",
          "offset_h": -5,
          "wdir": 150,
          "wspd": 4
        },
        {
          "text": "TEMPO 0406/0413 1500 SHRA BR FEW003 SCT005 BKN008",
          "offset_h": -5,
          "wdir": null,
          "wspd": null
        },
        {
          "text": "BECMG 0409/0411 08010KT",
          "offset_h": -2,
          "wdir": 80,
          "wspd": 10
        },
        {
          "text": "TEMPO 0413/0415 4000 -SHRA BR FEW003 SCT005 BKN008",
          "offset_h": 2,
          "wdir": null,
          "wspd": null
        },
        {
          "text": "BECMG 0415/0417 03004KT",
          "offset_h": 4,
          "wdir": 30,
          "wspd": 4
        }
      ],
      "metar_raw": "METAR RJOO 041100Z 08007G17KT 050V110 8000 -RA FEW005 SCT008 BKN035 22/21 Q1009",
      "metar_wdir": 80,
      "metar_wspd": 7,
      "metar_oat": 22,
      "metar_qnh": 1009,
      "hourly_oat": [
        22,
        22,
        22,
        22,
        22,
        22,
        22,
        22,
        22,
        22,
        22,
        22,
        23,
        24,
        25,
        26,
        26,
        26,
        26,
        26,
        26,
        26,
        26,
        25,
        24
      ]
    },
    "HND": {
      "icao": "RJTT",
      "issued": "2026-07-04T05:05:00.000Z",
      "raw": "TAF RJTT 040505Z 0406/0512 19012KT 9999 FEW020 BKN040 BECMG 0414/0416 10006KT TEMPO 0418/0500 FEW003 BKN008",
      "groups": [
        {
          "text": "TAF RJTT 040505Z 0406/0512 19012KT 9999 FEW020 BKN040",
          "offset_h": -5,
          "wdir": 190,
          "wspd": 12
        },
        {
          "text": "BECMG 0414/0416 10006KT",
          "offset_h": 3,
          "wdir": 100,
          "wspd": 6
        },
        {
          "text": "TEMPO 0418/0500 FEW003 BKN008",
          "offset_h": 7,
          "wdir": null,
          "wspd": null
        }
      ],
      "metar_raw": "METAR RJTT 041100Z 17006KT 9999 BKN018 BKN050 25/21 Q1011 NOSIG",
      "metar_wdir": 170,
      "metar_wspd": 6,
      "metar_oat": 25,
      "metar_qnh": 1011,
      "hourly_oat": [
        24,
        24,
        23,
        23,
        23,
        23,
        23,
        23,
        23,
        23,
        23,
        23,
        23,
        23,
        23,
        23,
        23,
        23,
        23,
        23,
        23,
        23,
        23,
        23,
        23
      ]
    },
    "OKA": {
      "icao": "ROAH",
      "issued": "2026-07-04T05:05:00.000Z",
      "raw": "TAF ROAH 040505Z 0406/0512 21006KT 9999 FEW012",
      "groups": [
        {
          "text": "TAF ROAH 040505Z 0406/0512 21006KT 9999 FEW012",
          "offset_h": -5,
          "wdir": 210,
          "wspd": 6
        }
      ],
      "metar_raw": "METAR ROAH 041100Z 20005KT 9999 FEW015 28/26 Q1012",
      "metar_wdir": 200,
      "metar_wspd": 5,
      "metar_oat": 28,
      "metar_qnh": 1012,
      "hourly_oat": [
        27,
        27,
        27,
        27,
        27,
        27,
        27,
        27,
        27,
        27,
        27,
        28,
        29,
        29,
        30,
        30,
        30,
        30,
        30,
        30,
        30,
        30,
        29,
        28,
        28
      ]
    },
    "NGO": {
      "icao": "RJGG",
      "issued": "2026-07-04T05:05:00.000Z",
      "raw": "TAF RJGG 040505Z 0406/0512 14010KT 8000 -RA FEW012 BKN030 TEMPO 0411/0415 3000 SHRA BR FEW004 BKN008 TEMPO 0415/0418 4000 SHRA BR FEW004 BKN008",
      "groups": [
        {
          "text": "TAF RJGG 040505Z 0406/0512 14010KT 8000 -RA FEW012 BKN030",
          "offset_h": -5,
          "wdir": 140,
          "wspd": 10
        },
        {
          "text": "TEMPO 0411/0415 3000 SHRA BR FEW004 BKN008",
          "offset_h": 0,
          "wdir": null,
          "wspd": null
        },
        {
          "text": "TEMPO 0415/0418 4000 SHRA BR FEW004 BKN008",
          "offset_h": 4,
          "wdir": null,
          "wspd": null
        }
      ],
      "metar_raw": "METAR RJGG 041100Z 16012KT 8000 SHRA FEW004 SCT050 BKN070 22/21 Q1010 TEMPO 4000 SHRA BR FEW005 BKN008",
      "metar_wdir": 160,
      "metar_wspd": 12,
      "metar_oat": 22,
      "metar_qnh": 1010,
      "hourly_oat": [
        22,
        22,
        22,
        22,
        22,
        22,
        23,
        23,
        22,
        23,
        23,
        23,
        23,
        23,
        23,
        23,
        24,
        24,
        24,
        24,
        24,
        24,
        24,
        24,
        24
      ]
    },
    "FUK": {
      "icao": "RJFF",
      "issued": "2026-07-04T05:05:00.000Z",
      "raw": "TAF RJFF 040505Z 0406/0512 28011KT 9999 FEW009 BKN020 BECMG 0413/0415 14004KT TEMPO 0503/0506 4000 TSRA BR FEW007 SCT011 BKN020 FEW020CB",
      "groups": [
        {
          "text": "TAF RJFF 040505Z 0406/0512 28011KT 9999 FEW009 BKN020",
          "offset_h": -5,
          "wdir": 280,
          "wspd": 11
        },
        {
          "text": "BECMG 0413/0415 14004KT",
          "offset_h": 2,
          "wdir": 140,
          "wspd": 4
        },
        {
          "text": "TEMPO 0503/0506 4000 TSRA BR FEW007 SCT011 BKN020 FEW020CB",
          "offset_h": 16,
          "wdir": null,
          "wspd": null
        }
      ],
      "metar_raw": "METAR RJFF 041100Z 36003KT 290V050 9999 FEW008 SCT035 BKN040 27/24 Q1008 NOSIG",
      "metar_wdir": 360,
      "metar_wspd": 3,
      "metar_oat": 27,
      "metar_qnh": 1008,
      "hourly_oat": [
        25,
        25,
        25,
        25,
        25,
        24,
        24,
        24,
        24,
        24,
        24,
        24,
        25,
        25,
        25,
        25,
        26,
        25,
        25,
        26,
        26,
        25,
        25,
        25,
        25
      ]
    },
    "CTS": {
      "icao": "RJCC",
      "issued": "2026-07-04T05:05:00.000Z",
      "raw": "TAF RJCC 040505Z 0406/0512 17014KT 9999 FEW030 TEMPO 0412/0415 FEW003 BKN007 TEMPO 0415/0421 4000 BR FEW003 BKN005 TEMPO 0421/0500 FEW003 BKN007",
      "groups": [
        {
          "text": "TAF RJCC 040505Z 0406/0512 17014KT 9999 FEW030",
          "offset_h": -5,
          "wdir": 170,
          "wspd": 14
        },
        {
          "text": "TEMPO 0412/0415 FEW003 BKN007",
          "offset_h": 1,
          "wdir": null,
          "wspd": null
        },
        {
          "text": "TEMPO 0415/0421 4000 BR FEW003 BKN005",
          "offset_h": 4,
          "wdir": null,
          "wspd": null
        },
        {
          "text": "TEMPO 0421/0500 FEW003 BKN007",
          "offset_h": 10,
          "wdir": null,
          "wspd": null
        }
      ],
      "metar_raw": "METAR RJCC 041100Z 16008KT 9999 FEW003 SCT005 BKN006 16/15 Q1013",
      "metar_wdir": 160,
      "metar_wspd": 8,
      "metar_oat": 16,
      "metar_qnh": 1013,
      "hourly_oat": [
        15,
        14,
        14,
        14,
        14,
        14,
        14,
        14,
        14,
        14,
        15,
        16,
        18,
        18,
        19,
        19,
        19,
        19,
        18,
        18,
        18,
        18,
        17,
        16,
        16
      ]
    },
    "NRT": {
      "icao": "RJAA",
      "issued": "2026-07-04T05:05:00.000Z",
      "raw": "TAF RJAA 040505Z 0406/0512 15010KT 9999 FEW008 BKN015 TEMPO 0410/0412 FEW005 BKN008 TEMPO 0412/0415 FEW003 BKN005 TEMPO 0415/0500 4000 -RA BR FEW001 BKN003 TEMPO 0500/0503 FEW005 BKN008",
      "groups": [
        {
          "text": "TAF RJAA 040505Z 0406/0512 15010KT 9999 FEW008 BKN015",
          "offset_h": -5,
          "wdir": 150,
          "wspd": 10
        },
        {
          "text": "TEMPO 0410/0412 FEW005 BKN008",
          "offset_h": -1,
          "wdir": null,
          "wspd": null
        },
        {
          "text": "TEMPO 0412/0415 FEW003 BKN005",
          "offset_h": 1,
          "wdir": null,
          "wspd": null
        },
        {
          "text": "TEMPO 0415/0500 4000 -RA BR FEW001 BKN003",
          "offset_h": 4,
          "wdir": null,
          "wspd": null
        },
        {
          "text": "TEMPO 0500/0503 FEW005 BKN008",
          "offset_h": 13,
          "wdir": null,
          "wspd": null
        }
      ],
      "metar_raw": "METAR RJAA 041100Z 12003KT 9999 FEW012 BKN/// 22/21 Q1012 NOSIG",
      "metar_wdir": 120,
      "metar_wspd": 3,
      "metar_oat": 22,
      "metar_qnh": 1012,
      "hourly_oat": [
        23,
        22,
        22,
        22,
        22,
        22,
        22,
        22,
        22,
        22,
        22,
        22,
        22,
        22,
        22,
        23,
        23,
        24,
        24,
        23,
        23,
        23,
        22,
        22,
        22
      ]
    },
    "SGN": {
      "icao": "VVTS",
      "issued": "2026-07-04T05:00:00.000Z",
      "raw": "TAF VVTS 040500Z 0406/0512 25012KT 9999 SCT017 SCT040 TEMPO 0406/0410 25015G28KT 3000 TSRA SCT013 SCT015CB TEMPO 0410/0414 5000 SHRA SCT015 FEW017CB BKN040 TEMPO 0505/0509 24015G28KT 3000 TSRA SCT013 SCT015CB",
      "groups": [
        {
          "text": "TAF VVTS 040500Z 0406/0512 25012KT 9999 SCT017 SCT040",
          "offset_h": -5,
          "wdir": 250,
          "wspd": 12
        },
        {
          "text": "TEMPO 0406/0410 25015G28KT 3000 TSRA SCT013 SCT015CB",
          "offset_h": -5,
          "wdir": 250,
          "wspd": 15
        },
        {
          "text": "TEMPO 0410/0414 5000 SHRA SCT015 FEW017CB BKN040",
          "offset_h": -1,
          "wdir": null,
          "wspd": null
        },
        {
          "text": "TEMPO 0505/0509 24015G28KT 3000 TSRA SCT013 SCT015CB",
          "offset_h": 18,
          "wdir": 240,
          "wspd": 15
        }
      ],
      "metar_raw": "METAR VVTS 041100Z 25010KT 9999 FEW022 SCT041 28/26 Q1009 NOSIG",
      "metar_wdir": 250,
      "metar_wspd": 10,
      "metar_oat": 28,
      "metar_qnh": 1009,
      "hourly_oat": [
        25,
        25,
        25,
        25,
        25,
        25,
        25,
        25,
        25,
        25,
        25,
        25,
        25,
        26,
        27,
        28,
        29,
        31,
        32,
        32,
        32,
        25,
        26,
        26,
        26
      ]
    },
    "HAN": {
      "icao": "VVNB",
      "issued": "2026-07-04T05:00:00.000Z",
      "raw": "TAF VVNB 040500Z 0406/0506 29010KT 9999 SCT025 TEMPO 0406/0408 3500 SHRA BKN012 FEW025TCU TEMPO 0409/0414 2500 +TSRA BKN012 FEW027CB TEMPO 0416/0422 2000 +SHRA BKN008 FEW027CB TEMPO 0423/0503 4000 RA BKN010 FEW020TCU",
      "groups": [
        {
          "text": "TAF VVNB 040500Z 0406/0506 29010KT 9999 SCT025",
          "offset_h": -5,
          "wdir": 290,
          "wspd": 10
        },
        {
          "text": "TEMPO 0406/0408 3500 SHRA BKN012 FEW025TCU",
          "offset_h": -5,
          "wdir": null,
          "wspd": null
        },
        {
          "text": "TEMPO 0409/0414 2500 +TSRA BKN012 FEW027CB",
          "offset_h": -2,
          "wdir": null,
          "wspd": null
        },
        {
          "text": "TEMPO 0416/0422 2000 +SHRA BKN008 FEW027CB",
          "offset_h": 5,
          "wdir": null,
          "wspd": null
        },
        {
          "text": "TEMPO 0423/0503 4000 RA BKN010 FEW020TCU",
          "offset_h": 12,
          "wdir": null,
          "wspd": null
        }
      ],
      "metar_raw": "METAR VVNB 041100Z 30005KT 260V330 9999 FEW015 29/26 Q0998 NOSIG",
      "metar_wdir": 300,
      "metar_wspd": 5,
      "metar_oat": 29,
      "metar_qnh": 998,
      "hourly_oat": [
        28,
        28,
        28,
        27,
        27,
        26,
        26,
        26,
        25,
        25,
        25,
        26,
        26,
        26,
        27,
        29,
        31,
        31,
        32,
        32,
        32,
        32,
        32,
        32,
        31
      ]
    },
    "KUL": {
      "icao": "WMKK",
      "issued": "2026-07-04T05:00:00.000Z",
      "raw": "TAF WMKK 040500Z 0406/0512 15005KT 9999 FEW030 PROB30 TEMPO 0406/0410 5000 TSRA FEW017CB",
      "groups": [
        {
          "text": "TAF WMKK 040500Z 0406/0512 15005KT 9999 FEW030",
          "offset_h": -5,
          "wdir": 150,
          "wspd": 5
        },
        {
          "text": "PROB30",
          "offset_h": 0,
          "wdir": null,
          "wspd": null
        },
        {
          "text": "TEMPO 0406/0410 5000 TSRA FEW017CB",
          "offset_h": -5,
          "wdir": null,
          "wspd": null
        }
      ],
      "metar_raw": "METAR WMKK 041100Z 12005KT 070V200 9000 FEW030 31/26 Q1008 NOSIG",
      "metar_wdir": 120,
      "metar_wspd": 5,
      "metar_oat": 31,
      "metar_qnh": 1008,
      "hourly_oat": [
        28,
        27,
        26,
        26,
        26,
        26,
        25,
        25,
        25,
        24,
        24,
        24,
        24,
        24,
        27,
        28,
        29,
        26,
        25,
        26,
        28,
        27,
        27,
        26,
        26
      ]
    },
    "BKK": {
      "icao": "VTBS",
      "issued": "2026-07-04T05:00:00.000Z",
      "raw": "TAF VTBS 040500Z 0406/0512 22008KT 9999 FEW020 TEMPO 0410/0414 VRB15KT 4000 TSRA FEW018CB SCT030 BKN080 TEMPO 0422/0502 -TSRA FEW018CB SCT030 BKN080",
      "groups": [
        {
          "text": "TAF VTBS 040500Z 0406/0512 22008KT 9999 FEW020",
          "offset_h": -5,
          "wdir": 220,
          "wspd": 8
        },
        {
          "text": "TEMPO 0410/0414 VRB15KT 4000 TSRA FEW018CB SCT030 BKN080",
          "offset_h": -1,
          "wdir": "VRB",
          "wspd": 15
        },
        {
          "text": "TEMPO 0422/0502 -TSRA FEW018CB SCT030 BKN080",
          "offset_h": 11,
          "wdir": null,
          "wspd": null
        }
      ],
      "metar_raw": "METAR VTBS 041100Z 21008KT 9999 FEW020 30/23 Q1006 NOSIG",
      "metar_wdir": 210,
      "metar_wspd": 8,
      "metar_oat": 30,
      "metar_qnh": 1006,
      "hourly_oat": [
        28,
        28,
        28,
        28,
        28,
        28,
        28,
        28,
        27,
        27,
        28,
        27,
        27,
        27,
        28,
        29,
        29,
        30,
        31,
        30,
        31,
        31,
        30,
        30,
        27
      ]
    },
    "SIN": {
      "icao": "WSSS",
      "issued": "2026-07-04T05:00:00.000Z",
      "raw": "TAF WSSS 040500Z 0406/0512 13008KT 9999 FEW015 SCT020",
      "groups": [
        {
          "text": "TAF WSSS 040500Z 0406/0512 13008KT 9999 FEW015 SCT020",
          "offset_h": -5,
          "wdir": 130,
          "wspd": 8
        }
      ],
      "metar_raw": "METAR WSSS 041100Z 12007KT 9999 FEW016 FEW018TCU SCT140 30/25 Q1010 NOSIG",
      "metar_wdir": 120,
      "metar_wspd": 7,
      "metar_oat": 30,
      "metar_qnh": 1010,
      "hourly_oat": [
        30,
        29,
        29,
        29,
        29,
        28,
        28,
        28,
        28,
        28,
        28,
        28,
        27,
        25,
        26,
        27,
        28,
        29,
        29,
        29,
        30,
        30,
        28,
        28,
        26
      ]
    }
  }
}