{
  "updated": "2026-07-10T23:46:45Z",
  "tafs": {
    "SAN": {
      "icao": "KSAN",
      "issued": "2026-07-10T23:27:00.000Z",
      "raw": "TAF KSAN 102327Z 1100/1206 22008G16KT P6SM SCT014 FM110400 20005KT P6SM OVC012 FM110800 VRB04KT P6SM OVC008 FM111400 18005KT P6SM BKN012 FM111800 22010KT P6SM FEW015 SCT150 FM120300 VRB04KT P6SM SCT012 SCT150",
      "groups": [
        {
          "text": "TAF KSAN 102327Z 1100/1206 22008G16KT P6SM SCT014",
          "offset_h": 1,
          "wdir": 220,
          "wspd": 8
        },
        {
          "text": "FM110400 20005KT P6SM OVC012",
          "offset_h": 5,
          "wdir": 200,
          "wspd": 5
        },
        {
          "text": "FM110800 VRB04KT P6SM OVC008",
          "offset_h": 9,
          "wdir": "VRB",
          "wspd": 4
        },
        {
          "text": "FM111400 18005KT P6SM BKN012",
          "offset_h": 15,
          "wdir": 180,
          "wspd": 5
        },
        {
          "text": "FM111800 22010KT P6SM FEW015 SCT150",
          "offset_h": 19,
          "wdir": 220,
          "wspd": 10
        },
        {
          "text": "FM120300 VRB04KT P6SM SCT012 SCT150",
          "offset_h": 28,
          "wdir": "VRB",
          "wspd": 4
        }
      ],
      "metar_raw": "METAR KSAN 102251Z 23009G18KT 10SM FEW014 FEW250 22/16 A2989 RMK AO2 SLP122 T02220161 $",
      "metar_wdir": 230,
      "metar_wspd": 9,
      "metar_oat": 22,
      "metar_qnh": 1012,
      "hourly_oat": [
        22,
        22,
        20,
        19,
        18,
        18,
        18,
        18,
        18,
        18,
        18,
        18,
        17,
        17,
        16,
        17,
        17,
        18,
        20,
        21,
        21,
        23,
        24,
        21,
        22
      ]
    },
    "LAX": {
      "icao": "KLAX",
      "issued": "2026-07-10T23:23:00.000Z",
      "raw": "TAF KLAX 102323Z 1100/1206 27010KT P6SM FEW008 SCT014 FM110200 26006KT P6SM SCT008 BKN014 FM110400 26004KT 5SM BR BKN008 FM111100 20005KT 4SM BR FEW004 OVC008 FM111700 25008KT P6SM SCT008 BKN014 FM111900 26010KT P6SM FEW008 SCT014",
      "groups": [
        {
          "text": "TAF KLAX 102323Z 1100/1206 27010KT P6SM FEW008 SCT014",
          "offset_h": 1,
          "wdir": 270,
          "wspd": 10
        },
        {
          "text": "FM110200 26006KT P6SM SCT008 BKN014",
          "offset_h": 3,
          "wdir": 260,
          "wspd": 6
        },
        {
          "text": "FM110400 26004KT 5SM BR BKN008",
          "offset_h": 5,
          "wdir": 260,
          "wspd": 4
        },
        {
          "text": "FM111100 20005KT 4SM BR FEW004 OVC008",
          "offset_h": 12,
          "wdir": 200,
          "wspd": 5
        },
        {
          "text": "FM111700 25008KT P6SM SCT008 BKN014",
          "offset_h": 18,
          "wdir": 250,
          "wspd": 8
        },
        {
          "text": "FM111900 26010KT P6SM FEW008 SCT014",
          "offset_h": 20,
          "wdir": 260,
          "wspd": 10
        }
      ],
      "metar_raw": "METAR KLAX 102253Z 26009KT 10SM FEW011 FEW050 22/16 A2989 RMK AO2 SLP118 T02220161 $",
      "metar_wdir": 260,
      "metar_wspd": 9,
      "metar_oat": 22,
      "metar_qnh": 1012,
      "hourly_oat": [
        22,
        22,
        21,
        20,
        19,
        18,
        18,
        18,
        18,
        17,
        17,
        17,
        17,
        17,
        16,
        17,
        19,
        20,
        20,
        21,
        23,
        25,
        24,
        23,
        22
      ]
    },
    "HNL": {
      "icao": "PHNL",
      "issued": "2026-07-10T23:20:00.000Z",
      "raw": "TAF PHNL 102320Z 1100/1206 07015G25KT P6SM FEW025 SCT040 FM110600 06012KT P6SM FEW025 SCT040 FM112000 06015G25KT P6SM FEW025 SCT040",
      "groups": [
        {
          "text": "TAF PHNL 102320Z 1100/1206 07015G25KT P6SM FEW025 SCT040",
          "offset_h": 1,
          "wdir": 70,
          "wspd": 15
        },
        {
          "text": "FM110600 06012KT P6SM FEW025 SCT040",
          "offset_h": 7,
          "wdir": 60,
          "wspd": 12
        },
        {
          "text": "FM112000 06015G25KT P6SM FEW025 SCT040",
          "offset_h": 21,
          "wdir": 60,
          "wspd": 15
        }
      ],
      "metar_raw": "METAR PHNL 102253Z 07012G21KT 10SM FEW025 FEW040 31/19 A3008 RMK AO2 PK WND 09027/2216 SLP186 T03060194 $",
      "metar_wdir": 70,
      "metar_wspd": 12,
      "metar_oat": 31,
      "metar_qnh": 1019,
      "hourly_oat": [
        29,
        29,
        29,
        28,
        27,
        26,
        25,
        25,
        25,
        24,
        24,
        24,
        24,
        23,
        23,
        23,
        23,
        23,
        24,
        25,
        26,
        27,
        28,
        28,
        28
      ]
    },
    "OKA": {
      "icao": "ROAH",
      "issued": "2026-07-10T23:07:00.000Z",
      "raw": "TAF ROAH 102307Z 1100/1206 14040KT 8000 -SHRA FEW008 BKN012 TEMPO 1100/1103 13045G60KT 2000 +SHRA BR FEW005 BKN008 SCT015CB TEMPO 1103/1109 14045G60KT 4000 SHRA BR FEW005 BKN008 FEW015CB BECMG 1109/1110 15030KT TEMPO 1109/1121 15035G50KT",
      "groups": [
        {
          "text": "TAF ROAH 102307Z 1100/1206 14040KT 8000 -SHRA FEW008 BKN012",
          "offset_h": 1,
          "wdir": 140,
          "wspd": 40
        },
        {
          "text": "TEMPO 1100/1103 13045G60KT 2000 +SHRA BR FEW005 BKN008 SCT015CB",
          "offset_h": 1,
          "wdir": 130,
          "wspd": 45
        },
        {
          "text": "TEMPO 1103/1109 14045G60KT 4000 SHRA BR FEW005 BKN008 FEW015CB",
          "offset_h": 4,
          "wdir": 140,
          "wspd": 45
        },
        {
          "text": "BECMG 1109/1110 15030KT",
          "offset_h": 10,
          "wdir": 150,
          "wspd": 30
        },
        {
          "text": "TEMPO 1109/1121 15035G50KT",
          "offset_h": 10,
          "wdir": 150,
          "wspd": 35
        }
      ],
      "metar_raw": "METAR ROAH 102330Z 13039G56KT 6000 -SHRA FEW015 SCT020 BKN050 26/25 Q0994",
      "metar_wdir": 130,
      "metar_wspd": 39,
      "metar_oat": 26,
      "metar_qnh": 994,
      "hourly_oat": [
        28,
        28,
        28,
        27,
        26,
        28,
        28,
        28,
        28,
        28,
        28,
        28,
        28,
        28,
        28,
        28,
        27,
        27,
        27,
        27,
        27,
        27,
        27,
        27,
        28
      ]
    },
    "ITM": {
      "icao": "RJOO",
      "issued": "2026-07-10T23:06:00.000Z",
      "raw": "TAF RJOO 102306Z 1100/1206 22006KT 9999 FEW030 SCT040 BECMG 1107/1109 24008KT BECMG 1121/1200 22008KT",
      "groups": [
        {
          "text": "TAF RJOO 102306Z 1100/1206 22006KT 9999 FEW030 SCT040",
          "offset_h": 1,
          "wdir": 220,
          "wspd": 6
        },
        {
          "text": "BECMG 1107/1109 24008KT",
          "offset_h": 8,
          "wdir": 240,
          "wspd": 8
        },
        {
          "text": "BECMG 1121/1200 22008KT",
          "offset_h": 22,
          "wdir": 220,
          "wspd": 8
        }
      ],
      "metar_raw": "METAR RJOO 102300Z 23004KT 190V270 9999 FEW015 SCT025 BKN050 28/22 Q1015",
      "metar_wdir": 230,
      "metar_wspd": 4,
      "metar_oat": 28,
      "metar_qnh": 1015,
      "hourly_oat": [
        26,
        27,
        28,
        29,
        30,
        30,
        31,
        31,
        30,
        29,
        28,
        27,
        26,
        26,
        26,
        25,
        25,
        25,
        24,
        24,
        24,
        24,
        25,
        25,
        26
      ]
    },
    "KIX": {
      "icao": "RJBB",
      "issued": "2026-07-10T23:06:00.000Z",
      "raw": "TAF RJBB 102306Z 1100/1206 24004KT 9999 FEW020 SCT030 BECMG 1104/1106 24014KT",
      "groups": [
        {
          "text": "TAF RJBB 102306Z 1100/1206 24004KT 9999 FEW020 SCT030",
          "offset_h": 1,
          "wdir": 240,
          "wspd": 4
        },
        {
          "text": "BECMG 1104/1106 24014KT",
          "offset_h": 5,
          "wdir": 240,
          "wspd": 14
        }
      ],
      "metar_raw": "METAR RJBB 102330Z 33003KT 300V050 9999 FEW015 SCT050 BKN/// 26/23 Q1015 NOSIG",
      "metar_wdir": 330,
      "metar_wspd": 3,
      "metar_oat": 26,
      "metar_qnh": 1015,
      "hourly_oat": [
        26,
        26,
        26,
        26,
        26,
        26,
        26,
        26,
        27,
        27,
        27,
        26,
        26,
        26,
        26,
        26,
        26,
        26,
        25,
        25,
        25,
        25,
        26,
        26,
        26
      ]
    },
    "FUK": {
      "icao": "RJFF",
      "issued": "2026-07-10T23:05:00.000Z",
      "raw": "TAF RJFF 102305Z 1100/1206 15006KT 9999 FEW030 BECMG 1101/1103 33011KT BECMG 1106/1108 17012KT",
      "groups": [
        {
          "text": "TAF RJFF 102305Z 1100/1206 15006KT 9999 FEW030",
          "offset_h": 1,
          "wdir": 150,
          "wspd": 6
        },
        {
          "text": "BECMG 1101/1103 33011KT",
          "offset_h": 2,
          "wdir": 330,
          "wspd": 11
        },
        {
          "text": "BECMG 1106/1108 17012KT",
          "offset_h": 7,
          "wdir": 170,
          "wspd": 12
        }
      ],
      "metar_raw": "METAR RJFF 102330Z 16009KT CAVOK 31/23 Q1011 NOSIG",
      "metar_wdir": 160,
      "metar_wspd": 9,
      "metar_oat": 31,
      "metar_qnh": 1011,
      "hourly_oat": [
        28,
        30,
        32,
        33,
        33,
        34,
        34,
        34,
        34,
        34,
        34,
        33,
        32,
        30,
        30,
        29,
        28,
        28,
        27,
        27,
        26,
        26,
        26,
        27,
        29
      ]
    },
    "CTS": {
      "icao": "RJCC",
      "issued": "2026-07-10T23:05:00.000Z",
      "raw": "TAF RJCC 102305Z 1100/1206 16010KT 9999 -SHRA FEW004 BKN012 TEMPO 1100/1106 2000 SHRA BR FEW002 BKN004 TEMPO 1106/1109 4000 -SHRA BR FEW002 BKN005 TEMPO 1109/1112 1500 -SHRA BR FEW001 BKN003 TEMPO 1112/1200 0700 -SHRA FG VV001 TEMPO 1200/1206 FEW004 BKN007",
      "groups": [
        {
          "text": "TAF RJCC 102305Z 1100/1206 16010KT 9999 -SHRA FEW004 BKN012",
          "offset_h": 1,
          "wdir": 160,
          "wspd": 10
        },
        {
          "text": "TEMPO 1100/1106 2000 SHRA BR FEW002 BKN004",
          "offset_h": 1,
          "wdir": null,
          "wspd": null
        },
        {
          "text": "TEMPO 1106/1109 4000 -SHRA BR FEW002 BKN005",
          "offset_h": 7,
          "wdir": null,
          "wspd": null
        },
        {
          "text": "TEMPO 1109/1112 1500 -SHRA BR FEW001 BKN003",
          "offset_h": 10,
          "wdir": null,
          "wspd": null
        },
        {
          "text": "TEMPO 1112/1200 0700 -SHRA FG VV001",
          "offset_h": 13,
          "wdir": null,
          "wspd": null
        },
        {
          "text": "TEMPO 1200/1206 FEW004 BKN007",
          "offset_h": 25,
          "wdir": null,
          "wspd": null
        }
      ],
      "metar_raw": "METAR RJCC 102330Z 16011KT 3200 -SHRA BR FEW001 SCT002 BKN003 21/21 Q1011",
      "metar_wdir": 160,
      "metar_wspd": 11,
      "metar_oat": 21,
      "metar_qnh": 1011,
      "hourly_oat": [
        22,
        22,
        24,
        24,
        25,
        26,
        26,
        25,
        24,
        23,
        22,
        21,
        20,
        20,
        20,
        20,
        19,
        19,
        19,
        19,
        19,
        19,
        20,
        22,
        23
      ]
    },
    "NRT": {
      "icao": "RJAA",
      "issued": "2026-07-10T23:05:00.000Z",
      "raw": "TAF RJAA 102305Z 1100/1206 16008KT 9999 FEW030",
      "groups": [
        {
          "text": "TAF RJAA 102305Z 1100/1206 16008KT 9999 FEW030",
          "offset_h": 1,
          "wdir": 160,
          "wspd": 8
        }
      ],
      "metar_raw": "METAR RJAA 102330Z 19007KT 160V230 9999 SCT020 BKN/// 27/22 Q1014 NOSIG",
      "metar_wdir": 190,
      "metar_wspd": 7,
      "metar_oat": 27,
      "metar_qnh": 1014,
      "hourly_oat": [
        25,
        27,
        28,
        30,
        30,
        30,
        29,
        29,
        28,
        28,
        27,
        26,
        25,
        24,
        24,
        24,
        24,
        24,
        23,
        23,
        23,
        23,
        24,
        25,
        25
      ]
    },
    "HND": {
      "icao": "RJTT",
      "issued": "2026-07-10T23:05:00.000Z",
      "raw": "TAF RJTT 102305Z 1100/1206 19016KT 9999 FEW020",
      "groups": [
        {
          "text": "TAF RJTT 102305Z 1100/1206 19016KT 9999 FEW020",
          "offset_h": 1,
          "wdir": 190,
          "wspd": 16
        }
      ],
      "metar_raw": "METAR RJTT 102330Z 18011KT 9999 FEW015 BKN/// 28/23 Q1014 NOSIG",
      "metar_wdir": 180,
      "metar_wspd": 11,
      "metar_oat": 28,
      "metar_qnh": 1014,
      "hourly_oat": [
        26,
        27,
        28,
        28,
        28,
        28,
        27,
        27,
        26,
        26,
        26,
        25,
        25,
        25,
        25,
        25,
        25,
        25,
        25,
        25,
        25,
        24,
        24,
        25,
        26
      ]
    },
    "NGO": {
      "icao": "RJGG",
      "issued": "2026-07-10T23:05:00.000Z",
      "raw": "TAF RJGG 102305Z 1100/1206 16010KT 9999 FEW030 BECMG 1115/1118 36004KT BECMG 1203/1206 22006KT",
      "groups": [
        {
          "text": "TAF RJGG 102305Z 1100/1206 16010KT 9999 FEW030",
          "offset_h": 1,
          "wdir": 160,
          "wspd": 10
        },
        {
          "text": "BECMG 1115/1118 36004KT",
          "offset_h": 16,
          "wdir": 360,
          "wspd": 4
        },
        {
          "text": "BECMG 1203/1206 22006KT",
          "offset_h": 28,
          "wdir": 220,
          "wspd": 6
        }
      ],
      "metar_raw": "METAR RJGG 102330Z VRB02KT 9999 FEW015 SCT020 BKN030 26/23 Q1015 BECMG 20006KT",
      "metar_wdir": "VRB",
      "metar_wspd": 2,
      "metar_oat": 26,
      "metar_qnh": 1015,
      "hourly_oat": [
        24,
        25,
        25,
        25,
        26,
        26,
        27,
        27,
        26,
        26,
        26,
        26,
        26,
        26,
        26,
        25,
        25,
        25,
        25,
        24,
        24,
        24,
        24,
        24,
        24
      ]
    },
    "GMP": {
      "icao": "RKSS",
      "issued": "2026-07-10T23:00:00.000Z",
      "raw": "TAF RKSS 102300Z 1100/1206 20006KT 9999 SCT035 TX33/1106Z TN25/1120Z TX34/1205Z BECMG 1105/1107 27007KT BECMG 1112/1114 19005KT 6000 BECMG 1201/1203 25006KT 9999",
      "groups": [
        {
          "text": "TAF RKSS 102300Z 1100/1206 20006KT 9999 SCT035 TX33/1106Z TN25/1120Z TX34/1205Z",
          "offset_h": 1,
          "wdir": 200,
          "wspd": 6
        },
        {
          "text": "BECMG 1105/1107 27007KT",
          "offset_h": 6,
          "wdir": 270,
          "wspd": 7
        },
        {
          "text": "BECMG 1112/1114 19005KT 6000",
          "offset_h": 13,
          "wdir": 190,
          "wspd": 5
        },
        {
          "text": "BECMG 1201/1203 25006KT 9999",
          "offset_h": 26,
          "wdir": 250,
          "wspd": 6
        }
      ],
      "metar_raw": "METAR RKSS 102300Z 16005KT 120V190 9999 FEW035 BKN200 28/26 Q1011 NOSIG",
      "metar_wdir": 160,
      "metar_wspd": 5,
      "metar_oat": 28,
      "metar_qnh": 1011,
      "hourly_oat": [
        26,
        27,
        29,
        30,
        31,
        32,
        32,
        32,
        32,
        31,
        30,
        29,
        28,
        27,
        26,
        26,
        25,
        25,
        25,
        25,
        24,
        24,
        24,
        25,
        27
      ]
    },
    "TPE": {
      "icao": "RCTP",
      "issued": "2026-07-10T23:00:00.000Z",
      "raw": "TAF RCTP 102300Z 1100/1206 35022G40KT 6000 FEW008 BKN017 BKN040 TEMPO 1100/1106 32028G45KT 2000 SHRA FEW003 BKN006 FEW010CB TEMPO 1106/1112 27030G46KT 2500 SHRA FEW004 BKN008 FEW010CB BECMG 1112/1114 23025G40KT TEMPO 1116/1122 23030G45KT 4000 RA FEW006 BKN012 TEMPO 1200/1206 22012G22KT FEW010 BKN032",
      "groups": [
        {
          "text": "TAF RCTP 102300Z 1100/1206 35022G40KT 6000 FEW008 BKN017 BKN040",
          "offset_h": 1,
          "wdir": 350,
          "wspd": 22
        },
        {
          "text": "TEMPO 1100/1106 32028G45KT 2000 SHRA FEW003 BKN006 FEW010CB",
          "offset_h": 1,
          "wdir": 320,
          "wspd": 28
        },
        {
          "text": "TEMPO 1106/1112 27030G46KT 2500 SHRA FEW004 BKN008 FEW010CB",
          "offset_h": 7,
          "wdir": 270,
          "wspd": 30
        },
        {
          "text": "BECMG 1112/1114 23025G40KT",
          "offset_h": 13,
          "wdir": 230,
          "wspd": 25
        },
        {
          "text": "TEMPO 1116/1122 23030G45KT 4000 RA FEW006 BKN012",
          "offset_h": 17,
          "wdir": 230,
          "wspd": 30
        },
        {
          "text": "TEMPO 1200/1206 22012G22KT FEW010 BKN032",
          "offset_h": 25,
          "wdir": 220,
          "wspd": 12
        }
      ],
      "metar_raw": "METAR RCTP 102330Z 35018G35KT 320V020 2000 SHRA SCT008 BKN012 BKN025 26/25 Q0989 WS ALL RWY NOSIG RMK A2921",
      "metar_wdir": 350,
      "metar_wspd": 18,
      "metar_oat": 26,
      "metar_qnh": 989,
      "hourly_oat": [
        26,
        26,
        26,
        26,
        26,
        26,
        26,
        27,
        27,
        26,
        26,
        26,
        26,
        26,
        26,
        27,
        27,
        28,
        29,
        29,
        29,
        29,
        29,
        29,
        28
      ]
    },
    "HKG": {
      "icao": "VHHH",
      "issued": "2026-07-10T23:00:00.000Z",
      "raw": "TAF VHHH 102300Z 1100/1206 30010KT 9999 FEW015 TX35/1106Z TX34/1206Z TN29/1122Z TEMPO 1103/1108 4000 HZ BECMG 1110/1112 24015KT",
      "groups": [
        {
          "text": "TAF VHHH 102300Z 1100/1206 30010KT 9999 FEW015 TX35/1106Z TX34/1206Z TN29/1122Z",
          "offset_h": 1,
          "wdir": 300,
          "wspd": 10
        },
        {
          "text": "TEMPO 1103/1108 4000 HZ",
          "offset_h": 4,
          "wdir": null,
          "wspd": null
        },
        {
          "text": "BECMG 1110/1112 24015KT",
          "offset_h": 11,
          "wdir": 240,
          "wspd": 15
        }
      ],
      "metar_raw": "METAR VHHH 102330Z VRB01KT 9999 FEW010 29/26 Q1000 NOSIG",
      "metar_wdir": "VRB",
      "metar_wspd": 1,
      "metar_oat": 29,
      "metar_qnh": 1000,
      "hourly_oat": [
        28,
        29,
        29,
        29,
        30,
        30,
        31,
        31,
        31,
        30,
        30,
        29,
        29,
        29,
        29,
        29,
        29,
        29,
        29,
        29,
        29,
        28,
        28,
        28,
        29
      ]
    },
    "CGK": {
      "icao": "WIII",
      "issued": "2026-07-10T23:00:00.000Z",
      "raw": "TAF WIII 102300Z 1100/1206 16005KT 4000 HZ FEW020 BECMG 1101/1103 05010KT 8000 NSW BECMG 1113/1115 13005KT 5000 HZ",
      "groups": [
        {
          "text": "TAF WIII 102300Z 1100/1206 16005KT 4000 HZ FEW020",
          "offset_h": 1,
          "wdir": 160,
          "wspd": 5
        },
        {
          "text": "BECMG 1101/1103 05010KT 8000 NSW",
          "offset_h": 2,
          "wdir": 50,
          "wspd": 10
        },
        {
          "text": "BECMG 1113/1115 13005KT 5000 HZ",
          "offset_h": 14,
          "wdir": 130,
          "wspd": 5
        }
      ],
      "metar_raw": "METAR WIII 102330Z 15003KT 2500 HZ FEW020 24/22 Q1012 NOSIG",
      "metar_wdir": 150,
      "metar_wspd": 3,
      "metar_oat": 24,
      "metar_qnh": 1012,
      "hourly_oat": [
        23,
        24,
        26,
        29,
        31,
        32,
        33,
        34,
        33,
        32,
        32,
        30,
        29,
        28,
        28,
        27,
        27,
        26,
        26,
        26,
        25,
        24,
        24,
        24,
        23
      ]
    },
    "BKK": {
      "icao": "VTBS",
      "issued": "2026-07-10T23:00:00.000Z",
      "raw": "TAF VTBS 102300Z 1100/1206 22008KT 9999 FEW020",
      "groups": [
        {
          "text": "TAF VTBS 102300Z 1100/1206 22008KT 9999 FEW020",
          "offset_h": 1,
          "wdir": 220,
          "wspd": 8
        }
      ],
      "metar_raw": "METAR VTBS 102330Z VRB02KT 9000 -RA FEW020 BKN100 27/25 Q1007 NOSIG",
      "metar_wdir": "VRB",
      "metar_wspd": 2,
      "metar_oat": 27,
      "metar_qnh": 1007,
      "hourly_oat": [
        27,
        28,
        29,
        29,
        31,
        30,
        31,
        31,
        32,
        29,
        28,
        30,
        30,
        29,
        29,
        29,
        28,
        28,
        28,
        28,
        28,
        28,
        28,
        27,
        28
      ]
    },
    "KUL": {
      "icao": "WMKK",
      "issued": "2026-07-10T23:00:00.000Z",
      "raw": "TAF WMKK 102300Z 1100/1206 VRB03KT 9999 FEW018 TEMPO 1100/1104 6000 -TSRA FEW010 FEW017CB",
      "groups": [
        {
          "text": "TAF WMKK 102300Z 1100/1206 VRB03KT 9999 FEW018",
          "offset_h": 1,
          "wdir": "VRB",
          "wspd": 3
        },
        {
          "text": "TEMPO 1100/1104 6000 -TSRA FEW010 FEW017CB",
          "offset_h": 1,
          "wdir": null,
          "wspd": null
        }
      ],
      "metar_raw": "METAR WMKK 102330Z VRB02KT 9000 FEW017CB 26/24 Q1010 NOSIG",
      "metar_wdir": "VRB",
      "metar_wspd": 2,
      "metar_oat": 26,
      "metar_qnh": 1010,
      "hourly_oat": [
        24,
        25,
        26,
        25,
        26,
        27,
        27,
        28,
        29,
        29,
        29,
        28,
        28,
        26,
        26,
        26,
        26,
        25,
        25,
        25,
        25,
        25,
        24,
        24,
        24
      ]
    },
    "SIN": {
      "icao": "WSSS",
      "issued": "2026-07-10T23:00:00.000Z",
      "raw": "TAF WSSS 102300Z 1100/1206 17009KT 9999 FEW015 SCT020",
      "groups": [
        {
          "text": "TAF WSSS 102300Z 1100/1206 17009KT 9999 FEW015 SCT020",
          "offset_h": 1,
          "wdir": 170,
          "wspd": 9
        }
      ],
      "metar_raw": "METAR WSSS 102330Z 16006KT 9999 FEW018 FEW020TCU BKN300 28/24 Q1011 NOSIG",
      "metar_wdir": 160,
      "metar_wspd": 6,
      "metar_oat": 28,
      "metar_qnh": 1011,
      "hourly_oat": [
        28,
        28,
        29,
        29,
        30,
        30,
        29,
        30,
        29,
        29,
        29,
        29,
        29,
        28,
        28,
        28,
        28,
        28,
        28,
        28,
        27,
        27,
        27,
        27,
        27
      ]
    },
    "HAN": {
      "icao": "VVNB",
      "issued": "2026-07-10T23:00:00.000Z",
      "raw": "TAF VVNB 102300Z 1100/1124 17005KT 9000 SCT025 TEMPO 1100/1103 3500 SHRA BKN012 FEW025TCU TEMPO 1107/1112 2500 +TSRA BKN010 FEW027CB",
      "groups": [
        {
          "text": "TAF VVNB 102300Z 1100/1124 17005KT 9000 SCT025",
          "offset_h": 1,
          "wdir": 170,
          "wspd": 5
        },
        {
          "text": "TEMPO 1100/1103 3500 SHRA BKN012 FEW025TCU",
          "offset_h": 1,
          "wdir": null,
          "wspd": null
        },
        {
          "text": "TEMPO 1107/1112 2500 +TSRA BKN010 FEW027CB",
          "offset_h": 8,
          "wdir": null,
          "wspd": null
        }
      ],
      "metar_raw": "METAR VVNB 102330Z 02003KT 320V050 9000 FEW018 SCT029 27/25 Q0999 NOSIG",
      "metar_wdir": 20,
      "metar_wspd": 3,
      "metar_oat": 27,
      "metar_qnh": 999,
      "hourly_oat": [
        26,
        27,
        28,
        29,
        30,
        30,
        31,
        32,
        32,
        32,
        32,
        30,
        29,
        28,
        28,
        28,
        28,
        27,
        27,
        26,
        25,
        25,
        25,
        25,
        25
      ]
    },
    "SGN": {
      "icao": "VVTS",
      "issued": "2026-07-10T23:00:00.000Z",
      "raw": "TAF VVTS 102300Z 1100/1206 24012KT 9999 SCT017 TEMPO 1103/1107 24015G25KT TEMPO 1107/1111 24016G28KT 5000 TSRA BKN015 FEW017CB",
      "groups": [
        {
          "text": "TAF VVTS 102300Z 1100/1206 24012KT 9999 SCT017",
          "offset_h": 1,
          "wdir": 240,
          "wspd": 12
        },
        {
          "text": "TEMPO 1103/1107 24015G25KT",
          "offset_h": 4,
          "wdir": 240,
          "wspd": 15
        },
        {
          "text": "TEMPO 1107/1111 24016G28KT 5000 TSRA BKN015 FEW017CB",
          "offset_h": 8,
          "wdir": 240,
          "wspd": 16
        }
      ],
      "metar_raw": "METAR VVTS 102330Z 24009KT 9999 FEW011 27/27 Q1007 NOSIG",
      "metar_wdir": 240,
      "metar_wspd": 9,
      "metar_oat": 27,
      "metar_qnh": 1007,
      "hourly_oat": [
        26,
        28,
        29,
        30,
        32,
        33,
        33,
        30,
        30,
        31,
        31,
        31,
        30,
        29,
        28,
        28,
        28,
        28,
        27,
        27,
        27,
        26,
        26,
        26,
        26
      ]
    },
    "TSA": {
      "icao": "RCSS",
      "issued": "2026-07-10T23:00:00.000Z",
      "raw": "TAF RCSS 102300Z 1100/1124 33015G30KT 6000 FEW015 BKN032 TEMPO 1100/1106 30020G35KT 2000 SHRA FEW006 FEW010CB BKN012 TEMPO 1106/1112 25025G45KT 2200 SHRA FEW006 FEW010CB BKN012 TEMPO 1112/1118 VRB10G22KT 4000 SHRA FEW010 FEW012CB BKN017 TEMPO 1118/1124 09007KT 5000 RA FEW012 BKN020",
      "groups": [
        {
          "text": "TAF RCSS 102300Z 1100/1124 33015G30KT 6000 FEW015 BKN032",
          "offset_h": 1,
          "wdir": 330,
          "wspd": 15
        },
        {
          "text": "TEMPO 1100/1106 30020G35KT 2000 SHRA FEW006 FEW010CB BKN012",
          "offset_h": 1,
          "wdir": 300,
          "wspd": 20
        },
        {
          "text": "TEMPO 1106/1112 25025G45KT 2200 SHRA FEW006 FEW010CB BKN012",
          "offset_h": 7,
          "wdir": 250,
          "wspd": 25
        },
        {
          "text": "TEMPO 1112/1118 VRB10G22KT 4000 SHRA FEW010 FEW012CB BKN017",
          "offset_h": 13,
          "wdir": "VRB",
          "wspd": 10
        },
        {
          "text": "TEMPO 1118/1124 09007KT 5000 RA FEW012 BKN020",
          "offset_h": 19,
          "wdir": 90,
          "wspd": 7
        }
      ],
      "metar_raw": "METAR RCSS 102330Z 34008KT 1800 SHRA SCT005 BKN016 BKN025 26/26 Q0986 NOSIG RMK A2914",
      "metar_wdir": 340,
      "metar_wspd": 8,
      "metar_oat": 26,
      "metar_qnh": 986,
      "hourly_oat": [
        26,
        26,
        26,
        26,
        26,
        27,
        27,
        27,
        26,
        25,
        25,
        25,
        25,
        26,
        27,
        28,
        28,
        26,
        26,
        26,
        26,
        26,
        25,
        25,
        25
      ]
    },
    "SHA": {
      "icao": "ZSSS",
      "issued": "2026-07-10T21:21:00.000Z",
      "raw": "TAF ZSSS 102121Z 1100/1206 08004MPS 8000 BKN020 TX32/1106Z TX31/1206Z TN26/1121Z BECMG 1103/1104 09009G15MPS TEMPO 1123/1204 SHRA BKN010 FEW030CB",
      "groups": [
        {
          "text": "TAF ZSSS 102121Z 1100/1206 08004MPS 8000 BKN020 TX32/1106Z TX31/1206Z TN26/1121Z",
          "offset_h": 1,
          "wdir": null,
          "wspd": null
        },
        {
          "text": "BECMG 1103/1104 09009G15MPS",
          "offset_h": 4,
          "wdir": null,
          "wspd": null
        },
        {
          "text": "TEMPO 1123/1204 SHRA BKN010 FEW030CB",
          "offset_h": 24,
          "wdir": null,
          "wspd": null
        }
      ],
      "metar_raw": "METAR ZSSS 102330Z 11006MPS 060V150 9999 BKN020 29/25 Q1005 NOSIG",
      "metar_wdir": null,
      "metar_wspd": null,
      "metar_oat": 29,
      "metar_qnh": 1005,
      "hourly_oat": [
        28,
        28,
        30,
        31,
        32,
        32,
        32,
        31,
        31,
        30,
        30,
        29,
        29,
        28,
        28,
        28,
        27,
        28,
        27,
        27,
        27,
        27,
        27,
        27,
        28
      ]
    },
    "PVG": {
      "icao": "ZSPD",
      "issued": "2026-07-10T21:19:00.000Z",
      "raw": "TAF ZSPD 102119Z 1100/1206 08009G15MPS 8000 BKN015 TX30/1106Z TX29/1206Z TN25/1121Z BECMG 1107/1108 09015G22MPS TEMPO 1122/1203 SHRA BKN008 FEW030CB",
      "groups": [
        {
          "text": "TAF ZSPD 102119Z 1100/1206 08009G15MPS 8000 BKN015 TX30/1106Z TX29/1206Z TN25/1121Z",
          "offset_h": 1,
          "wdir": null,
          "wspd": null
        },
        {
          "text": "BECMG 1107/1108 09015G22MPS",
          "offset_h": 8,
          "wdir": null,
          "wspd": null
        },
        {
          "text": "TEMPO 1122/1203 SHRA BKN008 FEW030CB",
          "offset_h": 23,
          "wdir": null,
          "wspd": null
        }
      ],
      "metar_raw": "METAR ZSPD 102330Z 09011MPS 9999 BKN011 29/27 Q1005 NOSIG",
      "metar_wdir": null,
      "metar_wspd": null,
      "metar_oat": 29,
      "metar_qnh": 1005,
      "hourly_oat": [
        28,
        29,
        29,
        30,
        30,
        30,
        30,
        29,
        29,
        29,
        28,
        28,
        28,
        28,
        28,
        28,
        28,
        28,
        28,
        27,
        27,
        26,
        27,
        27,
        28
      ]
    },
    "DLC": {
      "icao": "ZYTL",
      "issued": "2026-07-10T21:12:00.000Z",
      "raw": "TAF ZYTL 102112Z 1100/1124 15004MPS 5000 BR SCT020 TX29/1106Z TN25/1120Z",
      "groups": [
        {
          "text": "TAF ZYTL 102112Z 1100/1124 15004MPS 5000 BR SCT020 TX29/1106Z TN25/1120Z",
          "offset_h": 1,
          "wdir": null,
          "wspd": null
        }
      ],
      "metar_raw": "METAR ZYTL 102330Z 17005MPS 130V220 CAVOK 26/23 Q1006 NOSIG",
      "metar_wdir": null,
      "metar_wspd": null,
      "metar_oat": 26,
      "metar_qnh": 1006,
      "hourly_oat": [
        25,
        26,
        26,
        27,
        28,
        30,
        30,
        30,
        30,
        30,
        29,
        28,
        27,
        26,
        26,
        25,
        25,
        25,
        25,
        25,
        24,
        24,
        24,
        25,
        26
      ]
    },
    "PEK": {
      "icao": "ZBAA",
      "issued": "2026-07-10T21:07:00.000Z",
      "raw": "TAF ZBAA 102107Z 1100/1206 16003MPS 3500 BR NSC TX29/1106Z TX28/1206Z TN24/1121Z TEMPO 1107/1113 -TSRA SCT040CB BKN040 TEMPO 1113/1119 TSRA SCT040CB BKN040",
      "groups": [
        {
          "text": "TAF ZBAA 102107Z 1100/1206 16003MPS 3500 BR NSC TX29/1106Z TX28/1206Z TN24/1121Z",
          "offset_h": 1,
          "wdir": null,
          "wspd": null
        },
        {
          "text": "TEMPO 1107/1113 -TSRA SCT040CB BKN040",
          "offset_h": 8,
          "wdir": null,
          "wspd": null
        },
        {
          "text": "TEMPO 1113/1119 TSRA SCT040CB BKN040",
          "offset_h": 14,
          "wdir": null,
          "wspd": null
        }
      ],
      "metar_raw": "METAR ZBAA 102330Z VRB01MPS 8000 SCT010 OVC033 26/26 Q1001 NOSIG",
      "metar_wdir": null,
      "metar_wspd": null,
      "metar_oat": 26,
      "metar_qnh": 1001,
      "hourly_oat": [
        24,
        25,
        26,
        27,
        28,
        28,
        29,
        29,
        28,
        27,
        27,
        26,
        26,
        25,
        25,
        25,
        25,
        25,
        24,
        24,
        24,
        24,
        24,
        24,
        25
      ]
    },
    "CAN": {
      "icao": "ZGGG",
      "issued": "2026-07-10T21:02:00.000Z",
      "raw": "TAF ZGGG 102102Z 1100/1206 19003MPS 8000 SCT040 TX37/1107Z TX37/1206Z TN27/1122Z",
      "groups": [
        {
          "text": "TAF ZGGG 102102Z 1100/1206 19003MPS 8000 SCT040 TX37/1107Z TX37/1206Z TN27/1122Z",
          "offset_h": 1,
          "wdir": null,
          "wspd": null
        }
      ],
      "metar_raw": "METAR ZGGG 102330Z VRB01MPS CAVOK 29/26 Q1000 NOSIG",
      "metar_wdir": null,
      "metar_wspd": null,
      "metar_oat": 29,
      "metar_qnh": 1000,
      "hourly_oat": [
        27,
        29,
        30,
        31,
        33,
        34,
        35,
        35,
        35,
        35,
        35,
        34,
        32,
        31,
        30,
        30,
        30,
        29,
        28,
        28,
        28,
        27,
        27,
        27,
        28
      ]
    }
  }
}