{
  "updated": "2026-07-17T22:37:57Z",
  "tafs": {
    "HKG": {
      "icao": "VHHH",
      "issued": "2026-07-17T22:21:00.000Z",
      "raw": "TAF AMD VHHH 172221Z 1722/1903 18010KT 9999 FEW010 SCT025 TX31/1806Z TN28/1722Z TN27/1822Z TEMPO 1722/1803 24015G25KT 2500 TSRA SHRA FEW008CB SCT015 TEMPO 1803/1805 24020G30KT 2000 TSRA +SHRA FEW008CB SCT015 TEMPO 1821/1903 24015G25KT 2500 TSRA SHRA FEW008CB SCT015",
      "groups": [
        {
          "text": "TAF AMD VHHH 172221Z 1722/1903 18010KT 9999 FEW010 SCT025 TX31/1806Z TN28/1722Z TN27/1822Z",
          "offset_h": 0,
          "wdir": 180,
          "wspd": 10
        },
        {
          "text": "TEMPO 1722/1803 24015G25KT 2500 TSRA SHRA FEW008CB SCT015",
          "offset_h": 0,
          "wdir": 240,
          "wspd": 15
        },
        {
          "text": "TEMPO 1803/1805 24020G30KT 2000 TSRA +SHRA FEW008CB SCT015",
          "offset_h": 5,
          "wdir": 240,
          "wspd": 20
        },
        {
          "text": "TEMPO 1821/1903 24015G25KT 2500 TSRA SHRA FEW008CB SCT015",
          "offset_h": 23,
          "wdir": 240,
          "wspd": 15
        }
      ],
      "metar_raw": "METAR VHHH 172230Z 19008KT 9999 -SHRA FEW008 SCT022 29/25 Q1005 TEMPO 4000 SHRA FEW010CB SCT020",
      "metar_wdir": 190,
      "metar_wspd": 8,
      "metar_oat": 29,
      "metar_qnh": 1005,
      "hourly_oat": [
        28,
        28,
        28,
        28,
        28,
        29,
        29,
        30,
        30,
        30,
        30,
        30,
        29,
        29,
        29,
        29,
        29,
        29,
        29,
        29,
        29,
        28,
        28,
        28,
        28
      ]
    },
    "LAX": {
      "icao": "KLAX",
      "issued": "2026-07-17T22:01:00.000Z",
      "raw": "TAF KLAX 172201Z 1722/1824 27010KT P6SM FEW015 SCT150 FM180300 25006KT P6SM OVC012 FM180600 12007KT P6SM OVC012 FM181600 16005KT P6SM OVC018 FM181900 25011KT P6SM FEW025",
      "groups": [
        {
          "text": "TAF KLAX 172201Z 1722/1824 27010KT P6SM FEW015 SCT150",
          "offset_h": 0,
          "wdir": 270,
          "wspd": 10
        },
        {
          "text": "FM180300 25006KT P6SM OVC012",
          "offset_h": 5,
          "wdir": 250,
          "wspd": 6
        },
        {
          "text": "FM180600 12007KT P6SM OVC012",
          "offset_h": 8,
          "wdir": 120,
          "wspd": 7
        },
        {
          "text": "FM181600 16005KT P6SM OVC018",
          "offset_h": 18,
          "wdir": 160,
          "wspd": 5
        },
        {
          "text": "FM181900 25011KT P6SM FEW025",
          "offset_h": 21,
          "wdir": 250,
          "wspd": 11
        }
      ],
      "metar_raw": "METAR KLAX 172153Z 27009KT 10SM FEW013 FEW110 SCT160 27/18 A2994 RMK AO2 SLP135 T02720178 $",
      "metar_wdir": 270,
      "metar_wspd": 9,
      "metar_oat": 27,
      "metar_qnh": 1014,
      "hourly_oat": [
        27,
        26,
        24,
        23,
        22,
        21,
        21,
        21,
        21,
        20,
        19,
        19,
        19,
        18,
        19,
        19,
        20,
        20,
        22,
        23,
        26,
        28,
        27,
        26,
        25
      ]
    },
    "CAN": {
      "icao": "ZGGG",
      "issued": "2026-07-17T21:14:00.000Z",
      "raw": "TAF ZGGG 172114Z 1800/1906 16003MPS 8000 BKN033 TX33/1807Z TX32/1906Z TN27/1822Z TEMPO 1806/1810 TSRA SCT026CB BKN033",
      "groups": [
        {
          "text": "TAF ZGGG 172114Z 1800/1906 16003MPS 8000 BKN033 TX33/1807Z TX32/1906Z TN27/1822Z",
          "offset_h": 2,
          "wdir": null,
          "wspd": null
        },
        {
          "text": "TEMPO 1806/1810 TSRA SCT026CB BKN033",
          "offset_h": 8,
          "wdir": null,
          "wspd": null
        }
      ],
      "metar_raw": "METAR ZGGG 172230Z 06002MPS 9999 SCT020 27/27 Q1004 NOSIG",
      "metar_wdir": null,
      "metar_wspd": null,
      "metar_oat": 27,
      "metar_qnh": 1004,
      "hourly_oat": [
        25,
        25,
        26,
        28,
        30,
        31,
        32,
        32,
        31,
        32,
        32,
        27,
        27,
        27,
        27,
        26,
        26,
        26,
        26,
        26,
        26,
        26,
        26,
        26,
        25
      ]
    },
    "PEK": {
      "icao": "ZBAA",
      "issued": "2026-07-17T21:13:00.000Z",
      "raw": "TAF ZBAA 172113Z 1800/1906 18004MPS CAVOK TX31/1806Z TX33/1906Z TN21/1821Z TEMPO 1808/1812 -TSRA FEW040CB BKN040",
      "groups": [
        {
          "text": "TAF ZBAA 172113Z 1800/1906 18004MPS CAVOK TX31/1806Z TX33/1906Z TN21/1821Z",
          "offset_h": 2,
          "wdir": null,
          "wspd": null
        },
        {
          "text": "TEMPO 1808/1812 -TSRA FEW040CB BKN040",
          "offset_h": 10,
          "wdir": null,
          "wspd": null
        }
      ],
      "metar_raw": "METAR ZBAA 172230Z 17002MPS 110V220 CAVOK 25/22 Q1001 NOSIG",
      "metar_wdir": null,
      "metar_wspd": null,
      "metar_oat": 25,
      "metar_qnh": 1001,
      "hourly_oat": [
        22,
        23,
        24,
        26,
        27,
        28,
        28,
        29,
        29,
        30,
        30,
        29,
        28,
        27,
        26,
        25,
        24,
        24,
        24,
        23,
        22,
        21,
        21,
        21,
        21
      ]
    },
    "SHA": {
      "icao": "ZSSS",
      "issued": "2026-07-17T21:04:00.000Z",
      "raw": "TAF ZSSS 172104Z 1800/1906 21004MPS 8000 SCT030 TX35/1806Z TX32/1906Z TN27/1821Z TEMPO 1804/1808 TSRA BKN011 FEW030CB BECMG 1811/1812 03004MPS",
      "groups": [
        {
          "text": "TAF ZSSS 172104Z 1800/1906 21004MPS 8000 SCT030 TX35/1806Z TX32/1906Z TN27/1821Z",
          "offset_h": 2,
          "wdir": null,
          "wspd": null
        },
        {
          "text": "TEMPO 1804/1808 TSRA BKN011 FEW030CB",
          "offset_h": 6,
          "wdir": null,
          "wspd": null
        },
        {
          "text": "BECMG 1811/1812 03004MPS",
          "offset_h": 13,
          "wdir": null,
          "wspd": null
        }
      ],
      "metar_raw": "METAR ZSSS 172230Z 24003MPS 220V280 CAVOK 32/26 Q1000 NOSIG",
      "metar_wdir": null,
      "metar_wspd": null,
      "metar_oat": 32,
      "metar_qnh": 1000,
      "hourly_oat": [
        31,
        32,
        34,
        35,
        36,
        37,
        37,
        33,
        35,
        35,
        35,
        34,
        33,
        31,
        31,
        30,
        28,
        29,
        29,
        28,
        28,
        28,
        28,
        28,
        28
      ]
    },
    "DLC": {
      "icao": "ZYTL",
      "issued": "2026-07-17T21:04:00.000Z",
      "raw": "TAF ZYTL 172104Z 1800/1824 30004MPS 5000 BR FEW020 TX28/1806Z TN23/1820Z",
      "groups": [
        {
          "text": "TAF ZYTL 172104Z 1800/1824 30004MPS 5000 BR FEW020 TX28/1806Z TN23/1820Z",
          "offset_h": 2,
          "wdir": null,
          "wspd": null
        }
      ],
      "metar_raw": "METAR ZYTL 172230Z 26002MPS 6000 NSC 24/23 Q1001 NOSIG",
      "metar_wdir": null,
      "metar_wspd": null,
      "metar_oat": 24,
      "metar_qnh": 1001,
      "hourly_oat": [
        24,
        25,
        26,
        27,
        27,
        28,
        28,
        29,
        29,
        28,
        28,
        28,
        27,
        26,
        24,
        24,
        24,
        24,
        24,
        24,
        24,
        23,
        23,
        23,
        24
      ]
    },
    "PVG": {
      "icao": "ZSPD",
      "issued": "2026-07-17T21:02:00.000Z",
      "raw": "TAF ZSPD 172102Z 1800/1906 21004MPS 8000 SCT030 TX34/1806Z TX31/1906Z TN28/1821Z TEMPO 1804/1808 TSRA BKN008 FEW030CB BECMG 1809/1810 03004MPS",
      "groups": [
        {
          "text": "TAF ZSPD 172102Z 1800/1906 21004MPS 8000 SCT030 TX34/1806Z TX31/1906Z TN28/1821Z",
          "offset_h": 2,
          "wdir": null,
          "wspd": null
        },
        {
          "text": "TEMPO 1804/1808 TSRA BKN008 FEW030CB",
          "offset_h": 6,
          "wdir": null,
          "wspd": null
        },
        {
          "text": "BECMG 1809/1810 03004MPS",
          "offset_h": 11,
          "wdir": null,
          "wspd": null
        }
      ],
      "metar_raw": "METAR ZSPD 172230Z 23004MPS CAVOK 32/26 Q1000 NOSIG",
      "metar_wdir": null,
      "metar_wspd": null,
      "metar_oat": 32,
      "metar_qnh": 1000,
      "hourly_oat": [
        31,
        32,
        33,
        35,
        36,
        37,
        37,
        33,
        32,
        32,
        33,
        33,
        31,
        30,
        30,
        29,
        29,
        29,
        28,
        28,
        28,
        28,
        28,
        28,
        28
      ]
    },
    "HNL": {
      "icao": "PHNL",
      "issued": "2026-07-17T21:00:00.000Z",
      "raw": "TAF PHNL 172100Z 1721/1824 06017G26KT P6SM FEW025 SCT040 FM180500 06009KT P6SM FEW025 FEW040 FM182000 06015G24KT P6SM FEW025 SCT040",
      "groups": [
        {
          "text": "TAF PHNL 172100Z 1721/1824 06017G26KT P6SM FEW025 SCT040",
          "offset_h": -1,
          "wdir": 60,
          "wspd": 17
        },
        {
          "text": "FM180500 06009KT P6SM FEW025 FEW040",
          "offset_h": 7,
          "wdir": 60,
          "wspd": 9
        },
        {
          "text": "FM182000 06015G24KT P6SM FEW025 SCT040",
          "offset_h": 22,
          "wdir": 60,
          "wspd": 15
        }
      ],
      "metar_raw": "METAR PHNL 172153Z 08016G24KT 10SM FEW025 SCT035 31/20 A3002 RMK AO2 PK WND 07026/2054 SLP163 T03110200 $",
      "metar_wdir": 80,
      "metar_wspd": 16,
      "metar_oat": 31,
      "metar_qnh": 1017,
      "hourly_oat": [
        30,
        30,
        30,
        30,
        30,
        28,
        27,
        26,
        25,
        25,
        25,
        25,
        25,
        24,
        24,
        24,
        24,
        24,
        24,
        25,
        26,
        28,
        28,
        29,
        29
      ]
    },
    "SAN": {
      "icao": "KSAN",
      "issued": "2026-07-17T20:43:00.000Z",
      "raw": "TAF KSAN 172043Z 1721/1824 19010G17KT P6SM FEW012 BKN180 FM180200 18005KT P6SM FEW010 SCT150 FM180600 VRB04KT P6SM BKN012 FM181700 24009KT P6SM FEW015 SCT150",
      "groups": [
        {
          "text": "TAF KSAN 172043Z 1721/1824 19010G17KT P6SM FEW012 BKN180",
          "offset_h": -1,
          "wdir": 190,
          "wspd": 10
        },
        {
          "text": "FM180200 18005KT P6SM FEW010 SCT150",
          "offset_h": 4,
          "wdir": 180,
          "wspd": 5
        },
        {
          "text": "FM180600 VRB04KT P6SM BKN012",
          "offset_h": 8,
          "wdir": "VRB",
          "wspd": 4
        },
        {
          "text": "FM181700 24009KT P6SM FEW015 SCT150",
          "offset_h": 19,
          "wdir": 240,
          "wspd": 9
        }
      ],
      "metar_raw": "METAR KSAN 172151Z 20008G22KT 9SM SCT015 BKN170 24/19 A2997 RMK AO2 SLP147 T02440189",
      "metar_wdir": 200,
      "metar_wspd": 8,
      "metar_oat": 24,
      "metar_qnh": 1015,
      "hourly_oat": [
        23,
        23,
        23,
        22,
        21,
        20,
        20,
        20,
        20,
        20,
        20,
        19,
        19,
        19,
        19,
        19,
        20,
        20,
        21,
        23,
        24,
        25,
        25,
        25,
        25
      ]
    },
    "GMP": {
      "icao": "RKSS",
      "issued": "2026-07-17T20:25:00.000Z",
      "raw": "TAF AMD RKSS 172025Z 1720/1824 09006KT 3200 RA SCT008 BKN025 OVC070 TN21/1721Z TX28/1806Z TN24/1821Z TEMPO 1721/1801 06010G20KT 0800 +TSRA SCT005CB BKN020 OVC060 BECMG 1804/1806 6000 -RA BECMG 1817/1819 12005KT 3500 BR BECMG 1822/1824 15005KT 6000 NSW BKN025",
      "groups": [
        {
          "text": "TAF AMD RKSS 172025Z 1720/1824 09006KT 3200 RA SCT008 BKN025 OVC070 TN21/1721Z TX28/1806Z TN24/1821Z",
          "offset_h": -2,
          "wdir": 90,
          "wspd": 6
        },
        {
          "text": "TEMPO 1721/1801 06010G20KT 0800 +TSRA SCT005CB BKN020 OVC060",
          "offset_h": -1,
          "wdir": 60,
          "wspd": 10
        },
        {
          "text": "BECMG 1804/1806 6000 -RA",
          "offset_h": 6,
          "wdir": null,
          "wspd": null
        },
        {
          "text": "BECMG 1817/1819 12005KT 3500 BR",
          "offset_h": 19,
          "wdir": 120,
          "wspd": 5
        },
        {
          "text": "BECMG 1822/1824 15005KT 6000 NSW BKN025",
          "offset_h": 24,
          "wdir": 150,
          "wspd": 5
        }
      ],
      "metar_raw": "SPECI RKSS 172210Z 35004KT 3000 RA BR SCT007CB BKN020 OVC060 20/20 Q0997 NOSIG RMK CB MOV NE",
      "metar_wdir": 350,
      "metar_wspd": 4,
      "metar_oat": 20,
      "metar_qnh": 997,
      "hourly_oat": [
        24,
        24,
        22,
        23,
        23,
        24,
        25,
        26,
        26,
        27,
        27,
        27,
        27,
        26,
        25,
        25,
        25,
        24,
        24,
        24,
        23,
        23,
        23,
        23,
        22
      ]
    },
    "NRT": {
      "icao": "RJAA",
      "issued": "2026-07-17T19:27:00.000Z",
      "raw": "TAF AMD RJAA 171927Z 1719/1900 14008KT 9999 FEW012 SCT020 TEMPO 1719/1800 FEW005 BKN008",
      "groups": [
        {
          "text": "TAF AMD RJAA 171927Z 1719/1900 14008KT 9999 FEW012 SCT020",
          "offset_h": -3,
          "wdir": 140,
          "wspd": 8
        },
        {
          "text": "TEMPO 1719/1800 FEW005 BKN008",
          "offset_h": -3,
          "wdir": null,
          "wspd": null
        }
      ],
      "metar_raw": "METAR RJAA 172200Z 13008KT 9999 FEW005 SCT008 BKN070 26/24 Q1007 TEMPO FEW005 BKN008",
      "metar_wdir": 130,
      "metar_wspd": 8,
      "metar_oat": 26,
      "metar_qnh": 1007,
      "hourly_oat": [
        24,
        24,
        25,
        25,
        26,
        26,
        26,
        26,
        26,
        26,
        25,
        25,
        25,
        24,
        24,
        24,
        23,
        23,
        23,
        23,
        23,
        23,
        23,
        24,
        25
      ]
    },
    "NGO": {
      "icao": "RJGG",
      "issued": "2026-07-17T17:05:00.000Z",
      "raw": "TAF RJGG 171705Z 1718/1900 13016KT 9999 FEW015 SCT020 BKN030",
      "groups": [
        {
          "text": "TAF RJGG 171705Z 1718/1900 13016KT 9999 FEW015 SCT020 BKN030",
          "offset_h": -4,
          "wdir": 130,
          "wspd": 16
        }
      ],
      "metar_raw": "METAR RJGG 172200Z 17006KT 5000 VCSH BR FEW003 SCT035 BKN/// 27/26 Q1005 NOSIG",
      "metar_wdir": 170,
      "metar_wspd": 6,
      "metar_oat": 27,
      "metar_qnh": 1005,
      "hourly_oat": [
        26,
        27,
        27,
        27,
        27,
        27,
        27,
        28,
        28,
        28,
        27,
        27,
        27,
        27,
        27,
        27,
        27,
        27,
        27,
        26,
        26,
        26,
        26,
        26,
        26
      ]
    },
    "KIX": {
      "icao": "RJBB",
      "issued": "2026-07-17T17:05:00.000Z",
      "raw": "TAF RJBB 171705Z 1718/1900 12004KT 9999 FEW030 SCT050 BECMG 1800/1802 26009KT BECMG 1815/1818 12004KT",
      "groups": [
        {
          "text": "TAF RJBB 171705Z 1718/1900 12004KT 9999 FEW030 SCT050",
          "offset_h": -4,
          "wdir": 120,
          "wspd": 4
        },
        {
          "text": "BECMG 1800/1802 26009KT",
          "offset_h": 2,
          "wdir": 260,
          "wspd": 9
        },
        {
          "text": "BECMG 1815/1818 12004KT",
          "offset_h": 17,
          "wdir": 120,
          "wspd": 4
        }
      ],
      "metar_raw": "METAR RJBB 172200Z VRB02KT 9999 FEW020 SCT/// 29/26 Q1004 NOSIG",
      "metar_wdir": "VRB",
      "metar_wspd": 2,
      "metar_oat": 29,
      "metar_qnh": 1004,
      "hourly_oat": [
        27,
        27,
        27,
        27,
        27,
        27,
        28,
        28,
        28,
        29,
        29,
        29,
        28,
        28,
        28,
        28,
        28,
        28,
        28,
        28,
        27,
        27,
        27,
        27,
        27
      ]
    },
    "HND": {
      "icao": "RJTT",
      "issued": "2026-07-17T17:05:00.000Z",
      "raw": "TAF RJTT 171705Z 1718/1900 13008KT 9999 FEW012 BKN020 BECMG 1804/1806 19010KT",
      "groups": [
        {
          "text": "TAF RJTT 171705Z 1718/1900 13008KT 9999 FEW012 BKN020",
          "offset_h": -4,
          "wdir": 130,
          "wspd": 8
        },
        {
          "text": "BECMG 1804/1806 19010KT",
          "offset_h": 6,
          "wdir": 190,
          "wspd": 10
        }
      ],
      "metar_raw": "METAR RJTT 172200Z 12006KT 9999 FEW012 BKN/// 27/24 Q1007 NOSIG",
      "metar_wdir": 120,
      "metar_wspd": 6,
      "metar_oat": 27,
      "metar_qnh": 1007,
      "hourly_oat": [
        25,
        26,
        26,
        26,
        27,
        28,
        28,
        28,
        28,
        28,
        28,
        27,
        26,
        26,
        26,
        26,
        25,
        25,
        25,
        25,
        25,
        25,
        25,
        25,
        26
      ]
    },
    "ITM": {
      "icao": "RJOO",
      "issued": "2026-07-17T17:05:00.000Z",
      "raw": "TAF RJOO 171705Z 1718/1900 34004KT 9999 FEW030 BECMG 1721/1723 11006KT BECMG 1806/1809 24006KT BECMG 1818/1821 07006KT",
      "groups": [
        {
          "text": "TAF RJOO 171705Z 1718/1900 34004KT 9999 FEW030",
          "offset_h": -4,
          "wdir": 340,
          "wspd": 4
        },
        {
          "text": "BECMG 1721/1723 11006KT",
          "offset_h": -1,
          "wdir": 110,
          "wspd": 6
        },
        {
          "text": "BECMG 1806/1809 24006KT",
          "offset_h": 8,
          "wdir": 240,
          "wspd": 6
        },
        {
          "text": "BECMG 1818/1821 07006KT",
          "offset_h": 20,
          "wdir": 70,
          "wspd": 6
        }
      ],
      "metar_raw": "METAR RJOO 172200Z 08006KT 9999 FEW020 BKN100 29/24 Q1004",
      "metar_wdir": 80,
      "metar_wspd": 6,
      "metar_oat": 29,
      "metar_qnh": 1004,
      "hourly_oat": [
        27,
        28,
        29,
        30,
        31,
        32,
        32,
        32,
        32,
        31,
        30,
        29,
        28,
        28,
        28,
        28,
        27,
        27,
        26,
        26,
        26,
        26,
        26,
        26,
        27
      ]
    },
    "OKA": {
      "icao": "ROAH",
      "issued": "2026-07-17T17:05:00.000Z",
      "raw": "TAF ROAH 171705Z 1718/1900 23008KT 9999 FEW005 BKN012 TEMPO 1718/1721 FEW003 BKN005 TEMPO 1721/1802 FEW005 BKN008 TEMPO 1812/1900 FEW005 BKN008",
      "groups": [
        {
          "text": "TAF ROAH 171705Z 1718/1900 23008KT 9999 FEW005 BKN012",
          "offset_h": -4,
          "wdir": 230,
          "wspd": 8
        },
        {
          "text": "TEMPO 1718/1721 FEW003 BKN005",
          "offset_h": -4,
          "wdir": null,
          "wspd": null
        },
        {
          "text": "TEMPO 1721/1802 FEW005 BKN008",
          "offset_h": -1,
          "wdir": null,
          "wspd": null
        },
        {
          "text": "TEMPO 1812/1900 FEW005 BKN008",
          "offset_h": 14,
          "wdir": null,
          "wspd": null
        }
      ],
      "metar_raw": "METAR ROAH 172200Z 21008KT 9999 FEW005 SCT010 BKN015 28/27 Q1006",
      "metar_wdir": 210,
      "metar_wspd": 8,
      "metar_oat": 28,
      "metar_qnh": 1006,
      "hourly_oat": [
        28,
        29,
        29,
        30,
        30,
        30,
        30,
        30,
        30,
        30,
        30,
        29,
        28,
        28,
        28,
        28,
        28,
        28,
        27,
        27,
        27,
        27,
        27,
        27,
        28
      ]
    },
    "FUK": {
      "icao": "RJFF",
      "issued": "2026-07-17T17:05:00.000Z",
      "raw": "TAF RJFF 171705Z 1718/1900 16014KT 9999 FEW020 BKN030 BECMG 1804/1806 28008KT BECMG 1809/1812 15012KT",
      "groups": [
        {
          "text": "TAF RJFF 171705Z 1718/1900 16014KT 9999 FEW020 BKN030",
          "offset_h": -4,
          "wdir": 160,
          "wspd": 14
        },
        {
          "text": "BECMG 1804/1806 28008KT",
          "offset_h": 6,
          "wdir": 280,
          "wspd": 8
        },
        {
          "text": "BECMG 1809/1812 15012KT",
          "offset_h": 11,
          "wdir": 150,
          "wspd": 12
        }
      ],
      "metar_raw": "METAR RJFF 172200Z 15008KT 9999 FEW010 SCT035 BKN/// 29/25 Q1002 NOSIG",
      "metar_wdir": 150,
      "metar_wspd": 8,
      "metar_oat": 29,
      "metar_qnh": 1002,
      "hourly_oat": [
        27,
        28,
        29,
        30,
        32,
        32,
        33,
        33,
        33,
        31,
        30,
        31,
        31,
        30,
        29,
        28,
        28,
        28,
        28,
        27,
        27,
        27,
        27,
        27,
        28
      ]
    },
    "CTS": {
      "icao": "RJCC",
      "issued": "2026-07-17T17:05:00.000Z",
      "raw": "TAF RJCC 171705Z 1718/1900 16012KT 8000 FEW003 BKN012 TEMPO 1718/1723 3000 -SHRA BR FEW001 BKN003 TEMPO 1723/1805 4000 -SHRA BR FEW003 BKN005 TEMPO 1805/1812 2000 -SHRA BR FEW001 BKN003 TEMPO 1812/1900 15022G32KT 3000 SHRA BR FEW001 BKN003",
      "groups": [
        {
          "text": "TAF RJCC 171705Z 1718/1900 16012KT 8000 FEW003 BKN012",
          "offset_h": -4,
          "wdir": 160,
          "wspd": 12
        },
        {
          "text": "TEMPO 1718/1723 3000 -SHRA BR FEW001 BKN003",
          "offset_h": -4,
          "wdir": null,
          "wspd": null
        },
        {
          "text": "TEMPO 1723/1805 4000 -SHRA BR FEW003 BKN005",
          "offset_h": 1,
          "wdir": null,
          "wspd": null
        },
        {
          "text": "TEMPO 1805/1812 2000 -SHRA BR FEW001 BKN003",
          "offset_h": 7,
          "wdir": null,
          "wspd": null
        },
        {
          "text": "TEMPO 1812/1900 15022G32KT 3000 SHRA BR FEW001 BKN003",
          "offset_h": 14,
          "wdir": 150,
          "wspd": 22
        }
      ],
      "metar_raw": "METAR RJCC 172200Z 16014KT 9999 -SHRA FEW003 SCT006 BKN007 23/22 Q1009",
      "metar_wdir": 160,
      "metar_wspd": 14,
      "metar_oat": 23,
      "metar_qnh": 1009,
      "hourly_oat": [
        22,
        22,
        23,
        22,
        23,
        22,
        22,
        23,
        22,
        21,
        21,
        21,
        21,
        20,
        20,
        20,
        20,
        20,
        20,
        20,
        20,
        20,
        20,
        20,
        20
      ]
    },
    "SGN": {
      "icao": "VVTS",
      "issued": "2026-07-17T17:00:00.000Z",
      "raw": "TAF VVTS 171700Z 1718/1824 26008KT 9999 SCT017 TEMPO 1808/1812 26015G26KT 4000 TSRA SCT015 FEW017CB",
      "groups": [
        {
          "text": "TAF VVTS 171700Z 1718/1824 26008KT 9999 SCT017",
          "offset_h": -4,
          "wdir": 260,
          "wspd": 8
        },
        {
          "text": "TEMPO 1808/1812 26015G26KT 4000 TSRA SCT015 FEW017CB",
          "offset_h": 10,
          "wdir": 260,
          "wspd": 15
        }
      ],
      "metar_raw": "METAR VVTS 172230Z 22006KT 200V260 9999 FEW017 28/26 Q1009 NOSIG",
      "metar_wdir": 220,
      "metar_wspd": 6,
      "metar_oat": 28,
      "metar_qnh": 1009,
      "hourly_oat": [
        25,
        25,
        26,
        28,
        30,
        31,
        32,
        32,
        33,
        28,
        29,
        29,
        27,
        27,
        26,
        26,
        26,
        26,
        26,
        26,
        26,
        26,
        26,
        25,
        25
      ]
    },
    "SIN": {
      "icao": "WSSS",
      "issued": "2026-07-17T17:00:00.000Z",
      "raw": "TAF WSSS 171700Z 1718/1900 13007KT 9999 FEW015 SCT020",
      "groups": [
        {
          "text": "TAF WSSS 171700Z 1718/1900 13007KT 9999 FEW015 SCT020",
          "offset_h": -4,
          "wdir": 130,
          "wspd": 7
        }
      ],
      "metar_raw": "METAR WSSS 172230Z 10004KT 9999 FEW018 FEW020TCU BKN300 28/25 Q1011 NOSIG",
      "metar_wdir": 100,
      "metar_wspd": 4,
      "metar_oat": 28,
      "metar_qnh": 1011,
      "hourly_oat": [
        28,
        28,
        28,
        28,
        29,
        30,
        29,
        30,
        27,
        28,
        28,
        29,
        28,
        28,
        27,
        27,
        26,
        26,
        25,
        25,
        25,
        25,
        25,
        24,
        25
      ]
    },
    "CGK": {
      "icao": "WIII",
      "issued": "2026-07-17T17:00:00.000Z",
      "raw": "TAF WIII 171700Z 1718/1900 11005KT 5000 HZ FEW020 BECMG 1801/1803 05013KT 8000 NSW",
      "groups": [
        {
          "text": "TAF WIII 171700Z 1718/1900 11005KT 5000 HZ FEW020",
          "offset_h": -4,
          "wdir": 110,
          "wspd": 5
        },
        {
          "text": "BECMG 1801/1803 05013KT 8000 NSW",
          "offset_h": 3,
          "wdir": 50,
          "wspd": 13
        }
      ],
      "metar_raw": "METAR WIII 172230Z 11005KT 5000 HZ FEW020 26/24 Q1011 NOSIG",
      "metar_wdir": 110,
      "metar_wspd": 5,
      "metar_oat": 26,
      "metar_qnh": 1011,
      "hourly_oat": [
        25,
        25,
        25,
        28,
        29,
        31,
        32,
        33,
        33,
        33,
        32,
        31,
        30,
        29,
        28,
        28,
        28,
        27,
        27,
        26,
        26,
        25,
        25,
        25,
        24
      ]
    },
    "KUL": {
      "icao": "WMKK",
      "issued": "2026-07-17T17:00:00.000Z",
      "raw": "TAF WMKK 171700Z 1718/1900 03005KT 9999 FEW030 PROB40 TEMPO 1718/1722 5000 TSRA FEW017CB",
      "groups": [
        {
          "text": "TAF WMKK 171700Z 1718/1900 03005KT 9999 FEW030",
          "offset_h": -4,
          "wdir": 30,
          "wspd": 5
        },
        {
          "text": "PROB40",
          "offset_h": 0,
          "wdir": null,
          "wspd": null
        },
        {
          "text": "TEMPO 1718/1722 5000 TSRA FEW017CB",
          "offset_h": -4,
          "wdir": null,
          "wspd": null
        }
      ],
      "metar_raw": "METAR WMKK 172200Z 04003KT 340V130 9000 TS FEW017CB SCT030 26/24 Q1010 NOSIG",
      "metar_wdir": 40,
      "metar_wspd": 3,
      "metar_oat": 26,
      "metar_qnh": 1010,
      "hourly_oat": [
        23,
        23,
        24,
        25,
        26,
        27,
        28,
        28,
        26,
        25,
        26,
        26,
        25,
        25,
        24,
        24,
        24,
        24,
        24,
        24,
        24,
        24,
        23,
        23,
        23
      ]
    },
    "HAN": {
      "icao": "VVNB",
      "issued": "2026-07-17T17:00:00.000Z",
      "raw": "TAF VVNB 171700Z 1718/1818 22004KT 9999 FEW030 TEMPO 1805/1809 3500 SHRA SCT015 FEW025TCU TEMPO 1812/1817 3000 TSRA SCT010 FEW027CB",
      "groups": [
        {
          "text": "TAF VVNB 171700Z 1718/1818 22004KT 9999 FEW030",
          "offset_h": -4,
          "wdir": 220,
          "wspd": 4
        },
        {
          "text": "TEMPO 1805/1809 3500 SHRA SCT015 FEW025TCU",
          "offset_h": 7,
          "wdir": null,
          "wspd": null
        },
        {
          "text": "TEMPO 1812/1817 3000 TSRA SCT010 FEW027CB",
          "offset_h": 14,
          "wdir": null,
          "wspd": null
        }
      ],
      "metar_raw": "METAR VVNB 172230Z VRB02KT CAVOK 28/25 Q1000 NOSIG",
      "metar_wdir": "VRB",
      "metar_wspd": 2,
      "metar_oat": 28,
      "metar_qnh": 1000,
      "hourly_oat": [
        27,
        28,
        29,
        30,
        31,
        32,
        33,
        33,
        34,
        34,
        34,
        34,
        32,
        30,
        30,
        29,
        29,
        29,
        28,
        28,
        28,
        28,
        28,
        27,
        27
      ]
    },
    "BKK": {
      "icao": "VTBS",
      "issued": "2026-07-17T17:00:00.000Z",
      "raw": "TAF VTBS 171700Z 1718/1824 21008KT 9999 FEW020 TEMPO 1810/1814 VRB15KT 3000 TSRA FEW018CB SCT030 BKN080",
      "groups": [
        {
          "text": "TAF VTBS 171700Z 1718/1824 21008KT 9999 FEW020",
          "offset_h": -4,
          "wdir": 210,
          "wspd": 8
        },
        {
          "text": "TEMPO 1810/1814 VRB15KT 3000 TSRA FEW018CB SCT030 BKN080",
          "offset_h": 12,
          "wdir": "VRB",
          "wspd": 15
        }
      ],
      "metar_raw": "METAR VTBS 172230Z 28003KT 9999 FEW020 28/25 Q1009 NOSIG",
      "metar_wdir": 280,
      "metar_wspd": 3,
      "metar_oat": 28,
      "metar_qnh": 1009,
      "hourly_oat": [
        26,
        25,
        26,
        28,
        29,
        31,
        32,
        33,
        33,
        32,
        32,
        32,
        31,
        30,
        29,
        28,
        28,
        28,
        28,
        28,
        28,
        27,
        26,
        26,
        25
      ]
    },
    "TSA": {
      "icao": "RCSS",
      "issued": "2026-07-17T17:00:00.000Z",
      "raw": "TAF RCSS 171700Z 1718/1818 30005KT 9999 FEW015 BECMG 1800/1802 27010KT TEMPO 1802/1808 29015G25KT TEMPO 1804/1810 5000 SHRA SCT010 FEW015CB BKN020 BECMG 1810/1812 23008KT",
      "groups": [
        {
          "text": "TAF RCSS 171700Z 1718/1818 30005KT 9999 FEW015",
          "offset_h": -4,
          "wdir": 300,
          "wspd": 5
        },
        {
          "text": "BECMG 1800/1802 27010KT",
          "offset_h": 2,
          "wdir": 270,
          "wspd": 10
        },
        {
          "text": "TEMPO 1802/1808 29015G25KT",
          "offset_h": 4,
          "wdir": 290,
          "wspd": 15
        },
        {
          "text": "TEMPO 1804/1810 5000 SHRA SCT010 FEW015CB BKN020",
          "offset_h": 6,
          "wdir": null,
          "wspd": null
        },
        {
          "text": "BECMG 1810/1812 23008KT",
          "offset_h": 12,
          "wdir": 230,
          "wspd": 8
        }
      ],
      "metar_raw": "SPECI RCSS 172231Z 27007KT 230V290 9999 FEW020 SCT200 30/24 Q1005 NOSIG RMK 28007KT/R10 A2969",
      "metar_wdir": 270,
      "metar_wspd": 7,
      "metar_oat": 30,
      "metar_qnh": 1005,
      "hourly_oat": [
        26,
        27,
        29,
        31,
        32,
        33,
        33,
        32,
        31,
        32,
        32,
        31,
        30,
        29,
        29,
        28,
        27,
        27,
        27,
        26,
        26,
        26,
        26,
        25,
        26
      ]
    },
    "TPE": {
      "icao": "RCTP",
      "issued": "2026-07-17T17:00:00.000Z",
      "raw": "TAF RCTP 171700Z 1718/1824 23012KT 9999 FEW015 TEMPO 1718/1724 24007KT TEMPO 1803/1809 25017KT BECMG 1810/1812 22007KT TEMPO 1816/1822 17005KT",
      "groups": [
        {
          "text": "TAF RCTP 171700Z 1718/1824 23012KT 9999 FEW015",
          "offset_h": -4,
          "wdir": 230,
          "wspd": 12
        },
        {
          "text": "TEMPO 1718/1724 24007KT",
          "offset_h": -4,
          "wdir": 240,
          "wspd": 7
        },
        {
          "text": "TEMPO 1803/1809 25017KT",
          "offset_h": 5,
          "wdir": 250,
          "wspd": 17
        },
        {
          "text": "BECMG 1810/1812 22007KT",
          "offset_h": 12,
          "wdir": 220,
          "wspd": 7
        },
        {
          "text": "TEMPO 1816/1822 17005KT",
          "offset_h": 18,
          "wdir": 170,
          "wspd": 5
        }
      ],
      "metar_raw": "METAR RCTP 172230Z 24016KT 9999 FEW015 SCT200 29/24 Q1005 WS R23R NOSIG RMK A2968",
      "metar_wdir": 240,
      "metar_wspd": 16,
      "metar_oat": 29,
      "metar_qnh": 1005,
      "hourly_oat": [
        28,
        28,
        29,
        30,
        30,
        30,
        30,
        30,
        31,
        31,
        30,
        30,
        29,
        28,
        28,
        28,
        28,
        27,
        27,
        27,
        27,
        27,
        27,
        27,
        27
      ]
    }
  }
}