{
  "updated": "2026-07-15T23:48:50Z",
  "tafs": {
    "SAN": {
      "icao": "KSAN",
      "issued": "2026-07-15T23:29:00.000Z",
      "raw": "TAF KSAN 152329Z 1600/1706 28009KT P6SM FEW009 FM160200 19005KT P6SM FEW007 FEW200 FM160800 VRB04KT P6SM BKN007 FM161600 20011G20KT P6SM FEW010 FEW150",
      "groups": [
        {
          "text": "TAF KSAN 152329Z 1600/1706 28009KT P6SM FEW009",
          "offset_h": 1,
          "wdir": 280,
          "wspd": 9
        },
        {
          "text": "FM160200 19005KT P6SM FEW007 FEW200",
          "offset_h": 3,
          "wdir": 190,
          "wspd": 5
        },
        {
          "text": "FM160800 VRB04KT P6SM BKN007",
          "offset_h": 9,
          "wdir": "VRB",
          "wspd": 4
        },
        {
          "text": "FM161600 20011G20KT P6SM FEW010 FEW150",
          "offset_h": 17,
          "wdir": 200,
          "wspd": 11
        }
      ],
      "metar_raw": "METAR KSAN 152251Z 29006KT 10SM FEW010 FEW050 26/17 A2983 RMK AO2 SLP100 T02610172 $",
      "metar_wdir": 290,
      "metar_wspd": 6,
      "metar_oat": 26,
      "metar_qnh": 1010,
      "hourly_oat": [
        27,
        26,
        25,
        24,
        22,
        21,
        20,
        20,
        19,
        19,
        19,
        19,
        19,
        19,
        18,
        19,
        19,
        20,
        22,
        23,
        24,
        24,
        24,
        24,
        23
      ]
    },
    "HNL": {
      "icao": "PHNL",
      "issued": "2026-07-15T23:22:00.000Z",
      "raw": "TAF PHNL 152322Z 1600/1706 15013G20KT P6SM FEW025 SCT040 FM160600 VRB06KT P6SM FEW025 FEW040 FM162000 07014G22KT P6SM FEW025 SCT040 FM170500 06010KT P6SM FEW025 FEW040",
      "groups": [
        {
          "text": "TAF PHNL 152322Z 1600/1706 15013G20KT P6SM FEW025 SCT040",
          "offset_h": 1,
          "wdir": 150,
          "wspd": 13
        },
        {
          "text": "FM160600 VRB06KT P6SM FEW025 FEW040",
          "offset_h": 7,
          "wdir": "VRB",
          "wspd": 6
        },
        {
          "text": "FM162000 07014G22KT P6SM FEW025 SCT040",
          "offset_h": 21,
          "wdir": 70,
          "wspd": 14
        },
        {
          "text": "FM170500 06010KT P6SM FEW025 FEW040",
          "offset_h": 30,
          "wdir": 60,
          "wspd": 10
        }
      ],
      "metar_raw": "METAR PHNL 152253Z 15014KT 10SM FEW025 FEW040 29/20 A2993 RMK AO2 SLP135 T02890200 $",
      "metar_wdir": 150,
      "metar_wspd": 14,
      "metar_oat": 29,
      "metar_qnh": 1014,
      "hourly_oat": [
        29,
        29,
        29,
        29,
        28,
        26,
        25,
        24,
        24,
        24,
        24,
        24,
        23,
        23,
        23,
        23,
        23,
        23,
        24,
        26,
        27,
        28,
        29,
        30,
        30
      ]
    },
    "HKG": {
      "icao": "VHHH",
      "issued": "2026-07-15T23:19:00.000Z",
      "raw": "TAF AMD VHHH 152319Z 1600/1706 18010KT 9999 FEW010 SCT030 TX31/1606Z TX32/1706Z TN27/1622Z TEMPO 1600/1606 VRB15G25KT 2000 TSRA +SHRA FEW008CB SCT015 TEMPO 1606/1609 3000 SHRA FEW010CB SCT020 TEMPO 1617/1623 3000 SHRA FEW010CB SCT020 PROB30 TEMPO 1623/1705 24015G25KT 2500 TSRA SHRA FEW008CB SCT015",
      "groups": [
        {
          "text": "TAF AMD VHHH 152319Z 1600/1706 18010KT 9999 FEW010 SCT030 TX31/1606Z TX32/1706Z TN27/1622Z",
          "offset_h": 1,
          "wdir": 180,
          "wspd": 10
        },
        {
          "text": "TEMPO 1600/1606 VRB15G25KT 2000 TSRA +SHRA FEW008CB SCT015",
          "offset_h": 1,
          "wdir": "VRB",
          "wspd": 15
        },
        {
          "text": "TEMPO 1606/1609 3000 SHRA FEW010CB SCT020",
          "offset_h": 7,
          "wdir": null,
          "wspd": null
        },
        {
          "text": "TEMPO 1617/1623 3000 SHRA FEW010CB SCT020",
          "offset_h": 18,
          "wdir": null,
          "wspd": null
        },
        {
          "text": "PROB30",
          "offset_h": 0,
          "wdir": null,
          "wspd": null
        },
        {
          "text": "TEMPO 1623/1705 24015G25KT 2500 TSRA SHRA FEW008CB SCT015",
          "offset_h": 24,
          "wdir": 240,
          "wspd": 15
        }
      ],
      "metar_raw": "METAR VHHH 152330Z 30011KT 9999 +SHRA FEW008 FEW015CB SCT022 27/25 Q1007 TEMPO VRB15G25KT 2500 TSRA SHRA FEW008CB SCT015",
      "metar_wdir": 300,
      "metar_wspd": 11,
      "metar_oat": 27,
      "metar_qnh": 1007,
      "hourly_oat": [
        27,
        26,
        27,
        27,
        27,
        27,
        28,
        29,
        29,
        29,
        29,
        28,
        28,
        28,
        28,
        28,
        28,
        27,
        26,
        26,
        26,
        25,
        26,
        26,
        27
      ]
    },
    "NGO": {
      "icao": "RJGG",
      "issued": "2026-07-15T23:05:00.000Z",
      "raw": "TAF RJGG 152305Z 1600/1706 27006KT 9999 FEW030 BECMG 1600/1602 25004KT BECMG 1609/1611 28008KT BECMG 1621/1700 23004KT",
      "groups": [
        {
          "text": "TAF RJGG 152305Z 1600/1706 27006KT 9999 FEW030",
          "offset_h": 1,
          "wdir": 270,
          "wspd": 6
        },
        {
          "text": "BECMG 1600/1602 25004KT",
          "offset_h": 1,
          "wdir": 250,
          "wspd": 4
        },
        {
          "text": "BECMG 1609/1611 28008KT",
          "offset_h": 10,
          "wdir": 280,
          "wspd": 8
        },
        {
          "text": "BECMG 1621/1700 23004KT",
          "offset_h": 22,
          "wdir": 230,
          "wspd": 4
        }
      ],
      "metar_raw": "METAR RJGG 152330Z 30005KT 9999 FEW020 BKN/// 30/25 Q1001 NOSIG",
      "metar_wdir": 300,
      "metar_wspd": 5,
      "metar_oat": 30,
      "metar_qnh": 1001,
      "hourly_oat": [
        27,
        27,
        28,
        28,
        28,
        29,
        30,
        30,
        29,
        29,
        28,
        28,
        29,
        28,
        28,
        28,
        27,
        27,
        27,
        27,
        27,
        26,
        26,
        26,
        27
      ]
    },
    "FUK": {
      "icao": "RJFF",
      "issued": "2026-07-15T23:05:00.000Z",
      "raw": "TAF RJFF 152305Z 1600/1706 26008KT 9999 -SHRA FEW008 BKN020 BECMG 1615/1618 10004KT BECMG 1700/1703 32008KT TEMPO 1703/1706 TS BKN008 BKN025 FEW030CB",
      "groups": [
        {
          "text": "TAF RJFF 152305Z 1600/1706 26008KT 9999 -SHRA FEW008 BKN020",
          "offset_h": 1,
          "wdir": 260,
          "wspd": 8
        },
        {
          "text": "BECMG 1615/1618 10004KT",
          "offset_h": 16,
          "wdir": 100,
          "wspd": 4
        },
        {
          "text": "BECMG 1700/1703 32008KT",
          "offset_h": 25,
          "wdir": 320,
          "wspd": 8
        },
        {
          "text": "TEMPO 1703/1706 TS BKN008 BKN025 FEW030CB",
          "offset_h": 28,
          "wdir": null,
          "wspd": null
        }
      ],
      "metar_raw": "METAR RJFF 152330Z 31003KT 240V010 9999 VCSH FEW010 SCT015 BKN025 30/26 Q1004 NOSIG",
      "metar_wdir": 310,
      "metar_wspd": 3,
      "metar_oat": 30,
      "metar_qnh": 1004,
      "hourly_oat": [
        28,
        29,
        29,
        30,
        30,
        29,
        29,
        29,
        29,
        28,
        28,
        28,
        27,
        27,
        27,
        27,
        26,
        26,
        26,
        26,
        26,
        26,
        26,
        27,
        28
      ]
    },
    "CTS": {
      "icao": "RJCC",
      "issued": "2026-07-15T23:05:00.000Z",
      "raw": "TAF RJCC 152305Z 1600/1706 01008KT 9999 FEW020 SCT030 BECMG 1602/1604 17012KT TEMPO 1612/1618 FEW002 BKN004 TEMPO 1618/1700 0700 FG VV001 TEMPO 1700/1703 2000 BR FEW002 BKN004 TEMPO 1703/1706 FEW004 BKN007",
      "groups": [
        {
          "text": "TAF RJCC 152305Z 1600/1706 01008KT 9999 FEW020 SCT030",
          "offset_h": 1,
          "wdir": 10,
          "wspd": 8
        },
        {
          "text": "BECMG 1602/1604 17012KT",
          "offset_h": 3,
          "wdir": 170,
          "wspd": 12
        },
        {
          "text": "TEMPO 1612/1618 FEW002 BKN004",
          "offset_h": 13,
          "wdir": null,
          "wspd": null
        },
        {
          "text": "TEMPO 1618/1700 0700 FG VV001",
          "offset_h": 19,
          "wdir": null,
          "wspd": null
        },
        {
          "text": "TEMPO 1700/1703 2000 BR FEW002 BKN004",
          "offset_h": 25,
          "wdir": null,
          "wspd": null
        },
        {
          "text": "TEMPO 1703/1706 FEW004 BKN007",
          "offset_h": 28,
          "wdir": null,
          "wspd": null
        }
      ],
      "metar_raw": "METAR RJCC 152330Z VRB01KT 6000 FEW003 SCT005 BKN007 23/22 Q0997",
      "metar_wdir": "VRB",
      "metar_wspd": 1,
      "metar_oat": 23,
      "metar_qnh": 997,
      "hourly_oat": [
        25,
        28,
        28,
        30,
        29,
        30,
        30,
        29,
        28,
        26,
        23,
        22,
        21,
        21,
        20,
        20,
        20,
        20,
        20,
        20,
        20,
        20,
        20,
        20,
        22
      ]
    },
    "NRT": {
      "icao": "RJAA",
      "issued": "2026-07-15T23:05:00.000Z",
      "raw": "TAF RJAA 152305Z 1600/1706 13010KT 9999 FEW020 BKN040 TEMPO 1615/1621 3000 BR FEW005 BKN008",
      "groups": [
        {
          "text": "TAF RJAA 152305Z 1600/1706 13010KT 9999 FEW020 BKN040",
          "offset_h": 1,
          "wdir": 130,
          "wspd": 10
        },
        {
          "text": "TEMPO 1615/1621 3000 BR FEW005 BKN008",
          "offset_h": 16,
          "wdir": null,
          "wspd": null
        }
      ],
      "metar_raw": "METAR RJAA 152330Z 14005KT 110V170 6000 SCT013 BKN110 29/26 Q1001 NOSIG",
      "metar_wdir": 140,
      "metar_wspd": 5,
      "metar_oat": 29,
      "metar_qnh": 1001,
      "hourly_oat": [
        28,
        29,
        30,
        31,
        32,
        32,
        32,
        31,
        31,
        30,
        30,
        29,
        28,
        27,
        27,
        26,
        26,
        26,
        26,
        26,
        26,
        26,
        26,
        27,
        27
      ]
    },
    "KIX": {
      "icao": "RJBB",
      "issued": "2026-07-15T23:05:00.000Z",
      "raw": "TAF RJBB 152305Z 1600/1706 22006KT 9999 FEW030 BECMG 1610/1612 05008KT BECMG 1703/1706 25006KT",
      "groups": [
        {
          "text": "TAF RJBB 152305Z 1600/1706 22006KT 9999 FEW030",
          "offset_h": 1,
          "wdir": 220,
          "wspd": 6
        },
        {
          "text": "BECMG 1610/1612 05008KT",
          "offset_h": 11,
          "wdir": 50,
          "wspd": 8
        },
        {
          "text": "BECMG 1703/1706 25006KT",
          "offset_h": 28,
          "wdir": 250,
          "wspd": 6
        }
      ],
      "metar_raw": "METAR RJBB 152330Z 23004KT 170V280 9999 FEW020 SCT/// 30/25 Q1002 NOSIG",
      "metar_wdir": 230,
      "metar_wspd": 4,
      "metar_oat": 30,
      "metar_qnh": 1002,
      "hourly_oat": [
        27,
        27,
        27,
        28,
        28,
        28,
        29,
        29,
        29,
        29,
        29,
        29,
        29,
        28,
        28,
        28,
        28,
        28,
        27,
        27,
        27,
        26,
        26,
        26,
        26
      ]
    },
    "HND": {
      "icao": "RJTT",
      "issued": "2026-07-15T23:05:00.000Z",
      "raw": "TAF RJTT 152305Z 1600/1706 12004KT 9999 FEW005 BKN012 BECMG 1605/1607 18014KT TEMPO 1607/1611 TS FEW025CB FEW030 BKN050",
      "groups": [
        {
          "text": "TAF RJTT 152305Z 1600/1706 12004KT 9999 FEW005 BKN012",
          "offset_h": 1,
          "wdir": 120,
          "wspd": 4
        },
        {
          "text": "BECMG 1605/1607 18014KT",
          "offset_h": 6,
          "wdir": 180,
          "wspd": 14
        },
        {
          "text": "TEMPO 1607/1611 TS FEW025CB FEW030 BKN050",
          "offset_h": 8,
          "wdir": null,
          "wspd": null
        }
      ],
      "metar_raw": "METAR RJTT 152330Z 17007KT 140V210 9999 BKN020 BKN100 28/26 Q1001 NOSIG",
      "metar_wdir": 170,
      "metar_wspd": 7,
      "metar_oat": 28,
      "metar_qnh": 1001,
      "hourly_oat": [
        28,
        29,
        29,
        30,
        30,
        31,
        32,
        31,
        30,
        29,
        28,
        27,
        27,
        27,
        27,
        26,
        26,
        26,
        26,
        26,
        26,
        26,
        26,
        27,
        27
      ]
    },
    "ITM": {
      "icao": "RJOO",
      "issued": "2026-07-15T23:05:00.000Z",
      "raw": "TAF RJOO 152305Z 1600/1706 21008KT 9999 FEW030 BECMG 1607/1609 35006KT",
      "groups": [
        {
          "text": "TAF RJOO 152305Z 1600/1706 21008KT 9999 FEW030",
          "offset_h": 1,
          "wdir": 210,
          "wspd": 8
        },
        {
          "text": "BECMG 1607/1609 35006KT",
          "offset_h": 8,
          "wdir": 350,
          "wspd": 6
        }
      ],
      "metar_raw": "METAR RJOO 152300Z VRB02KT 9999 FEW020 BKN/// 31/25 Q1002",
      "metar_wdir": "VRB",
      "metar_wspd": 2,
      "metar_oat": 31,
      "metar_qnh": 1002,
      "hourly_oat": [
        28,
        30,
        31,
        31,
        32,
        32,
        32,
        32,
        32,
        32,
        32,
        31,
        29,
        28,
        28,
        27,
        26,
        26,
        25,
        25,
        25,
        24,
        24,
        25,
        26
      ]
    },
    "OKA": {
      "icao": "ROAH",
      "issued": "2026-07-15T23:05:00.000Z",
      "raw": "TAF ROAH 152305Z 1600/1706 24010KT 9999 FEW008 BKN012 TEMPO 1600/1602 FEW005 BKN008 TEMPO 1612/1615 FEW005 BKN008 TEMPO 1615/1621 FEW003 BKN005 TEMPO 1621/1703 FEW005 BKN008",
      "groups": [
        {
          "text": "TAF ROAH 152305Z 1600/1706 24010KT 9999 FEW008 BKN012",
          "offset_h": 1,
          "wdir": 240,
          "wspd": 10
        },
        {
          "text": "TEMPO 1600/1602 FEW005 BKN008",
          "offset_h": 1,
          "wdir": null,
          "wspd": null
        },
        {
          "text": "TEMPO 1612/1615 FEW005 BKN008",
          "offset_h": 13,
          "wdir": null,
          "wspd": null
        },
        {
          "text": "TEMPO 1615/1621 FEW003 BKN005",
          "offset_h": 16,
          "wdir": null,
          "wspd": null
        },
        {
          "text": "TEMPO 1621/1703 FEW005 BKN008",
          "offset_h": 22,
          "wdir": null,
          "wspd": null
        }
      ],
      "metar_raw": "METAR ROAH 152330Z 23010KT 9999 FEW005 SCT007 BKN010 29/27 Q1009",
      "metar_wdir": 230,
      "metar_wspd": 10,
      "metar_oat": 29,
      "metar_qnh": 1009,
      "hourly_oat": [
        28,
        29,
        29,
        30,
        30,
        30,
        30,
        30,
        30,
        29,
        29,
        28,
        28,
        28,
        28,
        28,
        28,
        28,
        27,
        27,
        27,
        27,
        27,
        28,
        28
      ]
    },
    "SGN": {
      "icao": "VVTS",
      "issued": "2026-07-15T23:00:00.000Z",
      "raw": "TAF VVTS 152300Z 1600/1706 26008KT 9999 SCT017 TEMPO 1606/1609 26015G26KT 2000 +TSRA SCT013 SCT015CB TEMPO 1609/1612 5000 SHRA SCT015 FEW017CB",
      "groups": [
        {
          "text": "TAF VVTS 152300Z 1600/1706 26008KT 9999 SCT017",
          "offset_h": 1,
          "wdir": 260,
          "wspd": 8
        },
        {
          "text": "TEMPO 1606/1609 26015G26KT 2000 +TSRA SCT013 SCT015CB",
          "offset_h": 7,
          "wdir": 260,
          "wspd": 15
        },
        {
          "text": "TEMPO 1609/1612 5000 SHRA SCT015 FEW017CB",
          "offset_h": 10,
          "wdir": null,
          "wspd": null
        }
      ],
      "metar_raw": "METAR VVTS 152330Z 26003KT CAVOK 25/25 Q1011 NOSIG",
      "metar_wdir": 260,
      "metar_wspd": 3,
      "metar_oat": 25,
      "metar_qnh": 1011,
      "hourly_oat": [
        24,
        25,
        26,
        28,
        29,
        30,
        31,
        32,
        29,
        26,
        26,
        26,
        26,
        26,
        26,
        25,
        25,
        25,
        25,
        25,
        25,
        25,
        25,
        25,
        25
      ]
    },
    "TSA": {
      "icao": "RCSS",
      "issued": "2026-07-15T23:00:00.000Z",
      "raw": "TAF RCSS 152300Z 1600/1624 09005KT 9999 FEW010 BKN032 TEMPO 1600/1606 30005KT TEMPO 1606/1611 4000 SHRA FEW010 BKN020 TEMPO 1618/1624 VRB05KT",
      "groups": [
        {
          "text": "TAF RCSS 152300Z 1600/1624 09005KT 9999 FEW010 BKN032",
          "offset_h": 1,
          "wdir": 90,
          "wspd": 5
        },
        {
          "text": "TEMPO 1600/1606 30005KT",
          "offset_h": 1,
          "wdir": 300,
          "wspd": 5
        },
        {
          "text": "TEMPO 1606/1611 4000 SHRA FEW010 BKN020",
          "offset_h": 7,
          "wdir": null,
          "wspd": null
        },
        {
          "text": "TEMPO 1618/1624 VRB05KT",
          "offset_h": 19,
          "wdir": "VRB",
          "wspd": 5
        }
      ],
      "metar_raw": "METAR RCSS 152330Z VRB02KT 9999 FEW020 BKN250 32/27 Q1008 NOSIG RMK A2979",
      "metar_wdir": "VRB",
      "metar_wspd": 2,
      "metar_oat": 32,
      "metar_qnh": 1008,
      "hourly_oat": [
        27,
        28,
        30,
        32,
        33,
        33,
        32,
        30,
        31,
        31,
        30,
        30,
        29,
        28,
        28,
        28,
        27,
        27,
        27,
        26,
        26,
        26,
        26,
        26,
        27
      ]
    },
    "TPE": {
      "icao": "RCTP",
      "issued": "2026-07-15T23:00:00.000Z",
      "raw": "TAF RCTP 152300Z 1600/1706 24010KT 9999 FEW010 BKN032 TEMPO 1600/1604 19005KT TEMPO 1604/1610 28015KT TEMPO 1612/1618 18005KT TEMPO 1618/1624 15005KT",
      "groups": [
        {
          "text": "TAF RCTP 152300Z 1600/1706 24010KT 9999 FEW010 BKN032",
          "offset_h": 1,
          "wdir": 240,
          "wspd": 10
        },
        {
          "text": "TEMPO 1600/1604 19005KT",
          "offset_h": 1,
          "wdir": 190,
          "wspd": 5
        },
        {
          "text": "TEMPO 1604/1610 28015KT",
          "offset_h": 5,
          "wdir": 280,
          "wspd": 15
        },
        {
          "text": "TEMPO 1612/1618 18005KT",
          "offset_h": 13,
          "wdir": 180,
          "wspd": 5
        },
        {
          "text": "TEMPO 1618/1624 15005KT",
          "offset_h": 19,
          "wdir": 150,
          "wspd": 5
        }
      ],
      "metar_raw": "METAR RCTP 152330Z VRB05KT 9999 FEW015 SCT200 31/25 Q1008 NOSIG RMK A2979",
      "metar_wdir": "VRB",
      "metar_wspd": 5,
      "metar_oat": 31,
      "metar_qnh": 1008,
      "hourly_oat": [
        28,
        29,
        30,
        30,
        30,
        30,
        30,
        30,
        30,
        30,
        29,
        29,
        28,
        28,
        28,
        28,
        27,
        27,
        27,
        27,
        27,
        27,
        27,
        27,
        28
      ]
    },
    "GMP": {
      "icao": "RKSS",
      "issued": "2026-07-15T23:00:00.000Z",
      "raw": "TAF RKSS 152300Z 1600/1706 16005KT 6000 NSC TX33/1605Z TN23/1619Z TX32/1706Z BECMG 1601/1603 28007KT 9999 BECMG 1611/1613 06005KT 6000 BECMG 1701/1703 27007KT",
      "groups": [
        {
          "text": "TAF RKSS 152300Z 1600/1706 16005KT 6000 NSC TX33/1605Z TN23/1619Z TX32/1706Z",
          "offset_h": 1,
          "wdir": 160,
          "wspd": 5
        },
        {
          "text": "BECMG 1601/1603 28007KT 9999",
          "offset_h": 2,
          "wdir": 280,
          "wspd": 7
        },
        {
          "text": "BECMG 1611/1613 06005KT 6000",
          "offset_h": 12,
          "wdir": 60,
          "wspd": 5
        },
        {
          "text": "BECMG 1701/1703 27007KT",
          "offset_h": 26,
          "wdir": 270,
          "wspd": 7
        }
      ],
      "metar_raw": "METAR RKSS 152300Z 15004KT 110V220 6000 NSC 27/25 Q1004 NOSIG",
      "metar_wdir": 150,
      "metar_wspd": 4,
      "metar_oat": 27,
      "metar_qnh": 1004,
      "hourly_oat": [
        24,
        24,
        26,
        28,
        30,
        30,
        29,
        29,
        28,
        27,
        26,
        25,
        24,
        24,
        23,
        23,
        23,
        23,
        22,
        22,
        21,
        21,
        21,
        22,
        22
      ]
    },
    "CGK": {
      "icao": "WIII",
      "issued": "2026-07-15T23:00:00.000Z",
      "raw": "TAF WIII 152300Z 1600/1706 16005KT 4000 HZ FEW020 BECMG 1601/1603 06012KT 8000 NSW BECMG 1616/1618 15005KT 5000 HZ",
      "groups": [
        {
          "text": "TAF WIII 152300Z 1600/1706 16005KT 4000 HZ FEW020",
          "offset_h": 1,
          "wdir": 160,
          "wspd": 5
        },
        {
          "text": "BECMG 1601/1603 06012KT 8000 NSW",
          "offset_h": 2,
          "wdir": 60,
          "wspd": 12
        },
        {
          "text": "BECMG 1616/1618 15005KT 5000 HZ",
          "offset_h": 17,
          "wdir": 150,
          "wspd": 5
        }
      ],
      "metar_raw": "METAR WIII 152330Z 19005KT 4000 HZ FEW020 25/22 Q1013 NOSIG",
      "metar_wdir": 190,
      "metar_wspd": 5,
      "metar_oat": 25,
      "metar_qnh": 1013,
      "hourly_oat": [
        24,
        25,
        28,
        30,
        32,
        33,
        34,
        34,
        33,
        32,
        32,
        31,
        30,
        29,
        29,
        28,
        28,
        27,
        27,
        26,
        26,
        26,
        25,
        25,
        25
      ]
    },
    "SIN": {
      "icao": "WSSS",
      "issued": "2026-07-15T23:00:00.000Z",
      "raw": "TAF WSSS 152300Z 1600/1706 14008KT 9999 FEW015 SCT020",
      "groups": [
        {
          "text": "TAF WSSS 152300Z 1600/1706 14008KT 9999 FEW015 SCT020",
          "offset_h": 1,
          "wdir": 140,
          "wspd": 8
        }
      ],
      "metar_raw": "METAR WSSS 152330Z 20002KT 9999 FEW018 BKN300 27/25 Q1012 NOSIG",
      "metar_wdir": 200,
      "metar_wspd": 2,
      "metar_oat": 27,
      "metar_qnh": 1012,
      "hourly_oat": [
        28,
        29,
        29,
        30,
        30,
        30,
        28,
        29,
        29,
        29,
        29,
        29,
        29,
        28,
        28,
        28,
        28,
        28,
        27,
        27,
        26,
        26,
        26,
        26,
        26
      ]
    },
    "KUL": {
      "icao": "WMKK",
      "issued": "2026-07-15T23:00:00.000Z",
      "raw": "TAF WMKK 152300Z 1600/1706 11005KT 9999 FEW018",
      "groups": [
        {
          "text": "TAF WMKK 152300Z 1600/1706 11005KT 9999 FEW018",
          "offset_h": 1,
          "wdir": 110,
          "wspd": 5
        }
      ],
      "metar_raw": "METAR WMKK 152330Z 00000KT 9999 FEW017CB 26/25 Q1010 NOSIG",
      "metar_wdir": 0,
      "metar_wspd": 0,
      "metar_oat": 26,
      "metar_qnh": 1010,
      "hourly_oat": [
        26,
        26,
        28,
        29,
        30,
        31,
        32,
        32,
        32,
        30,
        28,
        28,
        27,
        26,
        26,
        26,
        25,
        25,
        25,
        25,
        25,
        24,
        25,
        24,
        24
      ]
    },
    "BKK": {
      "icao": "VTBS",
      "issued": "2026-07-15T23:00:00.000Z",
      "raw": "TAF VTBS 152300Z 1600/1706 22008KT 9999 FEW020 TEMPO 1609/1614 VRB15KT 4000 TSRA FEW018CB SCT020 BKN080",
      "groups": [
        {
          "text": "TAF VTBS 152300Z 1600/1706 22008KT 9999 FEW020",
          "offset_h": 1,
          "wdir": 220,
          "wspd": 8
        },
        {
          "text": "TEMPO 1609/1614 VRB15KT 4000 TSRA FEW018CB SCT020 BKN080",
          "offset_h": 10,
          "wdir": "VRB",
          "wspd": 15
        }
      ],
      "metar_raw": "METAR VTBS 152330Z 20005KT 9999 FEW020 29/23 Q1010 NOSIG",
      "metar_wdir": 200,
      "metar_wspd": 5,
      "metar_oat": 29,
      "metar_qnh": 1010,
      "hourly_oat": [
        27,
        28,
        29,
        30,
        31,
        31,
        31,
        30,
        30,
        30,
        29,
        29,
        28,
        28,
        27,
        28,
        28,
        28,
        28,
        28,
        27,
        27,
        27,
        27,
        27
      ]
    },
    "HAN": {
      "icao": "VVNB",
      "issued": "2026-07-15T23:00:00.000Z",
      "raw": "TAF VVNB 152300Z 1600/1624 09005KT 9999 FEW025 PROB40 TEMPO 1601/1604 3500 TSRA SCT015 FEW027CB TEMPO 1609/1612 3000 TSRA SCT012 FEW027CB",
      "groups": [
        {
          "text": "TAF VVNB 152300Z 1600/1624 09005KT 9999 FEW025",
          "offset_h": 1,
          "wdir": 90,
          "wspd": 5
        },
        {
          "text": "PROB40",
          "offset_h": 0,
          "wdir": null,
          "wspd": null
        },
        {
          "text": "TEMPO 1601/1604 3500 TSRA SCT015 FEW027CB",
          "offset_h": 2,
          "wdir": null,
          "wspd": null
        },
        {
          "text": "TEMPO 1609/1612 3000 TSRA SCT012 FEW027CB",
          "offset_h": 10,
          "wdir": null,
          "wspd": null
        }
      ],
      "metar_raw": "METAR VVNB 152330Z 05004KT 320V070 CAVOK 30/28 Q1001 NOSIG",
      "metar_wdir": 50,
      "metar_wspd": 4,
      "metar_oat": 30,
      "metar_qnh": 1001,
      "hourly_oat": [
        27,
        28,
        30,
        31,
        33,
        33,
        34,
        34,
        34,
        34,
        33,
        32,
        32,
        31,
        31,
        30,
        30,
        29,
        29,
        29,
        29,
        29,
        29,
        29,
        29
      ]
    },
    "LAX": {
      "icao": "KLAX",
      "issued": "2026-07-15T21:51:00.000Z",
      "raw": "TAF KLAX 152151Z 1522/1624 26012KT P6SM SKC FM160300 26006KT P6SM SKC FM160900 11006KT P6SM SCT008 FM161800 24006KT P6SM FEW010 FM162000 26012KT P6SM SKC",
      "groups": [
        {
          "text": "TAF KLAX 152151Z 1522/1624 26012KT P6SM SKC",
          "offset_h": -1,
          "wdir": 260,
          "wspd": 12
        },
        {
          "text": "FM160300 26006KT P6SM SKC",
          "offset_h": 4,
          "wdir": 260,
          "wspd": 6
        },
        {
          "text": "FM160900 11006KT P6SM SCT008",
          "offset_h": 10,
          "wdir": 110,
          "wspd": 6
        },
        {
          "text": "FM161800 24006KT P6SM FEW010",
          "offset_h": 19,
          "wdir": 240,
          "wspd": 6
        },
        {
          "text": "FM162000 26012KT P6SM SKC",
          "offset_h": 21,
          "wdir": 260,
          "wspd": 12
        }
      ],
      "metar_raw": "METAR KLAX 152253Z 26010KT 10SM FEW100 FEW200 SCT250 26/17 A2980 RMK AO2 SLP091 T02560172 $",
      "metar_wdir": 260,
      "metar_wspd": 10,
      "metar_oat": 26,
      "metar_qnh": 1009,
      "hourly_oat": [
        26,
        25,
        24,
        23,
        21,
        20,
        20,
        19,
        19,
        19,
        18,
        18,
        18,
        18,
        18,
        19,
        22,
        25,
        28,
        29,
        29,
        30,
        31,
        30,
        27
      ]
    },
    "CAN": {
      "icao": "ZGGG",
      "issued": "2026-07-15T21:06:00.000Z",
      "raw": "TAF ZGGG 152106Z 1600/1706 12003MPS 8000 BKN030 TX34/1607Z TX32/1706Z TN26/1622Z TEMPO 1606/1610 TSRA SCT026CB BKN030 TEMPO 1619/1623 SHRA SCT026CB BKN030",
      "groups": [
        {
          "text": "TAF ZGGG 152106Z 1600/1706 12003MPS 8000 BKN030 TX34/1607Z TX32/1706Z TN26/1622Z",
          "offset_h": 1,
          "wdir": null,
          "wspd": null
        },
        {
          "text": "TEMPO 1606/1610 TSRA SCT026CB BKN030",
          "offset_h": 7,
          "wdir": null,
          "wspd": null
        },
        {
          "text": "TEMPO 1619/1623 SHRA SCT026CB BKN030",
          "offset_h": 20,
          "wdir": null,
          "wspd": null
        }
      ],
      "metar_raw": "METAR ZGGG 152330Z 09002MPS 9999 OVC026 26/25 Q1006 NOSIG",
      "metar_wdir": null,
      "metar_wspd": null,
      "metar_oat": 26,
      "metar_qnh": 1006,
      "hourly_oat": [
        25,
        26,
        27,
        29,
        30,
        29,
        28,
        30,
        28,
        30,
        30,
        28,
        28,
        28,
        27,
        27,
        27,
        27,
        26,
        26,
        24,
        24,
        24,
        25,
        25
      ]
    },
    "PVG": {
      "icao": "ZSPD",
      "issued": "2026-07-15T21:05:00.000Z",
      "raw": "TAF ZSPD 152105Z 1600/1706 18004MPS 8000 SCT030 TX38/1606Z TX38/1706Z TN28/1621Z TEMPO 1606/1610 TSRA BKN008 SCT030CB",
      "groups": [
        {
          "text": "TAF ZSPD 152105Z 1600/1706 18004MPS 8000 SCT030 TX38/1606Z TX38/1706Z TN28/1621Z",
          "offset_h": 1,
          "wdir": null,
          "wspd": null
        },
        {
          "text": "TEMPO 1606/1610 TSRA BKN008 SCT030CB",
          "offset_h": 7,
          "wdir": null,
          "wspd": null
        }
      ],
      "metar_raw": "METAR ZSPD 152330Z 20003MPS CAVOK 34/27 Q1003 NOSIG",
      "metar_wdir": null,
      "metar_wspd": null,
      "metar_oat": 34,
      "metar_qnh": 1003,
      "hourly_oat": [
        32,
        34,
        36,
        37,
        38,
        38,
        37,
        35,
        35,
        34,
        34,
        33,
        32,
        32,
        31,
        30,
        30,
        30,
        30,
        30,
        29,
        29,
        29,
        30,
        31
      ]
    },
    "SHA": {
      "icao": "ZSSS",
      "issued": "2026-07-15T21:05:00.000Z",
      "raw": "TAF ZSSS 152105Z 1600/1706 18004MPS 8000 SCT030 TX38/1606Z TX38/1706Z TN28/1621Z TEMPO 1606/1610 TSRA BKN011 SCT030CB",
      "groups": [
        {
          "text": "TAF ZSSS 152105Z 1600/1706 18004MPS 8000 SCT030 TX38/1606Z TX38/1706Z TN28/1621Z",
          "offset_h": 1,
          "wdir": null,
          "wspd": null
        },
        {
          "text": "TEMPO 1606/1610 TSRA BKN011 SCT030CB",
          "offset_h": 7,
          "wdir": null,
          "wspd": null
        }
      ],
      "metar_raw": "METAR ZSSS 152330Z 26003MPS 220V290 CAVOK 35/25 Q1003 NOSIG",
      "metar_wdir": null,
      "metar_wspd": null,
      "metar_oat": 35,
      "metar_qnh": 1003,
      "hourly_oat": [
        32,
        34,
        36,
        37,
        38,
        38,
        38,
        38,
        37,
        37,
        36,
        35,
        35,
        35,
        34,
        33,
        32,
        32,
        32,
        31,
        31,
        31,
        30,
        31,
        32
      ]
    },
    "PEK": {
      "icao": "ZBAA",
      "issued": "2026-07-15T21:04:00.000Z",
      "raw": "TAF ZBAA 152104Z 1600/1706 18004MPS CAVOK TX33/1606Z TX33/1706Z TN24/1621Z",
      "groups": [
        {
          "text": "TAF ZBAA 152104Z 1600/1706 18004MPS CAVOK TX33/1606Z TX33/1706Z TN24/1621Z",
          "offset_h": 1,
          "wdir": null,
          "wspd": null
        }
      ],
      "metar_raw": "METAR ZBAA 152330Z VRB01MPS CAVOK 27/22 Q1003 NOSIG",
      "metar_wdir": null,
      "metar_wspd": null,
      "metar_oat": 27,
      "metar_qnh": 1003,
      "hourly_oat": [
        25,
        26,
        27,
        29,
        29,
        30,
        31,
        32,
        33,
        32,
        31,
        30,
        29,
        28,
        28,
        27,
        27,
        26,
        26,
        25,
        25,
        24,
        24,
        24,
        24
      ]
    },
    "DLC": {
      "icao": "ZYTL",
      "issued": "2026-07-15T21:04:00.000Z",
      "raw": "TAF ZYTL 152104Z 1600/1624 26004MPS 5000 BR FEW040 TX31/1606Z TN24/1620Z",
      "groups": [
        {
          "text": "TAF ZYTL 152104Z 1600/1624 26004MPS 5000 BR FEW040 TX31/1606Z TN24/1620Z",
          "offset_h": 1,
          "wdir": null,
          "wspd": null
        }
      ],
      "metar_raw": "METAR ZYTL 152330Z 29002MPS CAVOK 29/25 Q1002 NOSIG",
      "metar_wdir": null,
      "metar_wspd": null,
      "metar_oat": 29,
      "metar_qnh": 1002,
      "hourly_oat": [
        26,
        28,
        29,
        30,
        30,
        30,
        30,
        30,
        29,
        28,
        28,
        28,
        27,
        26,
        25,
        25,
        24,
        24,
        24,
        24,
        24,
        24,
        24,
        24,
        24
      ]
    }
  }
}