{
  "updated": "2026-07-18T22:37:14Z",
  "tafs": {
    "LAX": {
      "icao": "KLAX",
      "issued": "2026-07-18T21:29:00.000Z",
      "raw": "TAF KLAX 182129Z 1821/1924 26012KT P6SM FEW020 FM190300 25006KT P6SM FEW015 SCT150 FM190900 VRB03KT P6SM OVC012 FM191700 25006KT P6SM SCT020 FM191900 25012KT P6SM FEW025",
      "groups": [
        {
          "text": "TAF KLAX 182129Z 1821/1924 26012KT P6SM FEW020",
          "offset_h": -1,
          "wdir": 260,
          "wspd": 12
        },
        {
          "text": "FM190300 25006KT P6SM FEW015 SCT150",
          "offset_h": 5,
          "wdir": 250,
          "wspd": 6
        },
        {
          "text": "FM190900 VRB03KT P6SM OVC012",
          "offset_h": 11,
          "wdir": "VRB",
          "wspd": 3
        },
        {
          "text": "FM191700 25006KT P6SM SCT020",
          "offset_h": 19,
          "wdir": 250,
          "wspd": 6
        },
        {
          "text": "FM191900 25012KT P6SM FEW025",
          "offset_h": 21,
          "wdir": 250,
          "wspd": 12
        }
      ],
      "metar_raw": "METAR KLAX 182153Z 26012KT 10SM FEW120 FEW180 SCT220 25/19 A2996 RMK AO2 SLP142 ACSL DSNT NE T02500189 $",
      "metar_wdir": 260,
      "metar_wspd": 12,
      "metar_oat": 25,
      "metar_qnh": 1015,
      "hourly_oat": [
        24,
        24,
        23,
        22,
        21,
        20,
        20,
        20,
        20,
        19,
        19,
        19,
        19,
        19,
        19,
        19,
        20,
        20,
        22,
        24,
        25,
        26,
        25,
        24,
        23
      ]
    },
    "HNL": {
      "icao": "PHNL",
      "issued": "2026-07-18T21:08:00.000Z",
      "raw": "TAF PHNL 182108Z 1821/1924 07017G26KT P6SM FEW025 SCT040 FM190800 06011KT P6SM FEW025 FEW040 FM191900 06014G23KT P6SM FEW025 SCT040",
      "groups": [
        {
          "text": "TAF PHNL 182108Z 1821/1924 07017G26KT P6SM FEW025 SCT040",
          "offset_h": -1,
          "wdir": 70,
          "wspd": 17
        },
        {
          "text": "FM190800 06011KT P6SM FEW025 FEW040",
          "offset_h": 10,
          "wdir": 60,
          "wspd": 11
        },
        {
          "text": "FM191900 06014G23KT P6SM FEW025 SCT040",
          "offset_h": 21,
          "wdir": 60,
          "wspd": 14
        }
      ],
      "metar_raw": "METAR PHNL 182153Z 07019G27KT 10SM FEW025 SCT038 31/21 A3001 RMK AO2 PK WND 07028/2137 SLP161 T03110206 $",
      "metar_wdir": 70,
      "metar_wspd": 19,
      "metar_oat": 31,
      "metar_qnh": 1016,
      "hourly_oat": [
        30,
        30,
        30,
        30,
        29,
        28,
        26,
        25,
        25,
        24,
        24,
        24,
        24,
        24,
        24,
        23,
        23,
        23,
        23,
        24,
        25,
        26,
        27,
        28,
        29
      ]
    },
    "PEK": {
      "icao": "ZBAA",
      "issued": "2026-07-18T21:06:00.000Z",
      "raw": "TAF ZBAA 182106Z 1900/2006 15004MPS CAVOK TX32/1906Z TX33/2006Z TN22/1921Z",
      "groups": [
        {
          "text": "TAF ZBAA 182106Z 1900/2006 15004MPS CAVOK TX32/1906Z TX33/2006Z TN22/1921Z",
          "offset_h": 2,
          "wdir": null,
          "wspd": null
        }
      ],
      "metar_raw": "METAR ZBAA 182230Z 01001MPS 9999 FEW023 24/22 Q1003 NOSIG",
      "metar_wdir": null,
      "metar_wspd": null,
      "metar_oat": 24,
      "metar_qnh": 1003,
      "hourly_oat": [
        23,
        24,
        24,
        25,
        26,
        28,
        29,
        30,
        30,
        31,
        31,
        31,
        30,
        29,
        28,
        27,
        26,
        25,
        24,
        23,
        23,
        23,
        23,
        23,
        24
      ]
    },
    "SHA": {
      "icao": "ZSSS",
      "issued": "2026-07-18T21:04:00.000Z",
      "raw": "TAF ZSSS 182104Z 1900/2006 07004MPS 8000 SCT030 TX33/1906Z TX34/2006Z TN27/1921Z TEMPO 1904/1908 TSRA BKN011 FEW030CB",
      "groups": [
        {
          "text": "TAF ZSSS 182104Z 1900/2006 07004MPS 8000 SCT030 TX33/1906Z TX34/2006Z TN27/1921Z",
          "offset_h": 2,
          "wdir": null,
          "wspd": null
        },
        {
          "text": "TEMPO 1904/1908 TSRA BKN011 FEW030CB",
          "offset_h": 6,
          "wdir": null,
          "wspd": null
        }
      ],
      "metar_raw": "METAR ZSSS 182230Z VRB01MPS CAVOK 29/26 Q1003 NOSIG",
      "metar_wdir": null,
      "metar_wspd": null,
      "metar_oat": 29,
      "metar_qnh": 1003,
      "hourly_oat": [
        27,
        28,
        29,
        31,
        31,
        32,
        32,
        33,
        28,
        28,
        28,
        28,
        28,
        28,
        27,
        27,
        26,
        26,
        26,
        26,
        26,
        26,
        26,
        26,
        27
      ]
    },
    "PVG": {
      "icao": "ZSPD",
      "issued": "2026-07-18T21:04:00.000Z",
      "raw": "TAF ZSPD 182104Z 1900/2006 06004MPS 8000 SCT030 TX33/1906Z TX33/2006Z TN27/1921Z TEMPO 1905/1909 TSRA BKN011 FEW030CB",
      "groups": [
        {
          "text": "TAF ZSPD 182104Z 1900/2006 06004MPS 8000 SCT030 TX33/1906Z TX33/2006Z TN27/1921Z",
          "offset_h": 2,
          "wdir": null,
          "wspd": null
        },
        {
          "text": "TEMPO 1905/1909 TSRA BKN011 FEW030CB",
          "offset_h": 7,
          "wdir": null,
          "wspd": null
        }
      ],
      "metar_raw": "METAR ZSPD 182230Z 15002MPS 090V190 CAVOK 28/27 Q1003 NOSIG",
      "metar_wdir": null,
      "metar_wspd": null,
      "metar_oat": 28,
      "metar_qnh": 1003,
      "hourly_oat": [
        27,
        28,
        29,
        31,
        31,
        31,
        30,
        28,
        30,
        30,
        30,
        29,
        29,
        28,
        27,
        27,
        27,
        26,
        26,
        26,
        26,
        27,
        26,
        27,
        27
      ]
    },
    "DLC": {
      "icao": "ZYTL",
      "issued": "2026-07-18T21:04:00.000Z",
      "raw": "TAF ZYTL 182104Z 1900/1924 17004MPS 5000 BR FEW040 TX29/1906Z TN23/1921Z BECMG 1903/1904 2000 -SHRA BR BKN010 BKN026 FEW033CB BECMG 1907/1908 5000 BR SCT040",
      "groups": [
        {
          "text": "TAF ZYTL 182104Z 1900/1924 17004MPS 5000 BR FEW040 TX29/1906Z TN23/1921Z",
          "offset_h": 2,
          "wdir": null,
          "wspd": null
        },
        {
          "text": "BECMG 1903/1904 2000 -SHRA BR BKN010 BKN026 FEW033CB",
          "offset_h": 5,
          "wdir": null,
          "wspd": null
        },
        {
          "text": "BECMG 1907/1908 5000 BR SCT040",
          "offset_h": 9,
          "wdir": null,
          "wspd": null
        }
      ],
      "metar_raw": "METAR ZYTL 182230Z 11002MPS 080V140 4000 BR NSC 24/22 Q1004 NOSIG",
      "metar_wdir": null,
      "metar_wspd": null,
      "metar_oat": 24,
      "metar_qnh": 1004,
      "hourly_oat": [
        23,
        24,
        25,
        27,
        28,
        29,
        29,
        28,
        29,
        28,
        28,
        27,
        26,
        25,
        24,
        23,
        23,
        23,
        23,
        22,
        22,
        22,
        22,
        22,
        23
      ]
    },
    "CAN": {
      "icao": "ZGGG",
      "issued": "2026-07-18T21:03:00.000Z",
      "raw": "TAF ZGGG 182103Z 1900/2006 16003MPS 8000 BKN033 TX32/1907Z TX30/2006Z TN25/1922Z TEMPO 1905/1910 +TSRA SCT026CB BKN033",
      "groups": [
        {
          "text": "TAF ZGGG 182103Z 1900/2006 16003MPS 8000 BKN033 TX32/1907Z TX30/2006Z TN25/1922Z",
          "offset_h": 2,
          "wdir": null,
          "wspd": null
        },
        {
          "text": "TEMPO 1905/1910 +TSRA SCT026CB BKN033",
          "offset_h": 7,
          "wdir": null,
          "wspd": null
        }
      ],
      "metar_raw": "METAR ZGGG 182230Z 10003MPS 9999 SCT023 27/26 Q1005 NOSIG",
      "metar_wdir": null,
      "metar_wspd": null,
      "metar_oat": 27,
      "metar_qnh": 1005,
      "hourly_oat": [
        26,
        26,
        27,
        28,
        30,
        31,
        32,
        32,
        32,
        32,
        30,
        28,
        28,
        27,
        27,
        27,
        26,
        26,
        26,
        26,
        26,
        26,
        26,
        26,
        25
      ]
    },
    "SAN": {
      "icao": "KSAN",
      "issued": "2026-07-18T21:01:00.000Z",
      "raw": "TAF KSAN 182101Z 1821/1924 24009KT P6SM FEW200 FM190400 VRB04KT P6SM BKN011 FM191700 VRB04KT P6SM SCT015 FM191900 30009KT P6SM FEW200",
      "groups": [
        {
          "text": "TAF KSAN 182101Z 1821/1924 24009KT P6SM FEW200",
          "offset_h": -1,
          "wdir": 240,
          "wspd": 9
        },
        {
          "text": "FM190400 VRB04KT P6SM BKN011",
          "offset_h": 6,
          "wdir": "VRB",
          "wspd": 4
        },
        {
          "text": "FM191700 VRB04KT P6SM SCT015",
          "offset_h": 19,
          "wdir": "VRB",
          "wspd": 4
        },
        {
          "text": "FM191900 30009KT P6SM FEW200",
          "offset_h": 21,
          "wdir": 300,
          "wspd": 9
        }
      ],
      "metar_raw": "METAR KSAN 182151Z VRB06KT 10SM FEW014 SCT250 25/18 A2998 RMK AO2 SLP152 T02500178",
      "metar_wdir": "VRB",
      "metar_wspd": 6,
      "metar_oat": 25,
      "metar_qnh": 1015,
      "hourly_oat": [
        26,
        25,
        25,
        24,
        23,
        22,
        21,
        21,
        21,
        20,
        20,
        20,
        20,
        20,
        20,
        20,
        20,
        22,
        21,
        22,
        25,
        26,
        26,
        26,
        25
      ]
    },
    "HKG": {
      "icao": "VHHH",
      "issued": "2026-07-18T20:00:00.000Z",
      "raw": "TAF VHHH 182000Z 1821/2003 20010KT 9999 FEW010 SCT025 TX31/1906Z TN27/1822Z TN27/1922Z TEMPO 1821/1824 3000 SHRA FEW010CB SCT020 TEMPO 1900/1906 24015G25KT 2500 TSRA SHRA FEW008CB SCT015 TEMPO 1906/1908 3000 SHRA FEW010CB SCT020 PROB30 TEMPO 1922/2003 24015G25KT 2500 TSRA SHRA FEW008CB SCT015",
      "groups": [
        {
          "text": "TAF VHHH 182000Z 1821/2003 20010KT 9999 FEW010 SCT025 TX31/1906Z TN27/1822Z TN27/1922Z",
          "offset_h": -1,
          "wdir": 200,
          "wspd": 10
        },
        {
          "text": "TEMPO 1821/1824 3000 SHRA FEW010CB SCT020",
          "offset_h": -1,
          "wdir": null,
          "wspd": null
        },
        {
          "text": "TEMPO 1900/1906 24015G25KT 2500 TSRA SHRA FEW008CB SCT015",
          "offset_h": 2,
          "wdir": 240,
          "wspd": 15
        },
        {
          "text": "TEMPO 1906/1908 3000 SHRA FEW010CB SCT020",
          "offset_h": 8,
          "wdir": null,
          "wspd": null
        },
        {
          "text": "PROB30",
          "offset_h": 0,
          "wdir": null,
          "wspd": null
        },
        {
          "text": "TEMPO 1922/2003 24015G25KT 2500 TSRA SHRA FEW008CB SCT015",
          "offset_h": 24,
          "wdir": 240,
          "wspd": 15
        }
      ],
      "metar_raw": "METAR VHHH 182230Z 12004KT 060V180 9999 FEW010 29/24 Q1005 NOSIG",
      "metar_wdir": 120,
      "metar_wspd": 4,
      "metar_oat": 29,
      "metar_qnh": 1005,
      "hourly_oat": [
        28,
        28,
        28,
        27,
        29,
        29,
        30,
        29,
        30,
        29,
        29,
        29,
        28,
        28,
        28,
        29,
        29,
        28,
        28,
        28,
        29,
        28,
        27,
        26,
        26
      ]
    },
    "HND": {
      "icao": "RJTT",
      "issued": "2026-07-18T17:05:00.000Z",
      "raw": "TAF RJTT 181705Z 1818/2000 19012KT 9999 FEW015 SCT030 BKN060",
      "groups": [
        {
          "text": "TAF RJTT 181705Z 1818/2000 19012KT 9999 FEW015 SCT030 BKN060",
          "offset_h": -4,
          "wdir": 190,
          "wspd": 12
        }
      ],
      "metar_raw": "METAR RJTT 182200Z 18010KT 9999 FEW015 SCT060 BKN/// 28/23 Q1008 NOSIG",
      "metar_wdir": 180,
      "metar_wspd": 10,
      "metar_oat": 28,
      "metar_qnh": 1008,
      "hourly_oat": [
        26,
        27,
        28,
        28,
        29,
        29,
        29,
        29,
        29,
        28,
        28,
        28,
        27,
        27,
        27,
        26,
        26,
        26,
        26,
        26,
        26,
        25,
        25,
        26,
        26
      ]
    },
    "OKA": {
      "icao": "ROAH",
      "issued": "2026-07-18T17:05:00.000Z",
      "raw": "TAF ROAH 181705Z 1818/2000 22006KT 9999 FEW005 BKN010 TEMPO 1818/1821 FEW003 BKN005 TEMPO 1821/1900 FEW005 BKN008 TEMPO 1915/1921 FEW005 BKN008",
      "groups": [
        {
          "text": "TAF ROAH 181705Z 1818/2000 22006KT 9999 FEW005 BKN010",
          "offset_h": -4,
          "wdir": 220,
          "wspd": 6
        },
        {
          "text": "TEMPO 1818/1821 FEW003 BKN005",
          "offset_h": -4,
          "wdir": null,
          "wspd": null
        },
        {
          "text": "TEMPO 1821/1900 FEW005 BKN008",
          "offset_h": -1,
          "wdir": null,
          "wspd": null
        },
        {
          "text": "TEMPO 1915/1921 FEW005 BKN008",
          "offset_h": 17,
          "wdir": null,
          "wspd": null
        }
      ],
      "metar_raw": "METAR ROAH 182200Z 19004KT 9999 FEW004 SCT009 28/27 Q1007",
      "metar_wdir": 190,
      "metar_wspd": 4,
      "metar_oat": 28,
      "metar_qnh": 1007,
      "hourly_oat": [
        28,
        29,
        30,
        31,
        32,
        32,
        32,
        31,
        31,
        31,
        30,
        30,
        29,
        28,
        28,
        28,
        28,
        28,
        28,
        27,
        27,
        27,
        27,
        27,
        28
      ]
    },
    "NGO": {
      "icao": "RJGG",
      "issued": "2026-07-18T17:05:00.000Z",
      "raw": "TAF RJGG 181705Z 1818/2000 15010KT 9999 FEW012 BKN020 BECMG 1918/1921 32006KT",
      "groups": [
        {
          "text": "TAF RJGG 181705Z 1818/2000 15010KT 9999 FEW012 BKN020",
          "offset_h": -4,
          "wdir": 150,
          "wspd": 10
        },
        {
          "text": "BECMG 1918/1921 32006KT",
          "offset_h": 20,
          "wdir": 320,
          "wspd": 6
        }
      ],
      "metar_raw": "METAR RJGG 182200Z 12008KT 9999 FEW010 BKN035 BKN045 27/25 Q1008 NOSIG",
      "metar_wdir": 120,
      "metar_wspd": 8,
      "metar_oat": 27,
      "metar_qnh": 1008,
      "hourly_oat": [
        27,
        27,
        27,
        27,
        28,
        28,
        28,
        28,
        28,
        28,
        28,
        28,
        27,
        27,
        27,
        27,
        27,
        27,
        27,
        27,
        27,
        27,
        27,
        26,
        27
      ]
    },
    "FUK": {
      "icao": "RJFF",
      "issued": "2026-07-18T17:05:00.000Z",
      "raw": "TAF RJFF 181705Z 1818/2000 16014KT 9999 FEW020 BKN030 BECMG 1903/1905 33012KT BECMG 1912/1915 16010KT",
      "groups": [
        {
          "text": "TAF RJFF 181705Z 1818/2000 16014KT 9999 FEW020 BKN030",
          "offset_h": -4,
          "wdir": 160,
          "wspd": 14
        },
        {
          "text": "BECMG 1903/1905 33012KT",
          "offset_h": 5,
          "wdir": 330,
          "wspd": 12
        },
        {
          "text": "BECMG 1912/1915 16010KT",
          "offset_h": 14,
          "wdir": 160,
          "wspd": 10
        }
      ],
      "metar_raw": "METAR RJFF 182200Z 13009KT 9999 FEW020 SCT030 BKN050 29/25 Q1005 NOSIG",
      "metar_wdir": 130,
      "metar_wspd": 9,
      "metar_oat": 29,
      "metar_qnh": 1005,
      "hourly_oat": [
        28,
        29,
        30,
        31,
        33,
        34,
        34,
        31,
        30,
        30,
        30,
        30,
        29,
        29,
        28,
        28,
        28,
        28,
        27,
        27,
        27,
        27,
        27,
        27,
        27
      ]
    },
    "CTS": {
      "icao": "RJCC",
      "issued": "2026-07-18T17:05:00.000Z",
      "raw": "TAF RJCC 181705Z 1818/2000 15020KT 6000 -SHRA FEW005 BKN012 TEMPO 1818/1821 15022G32KT 1500 +SHRA BR FEW002 BKN004 TEMPO 1821/1900 15022G32KT 3000 SHRA BR FEW002 BKN004 TEMPO 1900/1906 4000 -SHRA BR FEW002 BKN005 TEMPO 1906/1909 2000 BR FEW001 BKN003 TEMPO 1909/1921 1500 BR FEW001 BKN003 BECMG 1915/1918 17008KT TEMPO 1921/2000 3000 BR FEW001 BKN003",
      "groups": [
        {
          "text": "TAF RJCC 181705Z 1818/2000 15020KT 6000 -SHRA FEW005 BKN012",
          "offset_h": -4,
          "wdir": 150,
          "wspd": 20
        },
        {
          "text": "TEMPO 1818/1821 15022G32KT 1500 +SHRA BR FEW002 BKN004",
          "offset_h": -4,
          "wdir": 150,
          "wspd": 22
        },
        {
          "text": "TEMPO 1821/1900 15022G32KT 3000 SHRA BR FEW002 BKN004",
          "offset_h": -1,
          "wdir": 150,
          "wspd": 22
        },
        {
          "text": "TEMPO 1900/1906 4000 -SHRA BR FEW002 BKN005",
          "offset_h": 2,
          "wdir": null,
          "wspd": null
        },
        {
          "text": "TEMPO 1906/1909 2000 BR FEW001 BKN003",
          "offset_h": 8,
          "wdir": null,
          "wspd": null
        },
        {
          "text": "TEMPO 1909/1921 1500 BR FEW001 BKN003",
          "offset_h": 11,
          "wdir": null,
          "wspd": null
        },
        {
          "text": "BECMG 1915/1918 17008KT",
          "offset_h": 17,
          "wdir": 170,
          "wspd": 8
        },
        {
          "text": "TEMPO 1921/2000 3000 BR FEW001 BKN003",
          "offset_h": 23,
          "wdir": null,
          "wspd": null
        }
      ],
      "metar_raw": "METAR RJCC 182200Z 17013KT 2300 RA BR FEW003 SCT004 BKN005 20/20 Q1005",
      "metar_wdir": 170,
      "metar_wspd": 13,
      "metar_oat": 20,
      "metar_qnh": 1005,
      "hourly_oat": [
        20,
        20,
        20,
        20,
        21,
        21,
        21,
        21,
        21,
        22,
        21,
        21,
        21,
        20,
        20,
        20,
        20,
        20,
        20,
        20,
        20,
        20,
        20,
        20,
        21
      ]
    },
    "NRT": {
      "icao": "RJAA",
      "issued": "2026-07-18T17:05:00.000Z",
      "raw": "TAF RJAA 181705Z 1818/2000 17006KT 9999 FEW015 SCT020",
      "groups": [
        {
          "text": "TAF RJAA 181705Z 1818/2000 17006KT 9999 FEW015 SCT020",
          "offset_h": -4,
          "wdir": 170,
          "wspd": 6
        }
      ],
      "metar_raw": "METAR RJAA 182200Z 17007KT 130V200 9999 FEW015 SCT/// 27/24 Q1008 NOSIG",
      "metar_wdir": 170,
      "metar_wspd": 7,
      "metar_oat": 27,
      "metar_qnh": 1008,
      "hourly_oat": [
        25,
        26,
        27,
        28,
        29,
        29,
        29,
        29,
        29,
        29,
        29,
        29,
        28,
        27,
        26,
        26,
        25,
        25,
        24,
        24,
        24,
        24,
        24,
        25,
        26
      ]
    },
    "KIX": {
      "icao": "RJBB",
      "issued": "2026-07-18T17:05:00.000Z",
      "raw": "TAF RJBB 181705Z 1818/2000 13004KT 9999 FEW030 BECMG 1900/1902 27010KT BECMG 1909/1912 19010KT",
      "groups": [
        {
          "text": "TAF RJBB 181705Z 1818/2000 13004KT 9999 FEW030",
          "offset_h": -4,
          "wdir": 130,
          "wspd": 4
        },
        {
          "text": "BECMG 1900/1902 27010KT",
          "offset_h": 2,
          "wdir": 270,
          "wspd": 10
        },
        {
          "text": "BECMG 1909/1912 19010KT",
          "offset_h": 11,
          "wdir": 190,
          "wspd": 10
        }
      ],
      "metar_raw": "METAR RJBB 182200Z 15005KT 9999 FEW025 29/25 Q1007 NOSIG",
      "metar_wdir": 150,
      "metar_wspd": 5,
      "metar_oat": 29,
      "metar_qnh": 1007,
      "hourly_oat": [
        28,
        28,
        28,
        28,
        28,
        28,
        28,
        28,
        29,
        29,
        29,
        29,
        29,
        29,
        28,
        28,
        28,
        28,
        28,
        28,
        28,
        28,
        28,
        28,
        28
      ]
    },
    "ITM": {
      "icao": "RJOO",
      "issued": "2026-07-18T17:05:00.000Z",
      "raw": "TAF RJOO 181705Z 1818/2000 07007KT 9999 FEW015 SCT030 BECMG 1903/1905 23006KT BECMG 1918/1921 20006KT",
      "groups": [
        {
          "text": "TAF RJOO 181705Z 1818/2000 07007KT 9999 FEW015 SCT030",
          "offset_h": -4,
          "wdir": 70,
          "wspd": 7
        },
        {
          "text": "BECMG 1903/1905 23006KT",
          "offset_h": 5,
          "wdir": 230,
          "wspd": 6
        },
        {
          "text": "BECMG 1918/1921 20006KT",
          "offset_h": 20,
          "wdir": 200,
          "wspd": 6
        }
      ],
      "metar_raw": "METAR RJOO 182200Z 07005KT 040V110 9999 FEW025 30/24 Q1007",
      "metar_wdir": 70,
      "metar_wspd": 5,
      "metar_oat": 30,
      "metar_qnh": 1007,
      "hourly_oat": [
        26,
        28,
        29,
        30,
        31,
        32,
        33,
        33,
        32,
        32,
        31,
        30,
        29,
        29,
        28,
        28,
        28,
        27,
        27,
        27,
        26,
        26,
        26,
        26,
        27
      ]
    },
    "KUL": {
      "icao": "WMKK",
      "issued": "2026-07-18T17:00:00.000Z",
      "raw": "TAF WMKK 181700Z 1818/2000 VRB03KT 9999 FEW018 PROB30 TEMPO 1820/1823 6000 RA FEW017CB",
      "groups": [
        {
          "text": "TAF WMKK 181700Z 1818/2000 VRB03KT 9999 FEW018",
          "offset_h": -4,
          "wdir": "VRB",
          "wspd": 3
        },
        {
          "text": "PROB30",
          "offset_h": 0,
          "wdir": null,
          "wspd": null
        },
        {
          "text": "TEMPO 1820/1823 6000 RA FEW017CB",
          "offset_h": -2,
          "wdir": null,
          "wspd": null
        }
      ],
      "metar_raw": "METAR WMKK 182200Z VRB03KT 9000 FEW017CB 26/24 Q1010 NOSIG",
      "metar_wdir": "VRB",
      "metar_wspd": 3,
      "metar_oat": 26,
      "metar_qnh": 1010,
      "hourly_oat": [
        24,
        24,
        24,
        25,
        27,
        29,
        30,
        29,
        28,
        29,
        29,
        29,
        28,
        26,
        25,
        25,
        24,
        24,
        24,
        24,
        24,
        24,
        24,
        23,
        23
      ]
    },
    "TSA": {
      "icao": "RCSS",
      "issued": "2026-07-18T17:00:00.000Z",
      "raw": "TAF RCSS 181700Z 1818/1918 28008KT 9999 FEW015 TEMPO 1900/1905 24013KT TEMPO 1905/1908 18008KT 2800 TSRA FEW010 FEW015CB BKN025 TEMPO 1908/1912 25005KT 5000 RA FEW010 BKN016",
      "groups": [
        {
          "text": "TAF RCSS 181700Z 1818/1918 28008KT 9999 FEW015",
          "offset_h": -4,
          "wdir": 280,
          "wspd": 8
        },
        {
          "text": "TEMPO 1900/1905 24013KT",
          "offset_h": 2,
          "wdir": 240,
          "wspd": 13
        },
        {
          "text": "TEMPO 1905/1908 18008KT 2800 TSRA FEW010 FEW015CB BKN025",
          "offset_h": 7,
          "wdir": 180,
          "wspd": 8
        },
        {
          "text": "TEMPO 1908/1912 25005KT 5000 RA FEW010 BKN016",
          "offset_h": 10,
          "wdir": 250,
          "wspd": 5
        }
      ],
      "metar_raw": "METAR RCSS 182230Z VRB02KT 9999 FEW020 SCT200 30/25 Q1006 NOSIG RMK A2972",
      "metar_wdir": "VRB",
      "metar_wspd": 2,
      "metar_oat": 30,
      "metar_qnh": 1006,
      "hourly_oat": [
        26,
        28,
        29,
        30,
        32,
        33,
        34,
        32,
        30,
        29,
        29,
        28,
        27,
        26,
        26,
        26,
        26,
        26,
        26,
        26,
        25,
        25,
        25,
        25,
        25
      ]
    },
    "TPE": {
      "icao": "RCTP",
      "issued": "2026-07-18T17:00:00.000Z",
      "raw": "TAF RCTP 181700Z 1818/1924 24010KT 9999 FEW015 TEMPO 1900/1906 25015KT TEMPO 1906/1910 FEW010 FEW015TCU BKN032",
      "groups": [
        {
          "text": "TAF RCTP 181700Z 1818/1924 24010KT 9999 FEW015",
          "offset_h": -4,
          "wdir": 240,
          "wspd": 10
        },
        {
          "text": "TEMPO 1900/1906 25015KT",
          "offset_h": 2,
          "wdir": 250,
          "wspd": 15
        },
        {
          "text": "TEMPO 1906/1910 FEW010 FEW015TCU BKN032",
          "offset_h": 8,
          "wdir": null,
          "wspd": null
        }
      ],
      "metar_raw": "METAR RCTP 182230Z 21009KT 180V240 9999 FEW020 SCT180 28/23 Q1006 NOSIG RMK A2972",
      "metar_wdir": 210,
      "metar_wspd": 9,
      "metar_oat": 28,
      "metar_qnh": 1006,
      "hourly_oat": [
        27,
        28,
        29,
        30,
        31,
        31,
        31,
        31,
        30,
        30,
        28,
        27,
        27,
        26,
        26,
        26,
        26,
        26,
        26,
        26,
        26,
        26,
        26,
        26,
        26
      ]
    },
    "BKK": {
      "icao": "VTBS",
      "issued": "2026-07-18T17:00:00.000Z",
      "raw": "TAF VTBS 181700Z 1818/1924 22008KT 9999 FEW020",
      "groups": [
        {
          "text": "TAF VTBS 181700Z 1818/1924 22008KT 9999 FEW020",
          "offset_h": -4,
          "wdir": 220,
          "wspd": 8
        }
      ],
      "metar_raw": "METAR VTBS 182230Z 27004KT 9999 FEW020 28/22 Q1009 NOSIG",
      "metar_wdir": 270,
      "metar_wspd": 4,
      "metar_oat": 28,
      "metar_qnh": 1009,
      "hourly_oat": [
        26,
        25,
        26,
        28,
        30,
        31,
        33,
        33,
        33,
        32,
        32,
        32,
        32,
        30,
        29,
        28,
        28,
        28,
        28,
        28,
        27,
        26,
        25,
        25,
        25
      ]
    },
    "HAN": {
      "icao": "VVNB",
      "issued": "2026-07-18T17:00:00.000Z",
      "raw": "TAF VVNB 181700Z 1818/1918 30005KT 9999 FEW030 TEMPO 1820/1901 4000 SHRA SCT012 FEW025TCU TEMPO 1908/1912 3500 TSRA SCT010 FEW027CB",
      "groups": [
        {
          "text": "TAF VVNB 181700Z 1818/1918 30005KT 9999 FEW030",
          "offset_h": -4,
          "wdir": 300,
          "wspd": 5
        },
        {
          "text": "TEMPO 1820/1901 4000 SHRA SCT012 FEW025TCU",
          "offset_h": -2,
          "wdir": null,
          "wspd": null
        },
        {
          "text": "TEMPO 1908/1912 3500 TSRA SCT010 FEW027CB",
          "offset_h": 10,
          "wdir": null,
          "wspd": null
        }
      ],
      "metar_raw": "METAR VVNB 182230Z 00000KT CAVOK 28/26 Q1001 NOSIG",
      "metar_wdir": 0,
      "metar_wspd": 0,
      "metar_oat": 28,
      "metar_qnh": 1001,
      "hourly_oat": [
        26,
        27,
        27,
        28,
        29,
        30,
        30,
        31,
        31,
        31,
        31,
        31,
        31,
        31,
        30,
        30,
        29,
        29,
        28,
        28,
        28,
        27,
        27,
        26,
        26
      ]
    },
    "SGN": {
      "icao": "VVTS",
      "issued": "2026-07-18T17:00:00.000Z",
      "raw": "TAF VVTS 181700Z 1818/1924 22008KT 9999 SCT017 TEMPO 1906/1909 22015G25KT 5000 TSRA BKN015 FEW017CB",
      "groups": [
        {
          "text": "TAF VVTS 181700Z 1818/1924 22008KT 9999 SCT017",
          "offset_h": -4,
          "wdir": 220,
          "wspd": 8
        },
        {
          "text": "TEMPO 1906/1909 22015G25KT 5000 TSRA BKN015 FEW017CB",
          "offset_h": 8,
          "wdir": 220,
          "wspd": 15
        }
      ],
      "metar_raw": "METAR VVTS 182230Z 24005KT 9999 FEW012 27/27 Q1009 NOSIG",
      "metar_wdir": 240,
      "metar_wspd": 5,
      "metar_oat": 27,
      "metar_qnh": 1009,
      "hourly_oat": [
        26,
        26,
        27,
        28,
        30,
        31,
        32,
        33,
        33,
        32,
        27,
        26,
        26,
        27,
        26,
        26,
        26,
        26,
        26,
        26,
        26,
        26,
        26,
        25,
        25
      ]
    },
    "SIN": {
      "icao": "WSSS",
      "issued": "2026-07-18T17:00:00.000Z",
      "raw": "TAF WSSS 181700Z 1818/2000 14006KT 9999 FEW015 SCT020",
      "groups": [
        {
          "text": "TAF WSSS 181700Z 1818/2000 14006KT 9999 FEW015 SCT020",
          "offset_h": -4,
          "wdir": 140,
          "wspd": 6
        }
      ],
      "metar_raw": "METAR WSSS 182230Z VRB02KT 9999 FEW018 BKN300 27/25 Q1011 NOSIG",
      "metar_wdir": "VRB",
      "metar_wspd": 2,
      "metar_oat": 27,
      "metar_qnh": 1011,
      "hourly_oat": [
        26,
        26,
        28,
        30,
        30,
        32,
        32,
        33,
        34,
        33,
        33,
        32,
        32,
        31,
        30,
        30,
        29,
        29,
        29,
        29,
        28,
        27,
        27,
        25,
        25
      ]
    },
    "CGK": {
      "icao": "WIII",
      "issued": "2026-07-18T17:00:00.000Z",
      "raw": "TAF WIII 181700Z 1818/2000 20005KT 5000 HZ SCT020 BECMG 1901/1903 05013KT 9000 NSW",
      "groups": [
        {
          "text": "TAF WIII 181700Z 1818/2000 20005KT 5000 HZ SCT020",
          "offset_h": -4,
          "wdir": 200,
          "wspd": 5
        },
        {
          "text": "BECMG 1901/1903 05013KT 9000 NSW",
          "offset_h": 3,
          "wdir": 50,
          "wspd": 13
        }
      ],
      "metar_raw": "METAR WIII 182230Z 18003KT 4000 HZ FEW020 26/23 Q1012 NOSIG",
      "metar_wdir": 180,
      "metar_wspd": 3,
      "metar_oat": 26,
      "metar_qnh": 1012,
      "hourly_oat": [
        25,
        24,
        25,
        28,
        29,
        31,
        32,
        33,
        34,
        33,
        32,
        32,
        30,
        29,
        28,
        28,
        28,
        27,
        25,
        25,
        25,
        24,
        24,
        24,
        24
      ]
    },
    "GMP": {
      "icao": "RKSS",
      "issued": "2026-07-18T17:00:00.000Z",
      "raw": "TAF RKSS 181700Z 1818/1924 18005KT 6000 SCT010 BKN025 TN23/1821Z TX31/1906Z TN23/1921Z BECMG 1823/1901 24006KT 9999 SCT040 BECMG 1918/1920 18005KT 6000 FEW010 BKN035",
      "groups": [
        {
          "text": "TAF RKSS 181700Z 1818/1924 18005KT 6000 SCT010 BKN025 TN23/1821Z TX31/1906Z TN23/1921Z",
          "offset_h": -4,
          "wdir": 180,
          "wspd": 5
        },
        {
          "text": "BECMG 1823/1901 24006KT 9999 SCT040",
          "offset_h": 1,
          "wdir": 240,
          "wspd": 6
        },
        {
          "text": "BECMG 1918/1920 18005KT 6000 FEW010 BKN035",
          "offset_h": 20,
          "wdir": 180,
          "wspd": 5
        }
      ],
      "metar_raw": "METAR RKSS 182200Z 14004KT 9999 SCT017 BKN025 24/24 Q1004 NOSIG",
      "metar_wdir": 140,
      "metar_wspd": 4,
      "metar_oat": 24,
      "metar_qnh": 1004,
      "hourly_oat": [
        23,
        24,
        25,
        26,
        26,
        27,
        28,
        27,
        26,
        26,
        26,
        26,
        25,
        24,
        24,
        23,
        23,
        23,
        23,
        22,
        22,
        22,
        22,
        22,
        22
      ]
    }
  }
}