{
  "updated": "2026-07-06T21:19:50Z",
  "tafs": {
    "LAX": {
      "icao": "KLAX",
      "issued": "2026-07-06T21:01:00.000Z",
      "raw": "TAF KLAX 062101Z 0621/0724 26010G18KT P6SM FEW012 FM070300 25008KT P6SM FEW008 FEW250 FM070900 VRB03KT P6SM SCT008 FM071700 25012KT P6SM FEW250",
      "groups": [
        {
          "text": "TAF KLAX 062101Z 0621/0724 26010G18KT P6SM FEW012",
          "offset_h": 0,
          "wdir": 260,
          "wspd": 10
        },
        {
          "text": "FM070300 25008KT P6SM FEW008 FEW250",
          "offset_h": 6,
          "wdir": 250,
          "wspd": 8
        },
        {
          "text": "FM070900 VRB03KT P6SM SCT008",
          "offset_h": 12,
          "wdir": "VRB",
          "wspd": 3
        },
        {
          "text": "FM071700 25012KT P6SM FEW250",
          "offset_h": 20,
          "wdir": 250,
          "wspd": 12
        }
      ],
      "metar_raw": "METAR KLAX 062053Z 26010KT 10SM FEW009 23/16 A2994 RMK AO2 SLP136 T02280161 58002 $",
      "metar_wdir": 260,
      "metar_wspd": 10,
      "metar_oat": 23,
      "metar_qnh": 1014,
      "hourly_oat": [
        23,
        22,
        22,
        22,
        21,
        21,
        20,
        19,
        18,
        17,
        17,
        16,
        16,
        16,
        15,
        15,
        15,
        17,
        19,
        21,
        24,
        24,
        24,
        23,
        23
      ]
    },
    "HNL": {
      "icao": "PHNL",
      "issued": "2026-07-06T20:54:00.000Z",
      "raw": "TAF PHNL 062054Z 0621/0724 06015G25KT P6SM SCT025 BKN040 FM071000 05013KT P6SM FEW025 SCT040 FM071800 06015G25KT P6SM SCT025 BKN040",
      "groups": [
        {
          "text": "TAF PHNL 062054Z 0621/0724 06015G25KT P6SM SCT025 BKN040",
          "offset_h": 0,
          "wdir": 60,
          "wspd": 15
        },
        {
          "text": "FM071000 05013KT P6SM FEW025 SCT040",
          "offset_h": 13,
          "wdir": 50,
          "wspd": 13
        },
        {
          "text": "FM071800 06015G25KT P6SM SCT025 BKN040",
          "offset_h": 21,
          "wdir": 60,
          "wspd": 15
        }
      ],
      "metar_raw": "METAR PHNL 062053Z 06013G22KT 10SM -RA FEW024 BKN043 BKN055 27/19 A3006 RMK AO2 PK WND 07028/1954 RAB17 SLP179 P0000 60000 T02720194 58000 $",
      "metar_wdir": 60,
      "metar_wspd": 13,
      "metar_oat": 27,
      "metar_qnh": 1018,
      "hourly_oat": [
        28,
        28,
        28,
        28,
        28,
        28,
        27,
        26,
        25,
        25,
        24,
        24,
        24,
        24,
        23,
        23,
        23,
        23,
        22,
        22,
        23,
        24,
        25,
        27,
        27
      ]
    },
    "GMP": {
      "icao": "RKSS",
      "issued": "2026-07-06T20:35:00.000Z",
      "raw": "TAF AMD RKSS 062035Z 0621/0724 21005KT 4000 -RA BKN020 BKN090 TN23/0618Z TX31/0705Z TN24/0719Z TEMPO 0622/0623 2500 TSRA SCT010CB BKN020 OVC070 BECMG 0700/0702 6000 NSW TEMPO 0704/0708 25008KT -SHRA FEW010CB BKN020 OVC070 BECMG 0714/0716 15010KT SCT040 BECMG 0722/0724 BKN025",
      "groups": [
        {
          "text": "TAF AMD RKSS 062035Z 0621/0724 21005KT 4000 -RA BKN020 BKN090 TN23/0618Z TX31/0705Z TN24/0719Z",
          "offset_h": 0,
          "wdir": 210,
          "wspd": 5
        },
        {
          "text": "TEMPO 0622/0623 2500 TSRA SCT010CB BKN020 OVC070",
          "offset_h": 1,
          "wdir": null,
          "wspd": null
        },
        {
          "text": "BECMG 0700/0702 6000 NSW",
          "offset_h": 3,
          "wdir": null,
          "wspd": null
        },
        {
          "text": "TEMPO 0704/0708 25008KT -SHRA FEW010CB BKN020 OVC070",
          "offset_h": 7,
          "wdir": 250,
          "wspd": 8
        },
        {
          "text": "BECMG 0714/0716 15010KT SCT040",
          "offset_h": 17,
          "wdir": 150,
          "wspd": 10
        },
        {
          "text": "BECMG 0722/0724 BKN025",
          "offset_h": 25,
          "wdir": null,
          "wspd": null
        }
      ],
      "metar_raw": "METAR RKSS 062100Z 29004KT 1500 TSRA BR FEW010CB SCT015 BKN025 OVC080 22/22 Q1007 NOSIG",
      "metar_wdir": 290,
      "metar_wspd": 4,
      "metar_oat": 22,
      "metar_qnh": 1007,
      "hourly_oat": [
        24,
        24,
        24,
        24,
        25,
        25,
        26,
        26,
        27,
        28,
        28,
        28,
        27,
        27,
        26,
        26,
        25,
        25,
        25,
        25,
        25,
        25,
        25,
        24,
        24
      ]
    },
    "SAN": {
      "icao": "KSAN",
      "issued": "2026-07-06T20:17:00.000Z",
      "raw": "TAF KSAN 062017Z 0620/0724 29012KT P6SM SCT015 SCT250 FM070300 31007KT P6SM SCT012 FM070800 VRB04KT P6SM OVC010 FM071700 29010KT P6SM SKC",
      "groups": [
        {
          "text": "TAF KSAN 062017Z 0620/0724 29012KT P6SM SCT015 SCT250",
          "offset_h": -1,
          "wdir": 290,
          "wspd": 12
        },
        {
          "text": "FM070300 31007KT P6SM SCT012",
          "offset_h": 6,
          "wdir": 310,
          "wspd": 7
        },
        {
          "text": "FM070800 VRB04KT P6SM OVC010",
          "offset_h": 11,
          "wdir": "VRB",
          "wspd": 4
        },
        {
          "text": "FM071700 29010KT P6SM SKC",
          "offset_h": 20,
          "wdir": 290,
          "wspd": 10
        }
      ],
      "metar_raw": "METAR KSAN 062051Z 31010KT 10SM FEW013 23/17 A2995 RMK AO2 SLP142 T02280167 58003",
      "metar_wdir": 310,
      "metar_wspd": 10,
      "metar_oat": 23,
      "metar_qnh": 1014,
      "hourly_oat": [
        24,
        24,
        23,
        22,
        22,
        21,
        20,
        19,
        19,
        19,
        18,
        18,
        18,
        18,
        18,
        18,
        18,
        18,
        19,
        21,
        22,
        22,
        23,
        23,
        23
      ]
    },
    "HKG": {
      "icao": "VHHH",
      "issued": "2026-07-06T20:00:00.000Z",
      "raw": "TAF VHHH 062000Z 0621/0803 19015KT 9999 FEW010 SCT025 TX31/0706Z TN26/0622Z TN27/0722Z TEMPO 0621/0703 20020G30KT 1500 TSRA +SHRA FEW008CB SCT015 TEMPO 0703/0706 20015G25KT 2000 TSRA SHRA FEW008CB SCT020 TEMPO 0715/0718 3000 SHRA FEW008CB SCT020 TEMPO 0718/0724 20015G25KT 2000 TSRA SHRA FEW008CB SCT020 TEMPO 0800/0803 3000 SHRA FEW008CB SCT020",
      "groups": [
        {
          "text": "TAF VHHH 062000Z 0621/0803 19015KT 9999 FEW010 SCT025 TX31/0706Z TN26/0622Z TN27/0722Z",
          "offset_h": 0,
          "wdir": 190,
          "wspd": 15
        },
        {
          "text": "TEMPO 0621/0703 20020G30KT 1500 TSRA +SHRA FEW008CB SCT015",
          "offset_h": 0,
          "wdir": 200,
          "wspd": 20
        },
        {
          "text": "TEMPO 0703/0706 20015G25KT 2000 TSRA SHRA FEW008CB SCT020",
          "offset_h": 6,
          "wdir": 200,
          "wspd": 15
        },
        {
          "text": "TEMPO 0715/0718 3000 SHRA FEW008CB SCT020",
          "offset_h": 18,
          "wdir": null,
          "wspd": null
        },
        {
          "text": "TEMPO 0718/0724 20015G25KT 2000 TSRA SHRA FEW008CB SCT020",
          "offset_h": 21,
          "wdir": 200,
          "wspd": 15
        },
        {
          "text": "TEMPO 0800/0803 3000 SHRA FEW008CB SCT020",
          "offset_h": 27,
          "wdir": null,
          "wspd": null
        }
      ],
      "metar_raw": "SPECI VHHH 062112Z 23007KT 9999 -SHRA FEW010 FEW015CB SCT025 28/25 Q1006 TEMPO 3000 TSRA SHRA FEW008CB SCT020",
      "metar_wdir": 230,
      "metar_wspd": 7,
      "metar_oat": 28,
      "metar_qnh": 1006,
      "hourly_oat": [
        26,
        26,
        26,
        26,
        27,
        26,
        27,
        28,
        27,
        27,
        27,
        28,
        29,
        28,
        28,
        28,
        28,
        28,
        28,
        26,
        26,
        26,
        26,
        27,
        26
      ]
    },
    "FUK": {
      "icao": "RJFF",
      "issued": "2026-07-06T17:05:00.000Z",
      "raw": "TAF RJFF 061705Z 0618/0800 16012KT 9999 FEW015 BKN020 BECMG 0701/0703 32011KT TEMPO 0703/0706 4000 -TSRA BR FEW015 SCT025 FEW025CB BKN030 TEMPO 0709/0712 BKN008 BKN035 BECMG 0712/0715 16010KT",
      "groups": [
        {
          "text": "TAF RJFF 061705Z 0618/0800 16012KT 9999 FEW015 BKN020",
          "offset_h": -3,
          "wdir": 160,
          "wspd": 12
        },
        {
          "text": "BECMG 0701/0703 32011KT",
          "offset_h": 4,
          "wdir": 320,
          "wspd": 11
        },
        {
          "text": "TEMPO 0703/0706 4000 -TSRA BR FEW015 SCT025 FEW025CB BKN030",
          "offset_h": 6,
          "wdir": null,
          "wspd": null
        },
        {
          "text": "TEMPO 0709/0712 BKN008 BKN035",
          "offset_h": 12,
          "wdir": null,
          "wspd": null
        },
        {
          "text": "BECMG 0712/0715 16010KT",
          "offset_h": 15,
          "wdir": 160,
          "wspd": 10
        }
      ],
      "metar_raw": "METAR RJFF 062100Z 15010KT 9999 FEW025 BKN/// 26/24 Q1009 NOSIG",
      "metar_wdir": 150,
      "metar_wspd": 10,
      "metar_oat": 26,
      "metar_qnh": 1009,
      "hourly_oat": [
        25,
        26,
        26,
        27,
        28,
        29,
        30,
        29,
        28,
        27,
        27,
        28,
        27,
        27,
        26,
        26,
        26,
        26,
        26,
        26,
        26,
        26,
        25,
        25,
        25
      ]
    },
    "CTS": {
      "icao": "RJCC",
      "issued": "2026-07-06T17:05:00.000Z",
      "raw": "TAF RJCC 061705Z 0618/0800 17012KT 9999 FEW005 BKN015 TEMPO 0718/0800 FEW003 BKN008",
      "groups": [
        {
          "text": "TAF RJCC 061705Z 0618/0800 17012KT 9999 FEW005 BKN015",
          "offset_h": -3,
          "wdir": 170,
          "wspd": 12
        },
        {
          "text": "TEMPO 0718/0800 FEW003 BKN008",
          "offset_h": 21,
          "wdir": null,
          "wspd": null
        }
      ],
      "metar_raw": "METAR RJCC 062100Z 14006KT 9999 FEW010 BKN030 18/15 Q1016",
      "metar_wdir": 140,
      "metar_wspd": 6,
      "metar_oat": 18,
      "metar_qnh": 1016,
      "hourly_oat": [
        17,
        18,
        19,
        19,
        20,
        20,
        20,
        20,
        20,
        19,
        19,
        19,
        18,
        18,
        17,
        17,
        17,
        17,
        17,
        17,
        17,
        17,
        17,
        17,
        18
      ]
    },
    "NRT": {
      "icao": "RJAA",
      "issued": "2026-07-06T17:05:00.000Z",
      "raw": "TAF RJAA 061705Z 0618/0800 01006KT 9999 FEW015 BKN030 BECMG 0703/0705 09008KT BECMG 0709/0712 02004KT BECMG 0721/0800 09006KT",
      "groups": [
        {
          "text": "TAF RJAA 061705Z 0618/0800 01006KT 9999 FEW015 BKN030",
          "offset_h": -3,
          "wdir": 10,
          "wspd": 6
        },
        {
          "text": "BECMG 0703/0705 09008KT",
          "offset_h": 6,
          "wdir": 90,
          "wspd": 8
        },
        {
          "text": "BECMG 0709/0712 02004KT",
          "offset_h": 12,
          "wdir": 20,
          "wspd": 4
        },
        {
          "text": "BECMG 0721/0800 09006KT",
          "offset_h": 24,
          "wdir": 90,
          "wspd": 6
        }
      ],
      "metar_raw": "METAR RJAA 062100Z 04007KT 9999 FEW005 BKN060 21/19 Q1013 NOSIG",
      "metar_wdir": 40,
      "metar_wspd": 7,
      "metar_oat": 21,
      "metar_qnh": 1013,
      "hourly_oat": [
        20,
        20,
        20,
        20,
        21,
        21,
        22,
        22,
        23,
        24,
        24,
        24,
        23,
        22,
        22,
        21,
        21,
        20,
        20,
        20,
        20,
        20,
        19,
        19,
        20
      ]
    },
    "KIX": {
      "icao": "RJBB",
      "issued": "2026-07-06T17:05:00.000Z",
      "raw": "TAF RJBB 061705Z 0618/0800 08004KT 9999 FEW012 SCT015 BKN020 BECMG 0700/0702 28006KT BECMG 0712/0715 36004KT",
      "groups": [
        {
          "text": "TAF RJBB 061705Z 0618/0800 08004KT 9999 FEW012 SCT015 BKN020",
          "offset_h": -3,
          "wdir": 80,
          "wspd": 4
        },
        {
          "text": "BECMG 0700/0702 28006KT",
          "offset_h": 3,
          "wdir": 280,
          "wspd": 6
        },
        {
          "text": "BECMG 0712/0715 36004KT",
          "offset_h": 15,
          "wdir": 360,
          "wspd": 4
        }
      ],
      "metar_raw": "METAR RJBB 062100Z 03007KT 9999 FEW008 SCT030 BKN060 23/20 Q1011 NOSIG",
      "metar_wdir": 30,
      "metar_wspd": 7,
      "metar_oat": 23,
      "metar_qnh": 1011,
      "hourly_oat": [
        24,
        24,
        24,
        24,
        24,
        24,
        24,
        24,
        24,
        24,
        24,
        24,
        25,
        25,
        25,
        25,
        25,
        24,
        24,
        24,
        24,
        24,
        24,
        24,
        24
      ]
    },
    "HND": {
      "icao": "RJTT",
      "issued": "2026-07-06T17:05:00.000Z",
      "raw": "TAF RJTT 061705Z 0618/0800 01008KT 9999 FEW015 BKN030 BECMG 0706/0709 10010KT BECMG 0715/0718 04006KT BECMG 0721/0800 07004KT",
      "groups": [
        {
          "text": "TAF RJTT 061705Z 0618/0800 01008KT 9999 FEW015 BKN030",
          "offset_h": -3,
          "wdir": 10,
          "wspd": 8
        },
        {
          "text": "BECMG 0706/0709 10010KT",
          "offset_h": 9,
          "wdir": 100,
          "wspd": 10
        },
        {
          "text": "BECMG 0715/0718 04006KT",
          "offset_h": 18,
          "wdir": 40,
          "wspd": 6
        },
        {
          "text": "BECMG 0721/0800 07004KT",
          "offset_h": 24,
          "wdir": 70,
          "wspd": 4
        }
      ],
      "metar_raw": "METAR RJTT 062100Z 02008KT 9999 FEW030 BKN070 22/19 Q1013 NOSIG",
      "metar_wdir": 20,
      "metar_wspd": 8,
      "metar_oat": 22,
      "metar_qnh": 1013,
      "hourly_oat": [
        20,
        20,
        21,
        21,
        22,
        22,
        22,
        23,
        23,
        23,
        24,
        23,
        23,
        23,
        23,
        23,
        22,
        22,
        22,
        22,
        22,
        21,
        21,
        21,
        21
      ]
    },
    "ITM": {
      "icao": "RJOO",
      "issued": "2026-07-06T17:05:00.000Z",
      "raw": "TAF RJOO 061705Z 0618/0800 07008KT 9999 FEW012 BKN020",
      "groups": [
        {
          "text": "TAF RJOO 061705Z 0618/0800 07008KT 9999 FEW012 BKN020",
          "offset_h": -3,
          "wdir": 70,
          "wspd": 8
        }
      ],
      "metar_raw": "METAR RJOO 062100Z AUTO 06006KT 020V100 9999 OVC034 23/18 Q1011",
      "metar_wdir": 60,
      "metar_wspd": 6,
      "metar_oat": 23,
      "metar_qnh": 1011,
      "hourly_oat": [
        22,
        23,
        24,
        25,
        26,
        27,
        28,
        28,
        29,
        29,
        29,
        29,
        28,
        26,
        25,
        25,
        25,
        24,
        24,
        24,
        24,
        24,
        23,
        23,
        23
      ]
    },
    "NGO": {
      "icao": "RJGG",
      "issued": "2026-07-06T17:05:00.000Z",
      "raw": "TAF RJGG 061705Z 0618/0800 16008KT 9999 FEW010 BKN030 BECMG 0620/0622 32004KT BECMG 0701/0703 12006KT",
      "groups": [
        {
          "text": "TAF RJGG 061705Z 0618/0800 16008KT 9999 FEW010 BKN030",
          "offset_h": -3,
          "wdir": 160,
          "wspd": 8
        },
        {
          "text": "BECMG 0620/0622 32004KT",
          "offset_h": -1,
          "wdir": 320,
          "wspd": 4
        },
        {
          "text": "BECMG 0701/0703 12006KT",
          "offset_h": 4,
          "wdir": 120,
          "wspd": 6
        }
      ],
      "metar_raw": "METAR RJGG 062100Z 22003KT 9999 FEW015 BKN050 22/19 Q1012 NOSIG",
      "metar_wdir": 220,
      "metar_wspd": 3,
      "metar_oat": 22,
      "metar_qnh": 1012,
      "hourly_oat": [
        22,
        22,
        22,
        23,
        23,
        23,
        23,
        23,
        23,
        24,
        24,
        24,
        24,
        24,
        24,
        24,
        24,
        24,
        24,
        23,
        23,
        23,
        23,
        23,
        23
      ]
    },
    "OKA": {
      "icao": "ROAH",
      "issued": "2026-07-06T17:05:00.000Z",
      "raw": "TAF ROAH 061705Z 0618/0800 22004KT 9999 FEW015 BECMG 0700/0702 28006KT",
      "groups": [
        {
          "text": "TAF ROAH 061705Z 0618/0800 22004KT 9999 FEW015",
          "offset_h": -3,
          "wdir": 220,
          "wspd": 4
        },
        {
          "text": "BECMG 0700/0702 28006KT",
          "offset_h": 3,
          "wdir": 280,
          "wspd": 6
        }
      ],
      "metar_raw": "METAR ROAH 062100Z 14003KT 120V180 9999 FEW010 26/24 Q1011",
      "metar_wdir": 140,
      "metar_wspd": 3,
      "metar_oat": 26,
      "metar_qnh": 1011,
      "hourly_oat": [
        26,
        28,
        29,
        30,
        30,
        31,
        31,
        31,
        31,
        32,
        32,
        32,
        31,
        30,
        29,
        28,
        28,
        28,
        27,
        27,
        27,
        27,
        26,
        26,
        26
      ]
    },
    "KUL": {
      "icao": "WMKK",
      "issued": "2026-07-06T17:00:00.000Z",
      "raw": "TAF WMKK 061700Z 0618/0800 VRB03KT 9999 FEW030 PROB30 TEMPO 0621/0700 6000 -TSRA FEW010 FEW017CB",
      "groups": [
        {
          "text": "TAF WMKK 061700Z 0618/0800 VRB03KT 9999 FEW030",
          "offset_h": -3,
          "wdir": "VRB",
          "wspd": 3
        },
        {
          "text": "PROB30",
          "offset_h": 0,
          "wdir": null,
          "wspd": null
        },
        {
          "text": "TEMPO 0621/0700 6000 -TSRA FEW010 FEW017CB",
          "offset_h": 0,
          "wdir": null,
          "wspd": null
        }
      ],
      "metar_raw": "METAR WMKK 062100Z VRB02KT 9999 FEW030 27/25 Q1010 NOSIG",
      "metar_wdir": "VRB",
      "metar_wspd": 2,
      "metar_oat": 27,
      "metar_qnh": 1010,
      "hourly_oat": [
        25,
        25,
        25,
        25,
        25,
        27,
        28,
        30,
        28,
        27,
        29,
        30,
        29,
        29,
        28,
        27,
        27,
        26,
        26,
        26,
        25,
        25,
        24,
        24,
        23
      ]
    },
    "CGK": {
      "icao": "WIII",
      "issued": "2026-07-06T17:00:00.000Z",
      "raw": "TAF WIII 061700Z 0618/0800 13005KT 7000 FEW020 BECMG 0620/0622 4000 HZ BECMG 0701/0703 04012KT 8000 NSW",
      "groups": [
        {
          "text": "TAF WIII 061700Z 0618/0800 13005KT 7000 FEW020",
          "offset_h": -3,
          "wdir": 130,
          "wspd": 5
        },
        {
          "text": "BECMG 0620/0622 4000 HZ",
          "offset_h": -1,
          "wdir": null,
          "wspd": null
        },
        {
          "text": "BECMG 0701/0703 04012KT 8000 NSW",
          "offset_h": 4,
          "wdir": 40,
          "wspd": 12
        }
      ],
      "metar_raw": "METAR WIII 062100Z 24003KT 3000 HZ FEW020 26/24 Q1011 NOSIG",
      "metar_wdir": 240,
      "metar_wspd": 3,
      "metar_oat": 26,
      "metar_qnh": 1011,
      "hourly_oat": [
        24,
        24,
        24,
        25,
        27,
        30,
        31,
        32,
        33,
        34,
        33,
        32,
        31,
        30,
        29,
        28,
        28,
        28,
        28,
        27,
        27,
        26,
        26,
        25,
        25
      ]
    },
    "SIN": {
      "icao": "WSSS",
      "issued": "2026-07-06T17:00:00.000Z",
      "raw": "TAF WSSS 061700Z 0618/0800 18006KT 9999 FEW015 SCT020",
      "groups": [
        {
          "text": "TAF WSSS 061700Z 0618/0800 18006KT 9999 FEW015 SCT020",
          "offset_h": -3,
          "wdir": 180,
          "wspd": 6
        }
      ],
      "metar_raw": "METAR WSSS 062100Z 22003KT 9999 FEW018TCU SCT050 BKN300 27/22 Q1011 NOSIG",
      "metar_wdir": 220,
      "metar_wspd": 3,
      "metar_oat": 27,
      "metar_qnh": 1011,
      "hourly_oat": [
        27,
        27,
        27,
        28,
        29,
        29,
        30,
        30,
        31,
        31,
        30,
        29,
        29,
        29,
        28,
        27,
        27,
        27,
        27,
        27,
        27,
        28,
        28,
        28,
        28
      ]
    },
    "TSA": {
      "icao": "RCSS",
      "issued": "2026-07-06T17:00:00.000Z",
      "raw": "TAF RCSS 061700Z 0618/0718 30005KT 9999 FEW012 TEMPO 0706/0710 08008KT 4000 SHRA SCT010 FEW012CB BKN020 BKN040 BECMG 0711/0713 09005KT",
      "groups": [
        {
          "text": "TAF RCSS 061700Z 0618/0718 30005KT 9999 FEW012",
          "offset_h": -3,
          "wdir": 300,
          "wspd": 5
        },
        {
          "text": "TEMPO 0706/0710 08008KT 4000 SHRA SCT010 FEW012CB BKN020 BKN040",
          "offset_h": 9,
          "wdir": 80,
          "wspd": 8
        },
        {
          "text": "BECMG 0711/0713 09005KT",
          "offset_h": 14,
          "wdir": 90,
          "wspd": 5
        }
      ],
      "metar_raw": "METAR RCSS 062100Z 00000KT 9999 FEW015 BKN020 BKN035 27/27 Q1009 NOSIG RMK A2982",
      "metar_wdir": 0,
      "metar_wspd": 0,
      "metar_oat": 27,
      "metar_qnh": 1009,
      "hourly_oat": [
        26,
        26,
        28,
        29,
        31,
        32,
        33,
        33,
        32,
        32,
        32,
        32,
        32,
        31,
        30,
        29,
        29,
        28,
        28,
        27,
        27,
        26,
        26,
        26,
        26
      ]
    },
    "TPE": {
      "icao": "RCTP",
      "issued": "2026-07-06T17:00:00.000Z",
      "raw": "TAF RCTP 061700Z 0618/0724 22005KT 9999 FEW012 BECMG 0700/0702 24012KT TEMPO 0706/0710 30015KT SCT010 FEW012CB BKN020 BKN040 BECMG 0711/0713 22005KT",
      "groups": [
        {
          "text": "TAF RCTP 061700Z 0618/0724 22005KT 9999 FEW012",
          "offset_h": -3,
          "wdir": 220,
          "wspd": 5
        },
        {
          "text": "BECMG 0700/0702 24012KT",
          "offset_h": 3,
          "wdir": 240,
          "wspd": 12
        },
        {
          "text": "TEMPO 0706/0710 30015KT SCT010 FEW012CB BKN020 BKN040",
          "offset_h": 9,
          "wdir": 300,
          "wspd": 15
        },
        {
          "text": "BECMG 0711/0713 22005KT",
          "offset_h": 14,
          "wdir": 220,
          "wspd": 5
        }
      ],
      "metar_raw": "METAR RCTP 062100Z 24007KT 9999 FEW020 BKN040 28/25 Q1009 NOSIG RMK A2982",
      "metar_wdir": 240,
      "metar_wspd": 7,
      "metar_oat": 28,
      "metar_qnh": 1009,
      "hourly_oat": [
        27,
        27,
        28,
        29,
        30,
        32,
        31,
        31,
        31,
        31,
        31,
        30,
        30,
        29,
        28,
        28,
        28,
        27,
        27,
        26,
        26,
        26,
        26,
        26,
        26
      ]
    },
    "BKK": {
      "icao": "VTBS",
      "issued": "2026-07-06T17:00:00.000Z",
      "raw": "TAF VTBS 061700Z 0618/0724 20008KT 9999 FEW020 TEMPO 0712/0716 VRB15KT 4000 TSRA FEW018CB SCT030 BKN100",
      "groups": [
        {
          "text": "TAF VTBS 061700Z 0618/0724 20008KT 9999 FEW020",
          "offset_h": -3,
          "wdir": 200,
          "wspd": 8
        },
        {
          "text": "TEMPO 0712/0716 VRB15KT 4000 TSRA FEW018CB SCT030 BKN100",
          "offset_h": 15,
          "wdir": "VRB",
          "wspd": 15
        }
      ],
      "metar_raw": "METAR VTBS 062100Z 23006KT 9999 FEW020 30/24 Q1008 NOSIG",
      "metar_wdir": 230,
      "metar_wspd": 6,
      "metar_oat": 30,
      "metar_qnh": 1008,
      "hourly_oat": [
        28,
        28,
        27,
        28,
        30,
        31,
        32,
        32,
        32,
        31,
        31,
        31,
        30,
        29,
        28,
        28,
        28,
        28,
        28,
        28,
        27,
        27,
        26,
        26,
        26
      ]
    },
    "HAN": {
      "icao": "VVNB",
      "issued": "2026-07-06T17:00:00.000Z",
      "raw": "TAF VVNB 061700Z 0618/0718 07006KT 9999 FEW025 TEMPO 0711/0715 3500 TSRA SCT012 FEW027CB",
      "groups": [
        {
          "text": "TAF VVNB 061700Z 0618/0718 07006KT 9999 FEW025",
          "offset_h": -3,
          "wdir": 70,
          "wspd": 6
        },
        {
          "text": "TEMPO 0711/0715 3500 TSRA SCT012 FEW027CB",
          "offset_h": 14,
          "wdir": null,
          "wspd": null
        }
      ],
      "metar_raw": "METAR VVNB 062100Z 05004KT 9999 FEW009 27/26 Q1000 NOSIG",
      "metar_wdir": 50,
      "metar_wspd": 4,
      "metar_oat": 27,
      "metar_qnh": 1000,
      "hourly_oat": [
        26,
        25,
        26,
        27,
        29,
        30,
        30,
        31,
        32,
        32,
        32,
        32,
        32,
        29,
        28,
        26,
        26,
        26,
        26,
        26,
        26,
        26,
        25,
        25,
        25
      ]
    },
    "SGN": {
      "icao": "VVTS",
      "issued": "2026-07-06T17:00:00.000Z",
      "raw": "TAF VVTS 061700Z 0618/0724 VRB03KT 9999 SCT017 BECMG 0700/0701 23010KT TEMPO 0706/0710 23015G28KT 3000 TSRA SCT013 SCT015CB",
      "groups": [
        {
          "text": "TAF VVTS 061700Z 0618/0724 VRB03KT 9999 SCT017",
          "offset_h": -3,
          "wdir": "VRB",
          "wspd": 3
        },
        {
          "text": "BECMG 0700/0701 23010KT",
          "offset_h": 3,
          "wdir": 230,
          "wspd": 10
        },
        {
          "text": "TEMPO 0706/0710 23015G28KT 3000 TSRA SCT013 SCT015CB",
          "offset_h": 9,
          "wdir": 230,
          "wspd": 15
        }
      ],
      "metar_raw": "METAR VVTS 062100Z 22007KT 9999 FEW018 27/27 Q1009 NOSIG",
      "metar_wdir": 220,
      "metar_wspd": 7,
      "metar_oat": 27,
      "metar_qnh": 1009,
      "hourly_oat": [
        26,
        26,
        26,
        27,
        28,
        29,
        30,
        30,
        31,
        31,
        30,
        29,
        29,
        28,
        28,
        27,
        27,
        27,
        26,
        26,
        26,
        26,
        25,
        25,
        25
      ]
    },
    "CAN": {
      "icao": "ZGGG",
      "issued": "2026-07-06T15:05:00.000Z",
      "raw": "TAF ZGGG 061505Z 0618/0724 14003MPS 8000 BKN033 TX33/0707Z TN26/0622Z TN26/0722Z TEMPO 0620/0702 TSRA SCT026CB BKN030 TEMPO 0704/0710 TSRA SCT026CB BKN030 TEMPO 0718/0722 SHRA FEW026CB BKN030",
      "groups": [
        {
          "text": "TAF ZGGG 061505Z 0618/0724 14003MPS 8000 BKN033 TX33/0707Z TN26/0622Z TN26/0722Z",
          "offset_h": -3,
          "wdir": null,
          "wspd": null
        },
        {
          "text": "TEMPO 0620/0702 TSRA SCT026CB BKN030",
          "offset_h": -1,
          "wdir": null,
          "wspd": null
        },
        {
          "text": "TEMPO 0704/0710 TSRA SCT026CB BKN030",
          "offset_h": 7,
          "wdir": null,
          "wspd": null
        },
        {
          "text": "TEMPO 0718/0722 SHRA FEW026CB BKN030",
          "offset_h": 21,
          "wdir": null,
          "wspd": null
        }
      ],
      "metar_raw": "METAR ZGGG 062100Z 12003MPS 9999 SCT033 27/25 Q1006 NOSIG",
      "metar_wdir": null,
      "metar_wspd": null,
      "metar_oat": 27,
      "metar_qnh": 1006,
      "hourly_oat": [
        25,
        24,
        25,
        26,
        26,
        26,
        28,
        31,
        26,
        27,
        27,
        27,
        28,
        28,
        27,
        27,
        27,
        26,
        26,
        25,
        24,
        24,
        24,
        24,
        24
      ]
    },
    "DLC": {
      "icao": "ZYTL",
      "issued": "2026-07-06T15:03:00.000Z",
      "raw": "TAF ZYTL 061503Z 0618/0718 15004MPS 5000 BR FEW040 TX28/0706Z TN22/0620Z TEMPO 0622/0703 2000 -SHRA BR BKN010 BKN026 FEW030CB BECMG 0702/0703 -TSRA BR BKN010 BKN026 FEW030CB BECMG 0705/0706 2000 -SHRA BR BKN020 BECMG 0709/0710 5000 BR",
      "groups": [
        {
          "text": "TAF ZYTL 061503Z 0618/0718 15004MPS 5000 BR FEW040 TX28/0706Z TN22/0620Z",
          "offset_h": -3,
          "wdir": null,
          "wspd": null
        },
        {
          "text": "TEMPO 0622/0703 2000 -SHRA BR BKN010 BKN026 FEW030CB",
          "offset_h": 1,
          "wdir": null,
          "wspd": null
        },
        {
          "text": "BECMG 0702/0703 -TSRA BR BKN010 BKN026 FEW030CB",
          "offset_h": 5,
          "wdir": null,
          "wspd": null
        },
        {
          "text": "BECMG 0705/0706 2000 -SHRA BR BKN020",
          "offset_h": 8,
          "wdir": null,
          "wspd": null
        },
        {
          "text": "BECMG 0709/0710 5000 BR",
          "offset_h": 12,
          "wdir": null,
          "wspd": null
        }
      ],
      "metar_raw": "METAR ZYTL 062100Z 10003MPS 5000 BR NSC 23/22 Q1002 NOSIG",
      "metar_wdir": null,
      "metar_wspd": null,
      "metar_oat": 23,
      "metar_qnh": 1002,
      "hourly_oat": [
        22,
        23,
        23,
        24,
        25,
        25,
        25,
        26,
        27,
        27,
        26,
        26,
        26,
        25,
        24,
        23,
        23,
        23,
        23,
        23,
        23,
        23,
        22,
        22,
        23
      ]
    },
    "PVG": {
      "icao": "ZSPD",
      "issued": "2026-07-06T15:02:00.000Z",
      "raw": "TAF ZSPD 061502Z 0618/0724 15004MPS 6000 BKN020 TX35/0706Z TN26/0621Z TN26/0721Z",
      "groups": [
        {
          "text": "TAF ZSPD 061502Z 0618/0724 15004MPS 6000 BKN020 TX35/0706Z TN26/0621Z TN26/0721Z",
          "offset_h": -3,
          "wdir": null,
          "wspd": null
        }
      ],
      "metar_raw": "METAR ZSPD 062100Z 18003MPS CAVOK 27/26 Q1004 NOSIG",
      "metar_wdir": null,
      "metar_wspd": null,
      "metar_oat": 27,
      "metar_qnh": 1004,
      "hourly_oat": [
        27,
        27,
        28,
        29,
        30,
        31,
        32,
        33,
        33,
        33,
        33,
        33,
        32,
        30,
        29,
        29,
        29,
        29,
        29,
        28,
        28,
        28,
        28,
        27,
        27
      ]
    },
    "SHA": {
      "icao": "ZSSS",
      "issued": "2026-07-06T15:02:00.000Z",
      "raw": "TAF ZSSS 061502Z 0618/0724 15004MPS 6000 BKN030 TX35/0706Z TN26/0621Z TN26/0721Z",
      "groups": [
        {
          "text": "TAF ZSSS 061502Z 0618/0724 15004MPS 6000 BKN030 TX35/0706Z TN26/0621Z TN26/0721Z",
          "offset_h": -3,
          "wdir": null,
          "wspd": null
        }
      ],
      "metar_raw": "METAR ZSSS 062100Z 16003MPS CAVOK 28/25 Q1004 NOSIG",
      "metar_wdir": null,
      "metar_wspd": null,
      "metar_oat": 28,
      "metar_qnh": 1004,
      "hourly_oat": [
        27,
        27,
        28,
        29,
        30,
        32,
        32,
        33,
        34,
        34,
        34,
        34,
        33,
        32,
        30,
        30,
        30,
        29,
        29,
        29,
        29,
        28,
        28,
        28,
        28
      ]
    },
    "PEK": {
      "icao": "ZBAA",
      "issued": "2026-07-06T15:02:00.000Z",
      "raw": "TAF ZBAA 061502Z 0618/0724 15004MPS CAVOK TX31/0706Z TN22/0621Z TN21/0721Z TEMPO 0707/0713 -TSRA FEW040CB BKN040",
      "groups": [
        {
          "text": "TAF ZBAA 061502Z 0618/0724 15004MPS CAVOK TX31/0706Z TN22/0621Z TN21/0721Z",
          "offset_h": -3,
          "wdir": null,
          "wspd": null
        },
        {
          "text": "TEMPO 0707/0713 -TSRA FEW040CB BKN040",
          "offset_h": 10,
          "wdir": null,
          "wspd": null
        }
      ],
      "metar_raw": "METAR ZBAA 062100Z 35002MPS CAVOK 21/21 Q0999 NOSIG",
      "metar_wdir": null,
      "metar_wspd": null,
      "metar_oat": 21,
      "metar_qnh": 999,
      "hourly_oat": [
        21,
        22,
        24,
        25,
        27,
        28,
        29,
        30,
        30,
        28,
        28,
        25,
        24,
        25,
        24,
        23,
        23,
        22,
        22,
        22,
        22,
        22,
        22,
        22,
        22
      ]
    }
  }
}