{
  "updated": "2026-07-22T23:53:59Z",
  "tafs": {
    "LAX": {
      "icao": "KLAX",
      "issued": "2026-07-22T23:47:00.000Z",
      "raw": "TAF KLAX 222347Z 2300/2406 24015G22KT P6SM SKC FM230300 26010KT P6SM FEW250 FM230700 VRB03KT P6SM SCT250 FM231800 26006KT P6SM FEW250 FM232000 26012KT P6SM FEW250 FM240300 26008KT P6SM SCT250",
      "groups": [
        {
          "text": "TAF KLAX 222347Z 2300/2406 24015G22KT P6SM SKC",
          "offset_h": 1,
          "wdir": 240,
          "wspd": 15
        },
        {
          "text": "FM230300 26010KT P6SM FEW250",
          "offset_h": 4,
          "wdir": 260,
          "wspd": 10
        },
        {
          "text": "FM230700 VRB03KT P6SM SCT250",
          "offset_h": 8,
          "wdir": "VRB",
          "wspd": 3
        },
        {
          "text": "FM231800 26006KT P6SM FEW250",
          "offset_h": 19,
          "wdir": 260,
          "wspd": 6
        },
        {
          "text": "FM232000 26012KT P6SM FEW250",
          "offset_h": 21,
          "wdir": 260,
          "wspd": 12
        },
        {
          "text": "FM240300 26008KT P6SM SCT250",
          "offset_h": 28,
          "wdir": 260,
          "wspd": 8
        }
      ],
      "metar_raw": "METAR KLAX 222253Z 23012KT 10SM FEW009 FEW050 25/18 A2992 RMK AO2 SLP129 T02500178",
      "metar_wdir": 230,
      "metar_wspd": 12,
      "metar_oat": 25,
      "metar_qnh": 1013,
      "hourly_oat": [
        24,
        24,
        24,
        23,
        22,
        22,
        21,
        20,
        20,
        19,
        19,
        18,
        18,
        18,
        17,
        19,
        22,
        25,
        29,
        28,
        28,
        28,
        27,
        27,
        27
      ]
    },
    "SAN": {
      "icao": "KSAN",
      "issued": "2026-07-22T23:34:00.000Z",
      "raw": "TAF KSAN 222334Z 2300/2406 30011KT P6SM SCT012 FM230200 VRB04KT P6SM SCT012 FM230900 VRB04KT P6SM BKN007 FM231530 VRB05KT P6SM SCT012 FM232100 29009KT P6SM SKC FM240400 VRB04KT P6SM FEW010",
      "groups": [
        {
          "text": "TAF KSAN 222334Z 2300/2406 30011KT P6SM SCT012",
          "offset_h": 1,
          "wdir": 300,
          "wspd": 11
        },
        {
          "text": "FM230200 VRB04KT P6SM SCT012",
          "offset_h": 3,
          "wdir": "VRB",
          "wspd": 4
        },
        {
          "text": "FM230900 VRB04KT P6SM BKN007",
          "offset_h": 10,
          "wdir": "VRB",
          "wspd": 4
        },
        {
          "text": "FM231530 VRB05KT P6SM SCT012",
          "offset_h": 16,
          "wdir": "VRB",
          "wspd": 5
        },
        {
          "text": "FM232100 29009KT P6SM SKC",
          "offset_h": 22,
          "wdir": 290,
          "wspd": 9
        },
        {
          "text": "FM240400 VRB04KT P6SM FEW010",
          "offset_h": 29,
          "wdir": "VRB",
          "wspd": 4
        }
      ],
      "metar_raw": "METAR KSAN 222351Z 30010KT 10SM FEW011 FEW050 SCT250 24/19 A2993 RMK AO2 SLP134 T02390189 10256 20239 56012",
      "metar_wdir": 300,
      "metar_wspd": 10,
      "metar_oat": 24,
      "metar_qnh": 1014,
      "hourly_oat": [
        24,
        23,
        23,
        23,
        22,
        22,
        21,
        21,
        20,
        20,
        20,
        19,
        19,
        19,
        19,
        20,
        23,
        26,
        27,
        28,
        28,
        28,
        28,
        27,
        27
      ]
    },
    "HNL": {
      "icao": "PHNL",
      "issued": "2026-07-22T23:23:00.000Z",
      "raw": "TAF PHNL 222323Z 2300/2406 07015G25KT P6SM FEW025 SCT040 FM230600 05008KT P6SM FEW025 SCT040 FM231900 07015G25KT P6SM FEW025 SCT040 FM240500 05008KT P6SM FEW025 SCT040",
      "groups": [
        {
          "text": "TAF PHNL 222323Z 2300/2406 07015G25KT P6SM FEW025 SCT040",
          "offset_h": 1,
          "wdir": 70,
          "wspd": 15
        },
        {
          "text": "FM230600 05008KT P6SM FEW025 SCT040",
          "offset_h": 7,
          "wdir": 50,
          "wspd": 8
        },
        {
          "text": "FM231900 07015G25KT P6SM FEW025 SCT040",
          "offset_h": 20,
          "wdir": 70,
          "wspd": 15
        },
        {
          "text": "FM240500 05008KT P6SM FEW025 SCT040",
          "offset_h": 30,
          "wdir": 50,
          "wspd": 8
        }
      ],
      "metar_raw": "METAR PHNL 222253Z 06016G25KT 10SM FEW025 SCT035 BKN050 29/20 A2998 RMK AO2 PK WND 04026/2236 SLP150 T02940200 $",
      "metar_wdir": 60,
      "metar_wspd": 16,
      "metar_oat": 29,
      "metar_qnh": 1015,
      "hourly_oat": [
        28,
        29,
        29,
        28,
        27,
        26,
        25,
        24,
        24,
        24,
        24,
        24,
        23,
        23,
        23,
        22,
        22,
        22,
        23,
        24,
        26,
        27,
        28,
        28,
        28
      ]
    },
    "ITM": {
      "icao": "RJOO",
      "issued": "2026-07-22T23:06:00.000Z",
      "raw": "TAF RJOO 222306Z 2300/2406 35004KT 9999 FEW030 BECMG 2302/2304 22008KT BECMG 2309/2311 32010KT BECMG 2400/2403 22006KT",
      "groups": [
        {
          "text": "TAF RJOO 222306Z 2300/2406 35004KT 9999 FEW030",
          "offset_h": 1,
          "wdir": 350,
          "wspd": 4
        },
        {
          "text": "BECMG 2302/2304 22008KT",
          "offset_h": 3,
          "wdir": 220,
          "wspd": 8
        },
        {
          "text": "BECMG 2309/2311 32010KT",
          "offset_h": 10,
          "wdir": 320,
          "wspd": 10
        },
        {
          "text": "BECMG 2400/2403 22006KT",
          "offset_h": 25,
          "wdir": 220,
          "wspd": 6
        }
      ],
      "metar_raw": "METAR RJOO 222300Z 32005KT 9999 FEW030 32/23 Q1009",
      "metar_wdir": 320,
      "metar_wspd": 5,
      "metar_oat": 32,
      "metar_qnh": 1009,
      "hourly_oat": [
        29,
        31,
        32,
        34,
        35,
        35,
        35,
        35,
        35,
        35,
        34,
        33,
        31,
        30,
        30,
        29,
        28,
        28,
        27,
        26,
        26,
        26,
        26,
        27,
        29
      ]
    },
    "KIX": {
      "icao": "RJBB",
      "issued": "2026-07-22T23:06:00.000Z",
      "raw": "TAF RJBB 222306Z 2300/2406 26008KT 9999 FEW030 BECMG 2315/2318 01006KT BECMG 2403/2406 25006KT",
      "groups": [
        {
          "text": "TAF RJBB 222306Z 2300/2406 26008KT 9999 FEW030",
          "offset_h": 1,
          "wdir": 260,
          "wspd": 8
        },
        {
          "text": "BECMG 2315/2318 01006KT",
          "offset_h": 16,
          "wdir": 10,
          "wspd": 6
        },
        {
          "text": "BECMG 2403/2406 25006KT",
          "offset_h": 28,
          "wdir": 250,
          "wspd": 6
        }
      ],
      "metar_raw": "METAR RJBB 222330Z 27004KT CAVOK 29/26 Q1009 NOSIG",
      "metar_wdir": 270,
      "metar_wspd": 4,
      "metar_oat": 29,
      "metar_qnh": 1009,
      "hourly_oat": [
        28,
        29,
        29,
        29,
        29,
        29,
        30,
        30,
        30,
        30,
        31,
        30,
        30,
        30,
        30,
        30,
        30,
        30,
        30,
        29,
        29,
        29,
        28,
        28,
        28
      ]
    },
    "NRT": {
      "icao": "RJAA",
      "issued": "2026-07-22T23:05:00.000Z",
      "raw": "TAF RJAA 222305Z 2300/2406 10010KT 9999 FEW030 BECMG 2310/2312 04006KT TEMPO 2311/2315 4000 -SHRA BR FEW002 BKN005 TEMPO 2315/2321 0700 FG FEW001 BKN003 TEMPO 2321/2400 4000 BR FEW003 BKN008 BECMG 2400/2403 14012KT",
      "groups": [
        {
          "text": "TAF RJAA 222305Z 2300/2406 10010KT 9999 FEW030",
          "offset_h": 1,
          "wdir": 100,
          "wspd": 10
        },
        {
          "text": "BECMG 2310/2312 04006KT",
          "offset_h": 11,
          "wdir": 40,
          "wspd": 6
        },
        {
          "text": "TEMPO 2311/2315 4000 -SHRA BR FEW002 BKN005",
          "offset_h": 12,
          "wdir": null,
          "wspd": null
        },
        {
          "text": "TEMPO 2315/2321 0700 FG FEW001 BKN003",
          "offset_h": 16,
          "wdir": null,
          "wspd": null
        },
        {
          "text": "TEMPO 2321/2400 4000 BR FEW003 BKN008",
          "offset_h": 22,
          "wdir": null,
          "wspd": null
        },
        {
          "text": "BECMG 2400/2403 14012KT",
          "offset_h": 25,
          "wdir": 140,
          "wspd": 12
        }
      ],
      "metar_raw": "METAR RJAA 222330Z 08005KT 030V120 9999 BKN025 31/26 Q1007 NOSIG",
      "metar_wdir": 80,
      "metar_wspd": 5,
      "metar_oat": 31,
      "metar_qnh": 1007,
      "hourly_oat": [
        29,
        31,
        32,
        33,
        33,
        34,
        34,
        33,
        33,
        32,
        30,
        28,
        27,
        27,
        26,
        25,
        25,
        25,
        25,
        25,
        25,
        25,
        25,
        26,
        27
      ]
    },
    "HND": {
      "icao": "RJTT",
      "issued": "2026-07-22T23:05:00.000Z",
      "raw": "TAF RJTT 222305Z 2300/2406 10006KT 9999 FEW030 BECMG 2305/2307 16010KT TEMPO 2308/2312 -TSRA FEW020 FEW025CB BKN040 BECMG 2309/2311 09010KT BECMG 2315/2318 05010KT BECMG 2400/2403 10006KT",
      "groups": [
        {
          "text": "TAF RJTT 222305Z 2300/2406 10006KT 9999 FEW030",
          "offset_h": 1,
          "wdir": 100,
          "wspd": 6
        },
        {
          "text": "BECMG 2305/2307 16010KT",
          "offset_h": 6,
          "wdir": 160,
          "wspd": 10
        },
        {
          "text": "TEMPO 2308/2312 -TSRA FEW020 FEW025CB BKN040",
          "offset_h": 9,
          "wdir": null,
          "wspd": null
        },
        {
          "text": "BECMG 2309/2311 09010KT",
          "offset_h": 10,
          "wdir": 90,
          "wspd": 10
        },
        {
          "text": "BECMG 2315/2318 05010KT",
          "offset_h": 16,
          "wdir": 50,
          "wspd": 10
        },
        {
          "text": "BECMG 2400/2403 10006KT",
          "offset_h": 25,
          "wdir": 100,
          "wspd": 6
        }
      ],
      "metar_raw": "METAR RJTT 222330Z 08005KT 9999 FEW030 32/26 Q1007 NOSIG",
      "metar_wdir": 80,
      "metar_wspd": 5,
      "metar_oat": 32,
      "metar_qnh": 1007,
      "hourly_oat": [
        29,
        31,
        32,
        33,
        34,
        35,
        35,
        34,
        32,
        32,
        31,
        30,
        29,
        29,
        28,
        28,
        28,
        28,
        27,
        26,
        26,
        26,
        26,
        26,
        27
      ]
    },
    "OKA": {
      "icao": "ROAH",
      "issued": "2026-07-22T23:05:00.000Z",
      "raw": "TAF ROAH 222305Z 2300/2406 13008KT 9999 FEW012 BKN020 TEMPO 2305/2309 4000 SHRA BR FEW008 BKN015 FEW020CB",
      "groups": [
        {
          "text": "TAF ROAH 222305Z 2300/2406 13008KT 9999 FEW012 BKN020",
          "offset_h": 1,
          "wdir": 130,
          "wspd": 8
        },
        {
          "text": "TEMPO 2305/2309 4000 SHRA BR FEW008 BKN015 FEW020CB",
          "offset_h": 6,
          "wdir": null,
          "wspd": null
        }
      ],
      "metar_raw": "METAR ROAH 222330Z 10006KT 060V120 9999 FEW015 31/26 Q1009",
      "metar_wdir": 100,
      "metar_wspd": 6,
      "metar_oat": 31,
      "metar_qnh": 1009,
      "hourly_oat": [
        30,
        31,
        32,
        32,
        32,
        32,
        32,
        32,
        31,
        31,
        30,
        30,
        29,
        29,
        28,
        28,
        28,
        28,
        28,
        28,
        28,
        28,
        28,
        29,
        30
      ]
    },
    "NGO": {
      "icao": "RJGG",
      "issued": "2026-07-22T23:05:00.000Z",
      "raw": "TAF RJGG 222305Z 2300/2406 30008KT 9999 FEW030 BECMG 2301/2303 25006KT BECMG 2310/2312 30008KT BECMG 2400/2403 23006KT",
      "groups": [
        {
          "text": "TAF RJGG 222305Z 2300/2406 30008KT 9999 FEW030",
          "offset_h": 1,
          "wdir": 300,
          "wspd": 8
        },
        {
          "text": "BECMG 2301/2303 25006KT",
          "offset_h": 2,
          "wdir": 250,
          "wspd": 6
        },
        {
          "text": "BECMG 2310/2312 30008KT",
          "offset_h": 11,
          "wdir": 300,
          "wspd": 8
        },
        {
          "text": "BECMG 2400/2403 23006KT",
          "offset_h": 25,
          "wdir": 230,
          "wspd": 6
        }
      ],
      "metar_raw": "METAR RJGG 222330Z 28006KT CAVOK 32/25 Q1008 NOSIG",
      "metar_wdir": 280,
      "metar_wspd": 6,
      "metar_oat": 32,
      "metar_qnh": 1008,
      "hourly_oat": [
        29,
        30,
        30,
        30,
        31,
        31,
        32,
        32,
        32,
        32,
        32,
        31,
        32,
        32,
        31,
        31,
        30,
        30,
        30,
        29,
        29,
        28,
        28,
        28,
        28
      ]
    },
    "FUK": {
      "icao": "RJFF",
      "issued": "2026-07-22T23:05:00.000Z",
      "raw": "TAF RJFF 222305Z 2300/2406 15006KT 9999 FEW030 SCT040 BECMG 2300/2302 33011KT BECMG 2312/2315 13004KT BECMG 2400/2403 31011KT",
      "groups": [
        {
          "text": "TAF RJFF 222305Z 2300/2406 15006KT 9999 FEW030 SCT040",
          "offset_h": 1,
          "wdir": 150,
          "wspd": 6
        },
        {
          "text": "BECMG 2300/2302 33011KT",
          "offset_h": 1,
          "wdir": 330,
          "wspd": 11
        },
        {
          "text": "BECMG 2312/2315 13004KT",
          "offset_h": 13,
          "wdir": 130,
          "wspd": 4
        },
        {
          "text": "BECMG 2400/2403 31011KT",
          "offset_h": 25,
          "wdir": 310,
          "wspd": 11
        }
      ],
      "metar_raw": "METAR RJFF 222330Z 16007KT 110V190 9999 FEW020 31/24 Q1009 BECMG 33009KT",
      "metar_wdir": 160,
      "metar_wspd": 7,
      "metar_oat": 31,
      "metar_qnh": 1009,
      "hourly_oat": [
        28,
        30,
        31,
        31,
        31,
        30,
        31,
        31,
        30,
        30,
        30,
        29,
        28,
        28,
        28,
        27,
        26,
        26,
        26,
        26,
        25,
        25,
        25,
        26,
        28
      ]
    },
    "CTS": {
      "icao": "RJCC",
      "issued": "2026-07-22T23:05:00.000Z",
      "raw": "TAF RJCC 222305Z 2300/2406 35012KT 9999 FEW020 SCT030 BECMG 2303/2305 17010KT TEMPO 2315/2400 4000 -SHRA BR FEW003 BKN005 TEMPO 2400/2403 FEW005 BKN008",
      "groups": [
        {
          "text": "TAF RJCC 222305Z 2300/2406 35012KT 9999 FEW020 SCT030",
          "offset_h": 1,
          "wdir": 350,
          "wspd": 12
        },
        {
          "text": "BECMG 2303/2305 17010KT",
          "offset_h": 4,
          "wdir": 170,
          "wspd": 10
        },
        {
          "text": "TEMPO 2315/2400 4000 -SHRA BR FEW003 BKN005",
          "offset_h": 16,
          "wdir": null,
          "wspd": null
        },
        {
          "text": "TEMPO 2400/2403 FEW005 BKN008",
          "offset_h": 25,
          "wdir": null,
          "wspd": null
        }
      ],
      "metar_raw": "METAR RJCC 222330Z 35006KT 9999 FEW005 BKN010 BKN014 23/20 Q1009",
      "metar_wdir": 350,
      "metar_wspd": 6,
      "metar_oat": 23,
      "metar_qnh": 1009,
      "hourly_oat": [
        23,
        24,
        26,
        27,
        28,
        28,
        26,
        24,
        24,
        23,
        22,
        20,
        20,
        19,
        20,
        20,
        20,
        20,
        20,
        20,
        20,
        20,
        20,
        21,
        21
      ]
    },
    "GMP": {
      "icao": "RKSS",
      "issued": "2026-07-22T23:00:00.000Z",
      "raw": "TAF RKSS 222300Z 2300/2406 21007KT 6000 -RA SCT010 BKN025 OVC070 TX28/2306Z TN25/2322Z TX30/2406Z BECMG 2312/2314 18006KT NSW BECMG 2315/2317 -RA",
      "groups": [
        {
          "text": "TAF RKSS 222300Z 2300/2406 21007KT 6000 -RA SCT010 BKN025 OVC070 TX28/2306Z TN25/2322Z TX30/2406Z",
          "offset_h": 1,
          "wdir": 210,
          "wspd": 7
        },
        {
          "text": "BECMG 2312/2314 18006KT NSW",
          "offset_h": 13,
          "wdir": 180,
          "wspd": 6
        },
        {
          "text": "BECMG 2315/2317 -RA",
          "offset_h": 16,
          "wdir": null,
          "wspd": null
        }
      ],
      "metar_raw": "METAR RKSS 222300Z 19007KT 7000 SCT010 BKN025 OVC070 27/27 Q1007 NOSIG",
      "metar_wdir": 190,
      "metar_wspd": 7,
      "metar_oat": 27,
      "metar_qnh": 1007,
      "hourly_oat": [
        26,
        26,
        27,
        27,
        27,
        28,
        27,
        27,
        27,
        27,
        26,
        26,
        26,
        26,
        26,
        26,
        26,
        26,
        26,
        26,
        26,
        26,
        25,
        26,
        26
      ]
    },
    "BKK": {
      "icao": "VTBS",
      "issued": "2026-07-22T23:00:00.000Z",
      "raw": "TAF VTBS 222300Z 2300/2406 21008KT 9999 FEW020 TEMPO 2308/2312 VRB15KT 4000 TSRA FEW018CB SCT030 BKN100",
      "groups": [
        {
          "text": "TAF VTBS 222300Z 2300/2406 21008KT 9999 FEW020",
          "offset_h": 1,
          "wdir": 210,
          "wspd": 8
        },
        {
          "text": "TEMPO 2308/2312 VRB15KT 4000 TSRA FEW018CB SCT030 BKN100",
          "offset_h": 9,
          "wdir": "VRB",
          "wspd": 15
        }
      ],
      "metar_raw": "METAR VTBS 222330Z 24005KT 8000 FEW015 SCT030 28/26 Q1008 NOSIG",
      "metar_wdir": 240,
      "metar_wspd": 5,
      "metar_oat": 28,
      "metar_qnh": 1008,
      "hourly_oat": [
        26,
        26,
        27,
        29,
        30,
        31,
        32,
        29,
        29,
        27,
        27,
        27,
        27,
        27,
        27,
        27,
        27,
        27,
        27,
        27,
        26,
        26,
        26,
        26,
        25
      ]
    },
    "TSA": {
      "icao": "RCSS",
      "issued": "2026-07-22T23:00:00.000Z",
      "raw": "TAF RCSS 222300Z 2300/2324 29005KT 9999 FEW015 BKN032 TEMPO 2305/2309 18005KT 4000 SHRA FEW010 FEW015CB BKN020 BECMG 2309/2311 09010KT TEMPO 2318/2324 10005KT",
      "groups": [
        {
          "text": "TAF RCSS 222300Z 2300/2324 29005KT 9999 FEW015 BKN032",
          "offset_h": 1,
          "wdir": 290,
          "wspd": 5
        },
        {
          "text": "TEMPO 2305/2309 18005KT 4000 SHRA FEW010 FEW015CB BKN020",
          "offset_h": 6,
          "wdir": 180,
          "wspd": 5
        },
        {
          "text": "BECMG 2309/2311 09010KT",
          "offset_h": 10,
          "wdir": 90,
          "wspd": 10
        },
        {
          "text": "TEMPO 2318/2324 10005KT",
          "offset_h": 19,
          "wdir": 100,
          "wspd": 5
        }
      ],
      "metar_raw": "METAR RCSS 222330Z VRB01KT 9999 FEW018 SCT028 32/27 Q1008 NOSIG RMK A2979",
      "metar_wdir": "VRB",
      "metar_wspd": 1,
      "metar_oat": 32,
      "metar_qnh": 1008,
      "hourly_oat": [
        27,
        29,
        30,
        32,
        32,
        31,
        30,
        31,
        30,
        30,
        30,
        29,
        28,
        28,
        27,
        27,
        26,
        26,
        26,
        26,
        25,
        25,
        25,
        25,
        27
      ]
    },
    "TPE": {
      "icao": "RCTP",
      "issued": "2026-07-22T23:00:00.000Z",
      "raw": "TAF RCTP 222300Z 2300/2406 25005KT 9999 FEW015 BKN032 TEMPO 2302/2308 28010KT TEMPO 2306/2310 5000 SHRA FEW010 FEW015CB BKN020 BECMG 2308/2310 15005KT TEMPO 2310/2316 08008KT TEMPO 2400/2404 03005KT BECMG 2404/2406 09015KT",
      "groups": [
        {
          "text": "TAF RCTP 222300Z 2300/2406 25005KT 9999 FEW015 BKN032",
          "offset_h": 1,
          "wdir": 250,
          "wspd": 5
        },
        {
          "text": "TEMPO 2302/2308 28010KT",
          "offset_h": 3,
          "wdir": 280,
          "wspd": 10
        },
        {
          "text": "TEMPO 2306/2310 5000 SHRA FEW010 FEW015CB BKN020",
          "offset_h": 7,
          "wdir": null,
          "wspd": null
        },
        {
          "text": "BECMG 2308/2310 15005KT",
          "offset_h": 9,
          "wdir": 150,
          "wspd": 5
        },
        {
          "text": "TEMPO 2310/2316 08008KT",
          "offset_h": 11,
          "wdir": 80,
          "wspd": 8
        },
        {
          "text": "TEMPO 2400/2404 03005KT",
          "offset_h": 25,
          "wdir": 30,
          "wspd": 5
        },
        {
          "text": "BECMG 2404/2406 09015KT",
          "offset_h": 29,
          "wdir": 90,
          "wspd": 15
        }
      ],
      "metar_raw": "METAR RCTP 222330Z 23006KT 9999 FEW015 SCT022 BKN030 30/26 Q1008 NOSIG RMK A2979",
      "metar_wdir": 230,
      "metar_wspd": 6,
      "metar_oat": 30,
      "metar_qnh": 1008,
      "hourly_oat": [
        28,
        30,
        31,
        31,
        31,
        31,
        31,
        31,
        32,
        32,
        31,
        30,
        30,
        29,
        28,
        28,
        27,
        27,
        26,
        25,
        26,
        26,
        25,
        26,
        27
      ]
    },
    "HKG": {
      "icao": "VHHH",
      "issued": "2026-07-22T23:00:00.000Z",
      "raw": "TAF VHHH 222300Z 2300/2406 18010KT 9999 FEW015 TX34/2306Z TX34/2406Z TN28/2322Z TEMPO 2300/2303 VRB05KT BECMG 2303/2305 24010KT BECMG 2310/2312 16010KT TEMPO 2315/2324 VRB05KT BECMG 2402/2404 24010KT",
      "groups": [
        {
          "text": "TAF VHHH 222300Z 2300/2406 18010KT 9999 FEW015 TX34/2306Z TX34/2406Z TN28/2322Z",
          "offset_h": 1,
          "wdir": 180,
          "wspd": 10
        },
        {
          "text": "TEMPO 2300/2303 VRB05KT",
          "offset_h": 1,
          "wdir": "VRB",
          "wspd": 5
        },
        {
          "text": "BECMG 2303/2305 24010KT",
          "offset_h": 4,
          "wdir": 240,
          "wspd": 10
        },
        {
          "text": "BECMG 2310/2312 16010KT",
          "offset_h": 11,
          "wdir": 160,
          "wspd": 10
        },
        {
          "text": "TEMPO 2315/2324 VRB05KT",
          "offset_h": 16,
          "wdir": "VRB",
          "wspd": 5
        },
        {
          "text": "BECMG 2402/2404 24010KT",
          "offset_h": 27,
          "wdir": 240,
          "wspd": 10
        }
      ],
      "metar_raw": "METAR VHHH 222330Z VRB03KT 9999 FEW012 30/25 Q1008 NOSIG",
      "metar_wdir": "VRB",
      "metar_wspd": 3,
      "metar_oat": 30,
      "metar_qnh": 1008,
      "hourly_oat": [
        28,
        29,
        30,
        30,
        30,
        31,
        31,
        31,
        30,
        30,
        30,
        29,
        29,
        28,
        28,
        28,
        28,
        28,
        28,
        28,
        28,
        28,
        28,
        28,
        28
      ]
    },
    "CGK": {
      "icao": "WIII",
      "issued": "2026-07-22T23:00:00.000Z",
      "raw": "TAF WIII 222300Z 2300/2406 16005KT 5000 HZ SCT020 BECMG 2302/2304 03012KT 8000 NSW BECMG 2312/2314 5000 HZ BECMG 2315/2317 18005KT",
      "groups": [
        {
          "text": "TAF WIII 222300Z 2300/2406 16005KT 5000 HZ SCT020",
          "offset_h": 1,
          "wdir": 160,
          "wspd": 5
        },
        {
          "text": "BECMG 2302/2304 03012KT 8000 NSW",
          "offset_h": 3,
          "wdir": 30,
          "wspd": 12
        },
        {
          "text": "BECMG 2312/2314 5000 HZ",
          "offset_h": 13,
          "wdir": null,
          "wspd": null
        },
        {
          "text": "BECMG 2315/2317 18005KT",
          "offset_h": 16,
          "wdir": 180,
          "wspd": 5
        }
      ],
      "metar_raw": "METAR WIII 222330Z 17003KT 4500 HZ FEW020 25/21 Q1012 NOSIG",
      "metar_wdir": 170,
      "metar_wspd": 3,
      "metar_oat": 25,
      "metar_qnh": 1012,
      "hourly_oat": [
        24,
        25,
        27,
        29,
        31,
        32,
        33,
        33,
        32,
        32,
        30,
        29,
        28,
        28,
        28,
        27,
        27,
        26,
        25,
        25,
        24,
        24,
        24,
        24,
        23
      ]
    },
    "HAN": {
      "icao": "VVNB",
      "issued": "2026-07-22T23:00:00.000Z",
      "raw": "TAF VVNB 222300Z 2300/2324 06006KT 9999 FEW030 TEMPO 2300/2303 3500 SHRA SCT010 FEW027CB TEMPO 2310/2315 4000 TSRA SCT012 FEW027CB",
      "groups": [
        {
          "text": "TAF VVNB 222300Z 2300/2324 06006KT 9999 FEW030",
          "offset_h": 1,
          "wdir": 60,
          "wspd": 6
        },
        {
          "text": "TEMPO 2300/2303 3500 SHRA SCT010 FEW027CB",
          "offset_h": 1,
          "wdir": null,
          "wspd": null
        },
        {
          "text": "TEMPO 2310/2315 4000 TSRA SCT012 FEW027CB",
          "offset_h": 11,
          "wdir": null,
          "wspd": null
        }
      ],
      "metar_raw": "METAR VVNB 222330Z 08003KT 040V110 2800 SHRA BR SCT014 BKN018 FEW030TCU 25/24 Q1005 BECMG FM0010 3500 RA",
      "metar_wdir": 80,
      "metar_wspd": 3,
      "metar_oat": 25,
      "metar_qnh": 1005,
      "hourly_oat": [
        24,
        25,
        26,
        28,
        29,
        30,
        30,
        31,
        31,
        30,
        27,
        27,
        27,
        26,
        26,
        26,
        26,
        26,
        25,
        25,
        25,
        24,
        24,
        24,
        24
      ]
    },
    "SIN": {
      "icao": "WSSS",
      "issued": "2026-07-22T23:00:00.000Z",
      "raw": "TAF WSSS 222300Z 2300/2406 18008KT 9999 FEW015 SCT020",
      "groups": [
        {
          "text": "TAF WSSS 222300Z 2300/2406 18008KT 9999 FEW015 SCT020",
          "offset_h": 1,
          "wdir": 180,
          "wspd": 8
        }
      ],
      "metar_raw": "METAR WSSS 222330Z 16004KT 9999 FEW018TCU FEW020CB BKN140 27/25 Q1011 NOSIG",
      "metar_wdir": 160,
      "metar_wspd": 4,
      "metar_oat": 27,
      "metar_qnh": 1011,
      "hourly_oat": [
        24,
        24,
        26,
        27,
        28,
        28,
        28,
        29,
        29,
        29,
        29,
        29,
        28,
        28,
        28,
        28,
        28,
        28,
        28,
        27,
        27,
        28,
        27,
        27,
        27
      ]
    },
    "KUL": {
      "icao": "WMKK",
      "issued": "2026-07-22T23:00:00.000Z",
      "raw": "TAF WMKK 222300Z 2300/2406 VRB02KT 9999 FEW018 PROB30 TEMPO 2300/2304 5000 TSRA FEW010 FEW017CB",
      "groups": [
        {
          "text": "TAF WMKK 222300Z 2300/2406 VRB02KT 9999 FEW018",
          "offset_h": 1,
          "wdir": "VRB",
          "wspd": 2
        },
        {
          "text": "PROB30",
          "offset_h": 0,
          "wdir": null,
          "wspd": null
        },
        {
          "text": "TEMPO 2300/2304 5000 TSRA FEW010 FEW017CB",
          "offset_h": 1,
          "wdir": null,
          "wspd": null
        }
      ],
      "metar_raw": "METAR WMKK 222330Z VRB03KT 8000 FEW010 FEW017CB 25/24 Q1010 NOSIG",
      "metar_wdir": "VRB",
      "metar_wspd": 3,
      "metar_oat": 25,
      "metar_qnh": 1010,
      "hourly_oat": [
        23,
        23,
        24,
        26,
        27,
        28,
        29,
        29,
        29,
        29,
        29,
        28,
        28,
        26,
        26,
        25,
        25,
        25,
        25,
        24,
        25,
        24,
        24,
        24,
        24
      ]
    },
    "PVG": {
      "icao": "ZSPD",
      "issued": "2026-07-22T21:25:00.000Z",
      "raw": "TAF ZSPD 222125Z 2300/2406 18004MPS 6000 SCT030 TX35/2306Z TX35/2406Z TN28/2321Z TEMPO 2307/2312 23010G15MPS TSRA BKN011 SCT030CB",
      "groups": [
        {
          "text": "TAF ZSPD 222125Z 2300/2406 18004MPS 6000 SCT030 TX35/2306Z TX35/2406Z TN28/2321Z",
          "offset_h": 1,
          "wdir": null,
          "wspd": null
        },
        {
          "text": "TEMPO 2307/2312 23010G15MPS TSRA BKN011 SCT030CB",
          "offset_h": 8,
          "wdir": null,
          "wspd": null
        }
      ],
      "metar_raw": "METAR ZSPD 222330Z 19007MPS CAVOK 29/26 Q1006 NOSIG",
      "metar_wdir": null,
      "metar_wspd": null,
      "metar_oat": 29,
      "metar_qnh": 1006,
      "hourly_oat": [
        29,
        30,
        32,
        33,
        34,
        34,
        35,
        35,
        34,
        34,
        33,
        32,
        30,
        30,
        29,
        29,
        29,
        28,
        28,
        28,
        28,
        28,
        28,
        28,
        29
      ]
    },
    "SHA": {
      "icao": "ZSSS",
      "issued": "2026-07-22T21:24:00.000Z",
      "raw": "TAF ZSSS 222124Z 2300/2406 18004MPS 8000 SCT030 TX36/2306Z TX36/2406Z TN28/2321Z TEMPO 2307/2312 27009G15MPS +TSRA BKN013 SCT030CB",
      "groups": [
        {
          "text": "TAF ZSSS 222124Z 2300/2406 18004MPS 8000 SCT030 TX36/2306Z TX36/2406Z TN28/2321Z",
          "offset_h": 1,
          "wdir": null,
          "wspd": null
        },
        {
          "text": "TEMPO 2307/2312 27009G15MPS +TSRA BKN013 SCT030CB",
          "offset_h": 8,
          "wdir": null,
          "wspd": null
        }
      ],
      "metar_raw": "METAR ZSSS 222330Z 17004MPS CAVOK 30/27 Q1006 NOSIG",
      "metar_wdir": null,
      "metar_wspd": null,
      "metar_oat": 30,
      "metar_qnh": 1006,
      "hourly_oat": [
        28,
        30,
        31,
        32,
        33,
        34,
        34,
        34,
        34,
        33,
        32,
        32,
        31,
        30,
        30,
        29,
        29,
        29,
        28,
        28,
        28,
        27,
        27,
        27,
        28
      ]
    },
    "DLC": {
      "icao": "ZYTL",
      "issued": "2026-07-22T21:12:00.000Z",
      "raw": "TAF ZYTL 222112Z 2300/2324 12004MPS 5000 BR SCT011 TX29/2306Z TN24/2320Z",
      "groups": [
        {
          "text": "TAF ZYTL 222112Z 2300/2324 12004MPS 5000 BR SCT011 TX29/2306Z TN24/2320Z",
          "offset_h": 1,
          "wdir": null,
          "wspd": null
        }
      ],
      "metar_raw": "METAR ZYTL 222330Z 09004MPS 8000 FEW007 BKN023 26/24 Q1004 NOSIG",
      "metar_wdir": null,
      "metar_wspd": null,
      "metar_oat": 26,
      "metar_qnh": 1004,
      "hourly_oat": [
        25,
        27,
        28,
        29,
        29,
        30,
        30,
        30,
        30,
        30,
        29,
        28,
        27,
        26,
        26,
        25,
        25,
        24,
        24,
        24,
        24,
        24,
        24,
        25,
        26
      ]
    },
    "PEK": {
      "icao": "ZBAA",
      "issued": "2026-07-22T21:06:00.000Z",
      "raw": "TAF ZBAA 222106Z 2300/2406 14003MPS 5000 BR NSC TX29/2306Z TX30/2406Z TN21/2321Z TEMPO 2311/2315 -TSRA FEW040CB BKN040",
      "groups": [
        {
          "text": "TAF ZBAA 222106Z 2300/2406 14003MPS 5000 BR NSC TX29/2306Z TX30/2406Z TN21/2321Z",
          "offset_h": 1,
          "wdir": null,
          "wspd": null
        },
        {
          "text": "TEMPO 2311/2315 -TSRA FEW040CB BKN040",
          "offset_h": 12,
          "wdir": null,
          "wspd": null
        }
      ],
      "metar_raw": "METAR ZBAA 222330Z VRB01MPS 9999 -SHRA SCT023 23/22 Q1005 NOSIG",
      "metar_wdir": null,
      "metar_wspd": null,
      "metar_oat": 23,
      "metar_qnh": 1005,
      "hourly_oat": [
        23,
        23,
        24,
        24,
        26,
        27,
        27,
        27,
        28,
        28,
        29,
        28,
        27,
        26,
        25,
        25,
        24,
        23,
        23,
        22,
        22,
        22,
        22,
        22,
        23
      ]
    },
    "CAN": {
      "icao": "ZGGG",
      "issued": "2026-07-22T21:02:00.000Z",
      "raw": "TAF ZGGG 222102Z 2300/2406 15003MPS 8000 SCT040 TX34/2307Z TX35/2406Z TN26/2322Z",
      "groups": [
        {
          "text": "TAF ZGGG 222102Z 2300/2406 15003MPS 8000 SCT040 TX34/2307Z TX35/2406Z TN26/2322Z",
          "offset_h": 1,
          "wdir": null,
          "wspd": null
        }
      ],
      "metar_raw": "METAR ZGGG 222330Z 08002MPS CAVOK 29/26 Q1008 NOSIG",
      "metar_wdir": null,
      "metar_wspd": null,
      "metar_oat": 29,
      "metar_qnh": 1008,
      "hourly_oat": [
        26,
        27,
        29,
        30,
        31,
        32,
        33,
        33,
        33,
        33,
        33,
        32,
        31,
        29,
        28,
        28,
        27,
        27,
        26,
        26,
        25,
        25,
        25,
        25,
        26
      ]
    },
    "SGN": {
      "icao": "VVTS",
      "issued": "2026-07-22T17:00:00.000Z",
      "raw": "TAF VVTS 221700Z 2218/2324 25008KT 9999 SCT017 TEMPO 2309/2312 5000 SHRA SCT015 FEW017CB",
      "groups": [
        {
          "text": "TAF VVTS 221700Z 2218/2324 25008KT 9999 SCT017",
          "offset_h": -5,
          "wdir": 250,
          "wspd": 8
        },
        {
          "text": "TEMPO 2309/2312 5000 SHRA SCT015 FEW017CB",
          "offset_h": 10,
          "wdir": null,
          "wspd": null
        }
      ],
      "metar_raw": "METAR VVTS 222330Z 26008KT 9999 FEW011 27/27 Q1008 NOSIG",
      "metar_wdir": 260,
      "metar_wspd": 8,
      "metar_oat": 27,
      "metar_qnh": 1008,
      "hourly_oat": [
        26,
        27,
        29,
        30,
        32,
        33,
        34,
        34,
        35,
        28,
        26,
        28,
        28,
        27,
        26,
        26,
        26,
        26,
        25,
        26,
        25,
        25,
        25,
        25,
        25
      ]
    }
  }
}