{
  "updated": "2026-06-19T21:00:25Z",
  "tafs": {
    "HNL": {
      "icao": "PHNL",
      "issued": "2026-06-19T20:55:00.000Z",
      "raw": "TAF PHNL 192055Z 1921/2024 07011KT P6SM FEW025 FEW045 FM192200 13010KT P6SM FEW025 SCT040 FM200600 07005KT P6SM FEW025 FEW040 FM202000 10010KT P6SM FEW025 SCT045",
      "groups": [
        {
          "text": "TAF PHNL 192055Z 1921/2024 07011KT P6SM FEW025 FEW045",
          "offset_h": 0,
          "wdir": 70,
          "wspd": 11
        },
        {
          "text": "FM192200 13010KT P6SM FEW025 SCT040",
          "offset_h": 1,
          "wdir": 130,
          "wspd": 10
        },
        {
          "text": "FM200600 07005KT P6SM FEW025 FEW040",
          "offset_h": 9,
          "wdir": 70,
          "wspd": 5
        },
        {
          "text": "FM202000 10010KT P6SM FEW025 SCT045",
          "offset_h": 23,
          "wdir": 100,
          "wspd": 10
        }
      ],
      "metar_raw": "METAR PHNL 191953Z 07012G19KT 10SM FEW025 SCT045 31/21 A3005 RMK AO2 SLP176 T03060211 $",
      "metar_wdir": 70,
      "metar_wspd": 12,
      "metar_oat": 31,
      "metar_qnh": 1018,
      "hourly_oat": [
        31,
        31,
        32,
        31,
        31,
        30,
        28,
        27,
        26,
        25,
        25,
        25,
        24,
        24,
        24,
        24,
        24,
        24,
        23,
        23,
        25,
        26,
        28,
        30,
        30
      ]
    },
    "SAN": {
      "icao": "KSAN",
      "issued": "2026-06-19T20:41:00.000Z",
      "raw": "TAF KSAN 192041Z 1921/2024 29011KT P6SM FEW025 TEMPO 1923/2002 BKN022 FM200200 VRB04KT P6SM OVC021 FM201800 29012KT P6SM FEW025",
      "groups": [
        {
          "text": "TAF KSAN 192041Z 1921/2024 29011KT P6SM FEW025",
          "offset_h": 0,
          "wdir": 290,
          "wspd": 11
        },
        {
          "text": "TEMPO 1923/2002 BKN022",
          "offset_h": 2,
          "wdir": null,
          "wspd": null
        },
        {
          "text": "FM200200 VRB04KT P6SM OVC021",
          "offset_h": 5,
          "wdir": "VRB",
          "wspd": 4
        },
        {
          "text": "FM201800 29012KT P6SM FEW025",
          "offset_h": 21,
          "wdir": 290,
          "wspd": 12
        }
      ],
      "metar_raw": "METAR KSAN 192051Z 31009G17KT 280V350 10SM FEW030 21/13 A3002 RMK AO2 SLP165 T02110133 58002 $",
      "metar_wdir": 310,
      "metar_wspd": 9,
      "metar_oat": 21,
      "metar_qnh": 1017,
      "hourly_oat": [
        23,
        22,
        21,
        21,
        20,
        19,
        18,
        18,
        18,
        18,
        18,
        18,
        17,
        17,
        17,
        17,
        17,
        17,
        17,
        18,
        18,
        18,
        20,
        22,
        22
      ]
    },
    "HKG": {
      "icao": "VHHH",
      "issued": "2026-06-19T20:00:00.000Z",
      "raw": "TAF VHHH 192000Z 1921/2103 20015KT 9999 FEW010 SCT025 TX33/2006Z TN28/1922Z TN29/2022Z TEMPO 1921/2002 4000 SHRA FEW010CB SCT020",
      "groups": [
        {
          "text": "TAF VHHH 192000Z 1921/2103 20015KT 9999 FEW010 SCT025 TX33/2006Z TN28/1922Z TN29/2022Z",
          "offset_h": 0,
          "wdir": 200,
          "wspd": 15
        },
        {
          "text": "TEMPO 1921/2002 4000 SHRA FEW010CB SCT020",
          "offset_h": 0,
          "wdir": null,
          "wspd": null
        }
      ],
      "metar_raw": "METAR VHHH 192030Z 19011KT 9999 FEW010 SCT022 29/25 Q1009 NOSIG",
      "metar_wdir": 190,
      "metar_wspd": 11,
      "metar_oat": 29,
      "metar_qnh": 1009,
      "hourly_oat": [
        28,
        28,
        29,
        29,
        29,
        29,
        29,
        30,
        30,
        30,
        30,
        30,
        29,
        29,
        29,
        28,
        28,
        28,
        28,
        28,
        28,
        28,
        28,
        28,
        28
      ]
    },
    "CTS": {
      "icao": "RJCC",
      "issued": "2026-06-19T19:14:00.000Z",
      "raw": "TAF AMD RJCC 191914Z 1919/2100 18004KT 9999 FEW005 BKN020 BECMG 2000/2002 18014KT TEMPO 2009/2021 FEW003 BKN005",
      "groups": [
        {
          "text": "TAF AMD RJCC 191914Z 1919/2100 18004KT 9999 FEW005 BKN020",
          "offset_h": -2,
          "wdir": 180,
          "wspd": 4
        },
        {
          "text": "BECMG 2000/2002 18014KT",
          "offset_h": 3,
          "wdir": 180,
          "wspd": 14
        },
        {
          "text": "TEMPO 2009/2021 FEW003 BKN005",
          "offset_h": 12,
          "wdir": null,
          "wspd": null
        }
      ],
      "metar_raw": "METAR RJCC 192030Z 17003KT 9999 FEW008 SCT015 BKN050 17/16 Q1016",
      "metar_wdir": 170,
      "metar_wspd": 3,
      "metar_oat": 17,
      "metar_qnh": 1016,
      "hourly_oat": [
        16,
        16,
        18,
        20,
        21,
        21,
        21,
        21,
        20,
        20,
        19,
        17,
        16,
        15,
        14,
        14,
        13,
        13,
        13,
        14,
        14,
        14,
        15,
        15,
        15
      ]
    },
    "LAX": {
      "icao": "KLAX",
      "issued": "2026-06-19T18:18:00.000Z",
      "raw": "TAF KLAX 191818Z 1918/2024 26008KT P6SM SCT025 OVC035 FM192000 26015KT P6SM SCT035 FM200400 26015KT P6SM OVC022 FM200800 26008KT P6SM OVC015 FM201800 26010KT P6SM OVC022 FM202000 26015KT P6SM SCT025 AMD NOT SKED",
      "groups": [
        {
          "text": "TAF KLAX 191818Z 1918/2024 26008KT P6SM SCT025 OVC035",
          "offset_h": -3,
          "wdir": 260,
          "wspd": 8
        },
        {
          "text": "FM192000 26015KT P6SM SCT035",
          "offset_h": -1,
          "wdir": 260,
          "wspd": 15
        },
        {
          "text": "FM200400 26015KT P6SM OVC022",
          "offset_h": 7,
          "wdir": 260,
          "wspd": 15
        },
        {
          "text": "FM200800 26008KT P6SM OVC015",
          "offset_h": 11,
          "wdir": 260,
          "wspd": 8
        },
        {
          "text": "FM201800 26010KT P6SM OVC022",
          "offset_h": 21,
          "wdir": 260,
          "wspd": 10
        },
        {
          "text": "FM202000 26015KT P6SM SCT025 AMD NOT SKED",
          "offset_h": 23,
          "wdir": 260,
          "wspd": 15
        }
      ],
      "metar_raw": "METAR KLAX 191953Z 26013KT 10SM FEW007 SCT027 BKN031 21/14 A3003 RMK A02 SLP167 T02060139",
      "metar_wdir": 260,
      "metar_wspd": 13,
      "metar_oat": 21,
      "metar_qnh": 1017,
      "hourly_oat": [
        19,
        20,
        20,
        19,
        19,
        18,
        17,
        16,
        16,
        15,
        14,
        14,
        13,
        12,
        12,
        12,
        14,
        15,
        17,
        18,
        19,
        18,
        19,
        19,
        20
      ]
    },
    "KIX": {
      "icao": "RJBB",
      "issued": "2026-06-19T17:05:00.000Z",
      "raw": "TAF RJBB 191705Z 1918/2100 07006KT 8000 -SHRA FEW010 SCT020 BKN030 TEMPO 1920/2000 3000 SHRA BR FEW003 BKN008 BKN015 TEMPO 2000/2003 4000 -SHRA BR BECMG 2001/2003 18014KT TEMPO 2003/2009 3000 SHRA BR FEW003 BKN008 BKN015 TEMPO 2009/2015 19024G34KT TEMPO 2015/2018 -TSRA FEW015 SCT020 FEW020CB BKN030",
      "groups": [
        {
          "text": "TAF RJBB 191705Z 1918/2100 07006KT 8000 -SHRA FEW010 SCT020 BKN030",
          "offset_h": -3,
          "wdir": 70,
          "wspd": 6
        },
        {
          "text": "TEMPO 1920/2000 3000 SHRA BR FEW003 BKN008 BKN015",
          "offset_h": -1,
          "wdir": null,
          "wspd": null
        },
        {
          "text": "TEMPO 2000/2003 4000 -SHRA BR",
          "offset_h": 3,
          "wdir": null,
          "wspd": null
        },
        {
          "text": "BECMG 2001/2003 18014KT",
          "offset_h": 4,
          "wdir": 180,
          "wspd": 14
        },
        {
          "text": "TEMPO 2003/2009 3000 SHRA BR FEW003 BKN008 BKN015",
          "offset_h": 6,
          "wdir": null,
          "wspd": null
        },
        {
          "text": "TEMPO 2009/2015 19024G34KT",
          "offset_h": 12,
          "wdir": 190,
          "wspd": 24
        },
        {
          "text": "TEMPO 2015/2018 -TSRA FEW015 SCT020 FEW020CB BKN030",
          "offset_h": 18,
          "wdir": null,
          "wspd": null
        }
      ],
      "metar_raw": "METAR RJBB 192030Z AUTO VRB02KT 2100 R06R/0800VP2000D R06L/2000N RA BR FEW010 BKN017 OVC024 //////TCU 24/23 Q1009 TEMPO FEW005 BKN008 BKN015",
      "metar_wdir": "VRB",
      "metar_wspd": 2,
      "metar_oat": 24,
      "metar_qnh": 1009,
      "hourly_oat": [
        23,
        23,
        23,
        23,
        23,
        24,
        24,
        24,
        24,
        24,
        24,
        24,
        25,
        25,
        25,
        25,
        25,
        25,
        24,
        24,
        24,
        24,
        24,
        24,
        24
      ]
    },
    "HND": {
      "icao": "RJTT",
      "issued": "2026-06-19T17:05:00.000Z",
      "raw": "TAF RJTT 191705Z 1918/2100 09008KT 9999 FEW006 SCT008 BKN012 TEMPO 1918/2006 FEW006 BKN008 BECMG 2006/2009 15010KT TEMPO 2006/2009 4000 -RA BR FEW006 BKN008 TEMPO 2009/2015 3000 RA BR FEW003 BKN005 BECMG 2015/2018 06010KT TEMPO 2015/2100 4000 -SHRA BR FEW003 BKN005 BECMG 2018/2021 34008KT",
      "groups": [
        {
          "text": "TAF RJTT 191705Z 1918/2100 09008KT 9999 FEW006 SCT008 BKN012",
          "offset_h": -3,
          "wdir": 90,
          "wspd": 8
        },
        {
          "text": "TEMPO 1918/2006 FEW006 BKN008",
          "offset_h": -3,
          "wdir": null,
          "wspd": null
        },
        {
          "text": "BECMG 2006/2009 15010KT",
          "offset_h": 9,
          "wdir": 150,
          "wspd": 10
        },
        {
          "text": "TEMPO 2006/2009 4000 -RA BR FEW006 BKN008",
          "offset_h": 9,
          "wdir": null,
          "wspd": null
        },
        {
          "text": "TEMPO 2009/2015 3000 RA BR FEW003 BKN005",
          "offset_h": 12,
          "wdir": null,
          "wspd": null
        },
        {
          "text": "BECMG 2015/2018 06010KT",
          "offset_h": 18,
          "wdir": 60,
          "wspd": 10
        },
        {
          "text": "TEMPO 2015/2100 4000 -SHRA BR FEW003 BKN005",
          "offset_h": 18,
          "wdir": null,
          "wspd": null
        },
        {
          "text": "BECMG 2018/2021 34008KT",
          "offset_h": 21,
          "wdir": 340,
          "wspd": 8
        }
      ],
      "metar_raw": "METAR RJTT 192030Z 07012KT 8000 FEW005 BKN007 22/21 Q1012 NOSIG",
      "metar_wdir": 70,
      "metar_wspd": 12,
      "metar_oat": 22,
      "metar_qnh": 1012,
      "hourly_oat": [
        21,
        22,
        22,
        22,
        22,
        23,
        23,
        23,
        22,
        22,
        22,
        22,
        22,
        22,
        22,
        21,
        21,
        21,
        21,
        21,
        21,
        21,
        21,
        20,
        20
      ]
    },
    "NGO": {
      "icao": "RJGG",
      "issued": "2026-06-19T17:05:00.000Z",
      "raw": "TAF RJGG 191705Z 1918/2100 10008KT 9999 -RA FEW010 BKN020 TEMPO 1920/1923 FEW003 BKN008 TEMPO 1923/2002 4000 RA BR FEW003 BKN008 TEMPO 2002/2004 FEW003 BKN008 BECMG 2004/2006 13024KT TEMPO 2004/2006 4000 RA BR FEW003 BKN008 TEMPO 2006/2009 12027G38KT 3000 RA BR FEW003 SCT005 BKN008 TEMPO 2009/2012 4000 RA BR FEW003 SCT005 BKN008 TEMPO 2012/2015 3000 BR BECMG 2015/2018 13012KT TEMPO 2015/2021 4000 -TSRA BR FEW003 SCT005 BKN008 FEW015CB",
      "groups": [
        {
          "text": "TAF RJGG 191705Z 1918/2100 10008KT 9999 -RA FEW010 BKN020",
          "offset_h": -3,
          "wdir": 100,
          "wspd": 8
        },
        {
          "text": "TEMPO 1920/1923 FEW003 BKN008",
          "offset_h": -1,
          "wdir": null,
          "wspd": null
        },
        {
          "text": "TEMPO 1923/2002 4000 RA BR FEW003 BKN008",
          "offset_h": 2,
          "wdir": null,
          "wspd": null
        },
        {
          "text": "TEMPO 2002/2004 FEW003 BKN008",
          "offset_h": 5,
          "wdir": null,
          "wspd": null
        },
        {
          "text": "BECMG 2004/2006 13024KT",
          "offset_h": 7,
          "wdir": 130,
          "wspd": 24
        },
        {
          "text": "TEMPO 2004/2006 4000 RA BR FEW003 BKN008",
          "offset_h": 7,
          "wdir": null,
          "wspd": null
        },
        {
          "text": "TEMPO 2006/2009 12027G38KT 3000 RA BR FEW003 SCT005 BKN008",
          "offset_h": 9,
          "wdir": 120,
          "wspd": 27
        },
        {
          "text": "TEMPO 2009/2012 4000 RA BR FEW003 SCT005 BKN008",
          "offset_h": 12,
          "wdir": null,
          "wspd": null
        },
        {
          "text": "TEMPO 2012/2015 3000 BR",
          "offset_h": 15,
          "wdir": null,
          "wspd": null
        },
        {
          "text": "BECMG 2015/2018 13012KT",
          "offset_h": 18,
          "wdir": 130,
          "wspd": 12
        },
        {
          "text": "TEMPO 2015/2021 4000 -TSRA BR FEW003 SCT005 BKN008 FEW015CB",
          "offset_h": 18,
          "wdir": null,
          "wspd": null
        }
      ],
      "metar_raw": "METAR RJGG 192030Z AUTO 10010KT 9999 -RA FEW026 BKN027 OVC140 24/23 Q1010 TEMPO BKN012",
      "metar_wdir": 100,
      "metar_wspd": 10,
      "metar_oat": 24,
      "metar_qnh": 1010,
      "hourly_oat": [
        23,
        23,
        23,
        23,
        23,
        23,
        23,
        23,
        23,
        22,
        22,
        21,
        22,
        22,
        22,
        22,
        22,
        23,
        23,
        23,
        23,
        23,
        23,
        23,
        23
      ]
    },
    "FUK": {
      "icao": "RJFF",
      "issued": "2026-06-19T17:05:00.000Z",
      "raw": "TAF RJFF 191705Z 1918/2100 16016KT 8000 -SHRA FEW005 SCT009 BKN020 TEMPO 1921/1923 4000 TSRA BR BKN008 BKN009 FEW015CB TEMPO 1923/2003 4000 -TSRA BR BKN008 BKN010 FEW015CB BECMG 2012/2015 25008KT",
      "groups": [
        {
          "text": "TAF RJFF 191705Z 1918/2100 16016KT 8000 -SHRA FEW005 SCT009 BKN020",
          "offset_h": -3,
          "wdir": 160,
          "wspd": 16
        },
        {
          "text": "TEMPO 1921/1923 4000 TSRA BR BKN008 BKN009 FEW015CB",
          "offset_h": 0,
          "wdir": null,
          "wspd": null
        },
        {
          "text": "TEMPO 1923/2003 4000 -TSRA BR BKN008 BKN010 FEW015CB",
          "offset_h": 2,
          "wdir": null,
          "wspd": null
        },
        {
          "text": "BECMG 2012/2015 25008KT",
          "offset_h": 15,
          "wdir": 250,
          "wspd": 8
        }
      ],
      "metar_raw": "METAR RJFF 192030Z AUTO 16011KT 9999 -RA FEW031 SCT040 BKN044 26/24 Q1006 NOSIG",
      "metar_wdir": 160,
      "metar_wspd": 11,
      "metar_oat": 26,
      "metar_qnh": 1006,
      "hourly_oat": [
        25,
        25,
        25,
        25,
        26,
        26,
        27,
        27,
        28,
        28,
        27,
        27,
        27,
        26,
        26,
        25,
        25,
        24,
        24,
        23,
        23,
        23,
        23,
        23,
        22
      ]
    },
    "ITM": {
      "icao": "RJOO",
      "issued": "2026-06-19T17:05:00.000Z",
      "raw": "TAF RJOO 191705Z 1918/2100 08007KT 8000 -SHRA FEW010 SCT020 BKN030 TEMPO 1920/2000 3000 SHRA BR FEW003 BKN008 BKN015 TEMPO 2000/2003 4000 -SHRA BR TEMPO 2003/2009 3000 SHRA BR FEW003 BKN008 BKN015 BECMG 2012/2015 24008KT TEMPO 2015/2018 -TSRA FEW015 SCT020 FEW020CB BKN030",
      "groups": [
        {
          "text": "TAF RJOO 191705Z 1918/2100 08007KT 8000 -SHRA FEW010 SCT020 BKN030",
          "offset_h": -3,
          "wdir": 80,
          "wspd": 7
        },
        {
          "text": "TEMPO 1920/2000 3000 SHRA BR FEW003 BKN008 BKN015",
          "offset_h": -1,
          "wdir": null,
          "wspd": null
        },
        {
          "text": "TEMPO 2000/2003 4000 -SHRA BR",
          "offset_h": 3,
          "wdir": null,
          "wspd": null
        },
        {
          "text": "TEMPO 2003/2009 3000 SHRA BR FEW003 BKN008 BKN015",
          "offset_h": 6,
          "wdir": null,
          "wspd": null
        },
        {
          "text": "BECMG 2012/2015 24008KT",
          "offset_h": 15,
          "wdir": 240,
          "wspd": 8
        },
        {
          "text": "TEMPO 2015/2018 -TSRA FEW015 SCT020 FEW020CB BKN030",
          "offset_h": 18,
          "wdir": null,
          "wspd": null
        }
      ],
      "metar_raw": "METAR RJOO 192000Z AUTO 13001KT 9999 -RA SCT009 BKN010 BKN011 24/23 Q1009",
      "metar_wdir": 130,
      "metar_wspd": 1,
      "metar_oat": 24,
      "metar_qnh": 1009,
      "hourly_oat": [
        23,
        22,
        23,
        23,
        23,
        23,
        24,
        24,
        24,
        24,
        24,
        24,
        24,
        24,
        24,
        24,
        24,
        24,
        24,
        24,
        24,
        24,
        24,
        24,
        24
      ]
    },
    "OKA": {
      "icao": "ROAH",
      "issued": "2026-06-19T17:05:00.000Z",
      "raw": "TAF ROAH 191705Z 1918/2100 18012KT 9999 FEW005 BKN010 TEMPO 1918/1921 FEW002 BKN005 TEMPO 1921/2000 FEW005 BKN008 TEMPO 2012/2018 FEW005 BKN008 TEMPO 2018/2021 4000 BR FEW003 BKN005 TEMPO 2021/2100 FEW005 BKN008",
      "groups": [
        {
          "text": "TAF ROAH 191705Z 1918/2100 18012KT 9999 FEW005 BKN010",
          "offset_h": -3,
          "wdir": 180,
          "wspd": 12
        },
        {
          "text": "TEMPO 1918/1921 FEW002 BKN005",
          "offset_h": -3,
          "wdir": null,
          "wspd": null
        },
        {
          "text": "TEMPO 1921/2000 FEW005 BKN008",
          "offset_h": 0,
          "wdir": null,
          "wspd": null
        },
        {
          "text": "TEMPO 2012/2018 FEW005 BKN008",
          "offset_h": 15,
          "wdir": null,
          "wspd": null
        },
        {
          "text": "TEMPO 2018/2021 4000 BR FEW003 BKN005",
          "offset_h": 21,
          "wdir": null,
          "wspd": null
        },
        {
          "text": "TEMPO 2021/2100 FEW005 BKN008",
          "offset_h": 24,
          "wdir": null,
          "wspd": null
        }
      ],
      "metar_raw": "METAR ROAH 192030Z AUTO 17009KT 9999 NCD 26/26 Q1011",
      "metar_wdir": 170,
      "metar_wspd": 9,
      "metar_oat": 26,
      "metar_qnh": 1011,
      "hourly_oat": [
        26,
        27,
        27,
        28,
        28,
        29,
        29,
        29,
        29,
        28,
        28,
        28,
        28,
        27,
        26,
        26,
        26,
        26,
        26,
        26,
        26,
        25,
        25,
        25,
        25
      ]
    },
    "NRT": {
      "icao": "RJAA",
      "issued": "2026-06-19T17:05:00.000Z",
      "raw": "TAF RJAA 191705Z 1918/2100 13008KT 9999 FEW005 BKN012 TEMPO 1918/1921 1500 BR BCFG FEW001 BKN003 TEMPO 1921/2006 FEW002 BKN005 TEMPO 2006/2012 4000 -SHRA BR FEW001 BKN003 TEMPO 2012/2018 3000 SHRA BR FEW001 BKN003 TEMPO 2018/2100 4000 -SHRA BR FEW001 BKN003 BECMG 2021/2100 26006KT",
      "groups": [
        {
          "text": "TAF RJAA 191705Z 1918/2100 13008KT 9999 FEW005 BKN012",
          "offset_h": -3,
          "wdir": 130,
          "wspd": 8
        },
        {
          "text": "TEMPO 1918/1921 1500 BR BCFG FEW001 BKN003",
          "offset_h": -3,
          "wdir": null,
          "wspd": null
        },
        {
          "text": "TEMPO 1921/2006 FEW002 BKN005",
          "offset_h": 0,
          "wdir": null,
          "wspd": null
        },
        {
          "text": "TEMPO 2006/2012 4000 -SHRA BR FEW001 BKN003",
          "offset_h": 9,
          "wdir": null,
          "wspd": null
        },
        {
          "text": "TEMPO 2012/2018 3000 SHRA BR FEW001 BKN003",
          "offset_h": 15,
          "wdir": null,
          "wspd": null
        },
        {
          "text": "TEMPO 2018/2100 4000 -SHRA BR FEW001 BKN003",
          "offset_h": 21,
          "wdir": null,
          "wspd": null
        },
        {
          "text": "BECMG 2021/2100 26006KT",
          "offset_h": 24,
          "wdir": 260,
          "wspd": 6
        }
      ],
      "metar_raw": "METAR RJAA 192030Z AUTO 05006KT 020V080 9999 OVC003 20/18 Q1013 BECMG 09008KT TEMPO 4000 BR",
      "metar_wdir": 50,
      "metar_wspd": 6,
      "metar_oat": 20,
      "metar_qnh": 1013,
      "hourly_oat": [
        20,
        21,
        22,
        23,
        23,
        23,
        23,
        22,
        22,
        22,
        21,
        21,
        21,
        20,
        20,
        20,
        20,
        20,
        20,
        20,
        20,
        20,
        21,
        22,
        22
      ]
    },
    "KUL": {
      "icao": "WMKK",
      "issued": "2026-06-19T17:00:00.000Z",
      "raw": "TAF WMKK 191700Z 1918/2100 01005KT 9999 FEW030 TEMPO 1920/2000 5000 TSRA FEW017CB",
      "groups": [
        {
          "text": "TAF WMKK 191700Z 1918/2100 01005KT 9999 FEW030",
          "offset_h": -3,
          "wdir": 10,
          "wspd": 5
        },
        {
          "text": "TEMPO 1920/2000 5000 TSRA FEW017CB",
          "offset_h": -1,
          "wdir": null,
          "wspd": null
        }
      ],
      "metar_raw": "METAR WMKK 192030Z 30004KT 240V350 9000 FEW017CB 26/24 Q1010 NOSIG",
      "metar_wdir": 300,
      "metar_wspd": 4,
      "metar_oat": 26,
      "metar_qnh": 1010,
      "hourly_oat": [
        24,
        24,
        24,
        24,
        25,
        26,
        27,
        29,
        30,
        30,
        28,
        29,
        28,
        27,
        25,
        24,
        25,
        24,
        24,
        24,
        23,
        23,
        23,
        22,
        22
      ]
    },
    "HAN": {
      "icao": "VVNB",
      "issued": "2026-06-19T17:00:00.000Z",
      "raw": "TAF VVNB 191700Z 1918/2018 12005KT 9999 FEW040",
      "groups": [
        {
          "text": "TAF VVNB 191700Z 1918/2018 12005KT 9999 FEW040",
          "offset_h": -3,
          "wdir": 120,
          "wspd": 5
        }
      ],
      "metar_raw": "METAR VVNB 192030Z 10006KT CAVOK 29/26 Q1003 NOSIG",
      "metar_wdir": 100,
      "metar_wspd": 6,
      "metar_oat": 29,
      "metar_qnh": 1003,
      "hourly_oat": [
        28,
        28,
        28,
        29,
        31,
        33,
        34,
        35,
        36,
        36,
        36,
        36,
        35,
        33,
        32,
        31,
        31,
        31,
        30,
        30,
        30,
        29,
        29,
        29,
        28
      ]
    },
    "SGN": {
      "icao": "VVTS",
      "issued": "2026-06-19T17:00:00.000Z",
      "raw": "TAF VVTS 191700Z 1918/2024 VRB03KT 9999 SCT017 BECMG 1921/1922 5000 BR BECMG 2000/2001 17010KT 9999 NSW TEMPO 2008/2012 5000 TSRA SCT015 FEW017CB",
      "groups": [
        {
          "text": "TAF VVTS 191700Z 1918/2024 VRB03KT 9999 SCT017",
          "offset_h": -3,
          "wdir": "VRB",
          "wspd": 3
        },
        {
          "text": "BECMG 1921/1922 5000 BR",
          "offset_h": 0,
          "wdir": null,
          "wspd": null
        },
        {
          "text": "BECMG 2000/2001 17010KT 9999 NSW",
          "offset_h": 3,
          "wdir": 170,
          "wspd": 10
        },
        {
          "text": "TEMPO 2008/2012 5000 TSRA SCT015 FEW017CB",
          "offset_h": 11,
          "wdir": null,
          "wspd": null
        }
      ],
      "metar_raw": "METAR VVTS 192030Z 00000KT 9999 SCT025 BKN040 27/25 Q1010 NOSIG",
      "metar_wdir": 0,
      "metar_wspd": 0,
      "metar_oat": 27,
      "metar_qnh": 1010,
      "hourly_oat": [
        26,
        26,
        26,
        27,
        29,
        30,
        31,
        32,
        33,
        33,
        33,
        28,
        28,
        28,
        28,
        27,
        27,
        27,
        26,
        26,
        26,
        26,
        25,
        25,
        25
      ]
    },
    "TSA": {
      "icao": "RCSS",
      "issued": "2026-06-19T17:00:00.000Z",
      "raw": "TAF RCSS 191700Z 1918/2018 09005KT 9999 FEW015 BKN032 BECMG 2000/2002 30005KT TEMPO 2003/2009 29010KT",
      "groups": [
        {
          "text": "TAF RCSS 191700Z 1918/2018 09005KT 9999 FEW015 BKN032",
          "offset_h": -3,
          "wdir": 90,
          "wspd": 5
        },
        {
          "text": "BECMG 2000/2002 30005KT",
          "offset_h": 3,
          "wdir": 300,
          "wspd": 5
        },
        {
          "text": "TEMPO 2003/2009 29010KT",
          "offset_h": 6,
          "wdir": 290,
          "wspd": 10
        }
      ],
      "metar_raw": "METAR RCSS 192000Z 02001KT 9999 FEW015 BKN200 25/24 Q1009 NOSIG RMK A2981",
      "metar_wdir": 20,
      "metar_wspd": 1,
      "metar_oat": 25,
      "metar_qnh": 1009,
      "hourly_oat": [
        24,
        25,
        27,
        29,
        30,
        31,
        32,
        33,
        33,
        33,
        32,
        32,
        31,
        30,
        29,
        28,
        28,
        27,
        26,
        26,
        25,
        24,
        24,
        24,
        24
      ]
    },
    "TPE": {
      "icao": "RCTP",
      "issued": "2026-06-19T17:00:00.000Z",
      "raw": "TAF RCTP 191700Z 1918/2024 20008KT 9999 FEW015 BECMG 1923/2001 24012KT TEMPO 2002/2008 25017KT BECMG 2012/2014 20005KT",
      "groups": [
        {
          "text": "TAF RCTP 191700Z 1918/2024 20008KT 9999 FEW015",
          "offset_h": -3,
          "wdir": 200,
          "wspd": 8
        },
        {
          "text": "BECMG 1923/2001 24012KT",
          "offset_h": 2,
          "wdir": 240,
          "wspd": 12
        },
        {
          "text": "TEMPO 2002/2008 25017KT",
          "offset_h": 5,
          "wdir": 250,
          "wspd": 17
        },
        {
          "text": "BECMG 2012/2014 20005KT",
          "offset_h": 15,
          "wdir": 200,
          "wspd": 5
        }
      ],
      "metar_raw": "METAR RCTP 192030Z 18005KT 9999 FEW020 26/24 Q1009 NOSIG RMK A2982",
      "metar_wdir": 180,
      "metar_wspd": 5,
      "metar_oat": 26,
      "metar_qnh": 1009,
      "hourly_oat": [
        24,
        25,
        26,
        28,
        30,
        30,
        30,
        30,
        31,
        31,
        30,
        30,
        29,
        28,
        27,
        27,
        26,
        26,
        26,
        26,
        25,
        24,
        24,
        24,
        24
      ]
    },
    "GMP": {
      "icao": "RKSS",
      "issued": "2026-06-19T17:00:00.000Z",
      "raw": "TAF RKSS 191700Z 1918/2024 08012G30KT 6000 -RA FEW010 BKN030 OVC080 TN21/1921Z TX24/2006Z TN18/2020Z TEMPO 1918/1923 3000 RA BECMG 2000/2002 02008KT BECMG 2009/2011 34005KT NSW SCT045",
      "groups": [
        {
          "text": "TAF RKSS 191700Z 1918/2024 08012G30KT 6000 -RA FEW010 BKN030 OVC080 TN21/1921Z TX24/2006Z TN18/2020Z",
          "offset_h": -3,
          "wdir": 80,
          "wspd": 12
        },
        {
          "text": "TEMPO 1918/1923 3000 RA",
          "offset_h": -3,
          "wdir": null,
          "wspd": null
        },
        {
          "text": "BECMG 2000/2002 02008KT",
          "offset_h": 3,
          "wdir": 20,
          "wspd": 8
        },
        {
          "text": "BECMG 2009/2011 34005KT NSW SCT045",
          "offset_h": 12,
          "wdir": 340,
          "wspd": 5
        }
      ],
      "metar_raw": "METAR RKSS 192000Z 07008KT 040V110 5000 RA SCT010 BKN030 OVC070 22/22 Q0997 NOSIG",
      "metar_wdir": 70,
      "metar_wspd": 8,
      "metar_oat": 22,
      "metar_qnh": 997,
      "hourly_oat": [
        20,
        20,
        20,
        20,
        20,
        21,
        21,
        21,
        21,
        20,
        20,
        20,
        19,
        20,
        20,
        20,
        20,
        19,
        19,
        18,
        18,
        18,
        18,
        18,
        18
      ]
    },
    "SIN": {
      "icao": "WSSS",
      "issued": "2026-06-19T17:00:00.000Z",
      "raw": "TAF WSSS 191700Z 1918/2100 20008KT 9999 FEW015 SCT020 PROB30 TEMPO 2006/2009 3000 TSRA FEW012CB BKN015",
      "groups": [
        {
          "text": "TAF WSSS 191700Z 1918/2100 20008KT 9999 FEW015 SCT020",
          "offset_h": -3,
          "wdir": 200,
          "wspd": 8
        },
        {
          "text": "PROB30",
          "offset_h": 0,
          "wdir": null,
          "wspd": null
        },
        {
          "text": "TEMPO 2006/2009 3000 TSRA FEW012CB BKN015",
          "offset_h": 9,
          "wdir": null,
          "wspd": null
        }
      ],
      "metar_raw": "METAR WSSS 192030Z 00000KT 9999 FEW018 FEW020CB BKN300 26/25 Q1010 NOSIG",
      "metar_wdir": 0,
      "metar_wspd": 0,
      "metar_oat": 26,
      "metar_qnh": 1010,
      "hourly_oat": [
        27,
        27,
        25,
        25,
        26,
        27,
        28,
        28,
        29,
        30,
        30,
        30,
        30,
        30,
        28,
        27,
        26,
        25,
        25,
        24,
        24,
        24,
        24,
        24,
        24
      ]
    },
    "BKK": {
      "icao": "VTBS",
      "issued": "2026-06-19T17:00:00.000Z",
      "raw": "TAF VTBS 191700Z 1918/2024 08005KT 9999 FEW020 BECMG 2002/2004 23008KT TEMPO 2010/2014 VRB15KT 3000 TSRA FEW018CB SCT030 BKN080",
      "groups": [
        {
          "text": "TAF VTBS 191700Z 1918/2024 08005KT 9999 FEW020",
          "offset_h": -3,
          "wdir": 80,
          "wspd": 5
        },
        {
          "text": "BECMG 2002/2004 23008KT",
          "offset_h": 5,
          "wdir": 230,
          "wspd": 8
        },
        {
          "text": "TEMPO 2010/2014 VRB15KT 3000 TSRA FEW018CB SCT030 BKN080",
          "offset_h": 13,
          "wdir": "VRB",
          "wspd": 15
        }
      ],
      "metar_raw": "METAR VTBS 192030Z 14002KT 9999 -RA FEW020 27/26 Q1010 NOSIG",
      "metar_wdir": 140,
      "metar_wspd": 2,
      "metar_oat": 27,
      "metar_qnh": 1010,
      "hourly_oat": [
        26,
        25,
        25,
        26,
        27,
        28,
        29,
        29,
        29,
        29,
        30,
        30,
        29,
        29,
        29,
        28,
        28,
        27,
        27,
        27,
        27,
        27,
        27,
        26,
        26
      ]
    },
    "CGK": {
      "icao": "WIII",
      "issued": "2026-06-19T17:00:00.000Z",
      "raw": "TAF WIII 191700Z 1918/2100 15003KT 4000 HZ FEW020 BECMG 2001/2003 05010KT 8000 NSW",
      "groups": [
        {
          "text": "TAF WIII 191700Z 1918/2100 15003KT 4000 HZ FEW020",
          "offset_h": -3,
          "wdir": 150,
          "wspd": 3
        },
        {
          "text": "BECMG 2001/2003 05010KT 8000 NSW",
          "offset_h": 4,
          "wdir": 50,
          "wspd": 10
        }
      ],
      "metar_raw": "METAR WIII 192030Z 15003KT 4000 HZ FEW020 27/25 Q1010 NOSIG",
      "metar_wdir": 150,
      "metar_wspd": 3,
      "metar_oat": 27,
      "metar_qnh": 1010,
      "hourly_oat": [
        26,
        26,
        25,
        26,
        28,
        30,
        32,
        34,
        34,
        34,
        32,
        31,
        30,
        29,
        28,
        28,
        28,
        26,
        25,
        25,
        25,
        24,
        24,
        24,
        24
      ]
    },
    "CAN": {
      "icao": "ZGGG",
      "issued": "2026-06-19T15:08:00.000Z",
      "raw": "TAF ZGGG 191508Z 1918/2024 19003MPS 8000 BKN030 TX34/2007Z TN26/1922Z TN27/2022Z TEMPO 2006/2010 TSRA SCT026CB BKN030",
      "groups": [
        {
          "text": "TAF ZGGG 191508Z 1918/2024 19003MPS 8000 BKN030 TX34/2007Z TN26/1922Z TN27/2022Z",
          "offset_h": -3,
          "wdir": null,
          "wspd": null
        },
        {
          "text": "TEMPO 2006/2010 TSRA SCT026CB BKN030",
          "offset_h": 9,
          "wdir": null,
          "wspd": null
        }
      ],
      "metar_raw": "METAR ZGGG 192030Z 15003MPS 9999 SCT030 28/26 Q1008 NOSIG",
      "metar_wdir": null,
      "metar_wspd": null,
      "metar_oat": 28,
      "metar_qnh": 1008,
      "hourly_oat": [
        26,
        26,
        27,
        28,
        29,
        31,
        32,
        32,
        29,
        30,
        29,
        30,
        30,
        30,
        29,
        28,
        28,
        28,
        27,
        27,
        27,
        26,
        26,
        26,
        26
      ]
    },
    "SHA": {
      "icao": "ZSSS",
      "issued": "2026-06-19T15:06:00.000Z",
      "raw": "TAF ZSSS 191506Z 1918/2024 21006G14MPS 6000 -SHRA BKN015 TX30/2006Z TN24/1921Z TN24/2021Z TEMPO 1918/1922 2800 TSRA BKN030CB BKN033 BECMG 1922/1923 29004MPS NSW BECMG 2006/2007 10004MPS",
      "groups": [
        {
          "text": "TAF ZSSS 191506Z 1918/2024 21006G14MPS 6000 -SHRA BKN015 TX30/2006Z TN24/1921Z TN24/2021Z",
          "offset_h": -3,
          "wdir": null,
          "wspd": null
        },
        {
          "text": "TEMPO 1918/1922 2800 TSRA BKN030CB BKN033",
          "offset_h": -3,
          "wdir": null,
          "wspd": null
        },
        {
          "text": "BECMG 1922/1923 29004MPS NSW",
          "offset_h": 1,
          "wdir": null,
          "wspd": null
        },
        {
          "text": "BECMG 2006/2007 10004MPS",
          "offset_h": 9,
          "wdir": null,
          "wspd": null
        }
      ],
      "metar_raw": "SPECI ZSSS 192042Z 30002MPS 270V330 6000 -SHRA BKN020 FEW030CB 25/24 Q1003 RESHRA NOSIG",
      "metar_wdir": null,
      "metar_wspd": null,
      "metar_oat": 25,
      "metar_qnh": 1003,
      "hourly_oat": [
        25,
        25,
        26,
        27,
        28,
        28,
        28,
        29,
        30,
        30,
        30,
        30,
        30,
        29,
        27,
        26,
        26,
        25,
        25,
        24,
        24,
        24,
        24,
        24,
        24
      ]
    },
    "PVG": {
      "icao": "ZSPD",
      "issued": "2026-06-19T15:06:00.000Z",
      "raw": "TAF ZSPD 191506Z 1918/2024 21008G15MPS 6000 -SHRA BKN015 TX29/2006Z TN24/1921Z TN24/2021Z TEMPO 1918/1922 2500 TSRA BKN013 BKN030CB BECMG 1923/1924 29004MPS NSW BECMG 2007/2008 10004MPS",
      "groups": [
        {
          "text": "TAF ZSPD 191506Z 1918/2024 21008G15MPS 6000 -SHRA BKN015 TX29/2006Z TN24/1921Z TN24/2021Z",
          "offset_h": -3,
          "wdir": null,
          "wspd": null
        },
        {
          "text": "TEMPO 1918/1922 2500 TSRA BKN013 BKN030CB",
          "offset_h": -3,
          "wdir": null,
          "wspd": null
        },
        {
          "text": "BECMG 1923/1924 29004MPS NSW",
          "offset_h": 2,
          "wdir": null,
          "wspd": null
        },
        {
          "text": "BECMG 2007/2008 10004MPS",
          "offset_h": 10,
          "wdir": null,
          "wspd": null
        }
      ],
      "metar_raw": "METAR ZSPD 192030Z 30003MPS 9999 -SHRA BKN033 26/26 Q1003 NOSIG",
      "metar_wdir": null,
      "metar_wspd": null,
      "metar_oat": 26,
      "metar_qnh": 1003,
      "hourly_oat": [
        25,
        25,
        27,
        28,
        28,
        29,
        29,
        29,
        29,
        28,
        27,
        25,
        25,
        25,
        25,
        25,
        24,
        24,
        24,
        24,
        24,
        24,
        24,
        24,
        24
      ]
    },
    "DLC": {
      "icao": "ZYTL",
      "issued": "2026-06-19T15:04:00.000Z",
      "raw": "TAF ZYTL 191504Z 1918/2018 12004MPS 5000 BR SCT011 TX26/2006Z TN19/1921Z TEMPO 1918/1921 2800 SCT004 BKN008 BKN026",
      "groups": [
        {
          "text": "TAF ZYTL 191504Z 1918/2018 12004MPS 5000 BR SCT011 TX26/2006Z TN19/1921Z",
          "offset_h": -3,
          "wdir": null,
          "wspd": null
        },
        {
          "text": "TEMPO 1918/1921 2800 SCT004 BKN008 BKN026",
          "offset_h": -3,
          "wdir": null,
          "wspd": null
        }
      ],
      "metar_raw": "METAR ZYTL 192030Z 14001MPS 6000 FEW014 BKN026 21/20 Q1002 NOSIG",
      "metar_wdir": null,
      "metar_wspd": null,
      "metar_oat": 21,
      "metar_qnh": 1002,
      "hourly_oat": [
        20,
        21,
        22,
        24,
        25,
        27,
        28,
        28,
        28,
        28,
        28,
        27,
        26,
        26,
        25,
        24,
        24,
        23,
        22,
        22,
        21,
        21,
        21,
        21,
        21
      ]
    },
    "PEK": {
      "icao": "ZBAA",
      "issued": "2026-06-19T15:01:00.000Z",
      "raw": "TAF ZBAA 191501Z 1918/2024 32004MPS 6000 NSC TX29/2007Z TN21/1921Z TN15/2021Z TEMPO 1918/1922 2800 -SHRA FEW040CB BKN040 BECMG 2000/2001 32009G16MPS BECMG 2008/2009 32004MPS",
      "groups": [
        {
          "text": "TAF ZBAA 191501Z 1918/2024 32004MPS 6000 NSC TX29/2007Z TN21/1921Z TN15/2021Z",
          "offset_h": -3,
          "wdir": null,
          "wspd": null
        },
        {
          "text": "TEMPO 1918/1922 2800 -SHRA FEW040CB BKN040",
          "offset_h": -3,
          "wdir": null,
          "wspd": null
        },
        {
          "text": "BECMG 2000/2001 32009G16MPS",
          "offset_h": 3,
          "wdir": null,
          "wspd": null
        },
        {
          "text": "BECMG 2008/2009 32004MPS",
          "offset_h": 11,
          "wdir": null,
          "wspd": null
        }
      ],
      "metar_raw": "METAR ZBAA 192030Z 05001MPS 8000 NSC 21/20 Q1002 NOSIG",
      "metar_wdir": null,
      "metar_wspd": null,
      "metar_oat": 21,
      "metar_qnh": 1002,
      "hourly_oat": [
        20,
        21,
        22,
        23,
        23,
        24,
        26,
        27,
        27,
        28,
        28,
        28,
        28,
        26,
        24,
        22,
        21,
        20,
        18,
        16,
        15,
        15,
        15,
        15,
        14
      ]
    }
  }
}