{
  "updated": "2026-07-17T13:01:35Z",
  "tafs": {
    "SAN": {
      "icao": "KSAN",
      "issued": "2026-07-17T12:11:00.000Z",
      "raw": "TAF KSAN 171211Z 1712/1818 19006KT P6SM SCT012 TEMPO 1712/1716 BKN009 FM171700 20010G18KT P6SM FEW012 FM180200 18008KT P6SM FEW010 FM180500 18007KT P6SM BKN009",
      "groups": [
        {
          "text": "TAF KSAN 171211Z 1712/1818 19006KT P6SM SCT012",
          "offset_h": -1,
          "wdir": 190,
          "wspd": 6
        },
        {
          "text": "TEMPO 1712/1716 BKN009",
          "offset_h": -1,
          "wdir": null,
          "wspd": null
        },
        {
          "text": "FM171700 20010G18KT P6SM FEW012",
          "offset_h": 4,
          "wdir": 200,
          "wspd": 10
        },
        {
          "text": "FM180200 18008KT P6SM FEW010",
          "offset_h": 13,
          "wdir": 180,
          "wspd": 8
        },
        {
          "text": "FM180500 18007KT P6SM BKN009",
          "offset_h": 16,
          "wdir": 180,
          "wspd": 7
        }
      ],
      "hourly_oat": [
        19,
        20,
        22,
        24,
        25,
        26,
        26,
        26,
        26,
        25,
        24,
        23,
        22,
        21,
        21,
        20,
        20,
        19,
        19,
        19,
        19,
        19,
        18,
        18,
        19
      ],
      "metar_oat": 19,
      "metar_qnh": 1011
    },
    "LAX": {
      "icao": "KLAX",
      "issued": "2026-07-17T11:35:00.000Z",
      "raw": "TAF KLAX 171135Z 1712/1818 11008KT P6SM OVC012 FM171800 24006KT P6SM SCT250 FM172000 26011KT P6SM SCT250 FM180300 24006KT P6SM OVC010 FM180600 15005KT P6SM OVC012 FM181700 VRB03KT P6SM OVC015",
      "groups": [
        {
          "text": "TAF KLAX 171135Z 1712/1818 11008KT P6SM OVC012",
          "offset_h": -1,
          "wdir": 110,
          "wspd": 8
        },
        {
          "text": "FM171800 24006KT P6SM SCT250",
          "offset_h": 5,
          "wdir": 240,
          "wspd": 6
        },
        {
          "text": "FM172000 26011KT P6SM SCT250",
          "offset_h": 7,
          "wdir": 260,
          "wspd": 11
        },
        {
          "text": "FM180300 24006KT P6SM OVC010",
          "offset_h": 14,
          "wdir": 240,
          "wspd": 6
        },
        {
          "text": "FM180600 15005KT P6SM OVC012",
          "offset_h": 17,
          "wdir": 150,
          "wspd": 5
        },
        {
          "text": "FM181700 VRB03KT P6SM OVC015",
          "offset_h": 28,
          "wdir": "VRB",
          "wspd": 3
        }
      ],
      "hourly_oat": [
        20,
        21,
        22,
        24,
        26,
        28,
        27,
        27,
        26,
        26,
        26,
        25,
        24,
        22,
        21,
        21,
        21,
        20,
        21,
        20,
        20,
        20,
        19,
        19,
        19
      ],
      "metar_oat": 20,
      "metar_qnh": 1011
    },
    "HNL": {
      "icao": "PHNL",
      "issued": "2026-07-17T11:31:00.000Z",
      "raw": "TAF PHNL 171131Z 1712/1818 06009KT P6SM FEW025 FEW040 FM172100 06015G24KT P6SM FEW025 SCT040 FM180500 06009KT P6SM FEW025 FEW040",
      "groups": [
        {
          "text": "TAF PHNL 171131Z 1712/1818 06009KT P6SM FEW025 FEW040",
          "offset_h": -1,
          "wdir": 60,
          "wspd": 9
        },
        {
          "text": "FM172100 06015G24KT P6SM FEW025 SCT040",
          "offset_h": 8,
          "wdir": 60,
          "wspd": 15
        },
        {
          "text": "FM180500 06009KT P6SM FEW025 FEW040",
          "offset_h": 16,
          "wdir": 60,
          "wspd": 9
        }
      ],
      "hourly_oat": [
        24,
        24,
        24,
        24,
        25,
        27,
        28,
        29,
        29,
        30,
        30,
        30,
        30,
        30,
        28,
        27,
        26,
        25,
        25,
        25,
        25,
        25,
        24,
        24,
        24
      ],
      "metar_oat": 24,
      "metar_qnh": 1015
    },
    "HND": {
      "icao": "RJTT",
      "issued": "2026-07-17T11:05:00.000Z",
      "raw": "TAF RJTT 171105Z 1712/1818 16010KT 9999 FEW015 BKN030",
      "groups": [
        {
          "text": "TAF RJTT 171105Z 1712/1818 16010KT 9999 FEW015 BKN030",
          "offset_h": -1,
          "wdir": 160,
          "wspd": 10
        }
      ],
      "hourly_oat": [
        26,
        26,
        25,
        25,
        25,
        25,
        25,
        25,
        25,
        25,
        25,
        26,
        26,
        26,
        26,
        27,
        27,
        26,
        26,
        27,
        26,
        26,
        26,
        25,
        25
      ],
      "metar_oat": 26,
      "metar_qnh": 1007
    },
    "ITM": {
      "icao": "RJOO",
      "issued": "2026-07-17T11:05:00.000Z",
      "raw": "TAF RJOO 171105Z 1712/1818 25006KT 9999 FEW030 BECMG 1721/1723 10006KT BECMG 1806/1809 24006KT",
      "groups": [
        {
          "text": "TAF RJOO 171105Z 1712/1818 25006KT 9999 FEW030",
          "offset_h": -1,
          "wdir": 250,
          "wspd": 6
        },
        {
          "text": "BECMG 1721/1723 10006KT",
          "offset_h": 8,
          "wdir": 100,
          "wspd": 6
        },
        {
          "text": "BECMG 1806/1809 24006KT",
          "offset_h": 17,
          "wdir": 240,
          "wspd": 6
        }
      ],
      "hourly_oat": [
        29,
        28,
        28,
        27,
        27,
        26,
        26,
        26,
        26,
        27,
        28,
        29,
        30,
        31,
        32,
        32,
        32,
        31,
        31,
        30,
        30,
        29,
        28,
        28,
        28
      ],
      "metar_oat": 29,
      "metar_qnh": 1005
    },
    "OKA": {
      "icao": "ROAH",
      "issued": "2026-07-17T11:05:00.000Z",
      "raw": "TAF ROAH 171105Z 1712/1818 22006KT 9999 FEW005 BKN010 TEMPO 1712/1714 FEW005 BKN008 TEMPO 1714/1721 FEW003 BKN005 TEMPO 1721/1803 FEW005 BKN008 TEMPO 1812/1818 FEW005 BKN008",
      "groups": [
        {
          "text": "TAF ROAH 171105Z 1712/1818 22006KT 9999 FEW005 BKN010",
          "offset_h": -1,
          "wdir": 220,
          "wspd": 6
        },
        {
          "text": "TEMPO 1712/1714 FEW005 BKN008",
          "offset_h": -1,
          "wdir": null,
          "wspd": null
        },
        {
          "text": "TEMPO 1714/1721 FEW003 BKN005",
          "offset_h": 1,
          "wdir": null,
          "wspd": null
        },
        {
          "text": "TEMPO 1721/1803 FEW005 BKN008",
          "offset_h": 8,
          "wdir": null,
          "wspd": null
        },
        {
          "text": "TEMPO 1812/1818 FEW005 BKN008",
          "offset_h": 23,
          "wdir": null,
          "wspd": null
        }
      ],
      "hourly_oat": [
        28,
        28,
        28,
        28,
        28,
        28,
        27,
        27,
        27,
        28,
        29,
        29,
        30,
        30,
        30,
        30,
        30,
        30,
        30,
        30,
        29,
        28,
        28,
        28,
        28
      ],
      "metar_oat": 28,
      "metar_qnh": 1007
    },
    "NGO": {
      "icao": "RJGG",
      "issued": "2026-07-17T11:05:00.000Z",
      "raw": "TAF RJGG 171105Z 1712/1818 12008KT 9999 FEW030",
      "groups": [
        {
          "text": "TAF RJGG 171105Z 1712/1818 12008KT 9999 FEW030",
          "offset_h": -1,
          "wdir": 120,
          "wspd": 8
        }
      ],
      "hourly_oat": [
        26,
        26,
        27,
        27,
        27,
        27,
        26,
        26,
        26,
        26,
        26,
        27,
        27,
        27,
        26,
        27,
        27,
        28,
        28,
        27,
        27,
        27,
        27,
        27,
        27
      ],
      "metar_oat": 26,
      "metar_qnh": 1006
    },
    "CTS": {
      "icao": "RJCC",
      "issued": "2026-07-17T11:05:00.000Z",
      "raw": "TAF RJCC 171105Z 1712/1818 16010KT 6000 -DZ FEW001 BKN012 TEMPO 1712/1721 0700 DZ VV001 TEMPO 1721/1800 1500 -SHRA BR FEW001 BKN003 TEMPO 1800/1806 3000 -SHRA BR FEW003 BKN005 TEMPO 1806/1812 1500 -SHRA BR FEW001 BKN003 TEMPO 1812/1818 15020G30KT 3000 SHRA BR FEW001 BKN003",
      "groups": [
        {
          "text": "TAF RJCC 171105Z 1712/1818 16010KT 6000 -DZ FEW001 BKN012",
          "offset_h": -1,
          "wdir": 160,
          "wspd": 10
        },
        {
          "text": "TEMPO 1712/1721 0700 DZ VV001",
          "offset_h": -1,
          "wdir": null,
          "wspd": null
        },
        {
          "text": "TEMPO 1721/1800 1500 -SHRA BR FEW001 BKN003",
          "offset_h": 8,
          "wdir": null,
          "wspd": null
        },
        {
          "text": "TEMPO 1800/1806 3000 -SHRA BR FEW003 BKN005",
          "offset_h": 11,
          "wdir": null,
          "wspd": null
        },
        {
          "text": "TEMPO 1806/1812 1500 -SHRA BR FEW001 BKN003",
          "offset_h": 17,
          "wdir": null,
          "wspd": null
        },
        {
          "text": "TEMPO 1812/1818 15020G30KT 3000 SHRA BR FEW001 BKN003",
          "offset_h": 23,
          "wdir": 150,
          "wspd": 20
        }
      ],
      "hourly_oat": [
        22,
        21,
        21,
        21,
        21,
        21,
        21,
        21,
        22,
        22,
        22,
        22,
        22,
        22,
        21,
        22,
        22,
        21,
        21,
        20,
        20,
        20,
        20,
        20,
        20
      ],
      "metar_oat": 22,
      "metar_qnh": 1009
    },
    "FUK": {
      "icao": "RJFF",
      "issued": "2026-07-17T11:05:00.000Z",
      "raw": "TAF RJFF 171105Z 1712/1818 15010KT 9999 FEW040",
      "groups": [
        {
          "text": "TAF RJFF 171105Z 1712/1818 15010KT 9999 FEW040",
          "offset_h": -1,
          "wdir": 150,
          "wspd": 10
        }
      ],
      "hourly_oat": [
        28,
        28,
        28,
        28,
        27,
        27,
        27,
        27,
        27,
        27,
        28,
        29,
        31,
        32,
        33,
        33,
        33,
        31,
        31,
        31,
        31,
        30,
        30,
        29,
        29
      ],
      "metar_oat": 28,
      "metar_qnh": 1004
    },
    "NRT": {
      "icao": "RJAA",
      "issued": "2026-07-17T11:05:00.000Z",
      "raw": "TAF RJAA 171105Z 1712/1818 14006KT 8000 FEW005 BKN012 TEMPO 1712/1715 FEW002 BKN005 TEMPO 1715/1800 FEW003 BKN008 TEMPO 1812/1818 FEW003 BKN008",
      "groups": [
        {
          "text": "TAF RJAA 171105Z 1712/1818 14006KT 8000 FEW005 BKN012",
          "offset_h": -1,
          "wdir": 140,
          "wspd": 6
        },
        {
          "text": "TEMPO 1712/1715 FEW002 BKN005",
          "offset_h": -1,
          "wdir": null,
          "wspd": null
        },
        {
          "text": "TEMPO 1715/1800 FEW003 BKN008",
          "offset_h": 2,
          "wdir": null,
          "wspd": null
        },
        {
          "text": "TEMPO 1812/1818 FEW003 BKN008",
          "offset_h": 23,
          "wdir": null,
          "wspd": null
        }
      ],
      "hourly_oat": [
        25,
        25,
        24,
        24,
        24,
        24,
        24,
        24,
        24,
        24,
        24,
        25,
        25,
        26,
        26,
        26,
        26,
        26,
        26,
        26,
        25,
        25,
        24,
        24,
        24
      ],
      "metar_oat": 25,
      "metar_qnh": 1007
    },
    "KIX": {
      "icao": "RJBB",
      "issued": "2026-07-17T11:05:00.000Z",
      "raw": "TAF RJBB 171105Z 1712/1818 18006KT 9999 FEW030 BECMG 1715/1717 12004KT BECMG 1800/1803 25010KT BECMG 1812/1815 19006KT",
      "groups": [
        {
          "text": "TAF RJBB 171105Z 1712/1818 18006KT 9999 FEW030",
          "offset_h": -1,
          "wdir": 180,
          "wspd": 6
        },
        {
          "text": "BECMG 1715/1717 12004KT",
          "offset_h": 2,
          "wdir": 120,
          "wspd": 4
        },
        {
          "text": "BECMG 1800/1803 25010KT",
          "offset_h": 11,
          "wdir": 250,
          "wspd": 10
        },
        {
          "text": "BECMG 1812/1815 19006KT",
          "offset_h": 23,
          "wdir": 190,
          "wspd": 6
        }
      ],
      "hourly_oat": [
        28,
        28,
        28,
        28,
        28,
        28,
        28,
        27,
        27,
        27,
        27,
        27,
        27,
        27,
        27,
        28,
        28,
        29,
        29,
        29,
        28,
        28,
        28,
        28,
        28
      ],
      "metar_oat": 28,
      "metar_qnh": 1004
    },
    "BKK": {
      "icao": "VTBS",
      "issued": "2026-07-17T11:00:00.000Z",
      "raw": "TAF VTBS 171100Z 1712/1818 20008KT 9999 FEW020 TEMPO 1712/1716 VRB15KT 4000 TSRA FEW018CB SCT030 BKN100 TEMPO 1810/1814 VRB15KT 4000 TSRA FEW018CB SCT030 BKN100",
      "groups": [
        {
          "text": "TAF VTBS 171100Z 1712/1818 20008KT 9999 FEW020",
          "offset_h": -1,
          "wdir": 200,
          "wspd": 8
        },
        {
          "text": "TEMPO 1712/1716 VRB15KT 4000 TSRA FEW018CB SCT030 BKN100",
          "offset_h": -1,
          "wdir": "VRB",
          "wspd": 15
        },
        {
          "text": "TEMPO 1810/1814 VRB15KT 4000 TSRA FEW018CB SCT030 BKN100",
          "offset_h": 21,
          "wdir": "VRB",
          "wspd": 15
        }
      ],
      "hourly_oat": [
        26,
        26,
        27,
        27,
        27,
        27,
        27,
        26,
        26,
        25,
        25,
        26,
        28,
        29,
        30,
        31,
        32,
        32,
        32,
        32,
        32,
        31,
        30,
        29,
        28
      ],
      "metar_oat": 26,
      "metar_qnh": 1009
    },
    "TSA": {
      "icao": "RCSS",
      "issued": "2026-07-17T11:00:00.000Z",
      "raw": "TAF RCSS 171100Z 1712/1812 30005KT 9999 FEW015 BKN032 BECMG 1723/1801 27010KT TEMPO 1802/1808 29015G25KT TEMPO 1804/1810 5000 SHRA SCT010 FEW015CB BKN020 BECMG 1810/1812 30005KT",
      "groups": [
        {
          "text": "TAF RCSS 171100Z 1712/1812 30005KT 9999 FEW015 BKN032",
          "offset_h": -1,
          "wdir": 300,
          "wspd": 5
        },
        {
          "text": "BECMG 1723/1801 27010KT",
          "offset_h": 10,
          "wdir": 270,
          "wspd": 10
        },
        {
          "text": "TEMPO 1802/1808 29015G25KT",
          "offset_h": 13,
          "wdir": 290,
          "wspd": 15
        },
        {
          "text": "TEMPO 1804/1810 5000 SHRA SCT010 FEW015CB BKN020",
          "offset_h": 15,
          "wdir": null,
          "wspd": null
        },
        {
          "text": "BECMG 1810/1812 30005KT",
          "offset_h": 21,
          "wdir": 300,
          "wspd": 5
        }
      ],
      "hourly_oat": [
        28,
        27,
        27,
        27,
        26,
        26,
        26,
        26,
        26,
        26,
        28,
        29,
        31,
        32,
        32,
        32,
        32,
        33,
        32,
        32,
        32,
        30,
        29,
        28,
        28
      ],
      "metar_oat": 28,
      "metar_qnh": 1007
    },
    "TPE": {
      "icao": "RCTP",
      "issued": "2026-07-17T11:00:00.000Z",
      "raw": "TAF RCTP 171100Z 1712/1818 23010KT 9999 FEW015 TEMPO 1716/1722 20005KT BECMG 1722/1724 24015KT TEMPO 1803/1809 25020KT BECMG 1810/1812 23008KT",
      "groups": [
        {
          "text": "TAF RCTP 171100Z 1712/1818 23010KT 9999 FEW015",
          "offset_h": -1,
          "wdir": 230,
          "wspd": 10
        },
        {
          "text": "TEMPO 1716/1722 20005KT",
          "offset_h": 3,
          "wdir": 200,
          "wspd": 5
        },
        {
          "text": "BECMG 1722/1724 24015KT",
          "offset_h": 9,
          "wdir": 240,
          "wspd": 15
        },
        {
          "text": "TEMPO 1803/1809 25020KT",
          "offset_h": 14,
          "wdir": 250,
          "wspd": 20
        },
        {
          "text": "BECMG 1810/1812 23008KT",
          "offset_h": 21,
          "wdir": 230,
          "wspd": 8
        }
      ],
      "hourly_oat": [
        28,
        28,
        27,
        27,
        27,
        27,
        27,
        27,
        28,
        27,
        28,
        29,
        30,
        30,
        31,
        31,
        31,
        31,
        30,
        30,
        30,
        30,
        29,
        28,
        28
      ],
      "metar_oat": 28,
      "metar_qnh": 1007
    },
    "HKG": {
      "icao": "VHHH",
      "issued": "2026-07-17T11:00:00.000Z",
      "raw": "TAF VHHH 171100Z 1712/1818 21010KT 9999 FEW010 SCT025 TX31/1806Z TN27/1722Z TEMPO 1721/1803 24015G25KT 2500 TSRA SHRA FEW008CB SCT015",
      "groups": [
        {
          "text": "TAF VHHH 171100Z 1712/1818 21010KT 9999 FEW010 SCT025 TX31/1806Z TN27/1722Z",
          "offset_h": -1,
          "wdir": 210,
          "wspd": 10
        },
        {
          "text": "TEMPO 1721/1803 24015G25KT 2500 TSRA SHRA FEW008CB SCT015",
          "offset_h": 8,
          "wdir": 240,
          "wspd": 15
        }
      ],
      "hourly_oat": [
        27,
        27,
        28,
        28,
        28,
        28,
        28,
        28,
        27,
        27,
        27,
        28,
        27,
        28,
        29,
        30,
        30,
        29,
        29,
        29,
        29,
        29,
        29,
        29,
        29
      ],
      "metar_oat": 27,
      "metar_qnh": 1006
    },
    "CGK": {
      "icao": "WIII",
      "issued": "2026-07-17T11:00:00.000Z",
      "raw": "TAF COR WIII 171100Z 1712/1818 06012KT 7000 FEW020 BECMG 1714/1716 12005KT 5000 HZ BECMG 1801/1803 06013KT 8000 NSW",
      "groups": [
        {
          "text": "TAF COR WIII 171100Z 1712/1818 06012KT 7000 FEW020",
          "offset_h": -1,
          "wdir": 60,
          "wspd": 12
        },
        {
          "text": "BECMG 1714/1716 12005KT 5000 HZ",
          "offset_h": 1,
          "wdir": 120,
          "wspd": 5
        },
        {
          "text": "BECMG 1801/1803 06013KT 8000 NSW",
          "offset_h": 12,
          "wdir": 60,
          "wspd": 13
        }
      ],
      "hourly_oat": [
        28,
        28,
        28,
        27,
        27,
        27,
        26,
        26,
        25,
        25,
        25,
        26,
        28,
        30,
        32,
        33,
        34,
        34,
        33,
        32,
        31,
        30,
        29,
        28,
        28
      ],
      "metar_oat": 28,
      "metar_qnh": 1011
    },
    "GMP": {
      "icao": "RKSS",
      "issued": "2026-07-17T11:00:00.000Z",
      "raw": "TAF RKSS 171100Z 1712/1818 09006KT 6000 -RA BKN030 BKN100 TN23/1721Z TX27/1806Z BECMG 1714/1716 4000 RA SCT010 BKN025 OVC070 TEMPO 1717/1801 06008G20KT 2000 +RA SCT008CB BKN020 OVC060 BECMG 1803/1805 -RA BECMG 1806/1808 13006KT 6000 BECMG 1816/1818 10006KT NSW",
      "groups": [
        {
          "text": "TAF RKSS 171100Z 1712/1818 09006KT 6000 -RA BKN030 BKN100 TN23/1721Z TX27/1806Z",
          "offset_h": -1,
          "wdir": 90,
          "wspd": 6
        },
        {
          "text": "BECMG 1714/1716 4000 RA SCT010 BKN025 OVC070",
          "offset_h": 1,
          "wdir": null,
          "wspd": null
        },
        {
          "text": "TEMPO 1717/1801 06008G20KT 2000 +RA SCT008CB BKN020 OVC060",
          "offset_h": 4,
          "wdir": 60,
          "wspd": 8
        },
        {
          "text": "BECMG 1803/1805 -RA",
          "offset_h": 14,
          "wdir": null,
          "wspd": null
        },
        {
          "text": "BECMG 1806/1808 13006KT 6000",
          "offset_h": 17,
          "wdir": 130,
          "wspd": 6
        },
        {
          "text": "BECMG 1816/1818 10006KT NSW",
          "offset_h": 27,
          "wdir": 100,
          "wspd": 6
        }
      ],
      "hourly_oat": [
        25,
        25,
        24,
        24,
        23,
        23,
        23,
        23,
        23,
        24,
        22,
        21,
        22,
        23,
        25,
        26,
        27,
        27,
        27,
        26,
        25,
        24,
        24,
        23,
        23
      ],
      "metar_oat": 25,
      "metar_qnh": 1002
    },
    "SIN": {
      "icao": "WSSS",
      "issued": "2026-07-17T11:00:00.000Z",
      "raw": "TAF WSSS 171100Z 1712/1818 13007KT 9999 FEW015 SCT020",
      "groups": [
        {
          "text": "TAF WSSS 171100Z 1712/1818 13007KT 9999 FEW015 SCT020",
          "offset_h": -1,
          "wdir": 130,
          "wspd": 7
        }
      ],
      "hourly_oat": [
        28,
        28,
        28,
        28,
        28,
        27,
        27,
        26,
        27,
        26,
        26,
        26,
        27,
        28,
        29,
        29,
        29,
        30,
        29,
        29,
        27,
        28,
        27,
        27,
        26
      ],
      "metar_oat": 28,
      "metar_qnh": 1011
    },
    "KUL": {
      "icao": "WMKK",
      "issued": "2026-07-17T11:00:00.000Z",
      "raw": "TAF WMKK 171100Z 1712/1818 VRB03KT 9999 FEW027 TEMPO 1718/1722 5000 TSRA FEW017CB",
      "groups": [
        {
          "text": "TAF WMKK 171100Z 1712/1818 VRB03KT 9999 FEW027",
          "offset_h": -1,
          "wdir": "VRB",
          "wspd": 3
        },
        {
          "text": "TEMPO 1718/1722 5000 TSRA FEW017CB",
          "offset_h": 5,
          "wdir": null,
          "wspd": null
        }
      ],
      "hourly_oat": [
        25,
        25,
        24,
        24,
        24,
        24,
        23,
        23,
        23,
        23,
        23,
        23,
        24,
        25,
        27,
        28,
        29,
        29,
        28,
        26,
        25,
        25,
        25,
        24,
        24
      ],
      "metar_oat": 25,
      "metar_qnh": 1011
    },
    "HAN": {
      "icao": "VVNB",
      "issued": "2026-07-17T11:00:00.000Z",
      "raw": "TAF VVNB 171100Z 1712/1812 24007KT 9999 FEW025 TEMPO 1722/1802 4000 SHRA SCT012 FEW025TCU",
      "groups": [
        {
          "text": "TAF VVNB 171100Z 1712/1812 24007KT 9999 FEW025",
          "offset_h": -1,
          "wdir": 240,
          "wspd": 7
        },
        {
          "text": "TEMPO 1722/1802 4000 SHRA SCT012 FEW025TCU",
          "offset_h": 9,
          "wdir": null,
          "wspd": null
        }
      ],
      "hourly_oat": [
        30,
        29,
        29,
        29,
        28,
        28,
        28,
        28,
        27,
        27,
        28,
        29,
        30,
        31,
        32,
        33,
        33,
        33,
        34,
        34,
        31,
        30,
        30,
        29,
        29
      ],
      "metar_oat": 30,
      "metar_qnh": 1001
    },
    "SGN": {
      "icao": "VVTS",
      "issued": "2026-07-17T11:00:00.000Z",
      "raw": "TAF VVTS 171100Z 1712/1818 26010KT 9999 SCT017 PROB40 TEMPO 1712/1715 5000 TSRA BKN015 FEW017CB TEMPO 1805/1810 5000 TSRA BKN015 FEW017CB",
      "groups": [
        {
          "text": "TAF VVTS 171100Z 1712/1818 26010KT 9999 SCT017",
          "offset_h": -1,
          "wdir": 260,
          "wspd": 10
        },
        {
          "text": "PROB40",
          "offset_h": 0,
          "wdir": null,
          "wspd": null
        },
        {
          "text": "TEMPO 1712/1715 5000 TSRA BKN015 FEW017CB",
          "offset_h": -1,
          "wdir": null,
          "wspd": null
        },
        {
          "text": "TEMPO 1805/1810 5000 TSRA BKN015 FEW017CB",
          "offset_h": 16,
          "wdir": null,
          "wspd": null
        }
      ],
      "hourly_oat": [
        28,
        28,
        27,
        27,
        26,
        26,
        26,
        26,
        25,
        25,
        25,
        27,
        28,
        30,
        31,
        32,
        32,
        33,
        33,
        27,
        27,
        27,
        27,
        27,
        27
      ],
      "metar_oat": 28,
      "metar_qnh": 1010
    },
    "PVG": {
      "icao": "ZSPD",
      "issued": "2026-07-17T09:06:00.000Z",
      "raw": "TAF ZSPD 170906Z 1712/1818 23004MPS 8000 SCT030 TX35/1712Z TX34/1806Z TN28/1721Z TEMPO 1805/1809 TSRA BKN008 FEW030CB",
      "groups": [
        {
          "text": "TAF ZSPD 170906Z 1712/1818 23004MPS 8000 SCT030 TX35/1712Z TX34/1806Z TN28/1721Z",
          "offset_h": -1,
          "wdir": null,
          "wspd": null
        },
        {
          "text": "TEMPO 1805/1809 TSRA BKN008 FEW030CB",
          "offset_h": 16,
          "wdir": null,
          "wspd": null
        }
      ],
      "hourly_oat": [
        31,
        31,
        31,
        31,
        30,
        30,
        30,
        30,
        30,
        30,
        32,
        33,
        35,
        36,
        36,
        36,
        36,
        33,
        33,
        32,
        29,
        30,
        30,
        29,
        29
      ],
      "metar_oat": 31,
      "metar_qnh": 1001
    },
    "DLC": {
      "icao": "ZYTL",
      "issued": "2026-07-17T09:06:00.000Z",
      "raw": "TAF ZYTL 170906Z 1712/1812 35004MPS 4000 BR SCT020 TX28/1806Z TN23/1720Z TEMPO 1712/1716 11005MPS",
      "groups": [
        {
          "text": "TAF ZYTL 170906Z 1712/1812 35004MPS 4000 BR SCT020 TX28/1806Z TN23/1720Z",
          "offset_h": -1,
          "wdir": null,
          "wspd": null
        },
        {
          "text": "TEMPO 1712/1716 11005MPS",
          "offset_h": -1,
          "wdir": null,
          "wspd": null
        }
      ],
      "hourly_oat": [
        24,
        23,
        23,
        23,
        23,
        23,
        23,
        23,
        23,
        24,
        24,
        25,
        26,
        27,
        28,
        28,
        28,
        28,
        28,
        28,
        28,
        27,
        26,
        25,
        24
      ],
      "metar_oat": 24,
      "metar_qnh": 1003
    },
    "SHA": {
      "icao": "ZSSS",
      "issued": "2026-07-17T09:06:00.000Z",
      "raw": "TAF ZSSS 170906Z 1712/1818 24004MPS 8000 SCT030 TX36/1712Z TX35/1803Z TN28/1721Z TEMPO 1804/1808 TSRA BKN011 FEW030CB",
      "groups": [
        {
          "text": "TAF ZSSS 170906Z 1712/1818 24004MPS 8000 SCT030 TX36/1712Z TX35/1803Z TN28/1721Z",
          "offset_h": -1,
          "wdir": null,
          "wspd": null
        },
        {
          "text": "TEMPO 1804/1808 TSRA BKN011 FEW030CB",
          "offset_h": 15,
          "wdir": null,
          "wspd": null
        }
      ],
      "hourly_oat": [
        34,
        34,
        33,
        32,
        32,
        32,
        31,
        31,
        31,
        31,
        32,
        34,
        34,
        35,
        36,
        36,
        35,
        36,
        36,
        34,
        34,
        33,
        32,
        30,
        30
      ],
      "metar_oat": 34,
      "metar_qnh": 1000
    },
    "CAN": {
      "icao": "ZGGG",
      "issued": "2026-07-17T09:02:00.000Z",
      "raw": "TAF ZGGG 170902Z 1712/1818 18003MPS 8000 BKN033 TX29/1712Z TX33/1807Z TN26/1722Z TEMPO 1806/1810 TSRA SCT026CB BKN033",
      "groups": [
        {
          "text": "TAF ZGGG 170902Z 1712/1818 18003MPS 8000 BKN033 TX29/1712Z TX33/1807Z TN26/1722Z",
          "offset_h": -1,
          "wdir": null,
          "wspd": null
        },
        {
          "text": "TEMPO 1806/1810 TSRA SCT026CB BKN033",
          "offset_h": 17,
          "wdir": null,
          "wspd": null
        }
      ],
      "hourly_oat": [
        27,
        27,
        27,
        26,
        26,
        26,
        26,
        25,
        25,
        25,
        25,
        26,
        28,
        29,
        30,
        32,
        33,
        33,
        31,
        28,
        28,
        29,
        28,
        26,
        26
      ],
      "metar_oat": 27,
      "metar_qnh": 1005
    },
    "PEK": {
      "icao": "ZBAA",
      "issued": "2026-07-17T09:00:00.000Z",
      "raw": "TAF ZBAA 170900Z 1712/1818 18003MPS CAVOK TX31/1806Z TN23/1721Z TN24/1818Z TEMPO 1808/1812 -TSRA FEW040CB BKN040",
      "groups": [
        {
          "text": "TAF ZBAA 170900Z 1712/1818 18003MPS CAVOK TX31/1806Z TN23/1721Z TN24/1818Z",
          "offset_h": -1,
          "wdir": null,
          "wspd": null
        },
        {
          "text": "TEMPO 1808/1812 -TSRA FEW040CB BKN040",
          "offset_h": 19,
          "wdir": null,
          "wspd": null
        }
      ],
      "hourly_oat": [
        24,
        24,
        24,
        23,
        22,
        22,
        22,
        21,
        21,
        21,
        23,
        24,
        25,
        26,
        28,
        29,
        29,
        30,
        29,
        29,
        28,
        28,
        26,
        26,
        25
      ],
      "metar_oat": 24,
      "metar_qnh": 1002
    }
  }
}