{
  "updated": "2026-07-17T16:58:19Z",
  "tafs": {
    "SHA": {
      "icao": "ZSSS",
      "issued": "2026-07-17T15:06:00.000Z",
      "raw": "TAF ZSSS 171506Z 1718/1824 21004MPS 8000 SCT030 TX35/1806Z TN28/1721Z TN27/1821Z TEMPO 1804/1808 TSRA BKN011 FEW030CB BECMG 1811/1812 03004MPS",
      "groups": [
        {
          "text": "TAF ZSSS 171506Z 1718/1824 21004MPS 8000 SCT030 TX35/1806Z TN28/1721Z TN27/1821Z",
          "offset_h": 2,
          "wdir": null,
          "wspd": null
        },
        {
          "text": "TEMPO 1804/1808 TSRA BKN011 FEW030CB",
          "offset_h": 12,
          "wdir": null,
          "wspd": null
        },
        {
          "text": "BECMG 1811/1812 03004MPS",
          "offset_h": 19,
          "wdir": null,
          "wspd": null
        }
      ],
      "metar_raw": "METAR ZSSS 171630Z 19005MPS CAVOK 32/26 Q0999 NOSIG",
      "metar_wdir": null,
      "metar_wspd": null,
      "metar_oat": 32,
      "metar_qnh": 999,
      "hourly_oat": [
        32,
        32,
        32,
        31,
        31,
        31,
        31,
        32,
        34,
        34,
        35,
        36,
        36,
        35,
        36,
        36,
        34,
        34,
        33,
        32,
        30,
        30,
        30,
        30,
        29
      ]
    },
    "DLC": {
      "icao": "ZYTL",
      "issued": "2026-07-17T15:06:00.000Z",
      "raw": "TAF ZYTL 171506Z 1718/1818 35004MPS 5000 BR FEW033 TX28/1806Z TN23/1720Z",
      "groups": [
        {
          "text": "TAF ZYTL 171506Z 1718/1818 35004MPS 5000 BR FEW033 TX28/1806Z TN23/1720Z",
          "offset_h": 2,
          "wdir": null,
          "wspd": null
        }
      ],
      "metar_raw": "METAR ZYTL 171630Z 34002MPS 5000 BR SCT033 24/23 Q1001 NOSIG",
      "metar_wdir": null,
      "metar_wspd": null,
      "metar_oat": 24,
      "metar_qnh": 1001,
      "hourly_oat": [
        23,
        23,
        23,
        23,
        23,
        23,
        24,
        24,
        25,
        26,
        27,
        28,
        28,
        28,
        28,
        28,
        28,
        28,
        27,
        26,
        25,
        24,
        24,
        24,
        24
      ]
    },
    "PVG": {
      "icao": "ZSPD",
      "issued": "2026-07-17T15:05:00.000Z",
      "raw": "TAF ZSPD 171505Z 1718/1824 21004MPS 8000 SCT030 TX34/1806Z TN28/1721Z TN26/1821Z TEMPO 1804/1808 TSRA BKN008 FEW030CB BECMG 1809/1810 03004MPS",
      "groups": [
        {
          "text": "TAF ZSPD 171505Z 1718/1824 21004MPS 8000 SCT030 TX34/1806Z TN28/1721Z TN26/1821Z",
          "offset_h": 2,
          "wdir": null,
          "wspd": null
        },
        {
          "text": "TEMPO 1804/1808 TSRA BKN008 FEW030CB",
          "offset_h": 12,
          "wdir": null,
          "wspd": null
        },
        {
          "text": "BECMG 1809/1810 03004MPS",
          "offset_h": 17,
          "wdir": null,
          "wspd": null
        }
      ],
      "metar_raw": "METAR ZSPD 171630Z 18004MPS CAVOK 31/26 Q1000 NOSIG",
      "metar_wdir": null,
      "metar_wspd": null,
      "metar_oat": 31,
      "metar_qnh": 1000,
      "hourly_oat": [
        31,
        30,
        30,
        30,
        30,
        30,
        30,
        32,
        33,
        35,
        36,
        36,
        36,
        36,
        33,
        33,
        32,
        29,
        30,
        30,
        29,
        29,
        29,
        29,
        29
      ]
    },
    "HNL": {
      "icao": "PHNL",
      "issued": "2026-07-17T15:01:00.000Z",
      "raw": "TAF PHNL 171501Z 1715/1818 06009KT P6SM FEW025 FEW040 FM172100 06015G24KT P6SM FEW025 SCT040 FM180500 06009KT P6SM FEW025 FEW040",
      "groups": [
        {
          "text": "TAF PHNL 171501Z 1715/1818 06009KT P6SM FEW025 FEW040",
          "offset_h": -1,
          "wdir": 60,
          "wspd": 9
        },
        {
          "text": "FM172100 06015G24KT P6SM FEW025 SCT040",
          "offset_h": 5,
          "wdir": 60,
          "wspd": 15
        },
        {
          "text": "FM180500 06009KT P6SM FEW025 FEW040",
          "offset_h": 13,
          "wdir": 60,
          "wspd": 9
        }
      ],
      "metar_raw": "METAR PHNL 171653Z 05004KT 10SM FEW024 SCT045 26/21 A3002 RMK AO2 SLP165 T02610206 $",
      "metar_wdir": 50,
      "metar_wspd": 4,
      "metar_oat": 26,
      "metar_qnh": 1017,
      "hourly_oat": [
        24,
        25,
        27,
        28,
        29,
        29,
        30,
        30,
        30,
        30,
        30,
        28,
        27,
        26,
        25,
        25,
        25,
        25,
        25,
        24,
        24,
        24,
        24,
        24,
        24
      ]
    },
    "CAN": {
      "icao": "ZGGG",
      "issued": "2026-07-17T15:01:00.000Z",
      "raw": "TAF ZGGG 171501Z 1718/1824 16003MPS 8000 BKN033 TX33/1807Z TN27/1722Z TN27/1822Z TEMPO 1806/1810 TSRA SCT026CB BKN033",
      "groups": [
        {
          "text": "TAF ZGGG 171501Z 1718/1824 16003MPS 8000 BKN033 TX33/1807Z TN27/1722Z TN27/1822Z",
          "offset_h": 2,
          "wdir": null,
          "wspd": null
        },
        {
          "text": "TEMPO 1806/1810 TSRA SCT026CB BKN033",
          "offset_h": 14,
          "wdir": null,
          "wspd": null
        }
      ],
      "metar_raw": "METAR ZGGG 171630Z 13002MPS 9999 FEW020 29/26 Q1005 NOSIG",
      "metar_wdir": null,
      "metar_wspd": null,
      "metar_oat": 29,
      "metar_qnh": 1005,
      "hourly_oat": [
        26,
        26,
        26,
        26,
        25,
        25,
        25,
        25,
        26,
        28,
        29,
        30,
        32,
        33,
        33,
        31,
        28,
        28,
        29,
        28,
        26,
        26,
        26,
        26,
        26
      ]
    },
    "PEK": {
      "icao": "ZBAA",
      "issued": "2026-07-17T15:00:00.000Z",
      "raw": "TAF ZBAA 171500Z 1718/1824 18003MPS CAVOK TX31/1806Z TN23/1721Z TN22/1821Z TEMPO 1808/1812 -TSRA FEW040CB BKN040",
      "groups": [
        {
          "text": "TAF ZBAA 171500Z 1718/1824 18003MPS CAVOK TX31/1806Z TN23/1721Z TN22/1821Z",
          "offset_h": 2,
          "wdir": null,
          "wspd": null
        },
        {
          "text": "TEMPO 1808/1812 -TSRA FEW040CB BKN040",
          "offset_h": 16,
          "wdir": null,
          "wspd": null
        }
      ],
      "metar_raw": "METAR ZBAA 171630Z 16002MPS CAVOK 25/21 Q1002 NOSIG",
      "metar_wdir": null,
      "metar_wspd": null,
      "metar_oat": 25,
      "metar_qnh": 1002,
      "hourly_oat": [
        23,
        22,
        22,
        22,
        21,
        21,
        21,
        23,
        24,
        25,
        26,
        28,
        29,
        29,
        30,
        29,
        29,
        28,
        28,
        26,
        26,
        25,
        24,
        24,
        24
      ]
    },
    "LAX": {
      "icao": "KLAX",
      "issued": "2026-07-17T14:57:00.000Z",
      "raw": "TAF KLAX 171457Z 1715/1818 15005KT P6SM BKN015 FM171800 24008KT P6SM SCT020 SCT250 FM172000 25012KT P6SM FEW020 SCT250 FM180300 24006KT P6SM OVC012 FM180600 12007KT P6SM OVC015 FM181700 15007KT P6SM OVC018",
      "groups": [
        {
          "text": "TAF KLAX 171457Z 1715/1818 15005KT P6SM BKN015",
          "offset_h": -1,
          "wdir": 150,
          "wspd": 5
        },
        {
          "text": "FM171800 24008KT P6SM SCT020 SCT250",
          "offset_h": 2,
          "wdir": 240,
          "wspd": 8
        },
        {
          "text": "FM172000 25012KT P6SM FEW020 SCT250",
          "offset_h": 4,
          "wdir": 250,
          "wspd": 12
        },
        {
          "text": "FM180300 24006KT P6SM OVC012",
          "offset_h": 11,
          "wdir": 240,
          "wspd": 6
        },
        {
          "text": "FM180600 12007KT P6SM OVC015",
          "offset_h": 14,
          "wdir": 120,
          "wspd": 7
        },
        {
          "text": "FM181700 15007KT P6SM OVC018",
          "offset_h": 25,
          "wdir": 150,
          "wspd": 7
        }
      ],
      "metar_raw": "METAR KLAX 171653Z VRB06KT 10SM SCT021 BKN180 24/18 A2993 RMK AO2 SLP133 T02440178 $",
      "metar_wdir": "VRB",
      "metar_wspd": 6,
      "metar_oat": 24,
      "metar_qnh": 1014,
      "hourly_oat": [
        22,
        24,
        27,
        30,
        28,
        27,
        26,
        25,
        24,
        23,
        22,
        21,
        21,
        21,
        21,
        20,
        20,
        20,
        20,
        20,
        20,
        20,
        20,
        20,
        21
      ]
    },
    "SAN": {
      "icao": "KSAN",
      "issued": "2026-07-17T14:39:00.000Z",
      "raw": "TAF KSAN 171439Z 1715/1818 19006KT P6SM BKN012 BKN150 FM171600 20010G18KT P6SM FEW012 FM180200 18008KT P6SM FEW010 FM180500 18007KT P6SM BKN009",
      "groups": [
        {
          "text": "TAF KSAN 171439Z 1715/1818 19006KT P6SM BKN012 BKN150",
          "offset_h": -1,
          "wdir": 190,
          "wspd": 6
        },
        {
          "text": "FM171600 20010G18KT P6SM FEW012",
          "offset_h": 0,
          "wdir": 200,
          "wspd": 10
        },
        {
          "text": "FM180200 18008KT P6SM FEW010",
          "offset_h": 10,
          "wdir": 180,
          "wspd": 8
        },
        {
          "text": "FM180500 18007KT P6SM BKN009",
          "offset_h": 13,
          "wdir": 180,
          "wspd": 7
        }
      ],
      "metar_raw": "METAR KSAN 171651Z AUTO 9SM A2995 RMK AO2 SLP143 PWINO PNO $",
      "metar_wdir": null,
      "metar_wspd": null,
      "metar_oat": 24,
      "metar_qnh": 1014,
      "hourly_oat": [
        23,
        25,
        26,
        26,
        27,
        26,
        26,
        25,
        24,
        23,
        21,
        21,
        20,
        20,
        20,
        20,
        20,
        20,
        19,
        19,
        20,
        20,
        20,
        20,
        21
      ]
    },
    "HKG": {
      "icao": "VHHH",
      "issued": "2026-07-17T14:00:00.000Z",
      "raw": "TAF VHHH 171400Z 1715/1821 18010KT 9999 FEW010 SCT025 TX31/1806Z TN27/1722Z TEMPO 1721/1803 24015G25KT 2500 TSRA SHRA FEW008CB SCT015",
      "groups": [
        {
          "text": "TAF VHHH 171400Z 1715/1821 18010KT 9999 FEW010 SCT025 TX31/1806Z TN27/1722Z",
          "offset_h": -1,
          "wdir": 180,
          "wspd": 10
        },
        {
          "text": "TEMPO 1721/1803 24015G25KT 2500 TSRA SHRA FEW008CB SCT015",
          "offset_h": 5,
          "wdir": 240,
          "wspd": 15
        }
      ],
      "metar_raw": "METAR VHHH 171630Z 19010KT 9999 FEW010 SCT025 29/26 Q1006 NOSIG",
      "metar_wdir": 190,
      "metar_wspd": 10,
      "metar_oat": 29,
      "metar_qnh": 1006,
      "hourly_oat": [
        28,
        28,
        28,
        28,
        28,
        27,
        27,
        27,
        28,
        27,
        28,
        29,
        30,
        30,
        29,
        29,
        29,
        29,
        29,
        29,
        29,
        29,
        29,
        29,
        28
      ]
    },
    "NRT": {
      "icao": "RJAA",
      "issued": "2026-07-17T11:05:00.000Z",
      "raw": "TAF RJAA 171105Z 1712/1818 14006KT 8000 FEW005 BKN012 TEMPO 1712/1715 FEW002 BKN005 TEMPO 1715/1800 FEW003 BKN008 TEMPO 1812/1818 FEW003 BKN008",
      "groups": [
        {
          "text": "TAF RJAA 171105Z 1712/1818 14006KT 8000 FEW005 BKN012",
          "offset_h": -4,
          "wdir": 140,
          "wspd": 6
        },
        {
          "text": "TEMPO 1712/1715 FEW002 BKN005",
          "offset_h": -4,
          "wdir": null,
          "wspd": null
        },
        {
          "text": "TEMPO 1715/1800 FEW003 BKN008",
          "offset_h": -1,
          "wdir": null,
          "wspd": null
        },
        {
          "text": "TEMPO 1812/1818 FEW003 BKN008",
          "offset_h": 20,
          "wdir": null,
          "wspd": null
        }
      ],
      "metar_raw": "METAR RJAA 171630Z AUTO 13005KT 9999 NSC 24/23 Q1006 NOSIG",
      "metar_wdir": 130,
      "metar_wspd": 5,
      "metar_oat": 24,
      "metar_qnh": 1006,
      "hourly_oat": [
        24,
        24,
        24,
        24,
        24,
        24,
        24,
        24,
        25,
        25,
        26,
        26,
        26,
        26,
        26,
        26,
        26,
        25,
        25,
        24,
        24,
        24,
        24,
        23,
        23
      ]
    },
    "KIX": {
      "icao": "RJBB",
      "issued": "2026-07-17T11:05:00.000Z",
      "raw": "TAF RJBB 171105Z 1712/1818 18006KT 9999 FEW030 BECMG 1715/1717 12004KT BECMG 1800/1803 25010KT BECMG 1812/1815 19006KT",
      "groups": [
        {
          "text": "TAF RJBB 171105Z 1712/1818 18006KT 9999 FEW030",
          "offset_h": -4,
          "wdir": 180,
          "wspd": 6
        },
        {
          "text": "BECMG 1715/1717 12004KT",
          "offset_h": -1,
          "wdir": 120,
          "wspd": 4
        },
        {
          "text": "BECMG 1800/1803 25010KT",
          "offset_h": 8,
          "wdir": 250,
          "wspd": 10
        },
        {
          "text": "BECMG 1812/1815 19006KT",
          "offset_h": 20,
          "wdir": 190,
          "wspd": 6
        }
      ],
      "metar_raw": "METAR RJBB 171630Z AUTO 23004KT 9999 FEW050 BKN060 28/25 Q1004 NOSIG",
      "metar_wdir": 230,
      "metar_wspd": 4,
      "metar_oat": 28,
      "metar_qnh": 1004,
      "hourly_oat": [
        28,
        28,
        28,
        28,
        27,
        27,
        27,
        27,
        27,
        27,
        27,
        27,
        28,
        28,
        29,
        29,
        29,
        28,
        28,
        28,
        28,
        28,
        28,
        28,
        28
      ]
    },
    "HND": {
      "icao": "RJTT",
      "issued": "2026-07-17T11:05:00.000Z",
      "raw": "TAF RJTT 171105Z 1712/1818 16010KT 9999 FEW015 BKN030",
      "groups": [
        {
          "text": "TAF RJTT 171105Z 1712/1818 16010KT 9999 FEW015 BKN030",
          "offset_h": -4,
          "wdir": 160,
          "wspd": 10
        }
      ],
      "metar_raw": "METAR RJTT 171630Z 15009KT 9999 FEW013 BKN070 BKN100 26/23 Q1006 NOSIG",
      "metar_wdir": 150,
      "metar_wspd": 9,
      "metar_oat": 26,
      "metar_qnh": 1006,
      "hourly_oat": [
        25,
        25,
        25,
        25,
        25,
        25,
        25,
        25,
        26,
        26,
        26,
        26,
        27,
        27,
        26,
        26,
        27,
        26,
        26,
        26,
        25,
        25,
        25,
        25,
        25
      ]
    },
    "ITM": {
      "icao": "RJOO",
      "issued": "2026-07-17T11:05:00.000Z",
      "raw": "TAF RJOO 171105Z 1712/1818 25006KT 9999 FEW030 BECMG 1721/1723 10006KT BECMG 1806/1809 24006KT",
      "groups": [
        {
          "text": "TAF RJOO 171105Z 1712/1818 25006KT 9999 FEW030",
          "offset_h": -4,
          "wdir": 250,
          "wspd": 6
        },
        {
          "text": "BECMG 1721/1723 10006KT",
          "offset_h": 5,
          "wdir": 100,
          "wspd": 6
        },
        {
          "text": "BECMG 1806/1809 24006KT",
          "offset_h": 14,
          "wdir": 240,
          "wspd": 6
        }
      ],
      "metar_raw": "METAR RJOO 171600Z AUTO VRB02KT 9999 NCD 30/24 Q1003",
      "metar_wdir": "VRB",
      "metar_wspd": 2,
      "metar_oat": 30,
      "metar_qnh": 1003,
      "hourly_oat": [
        27,
        27,
        26,
        26,
        26,
        26,
        27,
        28,
        29,
        30,
        31,
        32,
        32,
        32,
        31,
        31,
        30,
        30,
        29,
        28,
        28,
        28,
        27,
        27,
        27
      ]
    },
    "OKA": {
      "icao": "ROAH",
      "issued": "2026-07-17T11:05:00.000Z",
      "raw": "TAF ROAH 171105Z 1712/1818 22006KT 9999 FEW005 BKN010 TEMPO 1712/1714 FEW005 BKN008 TEMPO 1714/1721 FEW003 BKN005 TEMPO 1721/1803 FEW005 BKN008 TEMPO 1812/1818 FEW005 BKN008",
      "groups": [
        {
          "text": "TAF ROAH 171105Z 1712/1818 22006KT 9999 FEW005 BKN010",
          "offset_h": -4,
          "wdir": 220,
          "wspd": 6
        },
        {
          "text": "TEMPO 1712/1714 FEW005 BKN008",
          "offset_h": -4,
          "wdir": null,
          "wspd": null
        },
        {
          "text": "TEMPO 1714/1721 FEW003 BKN005",
          "offset_h": -2,
          "wdir": null,
          "wspd": null
        },
        {
          "text": "TEMPO 1721/1803 FEW005 BKN008",
          "offset_h": 5,
          "wdir": null,
          "wspd": null
        },
        {
          "text": "TEMPO 1812/1818 FEW005 BKN008",
          "offset_h": 20,
          "wdir": null,
          "wspd": null
        }
      ],
      "metar_raw": "METAR ROAH 171630Z AUTO 23009KT 9000 BKN005 28/27 Q1006",
      "metar_wdir": 230,
      "metar_wspd": 9,
      "metar_oat": 28,
      "metar_qnh": 1006,
      "hourly_oat": [
        28,
        28,
        28,
        27,
        27,
        27,
        28,
        29,
        29,
        30,
        30,
        30,
        30,
        30,
        30,
        30,
        30,
        29,
        28,
        28,
        28,
        28,
        28,
        28,
        28
      ]
    },
    "NGO": {
      "icao": "RJGG",
      "issued": "2026-07-17T11:05:00.000Z",
      "raw": "TAF RJGG 171105Z 1712/1818 12008KT 9999 FEW030",
      "groups": [
        {
          "text": "TAF RJGG 171105Z 1712/1818 12008KT 9999 FEW030",
          "offset_h": -4,
          "wdir": 120,
          "wspd": 8
        }
      ],
      "metar_raw": "METAR RJGG 171630Z AUTO 13006KT 9999 NCD 28/26 Q1004 NOSIG",
      "metar_wdir": 130,
      "metar_wspd": 6,
      "metar_oat": 28,
      "metar_qnh": 1004,
      "hourly_oat": [
        27,
        27,
        27,
        26,
        26,
        26,
        26,
        26,
        27,
        27,
        27,
        26,
        27,
        27,
        28,
        28,
        27,
        27,
        27,
        27,
        27,
        27,
        27,
        27,
        27
      ]
    },
    "FUK": {
      "icao": "RJFF",
      "issued": "2026-07-17T11:05:00.000Z",
      "raw": "TAF RJFF 171105Z 1712/1818 15010KT 9999 FEW040",
      "groups": [
        {
          "text": "TAF RJFF 171105Z 1712/1818 15010KT 9999 FEW040",
          "offset_h": -4,
          "wdir": 150,
          "wspd": 10
        }
      ],
      "metar_raw": "METAR RJFF 171630Z AUTO 13009KT 9999 NCD 28/26 Q1002 NOSIG",
      "metar_wdir": 130,
      "metar_wspd": 9,
      "metar_oat": 28,
      "metar_qnh": 1002,
      "hourly_oat": [
        28,
        27,
        27,
        27,
        27,
        27,
        27,
        28,
        29,
        31,
        32,
        33,
        33,
        33,
        31,
        31,
        31,
        31,
        30,
        30,
        29,
        29,
        28,
        28,
        28
      ]
    },
    "CTS": {
      "icao": "RJCC",
      "issued": "2026-07-17T11:05:00.000Z",
      "raw": "TAF RJCC 171105Z 1712/1818 16010KT 6000 -DZ FEW001 BKN012 TEMPO 1712/1721 0700 DZ VV001 TEMPO 1721/1800 1500 -SHRA BR FEW001 BKN003 TEMPO 1800/1806 3000 -SHRA BR FEW003 BKN005 TEMPO 1806/1812 1500 -SHRA BR FEW001 BKN003 TEMPO 1812/1818 15020G30KT 3000 SHRA BR FEW001 BKN003",
      "groups": [
        {
          "text": "TAF RJCC 171105Z 1712/1818 16010KT 6000 -DZ FEW001 BKN012",
          "offset_h": -4,
          "wdir": 160,
          "wspd": 10
        },
        {
          "text": "TEMPO 1712/1721 0700 DZ VV001",
          "offset_h": -4,
          "wdir": null,
          "wspd": null
        },
        {
          "text": "TEMPO 1721/1800 1500 -SHRA BR FEW001 BKN003",
          "offset_h": 5,
          "wdir": null,
          "wspd": null
        },
        {
          "text": "TEMPO 1800/1806 3000 -SHRA BR FEW003 BKN005",
          "offset_h": 8,
          "wdir": null,
          "wspd": null
        },
        {
          "text": "TEMPO 1806/1812 1500 -SHRA BR FEW001 BKN003",
          "offset_h": 14,
          "wdir": null,
          "wspd": null
        },
        {
          "text": "TEMPO 1812/1818 15020G30KT 3000 SHRA BR FEW001 BKN003",
          "offset_h": 20,
          "wdir": 150,
          "wspd": 20
        }
      ],
      "metar_raw": "METAR RJCC 171630Z 16012KT 9999 FEW001 BKN003 BKN004 22/22 Q1008",
      "metar_wdir": 160,
      "metar_wspd": 12,
      "metar_oat": 22,
      "metar_qnh": 1008,
      "hourly_oat": [
        21,
        21,
        21,
        21,
        21,
        22,
        22,
        22,
        22,
        22,
        22,
        21,
        22,
        22,
        21,
        21,
        20,
        20,
        20,
        20,
        20,
        20,
        20,
        20,
        20
      ]
    },
    "GMP": {
      "icao": "RKSS",
      "issued": "2026-07-17T11:00:00.000Z",
      "raw": "TAF RKSS 171100Z 1712/1818 09006KT 6000 -RA BKN030 BKN100 TN23/1721Z TX27/1806Z BECMG 1714/1716 4000 RA SCT010 BKN025 OVC070 TEMPO 1717/1801 06008G20KT 2000 +RA SCT008CB BKN020 OVC060 BECMG 1803/1805 -RA BECMG 1806/1808 13006KT 6000 BECMG 1816/1818 10006KT NSW",
      "groups": [
        {
          "text": "TAF RKSS 171100Z 1712/1818 09006KT 6000 -RA BKN030 BKN100 TN23/1721Z TX27/1806Z",
          "offset_h": -4,
          "wdir": 90,
          "wspd": 6
        },
        {
          "text": "BECMG 1714/1716 4000 RA SCT010 BKN025 OVC070",
          "offset_h": -2,
          "wdir": null,
          "wspd": null
        },
        {
          "text": "TEMPO 1717/1801 06008G20KT 2000 +RA SCT008CB BKN020 OVC060",
          "offset_h": 1,
          "wdir": 60,
          "wspd": 8
        },
        {
          "text": "BECMG 1803/1805 -RA",
          "offset_h": 11,
          "wdir": null,
          "wspd": null
        },
        {
          "text": "BECMG 1806/1808 13006KT 6000",
          "offset_h": 14,
          "wdir": 130,
          "wspd": 6
        },
        {
          "text": "BECMG 1816/1818 10006KT NSW",
          "offset_h": 24,
          "wdir": 100,
          "wspd": 6
        }
      ],
      "metar_raw": "METAR RKSS 171600Z 11005KT 4000 -RA BR SCT005 BKN025 OVC070 26/26 Q0999 NOSIG",
      "metar_wdir": 110,
      "metar_wspd": 5,
      "metar_oat": 26,
      "metar_qnh": 999,
      "hourly_oat": [
        24,
        23,
        23,
        23,
        23,
        23,
        24,
        22,
        21,
        22,
        23,
        25,
        26,
        27,
        27,
        27,
        26,
        25,
        24,
        24,
        23,
        23,
        23,
        23,
        23
      ]
    },
    "CGK": {
      "icao": "WIII",
      "issued": "2026-07-17T11:00:00.000Z",
      "raw": "TAF COR WIII 171100Z 1712/1818 06012KT 7000 FEW020 BECMG 1714/1716 12005KT 5000 HZ BECMG 1801/1803 06013KT 8000 NSW",
      "groups": [
        {
          "text": "TAF COR WIII 171100Z 1712/1818 06012KT 7000 FEW020",
          "offset_h": -4,
          "wdir": 60,
          "wspd": 12
        },
        {
          "text": "BECMG 1714/1716 12005KT 5000 HZ",
          "offset_h": -2,
          "wdir": 120,
          "wspd": 5
        },
        {
          "text": "BECMG 1801/1803 06013KT 8000 NSW",
          "offset_h": 9,
          "wdir": 60,
          "wspd": 13
        }
      ],
      "metar_raw": "METAR WIII 171630Z 09006KT 060V120 5000 HZ SCT020 28/24 Q1012 NOSIG",
      "metar_wdir": 90,
      "metar_wspd": 6,
      "metar_oat": 28,
      "metar_qnh": 1012,
      "hourly_oat": [
        27,
        27,
        27,
        26,
        26,
        25,
        25,
        25,
        26,
        28,
        30,
        32,
        33,
        34,
        34,
        33,
        32,
        31,
        30,
        29,
        28,
        28,
        28,
        27,
        27
      ]
    },
    "TPE": {
      "icao": "RCTP",
      "issued": "2026-07-17T11:00:00.000Z",
      "raw": "TAF RCTP 171100Z 1712/1818 23010KT 9999 FEW015 TEMPO 1716/1722 20005KT BECMG 1722/1724 24015KT TEMPO 1803/1809 25020KT BECMG 1810/1812 23008KT",
      "groups": [
        {
          "text": "TAF RCTP 171100Z 1712/1818 23010KT 9999 FEW015",
          "offset_h": -4,
          "wdir": 230,
          "wspd": 10
        },
        {
          "text": "TEMPO 1716/1722 20005KT",
          "offset_h": 0,
          "wdir": 200,
          "wspd": 5
        },
        {
          "text": "BECMG 1722/1724 24015KT",
          "offset_h": 6,
          "wdir": 240,
          "wspd": 15
        },
        {
          "text": "TEMPO 1803/1809 25020KT",
          "offset_h": 11,
          "wdir": 250,
          "wspd": 20
        },
        {
          "text": "BECMG 1810/1812 23008KT",
          "offset_h": 18,
          "wdir": 230,
          "wspd": 8
        }
      ],
      "metar_raw": "METAR RCTP 171630Z 23015KT 9999 FEW015 28/24 Q1006 NOSIG RMK A2971",
      "metar_wdir": 230,
      "metar_wspd": 15,
      "metar_oat": 28,
      "metar_qnh": 1006,
      "hourly_oat": [
        27,
        27,
        27,
        27,
        27,
        28,
        27,
        28,
        29,
        30,
        30,
        31,
        31,
        31,
        31,
        30,
        30,
        30,
        30,
        29,
        28,
        28,
        28,
        28,
        27
      ]
    },
    "TSA": {
      "icao": "RCSS",
      "issued": "2026-07-17T11:00:00.000Z",
      "raw": "TAF RCSS 171100Z 1712/1812 30005KT 9999 FEW015 BKN032 BECMG 1723/1801 27010KT TEMPO 1802/1808 29015G25KT TEMPO 1804/1810 5000 SHRA SCT010 FEW015CB BKN020 BECMG 1810/1812 30005KT",
      "groups": [
        {
          "text": "TAF RCSS 171100Z 1712/1812 30005KT 9999 FEW015 BKN032",
          "offset_h": -4,
          "wdir": 300,
          "wspd": 5
        },
        {
          "text": "BECMG 1723/1801 27010KT",
          "offset_h": 7,
          "wdir": 270,
          "wspd": 10
        },
        {
          "text": "TEMPO 1802/1808 29015G25KT",
          "offset_h": 10,
          "wdir": 290,
          "wspd": 15
        },
        {
          "text": "TEMPO 1804/1810 5000 SHRA SCT010 FEW015CB BKN020",
          "offset_h": 12,
          "wdir": null,
          "wspd": null
        },
        {
          "text": "BECMG 1810/1812 30005KT",
          "offset_h": 18,
          "wdir": 300,
          "wspd": 5
        }
      ],
      "metar_raw": "METAR RCSS 171600Z 25007KT 230V290 9999 FEW020 SCT035 28/25 Q1006 NOSIG RMK A2972",
      "metar_wdir": 250,
      "metar_wspd": 7,
      "metar_oat": 28,
      "metar_qnh": 1006,
      "hourly_oat": [
        27,
        26,
        26,
        26,
        26,
        26,
        26,
        28,
        29,
        31,
        32,
        32,
        32,
        32,
        33,
        32,
        32,
        32,
        30,
        29,
        28,
        28,
        28,
        27,
        27
      ]
    },
    "SGN": {
      "icao": "VVTS",
      "issued": "2026-07-17T11:00:00.000Z",
      "raw": "TAF VVTS 171100Z 1712/1818 26010KT 9999 SCT017 PROB40 TEMPO 1712/1715 5000 TSRA BKN015 FEW017CB TEMPO 1805/1810 5000 TSRA BKN015 FEW017CB",
      "groups": [
        {
          "text": "TAF VVTS 171100Z 1712/1818 26010KT 9999 SCT017",
          "offset_h": -4,
          "wdir": 260,
          "wspd": 10
        },
        {
          "text": "PROB40",
          "offset_h": 0,
          "wdir": null,
          "wspd": null
        },
        {
          "text": "TEMPO 1712/1715 5000 TSRA BKN015 FEW017CB",
          "offset_h": -4,
          "wdir": null,
          "wspd": null
        },
        {
          "text": "TEMPO 1805/1810 5000 TSRA BKN015 FEW017CB",
          "offset_h": 13,
          "wdir": null,
          "wspd": null
        }
      ],
      "metar_raw": "METAR VVTS 171630Z 26007KT 9999 FEW020 SCT053 29/26 Q1011 NOSIG",
      "metar_wdir": 260,
      "metar_wspd": 7,
      "metar_oat": 29,
      "metar_qnh": 1011,
      "hourly_oat": [
        27,
        26,
        26,
        26,
        26,
        25,
        25,
        25,
        27,
        28,
        30,
        31,
        32,
        32,
        33,
        33,
        27,
        27,
        27,
        27,
        27,
        27,
        26,
        26,
        26
      ]
    },
    "HAN": {
      "icao": "VVNB",
      "issued": "2026-07-17T11:00:00.000Z",
      "raw": "TAF VVNB 171100Z 1712/1812 24007KT 9999 FEW025 TEMPO 1722/1802 4000 SHRA SCT012 FEW025TCU",
      "groups": [
        {
          "text": "TAF VVNB 171100Z 1712/1812 24007KT 9999 FEW025",
          "offset_h": -4,
          "wdir": 240,
          "wspd": 7
        },
        {
          "text": "TEMPO 1722/1802 4000 SHRA SCT012 FEW025TCU",
          "offset_h": 6,
          "wdir": null,
          "wspd": null
        }
      ],
      "metar_raw": "METAR VVNB 171630Z 24003KT 190V310 CAVOK 31/24 Q1002 NOSIG",
      "metar_wdir": 240,
      "metar_wspd": 3,
      "metar_oat": 31,
      "metar_qnh": 1002,
      "hourly_oat": [
        29,
        28,
        28,
        28,
        28,
        27,
        27,
        28,
        29,
        30,
        31,
        32,
        33,
        33,
        33,
        34,
        34,
        31,
        30,
        30,
        29,
        29,
        28,
        28,
        28
      ]
    },
    "KUL": {
      "icao": "WMKK",
      "issued": "2026-07-17T11:00:00.000Z",
      "raw": "TAF WMKK 171100Z 1712/1818 VRB03KT 9999 FEW027 TEMPO 1718/1722 5000 TSRA FEW017CB",
      "groups": [
        {
          "text": "TAF WMKK 171100Z 1712/1818 VRB03KT 9999 FEW027",
          "offset_h": -4,
          "wdir": "VRB",
          "wspd": 3
        },
        {
          "text": "TEMPO 1718/1722 5000 TSRA FEW017CB",
          "offset_h": 2,
          "wdir": null,
          "wspd": null
        }
      ],
      "metar_raw": "METAR WMKK 171630Z 34006KT 290V030 9000 FEW017CB SCT030 27/24 Q1011 NOSIG",
      "metar_wdir": 340,
      "metar_wspd": 6,
      "metar_oat": 27,
      "metar_qnh": 1011,
      "hourly_oat": [
        24,
        24,
        24,
        23,
        23,
        23,
        23,
        23,
        23,
        24,
        25,
        27,
        28,
        29,
        29,
        28,
        26,
        25,
        25,
        25,
        24,
        24,
        24,
        24,
        24
      ]
    },
    "SIN": {
      "icao": "WSSS",
      "issued": "2026-07-17T11:00:00.000Z",
      "raw": "TAF WSSS 171100Z 1712/1818 13007KT 9999 FEW015 SCT020",
      "groups": [
        {
          "text": "TAF WSSS 171100Z 1712/1818 13007KT 9999 FEW015 SCT020",
          "offset_h": -4,
          "wdir": 130,
          "wspd": 7
        }
      ],
      "metar_raw": "METAR WSSS 171630Z 14004KT 9999 FEW016 FEW020CB BKN300 28/25 Q1012 NOSIG",
      "metar_wdir": 140,
      "metar_wspd": 4,
      "metar_oat": 28,
      "metar_qnh": 1012,
      "hourly_oat": [
        28,
        28,
        27,
        27,
        26,
        27,
        26,
        26,
        26,
        27,
        28,
        29,
        29,
        29,
        30,
        29,
        29,
        27,
        28,
        27,
        27,
        26,
        26,
        26,
        26
      ]
    },
    "BKK": {
      "icao": "VTBS",
      "issued": "2026-07-17T11:00:00.000Z",
      "raw": "TAF VTBS 171100Z 1712/1818 20008KT 9999 FEW020 TEMPO 1712/1716 VRB15KT 4000 TSRA FEW018CB SCT030 BKN100 TEMPO 1810/1814 VRB15KT 4000 TSRA FEW018CB SCT030 BKN100",
      "groups": [
        {
          "text": "TAF VTBS 171100Z 1712/1818 20008KT 9999 FEW020",
          "offset_h": -4,
          "wdir": 200,
          "wspd": 8
        },
        {
          "text": "TEMPO 1712/1716 VRB15KT 4000 TSRA FEW018CB SCT030 BKN100",
          "offset_h": -4,
          "wdir": "VRB",
          "wspd": 15
        },
        {
          "text": "TEMPO 1810/1814 VRB15KT 4000 TSRA FEW018CB SCT030 BKN100",
          "offset_h": 18,
          "wdir": "VRB",
          "wspd": 15
        }
      ],
      "metar_raw": "METAR VTBS 171630Z 20005KT 9999 FEW020 28/24 Q1010 NOSIG",
      "metar_wdir": 200,
      "metar_wspd": 5,
      "metar_oat": 28,
      "metar_qnh": 1010,
      "hourly_oat": [
        27,
        27,
        27,
        27,
        26,
        26,
        25,
        25,
        26,
        28,
        29,
        30,
        31,
        32,
        32,
        32,
        32,
        32,
        31,
        30,
        29,
        28,
        28,
        28,
        28
      ]
    }
  }
}