{
  "updated": "2026-05-19T18:19:02Z",
  "tafs": {
    "": {
      "icao": "",
      "issued": "2026-05-19T15:01:00.000Z",
      "raw": "TAF ZGGG 191501Z 1918/2024 16004MPS 6000 BKN023 TX28/2007Z TN24/1922Z TN24/2022Z TEMPO 1920/1924 3000 +SHRA SCT010 SCT020CB BKN023 TEMPO 2000/2002 4000 SHRA FEW023CB BKN026 TEMPO 2006/2010 3500 TSRA SCT026CB BKN030 TEMPO 2020/2024 3000 +SHRA SCT023CB BKN026"
    }
  }
}