{
  "updated": "2026-07-10T12:18:09Z",
  "tafs": {
    "SAN": {
      "icao": "KSAN",
      "issued": "2026-07-10T11:24:00.000Z",
      "raw": "TAF KSAN 101124Z 1012/1118 VRB05KT P6SM OVC007 TEMPO 1017/1018 SCT007 FM101800 20010KT P6SM FEW015 FM110300 20006KT P6SM OVC012 FM110700 VRB04KT P6SM OVC009 FM111700 21008KT P6SM SCT010",
      "groups": [
        {
          "text": "TAF KSAN 101124Z 1012/1118 VRB05KT P6SM OVC007",
          "offset_h": 0,
          "wdir": "VRB",
          "wspd": 5
        },
        {
          "text": "TEMPO 1017/1018 SCT007",
          "offset_h": 5,
          "wdir": null,
          "wspd": null
        },
        {
          "text": "FM101800 20010KT P6SM FEW015",
          "offset_h": 6,
          "wdir": 200,
          "wspd": 10
        },
        {
          "text": "FM110300 20006KT P6SM OVC012",
          "offset_h": 15,
          "wdir": 200,
          "wspd": 6
        },
        {
          "text": "FM110700 VRB04KT P6SM OVC009",
          "offset_h": 19,
          "wdir": "VRB",
          "wspd": 4
        },
        {
          "text": "FM111700 21008KT P6SM SCT010",
          "offset_h": 29,
          "wdir": 210,
          "wspd": 8
        }
      ],
      "metar_raw": "METAR KSAN 101151Z 00000KT 8SM OVC008 18/16 A2988 RMK AO2 SLP118 T01780156 10189 20178 50001",
      "metar_wdir": 0,
      "metar_wspd": 0,
      "metar_oat": 18,
      "metar_qnh": 1012,
      "hourly_oat": [
        18,
        18,
        18,
        18,
        18,
        20,
        22,
        22,
        22,
        22,
        22,
        22,
        20,
        20,
        19,
        18,
        18,
        18,
        18,
        18,
        18,
        18,
        18,
        18,
        17
      ]
    },
    "LAX": {
      "icao": "KLAX",
      "issued": "2026-07-10T11:20:00.000Z",
      "raw": "TAF KLAX 101120Z 1012/1118 21005KT 5SM BR SCT004 OVC008 FM101800 25008KT P6SM SKC FM102100 25012KT P6SM SKC FM110400 25006KT P6SM OVC008 FM111100 13005KT 4SM BR OVC006 FM111700 25006KT P6SM OVC010",
      "groups": [
        {
          "text": "TAF KLAX 101120Z 1012/1118 21005KT 5SM BR SCT004 OVC008",
          "offset_h": 0,
          "wdir": 210,
          "wspd": 5
        },
        {
          "text": "FM101800 25008KT P6SM SKC",
          "offset_h": 6,
          "wdir": 250,
          "wspd": 8
        },
        {
          "text": "FM102100 25012KT P6SM SKC",
          "offset_h": 9,
          "wdir": 250,
          "wspd": 12
        },
        {
          "text": "FM110400 25006KT P6SM OVC008",
          "offset_h": 16,
          "wdir": 250,
          "wspd": 6
        },
        {
          "text": "FM111100 13005KT 4SM BR OVC006",
          "offset_h": 23,
          "wdir": 130,
          "wspd": 5
        },
        {
          "text": "FM111700 25006KT P6SM OVC010",
          "offset_h": 29,
          "wdir": 250,
          "wspd": 6
        }
      ],
      "metar_raw": "METAR KLAX 101153Z 16004KT 4SM BR FEW005 OVC008 18/17 A2986 RMK AO2 SLP111 T01830167 10189 20178 53005 $",
      "metar_wdir": 160,
      "metar_wspd": 4,
      "metar_oat": 18,
      "metar_qnh": 1011,
      "hourly_oat": [
        18,
        18,
        18,
        18,
        20,
        23,
        24,
        26,
        26,
        24,
        24,
        23,
        22,
        20,
        19,
        19,
        19,
        19,
        19,
        18,
        18,
        18,
        18,
        18,
        18
      ]
    },
    "HNL": {
      "icao": "PHNL",
      "issued": "2026-07-10T11:20:00.000Z",
      "raw": "TAF PHNL 101120Z 1012/1118 06014G24KT P6SM VCSH FEW025 SCT040 FM102000 06015G25KT P6SM FEW025 SCT040",
      "groups": [
        {
          "text": "TAF PHNL 101120Z 1012/1118 06014G24KT P6SM VCSH FEW025 SCT040",
          "offset_h": 0,
          "wdir": 60,
          "wspd": 14
        },
        {
          "text": "FM102000 06015G25KT P6SM FEW025 SCT040",
          "offset_h": 8,
          "wdir": 60,
          "wspd": 15
        }
      ],
      "metar_raw": "METAR PHNL 101153Z 05012KT 10SM FEW026 FEW036 26/19 A3005 RMK AO2 SLP175 T02610194 10267 20256 58017 $",
      "metar_wdir": 50,
      "metar_wspd": 12,
      "metar_oat": 26,
      "metar_qnh": 1018,
      "hourly_oat": [
        24,
        24,
        24,
        24,
        24,
        25,
        26,
        27,
        28,
        29,
        29,
        29,
        29,
        29,
        28,
        27,
        26,
        25,
        25,
        25,
        25,
        24,
        24,
        24,
        24
      ]
    },
    "OKA": {
      "icao": "ROAH",
      "issued": "2026-07-10T11:06:00.000Z",
      "raw": "TAF ROAH 101106Z 1012/1118 12035KT 6000 -SHRA FEW008 BKN012 TEMPO 1012/1015 10038G52KT 2000 +TSRA BR FEW005 BKN008 SCT015CB TEMPO 1015/1103 12045G60KT 2000 +SHRA BR FEW005 BKN008 SCT015CB TEMPO 1103/1109 14040G55KT 4000 SHRA BR FEW005 BKN008 FEW015CB TEMPO 1109/1115 15035G50KT",
      "groups": [
        {
          "text": "TAF ROAH 101106Z 1012/1118 12035KT 6000 -SHRA FEW008 BKN012",
          "offset_h": 0,
          "wdir": 120,
          "wspd": 35
        },
        {
          "text": "TEMPO 1012/1015 10038G52KT 2000 +TSRA BR FEW005 BKN008 SCT015CB",
          "offset_h": 0,
          "wdir": 100,
          "wspd": 38
        },
        {
          "text": "TEMPO 1015/1103 12045G60KT 2000 +SHRA BR FEW005 BKN008 SCT015CB",
          "offset_h": 3,
          "wdir": 120,
          "wspd": 45
        },
        {
          "text": "TEMPO 1103/1109 14040G55KT 4000 SHRA BR FEW005 BKN008 FEW015CB",
          "offset_h": 15,
          "wdir": 140,
          "wspd": 40
        },
        {
          "text": "TEMPO 1109/1115 15035G50KT",
          "offset_h": 21,
          "wdir": 150,
          "wspd": 35
        }
      ],
      "metar_raw": "METAR ROAH 101200Z 09034G48KT 7000 -SHRA FEW017 SCT020 BKN035 29/26 Q0996",
      "metar_wdir": 90,
      "metar_wspd": 34,
      "metar_oat": 29,
      "metar_qnh": 996,
      "hourly_oat": [
        27,
        27,
        26,
        27,
        28,
        28,
        28,
        28,
        28,
        28,
        27,
        28,
        28,
        27,
        28,
        28,
        28,
        28,
        28,
        28,
        28,
        28,
        28,
        28,
        28
      ]
    },
    "CTS": {
      "icao": "RJCC",
      "issued": "2026-07-10T11:05:00.000Z",
      "raw": "TAF RJCC 101105Z 1012/1118 17006KT 6000 FEW001 BKN012 TEMPO 1012/1100 0700 -SHRA FG VV001 TEMPO 1100/1106 2000 SHRA BR FEW002 BKN004 TEMPO 1106/1112 4000 -SHRA BR FEW002 BKN005 TEMPO 1112/1118 1500 -SHRA BR FEW001 BKN003",
      "groups": [
        {
          "text": "TAF RJCC 101105Z 1012/1118 17006KT 6000 FEW001 BKN012",
          "offset_h": 0,
          "wdir": 170,
          "wspd": 6
        },
        {
          "text": "TEMPO 1012/1100 0700 -SHRA FG VV001",
          "offset_h": 0,
          "wdir": null,
          "wspd": null
        },
        {
          "text": "TEMPO 1100/1106 2000 SHRA BR FEW002 BKN004",
          "offset_h": 12,
          "wdir": null,
          "wspd": null
        },
        {
          "text": "TEMPO 1106/1112 4000 -SHRA BR FEW002 BKN005",
          "offset_h": 18,
          "wdir": null,
          "wspd": null
        },
        {
          "text": "TEMPO 1112/1118 1500 -SHRA BR FEW001 BKN003",
          "offset_h": 24,
          "wdir": null,
          "wspd": null
        }
      ],
      "metar_raw": "METAR RJCC 101200Z 17006KT 0200 R19R/0450V0600N R19L/0450N FG VV001 20/20 Q1012",
      "metar_wdir": 170,
      "metar_wspd": 6,
      "metar_oat": 20,
      "metar_qnh": 1012,
      "hourly_oat": [
        20,
        19,
        19,
        19,
        19,
        19,
        19,
        19,
        20,
        20,
        21,
        21,
        21,
        22,
        23,
        23,
        23,
        24,
        24,
        24,
        24,
        23,
        21,
        20,
        20
      ]
    },
    "NRT": {
      "icao": "RJAA",
      "issued": "2026-07-10T11:05:00.000Z",
      "raw": "TAF RJAA 101105Z 1012/1118 17006KT 9999 FEW020",
      "groups": [
        {
          "text": "TAF RJAA 101105Z 1012/1118 17006KT 9999 FEW020",
          "offset_h": 0,
          "wdir": 170,
          "wspd": 6
        }
      ],
      "metar_raw": "METAR RJAA 101200Z 18005KT 9999 FEW020 23/21 Q1016 NOSIG",
      "metar_wdir": 180,
      "metar_wspd": 5,
      "metar_oat": 23,
      "metar_qnh": 1016,
      "hourly_oat": [
        24,
        23,
        22,
        22,
        22,
        21,
        21,
        21,
        21,
        22,
        24,
        25,
        26,
        28,
        29,
        29,
        29,
        29,
        28,
        28,
        28,
        27,
        25,
        24,
        24
      ]
    },
    "KIX": {
      "icao": "RJBB",
      "issued": "2026-07-10T11:05:00.000Z",
      "raw": "TAF RJBB 101105Z 1012/1118 20010KT 9999 FEW020 BKN040 BECMG 1018/1020 03006KT BECMG 1100/1103 25014KT BECMG 1112/1115 19012KT",
      "groups": [
        {
          "text": "TAF RJBB 101105Z 1012/1118 20010KT 9999 FEW020 BKN040",
          "offset_h": 0,
          "wdir": 200,
          "wspd": 10
        },
        {
          "text": "BECMG 1018/1020 03006KT",
          "offset_h": 6,
          "wdir": 30,
          "wspd": 6
        },
        {
          "text": "BECMG 1100/1103 25014KT",
          "offset_h": 12,
          "wdir": 250,
          "wspd": 14
        },
        {
          "text": "BECMG 1112/1115 19012KT",
          "offset_h": 24,
          "wdir": 190,
          "wspd": 12
        }
      ],
      "metar_raw": "METAR RJBB 101200Z 21009KT 9999 FEW015 SCT050 26/23 Q1015 NOSIG",
      "metar_wdir": 210,
      "metar_wspd": 9,
      "metar_oat": 26,
      "metar_qnh": 1015,
      "hourly_oat": [
        26,
        26,
        26,
        26,
        25,
        25,
        25,
        25,
        25,
        25,
        25,
        25,
        25,
        25,
        26,
        25,
        26,
        26,
        26,
        26,
        26,
        26,
        26,
        26,
        26
      ]
    },
    "HND": {
      "icao": "RJTT",
      "issued": "2026-07-10T11:05:00.000Z",
      "raw": "TAF RJTT 101105Z 1012/1118 20012KT 9999 FEW020",
      "groups": [
        {
          "text": "TAF RJTT 101105Z 1012/1118 20012KT 9999 FEW020",
          "offset_h": 0,
          "wdir": 200,
          "wspd": 12
        }
      ],
      "metar_raw": "METAR RJTT 101200Z 19012KT 9999 FEW014 25/23 Q1016 NOSIG",
      "metar_wdir": 190,
      "metar_wspd": 12,
      "metar_oat": 25,
      "metar_qnh": 1016,
      "hourly_oat": [
        24,
        24,
        24,
        24,
        24,
        24,
        24,
        24,
        24,
        24,
        24,
        26,
        27,
        27,
        28,
        28,
        28,
        27,
        27,
        26,
        26,
        25,
        25,
        25,
        24
      ]
    },
    "ITM": {
      "icao": "RJOO",
      "issued": "2026-07-10T11:05:00.000Z",
      "raw": "TAF RJOO 101105Z 1012/1118 26006KT 9999 FEW015 BKN030 BECMG 1020/1022 22008KT BECMG 1106/1109 27006KT",
      "groups": [
        {
          "text": "TAF RJOO 101105Z 1012/1118 26006KT 9999 FEW015 BKN030",
          "offset_h": 0,
          "wdir": 260,
          "wspd": 6
        },
        {
          "text": "BECMG 1020/1022 22008KT",
          "offset_h": 8,
          "wdir": 220,
          "wspd": 8
        },
        {
          "text": "BECMG 1106/1109 27006KT",
          "offset_h": 18,
          "wdir": 270,
          "wspd": 6
        }
      ],
      "metar_raw": "METAR RJOO 101200Z AUTO VRB04KT 9999 NSC 27/23 Q1015",
      "metar_wdir": "VRB",
      "metar_wspd": 4,
      "metar_oat": 27,
      "metar_qnh": 1015,
      "hourly_oat": [
        26,
        26,
        25,
        25,
        25,
        25,
        24,
        24,
        24,
        24,
        24,
        26,
        27,
        28,
        29,
        30,
        31,
        30,
        30,
        30,
        29,
        28,
        27,
        26,
        26
      ]
    },
    "FUK": {
      "icao": "RJFF",
      "issued": "2026-07-10T11:05:00.000Z",
      "raw": "TAF RJFF 101105Z 1012/1118 14006KT CAVOK BECMG 1100/1103 34010KT BECMG 1106/1109 15008KT",
      "groups": [
        {
          "text": "TAF RJFF 101105Z 1012/1118 14006KT CAVOK",
          "offset_h": 0,
          "wdir": 140,
          "wspd": 6
        },
        {
          "text": "BECMG 1100/1103 34010KT",
          "offset_h": 12,
          "wdir": 340,
          "wspd": 10
        },
        {
          "text": "BECMG 1106/1109 15008KT",
          "offset_h": 18,
          "wdir": 150,
          "wspd": 8
        }
      ],
      "metar_raw": "METAR RJFF 101200Z 13004KT 090V170 CAVOK 30/23 Q1012 NOSIG",
      "metar_wdir": 130,
      "metar_wspd": 4,
      "metar_oat": 30,
      "metar_qnh": 1012,
      "hourly_oat": [
        28,
        28,
        28,
        27,
        27,
        27,
        27,
        26,
        26,
        26,
        27,
        28,
        30,
        32,
        33,
        33,
        34,
        34,
        34,
        35,
        34,
        34,
        33,
        32,
        30
      ]
    },
    "NGO": {
      "icao": "RJGG",
      "issued": "2026-07-10T11:05:00.000Z",
      "raw": "TAF RJGG 101105Z 1012/1118 12006KT 9999 FEW010 BKN020",
      "groups": [
        {
          "text": "TAF RJGG 101105Z 1012/1118 12006KT 9999 FEW010 BKN020",
          "offset_h": 0,
          "wdir": 120,
          "wspd": 6
        }
      ],
      "metar_raw": "METAR RJGG 101200Z 14011KT 9999 FEW015 25/23 Q1015 NOSIG",
      "metar_wdir": 140,
      "metar_wspd": 11,
      "metar_oat": 25,
      "metar_qnh": 1015,
      "hourly_oat": [
        25,
        24,
        24,
        24,
        24,
        24,
        24,
        24,
        24,
        24,
        24,
        24,
        24,
        24,
        25,
        26,
        26,
        26,
        26,
        26,
        26,
        26,
        25,
        25,
        25
      ]
    },
    "TSA": {
      "icao": "RCSS",
      "issued": "2026-07-10T11:00:00.000Z",
      "raw": "TAF RCSS 101100Z 1012/1112 30010KT 9999 FEW010 BKN032 TEMPO 1012/1018 4000 SHRA FEW010 FEW015CB BKN017 BECMG 1018/1020 30015G32KT TEMPO 1018/1024 4000 SHRA FEW010 FEW015CB BKN017 TEMPO 1100/1106 27025G40KT 2200 +SHRA SCT008 FEW010CB BKN014 TEMPO 1106/1112 25022G38KT 2800 +SHRA SCT010 FEW012CB BKN014",
      "groups": [
        {
          "text": "TAF RCSS 101100Z 1012/1112 30010KT 9999 FEW010 BKN032",
          "offset_h": 0,
          "wdir": 300,
          "wspd": 10
        },
        {
          "text": "TEMPO 1012/1018 4000 SHRA FEW010 FEW015CB BKN017",
          "offset_h": 0,
          "wdir": null,
          "wspd": null
        },
        {
          "text": "BECMG 1018/1020 30015G32KT",
          "offset_h": 6,
          "wdir": 300,
          "wspd": 15
        },
        {
          "text": "TEMPO 1018/1024 4000 SHRA FEW010 FEW015CB BKN017",
          "offset_h": 6,
          "wdir": null,
          "wspd": null
        },
        {
          "text": "TEMPO 1100/1106 27025G40KT 2200 +SHRA SCT008 FEW010CB BKN014",
          "offset_h": 12,
          "wdir": 270,
          "wspd": 25
        },
        {
          "text": "TEMPO 1106/1112 25022G38KT 2800 +SHRA SCT010 FEW012CB BKN014",
          "offset_h": 18,
          "wdir": 250,
          "wspd": 22
        }
      ],
      "metar_raw": "METAR RCSS 101200Z 06009G22KT 350V110 8000 -SHRA FEW010 BKN025 BKN040 29/25 Q0998 NOSIG RMK QFF 998.6HPA A2949 RA AMT 0.2MM",
      "metar_wdir": 60,
      "metar_wspd": 9,
      "metar_oat": 29,
      "metar_qnh": 998,
      "hourly_oat": [
        25,
        25,
        25,
        25,
        25,
        25,
        26,
        25,
        25,
        25,
        26,
        26,
        26,
        26,
        26,
        27,
        26,
        27,
        27,
        27,
        26,
        25,
        25,
        25,
        25
      ]
    },
    "HKG": {
      "icao": "VHHH",
      "issued": "2026-07-10T11:00:00.000Z",
      "raw": "TAF VHHH 101100Z 1012/1118 18010KT 9999 FEW015 TX34/1106Z TN28/1022Z TEMPO 1016/1024 VRB05KT BECMG 1100/1102 28010KT TEMPO 1103/1108 4000 HZ",
      "groups": [
        {
          "text": "TAF VHHH 101100Z 1012/1118 18010KT 9999 FEW015 TX34/1106Z TN28/1022Z",
          "offset_h": 0,
          "wdir": 180,
          "wspd": 10
        },
        {
          "text": "TEMPO 1016/1024 VRB05KT",
          "offset_h": 4,
          "wdir": "VRB",
          "wspd": 5
        },
        {
          "text": "BECMG 1100/1102 28010KT",
          "offset_h": 12,
          "wdir": 280,
          "wspd": 10
        },
        {
          "text": "TEMPO 1103/1108 4000 HZ",
          "offset_h": 15,
          "wdir": null,
          "wspd": null
        }
      ],
      "metar_raw": "METAR VHHH 101200Z 06003KT 030V090 9999 FEW025 30/23 Q1001 NOSIG",
      "metar_wdir": 60,
      "metar_wspd": 3,
      "metar_oat": 30,
      "metar_qnh": 1001,
      "hourly_oat": [
        29,
        29,
        29,
        29,
        29,
        29,
        29,
        28,
        28,
        28,
        28,
        28,
        28,
        29,
        29,
        30,
        30,
        30,
        31,
        31,
        31,
        30,
        29,
        29,
        29
      ]
    },
    "TPE": {
      "icao": "RCTP",
      "issued": "2026-07-10T11:00:00.000Z",
      "raw": "TAF RCTP 101100Z 1012/1118 02020G30KT 6000 FEW010 BKN022 BKN040 TEMPO 1012/1018 4000 SHRA SCT010 BKN014 FEW015CB BECMG 1018/1020 34025G35KT 5000 RA SCT006 BKN011 TEMPO 1100/1106 30030G42KT 2800 +SHRA SCT004 BKN007 FEW010CB TEMPO 1106/1112 27030G45KT 2200 +SHRA SCT003 BKN006 FEW010CB BECMG 1112/1114 23025G35KT TEMPO 1112/1118 3000 SHRA SCT005 BKN008 FEW010CB",
      "groups": [
        {
          "text": "TAF RCTP 101100Z 1012/1118 02020G30KT 6000 FEW010 BKN022 BKN040",
          "offset_h": 0,
          "wdir": 20,
          "wspd": 20
        },
        {
          "text": "TEMPO 1012/1018 4000 SHRA SCT010 BKN014 FEW015CB",
          "offset_h": 0,
          "wdir": null,
          "wspd": null
        },
        {
          "text": "BECMG 1018/1020 34025G35KT 5000 RA SCT006 BKN011",
          "offset_h": 6,
          "wdir": 340,
          "wspd": 25
        },
        {
          "text": "TEMPO 1100/1106 30030G42KT 2800 +SHRA SCT004 BKN007 FEW010CB",
          "offset_h": 12,
          "wdir": 300,
          "wspd": 30
        },
        {
          "text": "TEMPO 1106/1112 27030G45KT 2200 +SHRA SCT003 BKN006 FEW010CB",
          "offset_h": 18,
          "wdir": 270,
          "wspd": 30
        },
        {
          "text": "BECMG 1112/1114 23025G35KT",
          "offset_h": 24,
          "wdir": 230,
          "wspd": 25
        },
        {
          "text": "TEMPO 1112/1118 3000 SHRA SCT005 BKN008 FEW010CB",
          "offset_h": 24,
          "wdir": null,
          "wspd": null
        }
      ],
      "metar_raw": "SPECI RCTP 101201Z 03017KT 9999 -SHRA FEW012 BKN016 BKN035 29/27 Q0999 WS R05R NOSIG RMK A2950",
      "metar_wdir": 30,
      "metar_wspd": 17,
      "metar_oat": 29,
      "metar_qnh": 999,
      "hourly_oat": [
        24,
        26,
        26,
        26,
        26,
        26,
        26,
        26,
        26,
        26,
        26,
        26,
        26,
        26,
        26,
        26,
        26,
        27,
        26,
        26,
        26,
        27,
        26,
        26,
        26
      ]
    },
    "CGK": {
      "icao": "WIII",
      "issued": "2026-07-10T11:00:00.000Z",
      "raw": "TAF WIII 101100Z 1012/1118 05010KT 7000 FEW020 BECMG 1014/1016 16005KT 5000 HZ BECMG 1100/1102 05010KT 8000 NSW",
      "groups": [
        {
          "text": "TAF WIII 101100Z 1012/1118 05010KT 7000 FEW020",
          "offset_h": 0,
          "wdir": 50,
          "wspd": 10
        },
        {
          "text": "BECMG 1014/1016 16005KT 5000 HZ",
          "offset_h": 2,
          "wdir": 160,
          "wspd": 5
        },
        {
          "text": "BECMG 1100/1102 05010KT 8000 NSW",
          "offset_h": 12,
          "wdir": 50,
          "wspd": 10
        }
      ],
      "metar_raw": "METAR WIII 101200Z 05005KT 9000 FEW020 27/22 Q1011 NOSIG",
      "metar_wdir": 50,
      "metar_wspd": 5,
      "metar_oat": 27,
      "metar_qnh": 1011,
      "hourly_oat": [
        28,
        28,
        27,
        27,
        26,
        26,
        25,
        25,
        24,
        24,
        23,
        23,
        24,
        27,
        29,
        31,
        32,
        33,
        34,
        34,
        32,
        31,
        30,
        29,
        28
      ]
    },
    "BKK": {
      "icao": "VTBS",
      "issued": "2026-07-10T11:00:00.000Z",
      "raw": "TAF VTBS 101100Z 1012/1118 24008KT 9999 FEW020 TEMPO 1108/1112 VRB15G25KT 4000 TSRA FEW018CB SCT030 BKN100",
      "groups": [
        {
          "text": "TAF VTBS 101100Z 1012/1118 24008KT 9999 FEW020",
          "offset_h": 0,
          "wdir": 240,
          "wspd": 8
        },
        {
          "text": "TEMPO 1108/1112 VRB15G25KT 4000 TSRA FEW018CB SCT030 BKN100",
          "offset_h": 20,
          "wdir": "VRB",
          "wspd": 15
        }
      ],
      "metar_raw": "METAR VTBS 101200Z 22006KT 9999 FEW020 BKN100 32/23 Q1006 NOSIG",
      "metar_wdir": 220,
      "metar_wspd": 6,
      "metar_oat": 32,
      "metar_qnh": 1006,
      "hourly_oat": [
        30,
        30,
        29,
        29,
        29,
        28,
        28,
        28,
        27,
        27,
        27,
        28,
        28,
        30,
        31,
        31,
        31,
        33,
        32,
        31,
        31,
        31,
        31,
        31,
        30
      ]
    },
    "KUL": {
      "icao": "WMKK",
      "issued": "2026-07-10T11:00:00.000Z",
      "raw": "TAF WMKK 101100Z 1012/1118 VRB03KT 9999 FEW030",
      "groups": [
        {
          "text": "TAF WMKK 101100Z 1012/1118 VRB03KT 9999 FEW030",
          "offset_h": 0,
          "wdir": "VRB",
          "wspd": 3
        }
      ],
      "metar_raw": "METAR WMKK 101200Z 00000KT 9999 FEW030 29/25 Q1009 NOSIG",
      "metar_wdir": 0,
      "metar_wspd": 0,
      "metar_oat": 29,
      "metar_qnh": 1009,
      "hourly_oat": [
        28,
        27,
        26,
        26,
        26,
        26,
        25,
        23,
        23,
        24,
        24,
        24,
        24,
        25,
        26,
        27,
        28,
        28,
        29,
        29,
        30,
        29,
        29,
        28,
        27
      ]
    },
    "SIN": {
      "icao": "WSSS",
      "issued": "2026-07-10T11:00:00.000Z",
      "raw": "TAF WSSS 101100Z 1012/1118 17008KT 9999 FEW015 SCT020",
      "groups": [
        {
          "text": "TAF WSSS 101100Z 1012/1118 17008KT 9999 FEW015 SCT020",
          "offset_h": 0,
          "wdir": 170,
          "wspd": 8
        }
      ],
      "metar_raw": "METAR WSSS 101200Z 18009KT 9999 SCT018 BKN300 29/25 Q1010 NOSIG",
      "metar_wdir": 180,
      "metar_wspd": 9,
      "metar_oat": 29,
      "metar_qnh": 1010,
      "hourly_oat": [
        29,
        29,
        29,
        28,
        28,
        28,
        28,
        28,
        27,
        26,
        26,
        26,
        27,
        28,
        29,
        30,
        30,
        30,
        30,
        30,
        30,
        30,
        30,
        29,
        28
      ]
    },
    "HAN": {
      "icao": "VVNB",
      "issued": "2026-07-10T11:00:00.000Z",
      "raw": "TAF VVNB 101100Z 1012/1112 16005KT 9999 SCT020 TEMPO 1014/1018 4000 TSRA SCT010 FEW027CB TEMPO 1021/1101 3000 TSRA SCT010 FEW027CB TEMPO 1108/1112 3000 TSRA SCT010 FEW027CB",
      "groups": [
        {
          "text": "TAF VVNB 101100Z 1012/1112 16005KT 9999 SCT020",
          "offset_h": 0,
          "wdir": 160,
          "wspd": 5
        },
        {
          "text": "TEMPO 1014/1018 4000 TSRA SCT010 FEW027CB",
          "offset_h": 2,
          "wdir": null,
          "wspd": null
        },
        {
          "text": "TEMPO 1021/1101 3000 TSRA SCT010 FEW027CB",
          "offset_h": 9,
          "wdir": null,
          "wspd": null
        },
        {
          "text": "TEMPO 1108/1112 3000 TSRA SCT010 FEW027CB",
          "offset_h": 20,
          "wdir": null,
          "wspd": null
        }
      ],
      "metar_raw": "METAR VVNB 101200Z 15003KT 9999 SCT048 28/26 Q1000 NOSIG",
      "metar_wdir": 150,
      "metar_wspd": 3,
      "metar_oat": 28,
      "metar_qnh": 1000,
      "hourly_oat": [
        28,
        28,
        27,
        27,
        27,
        26,
        26,
        26,
        26,
        26,
        26,
        26,
        27,
        28,
        29,
        30,
        31,
        32,
        32,
        32,
        33,
        31,
        30,
        29,
        28
      ]
    },
    "SGN": {
      "icao": "VVTS",
      "issued": "2026-07-10T11:00:00.000Z",
      "raw": "TAF VVTS 101100Z 1012/1118 25010KT 9999 SCT017",
      "groups": [
        {
          "text": "TAF VVTS 101100Z 1012/1118 25010KT 9999 SCT017",
          "offset_h": 0,
          "wdir": 250,
          "wspd": 10
        }
      ],
      "metar_raw": "METAR VVTS 101200Z 25012KT CAVOK 31/26 Q1006 NOSIG",
      "metar_wdir": 250,
      "metar_wspd": 12,
      "metar_oat": 31,
      "metar_qnh": 1006,
      "hourly_oat": [
        29,
        29,
        28,
        28,
        27,
        27,
        27,
        26,
        26,
        26,
        26,
        26,
        27,
        29,
        30,
        32,
        33,
        33,
        30,
        28,
        30,
        30,
        30,
        27,
        28
      ]
    },
    "GMP": {
      "icao": "RKSS",
      "issued": "2026-07-10T11:00:00.000Z",
      "raw": "TAF RKSS 101100Z 1012/1118 25006KT 6000 FEW010 BKN030 TN24/1021Z TX33/1106Z BECMG 1019/1021 15005KT 4000 BR BECMG 1022/1024 22007KT 9999 SCT040 BECMG 1105/1107 28007KT BECMG 1112/1114 06005KT 6000",
      "groups": [
        {
          "text": "TAF RKSS 101100Z 1012/1118 25006KT 6000 FEW010 BKN030 TN24/1021Z TX33/1106Z",
          "offset_h": 0,
          "wdir": 250,
          "wspd": 6
        },
        {
          "text": "BECMG 1019/1021 15005KT 4000 BR",
          "offset_h": 7,
          "wdir": 150,
          "wspd": 5
        },
        {
          "text": "BECMG 1022/1024 22007KT 9999 SCT040",
          "offset_h": 10,
          "wdir": 220,
          "wspd": 7
        },
        {
          "text": "BECMG 1105/1107 28007KT",
          "offset_h": 17,
          "wdir": 280,
          "wspd": 7
        },
        {
          "text": "BECMG 1112/1114 06005KT 6000",
          "offset_h": 24,
          "wdir": 60,
          "wspd": 5
        }
      ],
      "metar_raw": "METAR RKSS 101200Z 23006KT 190V260 9999 SCT018 BKN030 BKN100 27/27 Q1012 NOSIG",
      "metar_wdir": 230,
      "metar_wspd": 6,
      "metar_oat": 27,
      "metar_qnh": 1012,
      "hourly_oat": [
        25,
        24,
        24,
        24,
        24,
        24,
        24,
        23,
        23,
        23,
        24,
        25,
        27,
        28,
        29,
        30,
        31,
        31,
        32,
        31,
        30,
        30,
        29,
        28,
        27
      ]
    },
    "SHA": {
      "icao": "ZSSS",
      "issued": "2026-07-10T09:06:00.000Z",
      "raw": "TAF ZSSS 100906Z 1012/1118 13004MPS 8000 BKN030 TX30/1012Z TX32/1106Z TN26/1021Z BECMG 1019/1020 08004MPS BECMG 1103/1104 08009G14MPS",
      "groups": [
        {
          "text": "TAF ZSSS 100906Z 1012/1118 13004MPS 8000 BKN030 TX30/1012Z TX32/1106Z TN26/1021Z",
          "offset_h": 0,
          "wdir": null,
          "wspd": null
        },
        {
          "text": "BECMG 1019/1020 08004MPS",
          "offset_h": 7,
          "wdir": null,
          "wspd": null
        },
        {
          "text": "BECMG 1103/1104 08009G14MPS",
          "offset_h": 15,
          "wdir": null,
          "wspd": null
        }
      ],
      "metar_raw": "METAR ZSSS 101200Z 13006MPS CAVOK 30/25 Q1006 NOSIG",
      "metar_wdir": null,
      "metar_wspd": null,
      "metar_oat": 30,
      "metar_qnh": 1006,
      "hourly_oat": [
        28,
        27,
        27,
        27,
        27,
        27,
        27,
        27,
        26,
        27,
        27,
        28,
        29,
        29,
        31,
        31,
        32,
        31,
        32,
        31,
        31,
        30,
        29,
        29,
        29
      ]
    },
    "PVG": {
      "icao": "ZSPD",
      "issued": "2026-07-10T09:06:00.000Z",
      "raw": "TAF ZSPD 100906Z 1012/1118 13004MPS 8000 BKN030 TX28/1012Z TX31/1106Z TN25/1021Z BECMG 1018/1019 07004MPS BECMG 1023/1024 08009G15MPS BECMG 1105/1106 09015G20MPS",
      "groups": [
        {
          "text": "TAF ZSPD 100906Z 1012/1118 13004MPS 8000 BKN030 TX28/1012Z TX31/1106Z TN25/1021Z",
          "offset_h": 0,
          "wdir": null,
          "wspd": null
        },
        {
          "text": "BECMG 1018/1019 07004MPS",
          "offset_h": 6,
          "wdir": null,
          "wspd": null
        },
        {
          "text": "BECMG 1023/1024 08009G15MPS",
          "offset_h": 11,
          "wdir": null,
          "wspd": null
        },
        {
          "text": "BECMG 1105/1106 09015G20MPS",
          "offset_h": 17,
          "wdir": null,
          "wspd": null
        }
      ],
      "metar_raw": "METAR ZSPD 101200Z 11005MPS 9999 SCT013 28/28 Q1007 NOSIG",
      "metar_wdir": null,
      "metar_wspd": null,
      "metar_oat": 28,
      "metar_qnh": 1007,
      "hourly_oat": [
        28,
        28,
        28,
        27,
        28,
        27,
        27,
        27,
        27,
        27,
        28,
        28,
        28,
        29,
        29,
        30,
        30,
        29,
        29,
        30,
        29,
        29,
        28,
        28,
        28
      ]
    },
    "CAN": {
      "icao": "ZGGG",
      "issued": "2026-07-10T09:02:00.000Z",
      "raw": "TAF ZGGG 100902Z 1012/1118 19003MPS 8000 SCT040 TX32/1012Z TX37/1107Z TN27/1022Z",
      "groups": [
        {
          "text": "TAF ZGGG 100902Z 1012/1118 19003MPS 8000 SCT040 TX32/1012Z TX37/1107Z TN27/1022Z",
          "offset_h": 0,
          "wdir": null,
          "wspd": null
        }
      ],
      "metar_raw": "METAR ZGGG 101200Z 07002MPS CAVOK 32/26 Q1000 NOSIG",
      "metar_wdir": null,
      "metar_wspd": null,
      "metar_oat": 32,
      "metar_qnh": 1000,
      "hourly_oat": [
        30,
        29,
        28,
        28,
        28,
        27,
        27,
        27,
        26,
        26,
        26,
        27,
        29,
        30,
        32,
        33,
        34,
        35,
        36,
        36,
        36,
        35,
        34,
        32,
        31
      ]
    },
    "DLC": {
      "icao": "ZYTL",
      "issued": "2026-07-10T09:02:00.000Z",
      "raw": "TAF ZYTL 100902Z 1012/1112 13004MPS 5000 BR SCT033 TX29/1106Z TN22/1021Z",
      "groups": [
        {
          "text": "TAF ZYTL 100902Z 1012/1112 13004MPS 5000 BR SCT033 TX29/1106Z TN22/1021Z",
          "offset_h": 0,
          "wdir": null,
          "wspd": null
        }
      ],
      "metar_raw": "METAR ZYTL 101200Z 15003MPS 6000 FEW007 BKN016 26/24 Q1006 NOSIG",
      "metar_wdir": null,
      "metar_wspd": null,
      "metar_oat": 26,
      "metar_qnh": 1006,
      "hourly_oat": [
        26,
        26,
        26,
        25,
        25,
        25,
        25,
        24,
        24,
        24,
        25,
        25,
        25,
        26,
        28,
        27,
        28,
        30,
        30,
        30,
        29,
        28,
        28,
        27,
        26
      ]
    },
    "PEK": {
      "icao": "ZBAA",
      "issued": "2026-07-10T09:00:00.000Z",
      "raw": "TAF ZBAA 100900Z 1012/1118 16004MPS 5000 BR BKN040 TX29/1107Z TN24/1021Z TN25/1118Z TEMPO 1012/1018 TSRA SCT040CB BKN040 TEMPO 1112/1118 TSRA SCT040CB BKN040",
      "groups": [
        {
          "text": "TAF ZBAA 100900Z 1012/1118 16004MPS 5000 BR BKN040 TX29/1107Z TN24/1021Z TN25/1118Z",
          "offset_h": 0,
          "wdir": null,
          "wspd": null
        },
        {
          "text": "TEMPO 1012/1018 TSRA SCT040CB BKN040",
          "offset_h": 0,
          "wdir": null,
          "wspd": null
        },
        {
          "text": "TEMPO 1112/1118 TSRA SCT040CB BKN040",
          "offset_h": 24,
          "wdir": null,
          "wspd": null
        }
      ],
      "metar_raw": "METAR ZBAA 101200Z 03003MPS 340V060 2000 -TSRA BR SCT006 SCT033 SCT033CB 25/24 Q1002 RESHRA BECMG AT1340 3500 NSW BKN013",
      "metar_wdir": null,
      "metar_wspd": null,
      "metar_oat": 25,
      "metar_qnh": 1002,
      "hourly_oat": [
        24,
        24,
        24,
        24,
        24,
        24,
        24,
        24,
        24,
        24,
        24,
        24,
        25,
        27,
        28,
        28,
        29,
        30,
        30,
        30,
        30,
        28,
        28,
        27,
        26
      ]
    }
  }
}