{
  "updated": "2026-06-26T16:05:40Z",
  "tafs": {
    "SAN": {
      "icao": "KSAN",
      "issued": "2026-06-26T15:12:00.000Z",
      "raw": "TAF KSAN 261512Z 2615/2718 VRB04KT P6SM OVC022 FM261630 25005KT P6SM SCT025 FM261800 25010KT P6SM SKC FM270200 VRB04KT P6SM BKN025 FM271700 20005KT P6SM FEW030",
      "groups": [
        {
          "text": "TAF KSAN 261512Z 2615/2718 VRB04KT P6SM OVC022",
          "offset_h": -1,
          "wdir": "VRB",
          "wspd": 4
        },
        {
          "text": "FM261630 25005KT P6SM SCT025",
          "offset_h": 0,
          "wdir": 250,
          "wspd": 5
        },
        {
          "text": "FM261800 25010KT P6SM SKC",
          "offset_h": 2,
          "wdir": 250,
          "wspd": 10
        },
        {
          "text": "FM270200 VRB04KT P6SM BKN025",
          "offset_h": 10,
          "wdir": "VRB",
          "wspd": 4
        },
        {
          "text": "FM271700 20005KT P6SM FEW030",
          "offset_h": 25,
          "wdir": 200,
          "wspd": 5
        }
      ],
      "metar_raw": "METAR KSAN 261551Z 23006KT 10SM BKN024 19/13 A2997 RMK AO2 SLP148 T01890128",
      "metar_wdir": 230,
      "metar_wspd": 6,
      "metar_oat": 19,
      "metar_qnh": 1015,
      "hourly_oat": [
        20,
        21,
        22,
        22,
        22,
        22,
        22,
        21,
        20,
        19,
        18,
        18,
        18,
        17,
        17,
        17,
        17,
        17,
        17,
        17,
        17,
        17,
        17,
        18,
        19
      ]
    },
    "CAN": {
      "icao": "ZGGG",
      "issued": "2026-06-26T15:09:00.000Z",
      "raw": "TAF ZGGG 261509Z 2618/2724 08003MPS 8000 BKN033 TX32/2707Z TN25/2622Z TN25/2722Z TEMPO 2618/2622 SHRA FEW026CB BKN030 TEMPO 2707/2711 TSRA SCT026CB BKN030 TEMPO 2716/2720 SHRA FEW026CB BKN030",
      "groups": [
        {
          "text": "TAF ZGGG 261509Z 2618/2724 08003MPS 8000 BKN033 TX32/2707Z TN25/2622Z TN25/2722Z",
          "offset_h": 2,
          "wdir": null,
          "wspd": null
        },
        {
          "text": "TEMPO 2618/2622 SHRA FEW026CB BKN030",
          "offset_h": 2,
          "wdir": null,
          "wspd": null
        },
        {
          "text": "TEMPO 2707/2711 TSRA SCT026CB BKN030",
          "offset_h": 15,
          "wdir": null,
          "wspd": null
        },
        {
          "text": "TEMPO 2716/2720 SHRA FEW026CB BKN030",
          "offset_h": 24,
          "wdir": null,
          "wspd": null
        }
      ],
      "metar_raw": "METAR ZGGG 261600Z 08002MPS 9999 SCT020 26/25 Q1005 NOSIG",
      "metar_wdir": null,
      "metar_wspd": null,
      "metar_oat": 26,
      "metar_qnh": 1005,
      "hourly_oat": [
        26,
        26,
        26,
        26,
        25,
        25,
        25,
        26,
        27,
        29,
        30,
        31,
        32,
        33,
        33,
        30,
        29,
        29,
        30,
        27,
        27,
        27,
        26,
        26,
        26
      ]
    },
    "PVG": {
      "icao": "ZSPD",
      "issued": "2026-06-26T15:08:00.000Z",
      "raw": "TAF ZSPD 261508Z 2618/2724 07004MPS 8000 BKN020 TX28/2706Z TN21/2621Z TN21/2721Z BECMG 2707/2708 13004MPS",
      "groups": [
        {
          "text": "TAF ZSPD 261508Z 2618/2724 07004MPS 8000 BKN020 TX28/2706Z TN21/2621Z TN21/2721Z",
          "offset_h": 2,
          "wdir": null,
          "wspd": null
        },
        {
          "text": "BECMG 2707/2708 13004MPS",
          "offset_h": 15,
          "wdir": null,
          "wspd": null
        }
      ],
      "metar_raw": "METAR ZSPD 261600Z 12002MPS 060V150 9999 FEW015 23/20 Q1007 NOSIG",
      "metar_wdir": null,
      "metar_wspd": null,
      "metar_oat": 23,
      "metar_qnh": 1007,
      "hourly_oat": [
        22,
        21,
        21,
        21,
        20,
        20,
        22,
        22,
        24,
        25,
        25,
        26,
        26,
        25,
        25,
        25,
        24,
        24,
        23,
        22,
        22,
        22,
        22,
        21,
        21
      ]
    },
    "SHA": {
      "icao": "ZSSS",
      "issued": "2026-06-26T15:08:00.000Z",
      "raw": "TAF ZSSS 261508Z 2618/2724 07004MPS 8000 BKN020 TX30/2706Z TN22/2621Z TN22/2721Z BECMG 2707/2708 13004MPS",
      "groups": [
        {
          "text": "TAF ZSSS 261508Z 2618/2724 07004MPS 8000 BKN020 TX30/2706Z TN22/2621Z TN22/2721Z",
          "offset_h": 2,
          "wdir": null,
          "wspd": null
        },
        {
          "text": "BECMG 2707/2708 13004MPS",
          "offset_h": 15,
          "wdir": null,
          "wspd": null
        }
      ],
      "metar_raw": "METAR ZSSS 261600Z 14002MPS 090V180 9999 FEW043 24/19 Q1007 NOSIG",
      "metar_wdir": null,
      "metar_wspd": null,
      "metar_oat": 24,
      "metar_qnh": 1007,
      "hourly_oat": [
        22,
        22,
        21,
        21,
        21,
        21,
        21,
        22,
        24,
        25,
        26,
        28,
        28,
        29,
        29,
        29,
        28,
        26,
        25,
        24,
        23,
        22,
        22,
        22,
        22
      ]
    },
    "PEK": {
      "icao": "ZBAA",
      "issued": "2026-06-26T15:04:00.000Z",
      "raw": "TAF ZBAA 261504Z 2618/2724 16004MPS CAVOK TX35/2707Z TN20/2621Z TN20/2721Z TEMPO 2709/2712 -TSRA FEW030CB BKN040",
      "groups": [
        {
          "text": "TAF ZBAA 261504Z 2618/2724 16004MPS CAVOK TX35/2707Z TN20/2621Z TN20/2721Z",
          "offset_h": 2,
          "wdir": null,
          "wspd": null
        },
        {
          "text": "TEMPO 2709/2712 -TSRA FEW030CB BKN040",
          "offset_h": 17,
          "wdir": null,
          "wspd": null
        }
      ],
      "metar_raw": "METAR ZBAA 261600Z VRB01MPS CAVOK 22/18 Q1005 NOSIG",
      "metar_wdir": null,
      "metar_wspd": null,
      "metar_oat": 22,
      "metar_qnh": 1005,
      "hourly_oat": [
        24,
        23,
        22,
        22,
        21,
        20,
        21,
        23,
        25,
        26,
        28,
        30,
        32,
        34,
        34,
        34,
        34,
        32,
        30,
        29,
        27,
        26,
        25,
        25,
        24
      ]
    },
    "LAX": {
      "icao": "KLAX",
      "issued": "2026-06-26T15:03:00.000Z",
      "raw": "TAF KLAX 261503Z 2615/2718 26006KT P6SM OVC025 FM262100 26012KT P6SM SCT025 FM270200 26012KT P6SM OVC015 FM270800 26006KT P6SM OVC012 FM271000 VRB03KT P6SM OVC012 FM271700 26006KT P6SM OVC015",
      "groups": [
        {
          "text": "TAF KLAX 261503Z 2615/2718 26006KT P6SM OVC025",
          "offset_h": -1,
          "wdir": 260,
          "wspd": 6
        },
        {
          "text": "FM262100 26012KT P6SM SCT025",
          "offset_h": 5,
          "wdir": 260,
          "wspd": 12
        },
        {
          "text": "FM270200 26012KT P6SM OVC015",
          "offset_h": 10,
          "wdir": 260,
          "wspd": 12
        },
        {
          "text": "FM270800 26006KT P6SM OVC012",
          "offset_h": 16,
          "wdir": 260,
          "wspd": 6
        },
        {
          "text": "FM271000 VRB03KT P6SM OVC012",
          "offset_h": 18,
          "wdir": "VRB",
          "wspd": 3
        },
        {
          "text": "FM271700 26006KT P6SM OVC015",
          "offset_h": 25,
          "wdir": 260,
          "wspd": 6
        }
      ],
      "metar_raw": "METAR KLAX 261553Z 00000KT 10SM FEW009 OVC022 19/14 A2995 RMK AO2 SLP141 T01890139",
      "metar_wdir": 0,
      "metar_wspd": 0,
      "metar_oat": 19,
      "metar_qnh": 1014,
      "hourly_oat": [
        19,
        21,
        22,
        22,
        22,
        21,
        21,
        20,
        19,
        19,
        18,
        17,
        17,
        17,
        17,
        17,
        17,
        17,
        17,
        17,
        17,
        17,
        17,
        18,
        19
      ]
    },
    "DLC": {
      "icao": "ZYTL",
      "issued": "2026-06-26T15:01:00.000Z",
      "raw": "TAF ZYTL 261501Z 2618/2718 24004MPS 6000 FEW030 TX28/2706Z TN19/2621Z",
      "groups": [
        {
          "text": "TAF ZYTL 261501Z 2618/2718 24004MPS 6000 FEW030 TX28/2706Z TN19/2621Z",
          "offset_h": 2,
          "wdir": null,
          "wspd": null
        }
      ],
      "metar_raw": "METAR ZYTL 261600Z 29001MPS 9999 FEW040 20/16 Q1007 NOSIG",
      "metar_wdir": null,
      "metar_wspd": null,
      "metar_oat": 20,
      "metar_qnh": 1007,
      "hourly_oat": [
        23,
        22,
        22,
        22,
        21,
        21,
        22,
        24,
        27,
        29,
        30,
        30,
        31,
        31,
        31,
        30,
        30,
        30,
        28,
        26,
        24,
        23,
        23,
        23,
        22
      ]
    },
    "HNL": {
      "icao": "PHNL",
      "issued": "2026-06-26T14:14:00.000Z",
      "raw": "TAF PHNL 261414Z 2614/2718 05010KT P6SM FEW025 SCT040 FM262000 07016G22KT P6SM SCT025 SCT045 FM271000 06012KT P6SM FEW025 FEW040",
      "groups": [
        {
          "text": "TAF PHNL 261414Z 2614/2718 05010KT P6SM FEW025 SCT040",
          "offset_h": -2,
          "wdir": 50,
          "wspd": 10
        },
        {
          "text": "FM262000 07016G22KT P6SM SCT025 SCT045",
          "offset_h": 4,
          "wdir": 70,
          "wspd": 16
        },
        {
          "text": "FM271000 06012KT P6SM FEW025 FEW040",
          "offset_h": 18,
          "wdir": 60,
          "wspd": 12
        }
      ],
      "metar_raw": "METAR PHNL 261553Z VRB03KT 10SM FEW022 FEW035 SCT060 25/21 A2998 RMK AO2 SLP150 VCSH N-E T02500206 $",
      "metar_wdir": "VRB",
      "metar_wspd": 3,
      "metar_oat": 25,
      "metar_qnh": 1015,
      "hourly_oat": [
        24,
        25,
        25,
        26,
        27,
        28,
        29,
        29,
        29,
        29,
        28,
        28,
        26,
        25,
        25,
        24,
        23,
        23,
        23,
        23,
        23,
        23,
        23,
        23,
        23
      ]
    },
    "HKG": {
      "icao": "VHHH",
      "issued": "2026-06-26T14:00:00.000Z",
      "raw": "TAF VHHH 261400Z 2615/2721 22010KT 9999 FEW010 SCT025 TX30/2706Z TN26/2622Z TEMPO 2615/2618 10010KT 3000 SHRA FEW010CB SCT020 TEMPO 2618/2623 VRB15G25KT 2000 TSRA +SHRA FEW008CB SCT015 TEMPO 2623/2705 24025G35KT 1500 TSRA +SHRA FEW008CB SCT015 TEMPO 2705/2709 3000 SHRA FEW010CB SCT020",
      "groups": [
        {
          "text": "TAF VHHH 261400Z 2615/2721 22010KT 9999 FEW010 SCT025 TX30/2706Z TN26/2622Z",
          "offset_h": -1,
          "wdir": 220,
          "wspd": 10
        },
        {
          "text": "TEMPO 2615/2618 10010KT 3000 SHRA FEW010CB SCT020",
          "offset_h": -1,
          "wdir": 100,
          "wspd": 10
        },
        {
          "text": "TEMPO 2618/2623 VRB15G25KT 2000 TSRA +SHRA FEW008CB SCT015",
          "offset_h": 2,
          "wdir": "VRB",
          "wspd": 15
        },
        {
          "text": "TEMPO 2623/2705 24025G35KT 1500 TSRA +SHRA FEW008CB SCT015",
          "offset_h": 7,
          "wdir": 240,
          "wspd": 25
        },
        {
          "text": "TEMPO 2705/2709 3000 SHRA FEW010CB SCT020",
          "offset_h": 13,
          "wdir": null,
          "wspd": null
        }
      ],
      "metar_raw": "METAR VHHH 261600Z 13006KT 9999 FEW008 28/25 Q1005 NOSIG",
      "metar_wdir": 130,
      "metar_wspd": 6,
      "metar_oat": 28,
      "metar_qnh": 1005,
      "hourly_oat": [
        28,
        28,
        28,
        28,
        28,
        28,
        28,
        28,
        28,
        28,
        28,
        29,
        28,
        29,
        28,
        29,
        29,
        29,
        29,
        28,
        28,
        28,
        28,
        28,
        29
      ]
    },
    "NRT": {
      "icao": "RJAA",
      "issued": "2026-06-26T13:49:00.000Z",
      "raw": "TAF AMD RJAA 261349Z 2613/2718 21004KT 6000 -SHRA FEW005 BKN012 TEMPO 2613/2620 3000 SHRA BR FEW001 BKN003 BECMG 2619/2621 34012KT TEMPO 2620/2623 02015G25KT 1500 +TSRA BR FEW001 BKN003 FEW012CB TEMPO 2623/2709 2000 SHRA BR FEW001 BKN003 BECMG 2700/2703 12008KT BECMG 2709/2712 34014KT TEMPO 2709/2712 03021G31KT 3000 SHRA BR FEW001 BKN003 TEMPO 2712/2715 4000 BR FEW001 BKN005 BECMG 2715/2718 27004KT",
      "groups": [
        {
          "text": "TAF AMD RJAA 261349Z 2613/2718 21004KT 6000 -SHRA FEW005 BKN012",
          "offset_h": -3,
          "wdir": 210,
          "wspd": 4
        },
        {
          "text": "TEMPO 2613/2620 3000 SHRA BR FEW001 BKN003",
          "offset_h": -3,
          "wdir": null,
          "wspd": null
        },
        {
          "text": "BECMG 2619/2621 34012KT",
          "offset_h": 3,
          "wdir": 340,
          "wspd": 12
        },
        {
          "text": "TEMPO 2620/2623 02015G25KT 1500 +TSRA BR FEW001 BKN003 FEW012CB",
          "offset_h": 4,
          "wdir": 20,
          "wspd": 15
        },
        {
          "text": "TEMPO 2623/2709 2000 SHRA BR FEW001 BKN003",
          "offset_h": 7,
          "wdir": null,
          "wspd": null
        },
        {
          "text": "BECMG 2700/2703 12008KT",
          "offset_h": 8,
          "wdir": 120,
          "wspd": 8
        },
        {
          "text": "BECMG 2709/2712 34014KT",
          "offset_h": 17,
          "wdir": 340,
          "wspd": 14
        },
        {
          "text": "TEMPO 2709/2712 03021G31KT 3000 SHRA BR FEW001 BKN003",
          "offset_h": 17,
          "wdir": 30,
          "wspd": 21
        },
        {
          "text": "TEMPO 2712/2715 4000 BR FEW001 BKN005",
          "offset_h": 20,
          "wdir": null,
          "wspd": null
        },
        {
          "text": "BECMG 2715/2718 27004KT",
          "offset_h": 23,
          "wdir": 270,
          "wspd": 4
        }
      ],
      "metar_raw": "METAR RJAA 261600Z AUTO 15005KT 9999 NSC 21/21 Q1005 TEMPO FEW008 BKN012",
      "metar_wdir": 150,
      "metar_wspd": 5,
      "metar_oat": 21,
      "metar_qnh": 1005,
      "hourly_oat": [
        22,
        21,
        21,
        21,
        21,
        21,
        21,
        21,
        22,
        22,
        22,
        22,
        22,
        22,
        22,
        22,
        24,
        24,
        24,
        23,
        21,
        21,
        21,
        21,
        21
      ]
    },
    "CTS": {
      "icao": "RJCC",
      "issued": "2026-06-26T11:05:00.000Z",
      "raw": "TAF RJCC 261105Z 2612/2718 22004KT 9000 -SHRA FEW005 BKN015 BECMG 2612/2614 34006KT TEMPO 2612/2619 3000 SHRA BR FEW002 BKN004 TEMPO 2619/2621 4000 -SHRA BR FEW003 BKN005 TEMPO 2621/2700 FEW004 BKN008 BECMG 2622/2700 33018KT TEMPO 2715/2718 FEW004 BKN008",
      "groups": [
        {
          "text": "TAF RJCC 261105Z 2612/2718 22004KT 9000 -SHRA FEW005 BKN015",
          "offset_h": -4,
          "wdir": 220,
          "wspd": 4
        },
        {
          "text": "BECMG 2612/2614 34006KT",
          "offset_h": -4,
          "wdir": 340,
          "wspd": 6
        },
        {
          "text": "TEMPO 2612/2619 3000 SHRA BR FEW002 BKN004",
          "offset_h": -4,
          "wdir": null,
          "wspd": null
        },
        {
          "text": "TEMPO 2619/2621 4000 -SHRA BR FEW003 BKN005",
          "offset_h": 3,
          "wdir": null,
          "wspd": null
        },
        {
          "text": "TEMPO 2621/2700 FEW004 BKN008",
          "offset_h": 5,
          "wdir": null,
          "wspd": null
        },
        {
          "text": "BECMG 2622/2700 33018KT",
          "offset_h": 6,
          "wdir": 330,
          "wspd": 18
        },
        {
          "text": "TEMPO 2715/2718 FEW004 BKN008",
          "offset_h": 23,
          "wdir": null,
          "wspd": null
        }
      ],
      "metar_raw": "METAR RJCC 261600Z 30006KT 3000 SHRA BR FEW001 SCT002 BKN003 17/16 Q1000",
      "metar_wdir": 300,
      "metar_wspd": 6,
      "metar_oat": 17,
      "metar_qnh": 1000,
      "hourly_oat": [
        16,
        16,
        16,
        16,
        17,
        17,
        18,
        19,
        20,
        22,
        23,
        23,
        23,
        24,
        23,
        22,
        20,
        19,
        18,
        18,
        18,
        18,
        17,
        16,
        16
      ]
    },
    "HND": {
      "icao": "RJTT",
      "issued": "2026-06-26T11:05:00.000Z",
      "raw": "TAF RJTT 261105Z 2612/2718 18008KT 6000 -SHRA FEW005 BKN012 TEMPO 2612/2615 3000 SHRA BR FEW003 BKN005 TEMPO 2615/2621 3000 TSRA BR FEW003 BKN005 FEW025CB BECMG 2619/2621 34022KT TEMPO 2621/2700 34025G35KT 1500 +TSRA BR FEW001 BKN005 SCT025CB BECMG 2700/2703 14012KT TEMPO 2700/2709 3000 SHRA BR FEW003 BKN005 BECMG 2709/2712 34022KT TEMPO 2709/2712 34025G35KT 1500 +SHRA BR FEW001 BKN005 BECMG 2712/2715 30012KT",
      "groups": [
        {
          "text": "TAF RJTT 261105Z 2612/2718 18008KT 6000 -SHRA FEW005 BKN012",
          "offset_h": -4,
          "wdir": 180,
          "wspd": 8
        },
        {
          "text": "TEMPO 2612/2615 3000 SHRA BR FEW003 BKN005",
          "offset_h": -4,
          "wdir": null,
          "wspd": null
        },
        {
          "text": "TEMPO 2615/2621 3000 TSRA BR FEW003 BKN005 FEW025CB",
          "offset_h": -1,
          "wdir": null,
          "wspd": null
        },
        {
          "text": "BECMG 2619/2621 34022KT",
          "offset_h": 3,
          "wdir": 340,
          "wspd": 22
        },
        {
          "text": "TEMPO 2621/2700 34025G35KT 1500 +TSRA BR FEW001 BKN005 SCT025CB",
          "offset_h": 5,
          "wdir": 340,
          "wspd": 25
        },
        {
          "text": "BECMG 2700/2703 14012KT",
          "offset_h": 8,
          "wdir": 140,
          "wspd": 12
        },
        {
          "text": "TEMPO 2700/2709 3000 SHRA BR FEW003 BKN005",
          "offset_h": 8,
          "wdir": null,
          "wspd": null
        },
        {
          "text": "BECMG 2709/2712 34022KT",
          "offset_h": 17,
          "wdir": 340,
          "wspd": 22
        },
        {
          "text": "TEMPO 2709/2712 34025G35KT 1500 +SHRA BR FEW001 BKN005",
          "offset_h": 17,
          "wdir": 340,
          "wspd": 25
        },
        {
          "text": "BECMG 2712/2715 30012KT",
          "offset_h": 20,
          "wdir": 300,
          "wspd": 12
        }
      ],
      "metar_raw": "METAR RJTT 261600Z 18008KT 9999 -SHRA FEW003 BKN080 23/22 Q1006 TEMPO FEW005 BKN012",
      "metar_wdir": 180,
      "metar_wspd": 8,
      "metar_oat": 23,
      "metar_qnh": 1006,
      "hourly_oat": [
        22,
        22,
        22,
        21,
        21,
        22,
        22,
        22,
        22,
        22,
        22,
        22,
        22,
        22,
        22,
        23,
        23,
        22,
        22,
        22,
        22,
        23,
        23,
        22,
        22
      ]
    },
    "ITM": {
      "icao": "RJOO",
      "issued": "2026-06-26T11:05:00.000Z",
      "raw": "TAF RJOO 261105Z 2612/2718 02006KT 6000 -SHRA FEW005 SCT012 BKN020 TEMPO 2612/2621 3000 SHRA BR FEW003 BKN008 BKN015 BECMG 2703/2706 34016KT BECMG 2715/2718 32006KT",
      "groups": [
        {
          "text": "TAF RJOO 261105Z 2612/2718 02006KT 6000 -SHRA FEW005 SCT012 BKN020",
          "offset_h": -4,
          "wdir": 20,
          "wspd": 6
        },
        {
          "text": "TEMPO 2612/2621 3000 SHRA BR FEW003 BKN008 BKN015",
          "offset_h": -4,
          "wdir": null,
          "wspd": null
        },
        {
          "text": "BECMG 2703/2706 34016KT",
          "offset_h": 11,
          "wdir": 340,
          "wspd": 16
        },
        {
          "text": "BECMG 2715/2718 32006KT",
          "offset_h": 23,
          "wdir": 320,
          "wspd": 6
        }
      ],
      "metar_raw": "METAR RJOO 261600Z AUTO 06005KT 2800 RA BR FEW005 SCT035 BKN040 20/20 Q1004",
      "metar_wdir": 60,
      "metar_wspd": 5,
      "metar_oat": 20,
      "metar_qnh": 1004,
      "hourly_oat": [
        20,
        21,
        21,
        21,
        21,
        21,
        22,
        22,
        22,
        22,
        22,
        22,
        24,
        25,
        25,
        24,
        24,
        24,
        24,
        23,
        22,
        22,
        22,
        21,
        21
      ]
    },
    "OKA": {
      "icao": "ROAH",
      "issued": "2026-06-26T11:05:00.000Z",
      "raw": "TAF ROAH 261105Z 2612/2718 29018KT 9999 FEW010 BKN020 BECMG 2620/2622 35006KT BECMG 2709/2712 16005KT",
      "groups": [
        {
          "text": "TAF ROAH 261105Z 2612/2718 29018KT 9999 FEW010 BKN020",
          "offset_h": -4,
          "wdir": 290,
          "wspd": 18
        },
        {
          "text": "BECMG 2620/2622 35006KT",
          "offset_h": 4,
          "wdir": 350,
          "wspd": 6
        },
        {
          "text": "BECMG 2709/2712 16005KT",
          "offset_h": 17,
          "wdir": 160,
          "wspd": 5
        }
      ],
      "metar_raw": "METAR ROAH 261600Z AUTO 28011KT 9999 FEW035 BKN037 BKN050 26/25 Q1004",
      "metar_wdir": 280,
      "metar_wspd": 11,
      "metar_oat": 26,
      "metar_qnh": 1004,
      "hourly_oat": [
        26,
        26,
        26,
        26,
        26,
        26,
        26,
        27,
        27,
        28,
        28,
        29,
        29,
        28,
        28,
        28,
        28,
        28,
        26,
        26,
        26,
        25,
        25,
        25,
        25
      ]
    },
    "NGO": {
      "icao": "RJGG",
      "issued": "2026-06-26T11:05:00.000Z",
      "raw": "TAF RJGG 261105Z 2612/2718 08004KT 6000 -SHRA FEW005 SCT008 BKN020 TEMPO 2612/2709 3000 SHRA BR FEW001 SCT003 BKN005 BECMG 2614/2616 36008KT BECMG 2706/2709 29012KT",
      "groups": [
        {
          "text": "TAF RJGG 261105Z 2612/2718 08004KT 6000 -SHRA FEW005 SCT008 BKN020",
          "offset_h": -4,
          "wdir": 80,
          "wspd": 4
        },
        {
          "text": "TEMPO 2612/2709 3000 SHRA BR FEW001 SCT003 BKN005",
          "offset_h": -4,
          "wdir": null,
          "wspd": null
        },
        {
          "text": "BECMG 2614/2616 36008KT",
          "offset_h": -2,
          "wdir": 360,
          "wspd": 8
        },
        {
          "text": "BECMG 2706/2709 29012KT",
          "offset_h": 14,
          "wdir": 290,
          "wspd": 12
        }
      ],
      "metar_raw": "METAR RJGG 261600Z AUTO 04002KT 9999 FEW004 SCT007 BKN009 21/20 Q1004 NOSIG",
      "metar_wdir": 40,
      "metar_wspd": 2,
      "metar_oat": 21,
      "metar_qnh": 1004,
      "hourly_oat": [
        21,
        21,
        21,
        21,
        22,
        21,
        21,
        21,
        21,
        22,
        22,
        22,
        22,
        22,
        23,
        24,
        25,
        25,
        25,
        25,
        25,
        24,
        24,
        24,
        24
      ]
    },
    "KIX": {
      "icao": "RJBB",
      "issued": "2026-06-26T11:05:00.000Z",
      "raw": "TAF RJBB 261105Z 2612/2718 09006KT 7000 -SHRA FEW005 SCT012 BKN020 TEMPO 2612/2616 4000 SHRA BR FEW003 BKN008 BKN015 TEMPO 2616/2621 2000 SHRA BR FEW002 BKN005 BKN008 TEMPO 2621/2700 4000 SHRA BR FEW003 SCT005 BKN008 BECMG 2622/2700 02018KT BECMG 2709/2712 03008KT",
      "groups": [
        {
          "text": "TAF RJBB 261105Z 2612/2718 09006KT 7000 -SHRA FEW005 SCT012 BKN020",
          "offset_h": -4,
          "wdir": 90,
          "wspd": 6
        },
        {
          "text": "TEMPO 2612/2616 4000 SHRA BR FEW003 BKN008 BKN015",
          "offset_h": -4,
          "wdir": null,
          "wspd": null
        },
        {
          "text": "TEMPO 2616/2621 2000 SHRA BR FEW002 BKN005 BKN008",
          "offset_h": 0,
          "wdir": null,
          "wspd": null
        },
        {
          "text": "TEMPO 2621/2700 4000 SHRA BR FEW003 SCT005 BKN008",
          "offset_h": 5,
          "wdir": null,
          "wspd": null
        },
        {
          "text": "BECMG 2622/2700 02018KT",
          "offset_h": 6,
          "wdir": 20,
          "wspd": 18
        },
        {
          "text": "BECMG 2709/2712 03008KT",
          "offset_h": 17,
          "wdir": 30,
          "wspd": 8
        }
      ],
      "metar_raw": "METAR RJBB 261600Z AUTO 06007KT 9999 BKN002 OVC031 21/20 Q1004 TEMPO 4000 SHRA BR",
      "metar_wdir": 60,
      "metar_wspd": 7,
      "metar_oat": 21,
      "metar_qnh": 1004,
      "hourly_oat": [
        22,
        22,
        22,
        22,
        22,
        22,
        22,
        22,
        22,
        22,
        22,
        22,
        23,
        23,
        24,
        24,
        24,
        24,
        24,
        24,
        24,
        23,
        23,
        23,
        23
      ]
    },
    "FUK": {
      "icao": "RJFF",
      "issued": "2026-06-26T11:05:00.000Z",
      "raw": "TAF RJFF 261105Z 2612/2718 35006KT 9999 FEW015 BKN025 TEMPO 2612/2619 3000 SHRA BR BKN005 BKN045",
      "groups": [
        {
          "text": "TAF RJFF 261105Z 2612/2718 35006KT 9999 FEW015 BKN025",
          "offset_h": -4,
          "wdir": 350,
          "wspd": 6
        },
        {
          "text": "TEMPO 2612/2619 3000 SHRA BR BKN005 BKN045",
          "offset_h": -4,
          "wdir": null,
          "wspd": null
        }
      ],
      "metar_raw": "METAR RJFF 261600Z AUTO 32005KT 8000 -RA FEW003 SCT007 BKN029 20/20 Q1003 TEMPO BKN005",
      "metar_wdir": 320,
      "metar_wspd": 5,
      "metar_oat": 20,
      "metar_qnh": 1003,
      "hourly_oat": [
        20,
        20,
        21,
        21,
        21,
        21,
        21,
        22,
        23,
        23,
        24,
        24,
        24,
        25,
        24,
        24,
        24,
        24,
        23,
        22,
        22,
        22,
        22,
        21,
        21
      ]
    },
    "SGN": {
      "icao": "VVTS",
      "issued": "2026-06-26T11:00:00.000Z",
      "raw": "TAF VVTS 261100Z 2612/2718 24009KT 9999 SCT017 TEMPO 2704/2708 24015G26KT 3000 TSRA SCT013 SCT015CB TEMPO 2708/2712 5000 SHRA SCT015 FEW017CB",
      "groups": [
        {
          "text": "TAF VVTS 261100Z 2612/2718 24009KT 9999 SCT017",
          "offset_h": -4,
          "wdir": 240,
          "wspd": 9
        },
        {
          "text": "TEMPO 2704/2708 24015G26KT 3000 TSRA SCT013 SCT015CB",
          "offset_h": 12,
          "wdir": 240,
          "wspd": 15
        },
        {
          "text": "TEMPO 2708/2712 5000 SHRA SCT015 FEW017CB",
          "offset_h": 16,
          "wdir": null,
          "wspd": null
        }
      ],
      "metar_raw": "METAR VVTS 261600Z 23009KT 9999 FEW042 29/25 Q1010 NOSIG",
      "metar_wdir": 230,
      "metar_wspd": 9,
      "metar_oat": 29,
      "metar_qnh": 1010,
      "hourly_oat": [
        27,
        27,
        27,
        26,
        26,
        26,
        26,
        26,
        27,
        29,
        30,
        32,
        33,
        34,
        31,
        30,
        31,
        30,
        29,
        29,
        28,
        27,
        27,
        27,
        27
      ]
    },
    "TPE": {
      "icao": "RCTP",
      "issued": "2026-06-26T11:00:00.000Z",
      "raw": "TAF RCTP 261100Z 2612/2718 05008KT 9999 FEW015 BKN032 TEMPO 2621/2703 12005KT 5000 RA FEW010 BKN020 BECMG 2704/2706 24010KT TEMPO 2709/2712 5000 SHRA SCT008 BKN018 BECMG 2712/2714 18005KT",
      "groups": [
        {
          "text": "TAF RCTP 261100Z 2612/2718 05008KT 9999 FEW015 BKN032",
          "offset_h": -4,
          "wdir": 50,
          "wspd": 8
        },
        {
          "text": "TEMPO 2621/2703 12005KT 5000 RA FEW010 BKN020",
          "offset_h": 5,
          "wdir": 120,
          "wspd": 5
        },
        {
          "text": "BECMG 2704/2706 24010KT",
          "offset_h": 12,
          "wdir": 240,
          "wspd": 10
        },
        {
          "text": "TEMPO 2709/2712 5000 SHRA SCT008 BKN018",
          "offset_h": 17,
          "wdir": null,
          "wspd": null
        },
        {
          "text": "BECMG 2712/2714 18005KT",
          "offset_h": 20,
          "wdir": 180,
          "wspd": 5
        }
      ],
      "metar_raw": "METAR RCTP 261530Z VRB01KT 4000 -RA SCT005 BKN010 BKN025 25/25 Q1006 RERA TEMPO 5000 -RA RMK A2973",
      "metar_wdir": "VRB",
      "metar_wspd": 1,
      "metar_oat": 25,
      "metar_qnh": 1006,
      "hourly_oat": [
        25,
        24,
        24,
        25,
        25,
        24,
        25,
        25,
        25,
        25,
        26,
        26,
        26,
        26,
        25,
        25,
        25,
        25,
        25,
        24,
        24,
        24,
        24,
        24,
        24
      ]
    },
    "GMP": {
      "icao": "RKSS",
      "issued": "2026-06-26T11:00:00.000Z",
      "raw": "TAF RKSS 261100Z 2612/2718 28010KT 9999 FEW040 TN19/2620Z TX33/2706Z BECMG 2613/2615 34005KT 6000 NSC BECMG 2703/2705 27010KT 9999 FEW040 BECMG 2710/2712 33005KT",
      "groups": [
        {
          "text": "TAF RKSS 261100Z 2612/2718 28010KT 9999 FEW040 TN19/2620Z TX33/2706Z",
          "offset_h": -4,
          "wdir": 280,
          "wspd": 10
        },
        {
          "text": "BECMG 2613/2615 34005KT 6000 NSC",
          "offset_h": -3,
          "wdir": 340,
          "wspd": 5
        },
        {
          "text": "BECMG 2703/2705 27010KT 9999 FEW040",
          "offset_h": 11,
          "wdir": 270,
          "wspd": 10
        },
        {
          "text": "BECMG 2710/2712 33005KT",
          "offset_h": 18,
          "wdir": 330,
          "wspd": 5
        }
      ],
      "metar_raw": "METAR RKSS 261600Z 33002KT CAVOK 21/21 Q1006 NOSIG",
      "metar_wdir": 330,
      "metar_wspd": 2,
      "metar_oat": 21,
      "metar_qnh": 1006,
      "hourly_oat": [
        20,
        19,
        19,
        19,
        18,
        18,
        19,
        21,
        23,
        25,
        27,
        29,
        30,
        30,
        29,
        28,
        27,
        26,
        24,
        23,
        23,
        22,
        22,
        22,
        21
      ]
    },
    "CGK": {
      "icao": "WIII",
      "issued": "2026-06-26T11:00:00.000Z",
      "raw": "TAF WIII 261100Z 2612/2718 05010KT 6000 SCT020 BECMG 2614/2616 16005KT 4000 HZ BECMG 2704/2706 05012KT 8000 NSW",
      "groups": [
        {
          "text": "TAF WIII 261100Z 2612/2718 05010KT 6000 SCT020",
          "offset_h": -4,
          "wdir": 50,
          "wspd": 10
        },
        {
          "text": "BECMG 2614/2616 16005KT 4000 HZ",
          "offset_h": -2,
          "wdir": 160,
          "wspd": 5
        },
        {
          "text": "BECMG 2704/2706 05012KT 8000 NSW",
          "offset_h": 12,
          "wdir": 50,
          "wspd": 12
        }
      ],
      "metar_raw": "METAR WIII 261600Z 10006KT 5000 HZ FEW020 28/25 Q1011 NOSIG",
      "metar_wdir": 100,
      "metar_wspd": 6,
      "metar_oat": 28,
      "metar_qnh": 1011,
      "hourly_oat": [
        26,
        26,
        25,
        25,
        25,
        24,
        24,
        24,
        25,
        27,
        29,
        30,
        31,
        32,
        33,
        33,
        31,
        30,
        27,
        27,
        26,
        26,
        26,
        25,
        25
      ]
    },
    "BKK": {
      "icao": "VTBS",
      "issued": "2026-06-26T11:00:00.000Z",
      "raw": "TAF VTBS 261100Z 2612/2718 21008KT 9999 FEW020 TEMPO 2612/2615 VRB15KT -TSRA FEW018CB SCT030 BKN100 BECMG 2615/2617 14005KT BECMG 2700/2702 24008KT TEMPO 2708/2712 VRB10G30KT 4000 TSRA FEW018CB SCT030 BKN100",
      "groups": [
        {
          "text": "TAF VTBS 261100Z 2612/2718 21008KT 9999 FEW020",
          "offset_h": -4,
          "wdir": 210,
          "wspd": 8
        },
        {
          "text": "TEMPO 2612/2615 VRB15KT -TSRA FEW018CB SCT030 BKN100",
          "offset_h": -4,
          "wdir": "VRB",
          "wspd": 15
        },
        {
          "text": "BECMG 2615/2617 14005KT",
          "offset_h": -1,
          "wdir": 140,
          "wspd": 5
        },
        {
          "text": "BECMG 2700/2702 24008KT",
          "offset_h": 8,
          "wdir": 240,
          "wspd": 8
        },
        {
          "text": "TEMPO 2708/2712 VRB10G30KT 4000 TSRA FEW018CB SCT030 BKN100",
          "offset_h": 16,
          "wdir": "VRB",
          "wspd": 10
        }
      ],
      "metar_raw": "METAR VTBS 261600Z 23002KT 9999 FEW020 29/25 Q1009 NOSIG",
      "metar_wdir": 230,
      "metar_wspd": 2,
      "metar_oat": 29,
      "metar_qnh": 1009,
      "hourly_oat": [
        28,
        28,
        28,
        27,
        27,
        26,
        27,
        26,
        27,
        29,
        30,
        32,
        32,
        33,
        33,
        32,
        32,
        30,
        30,
        27,
        27,
        27,
        27,
        27,
        28
      ]
    },
    "HAN": {
      "icao": "VVNB",
      "issued": "2026-06-26T11:00:00.000Z",
      "raw": "TAF VVNB 261100Z 2612/2712 34005KT 9999 FEW030 TEMPO 2615/2620 4000 SHRA SCT012 FEW025TCU",
      "groups": [
        {
          "text": "TAF VVNB 261100Z 2612/2712 34005KT 9999 FEW030",
          "offset_h": -4,
          "wdir": 340,
          "wspd": 5
        },
        {
          "text": "TEMPO 2615/2620 4000 SHRA SCT012 FEW025TCU",
          "offset_h": -1,
          "wdir": null,
          "wspd": null
        }
      ],
      "metar_raw": "METAR VVNB 261600Z 14005KT CAVOK 29/26 Q1005 NOSIG",
      "metar_wdir": 140,
      "metar_wspd": 5,
      "metar_oat": 29,
      "metar_qnh": 1005,
      "hourly_oat": [
        28,
        28,
        25,
        26,
        26,
        26,
        26,
        26,
        26,
        27,
        29,
        30,
        31,
        32,
        32,
        32,
        32,
        31,
        29,
        29,
        28,
        28,
        28,
        28,
        28
      ]
    },
    "TSA": {
      "icao": "RCSS",
      "issued": "2026-06-26T11:00:00.000Z",
      "raw": "TAF RCSS 261100Z 2612/2712 10005KT 9999 FEW015 BKN032 TEMPO 2612/2616 5000 SHRA SCT008 BKN018 TEMPO 2702/2708 27005KT 5000 SHRA SCT008 BKN018",
      "groups": [
        {
          "text": "TAF RCSS 261100Z 2612/2712 10005KT 9999 FEW015 BKN032",
          "offset_h": -4,
          "wdir": 100,
          "wspd": 5
        },
        {
          "text": "TEMPO 2612/2616 5000 SHRA SCT008 BKN018",
          "offset_h": -4,
          "wdir": null,
          "wspd": null
        },
        {
          "text": "TEMPO 2702/2708 27005KT 5000 SHRA SCT008 BKN018",
          "offset_h": 10,
          "wdir": 270,
          "wspd": 5
        }
      ],
      "metar_raw": "SPECI RCSS 261547Z 10003KT 3500 -RA SCT005 BKN012 BKN025 25/23 Q1006 RERA NOSIG RMK A2973",
      "metar_wdir": 100,
      "metar_wspd": 3,
      "metar_oat": 25,
      "metar_qnh": 1006,
      "hourly_oat": [
        25,
        25,
        25,
        25,
        25,
        25,
        25,
        25,
        25,
        25,
        25,
        25,
        26,
        26,
        26,
        26,
        26,
        25,
        25,
        25,
        25,
        25,
        25,
        25,
        25
      ]
    },
    "KUL": {
      "icao": "WMKK",
      "issued": "2026-06-26T11:00:00.000Z",
      "raw": "TAF WMKK 261100Z 2612/2718 VRB03KT 9999 FEW018 PROB30 TEMPO 2707/2711 5000 TSRA FEW017CB",
      "groups": [
        {
          "text": "TAF WMKK 261100Z 2612/2718 VRB03KT 9999 FEW018",
          "offset_h": -4,
          "wdir": "VRB",
          "wspd": 3
        },
        {
          "text": "PROB30",
          "offset_h": 0,
          "wdir": null,
          "wspd": null
        },
        {
          "text": "TEMPO 2707/2711 5000 TSRA FEW017CB",
          "offset_h": 15,
          "wdir": null,
          "wspd": null
        }
      ],
      "metar_raw": "METAR WMKK 261530Z VRB02KT 9999 FEW030 28/24 Q1009 NOSIG",
      "metar_wdir": "VRB",
      "metar_wspd": 2,
      "metar_oat": 28,
      "metar_qnh": 1009,
      "hourly_oat": [
        26,
        26,
        26,
        23,
        24,
        23,
        23,
        23,
        24,
        26,
        28,
        29,
        30,
        31,
        31,
        31,
        31,
        30,
        30,
        28,
        27,
        26,
        26,
        25,
        25
      ]
    },
    "SIN": {
      "icao": "WSSS",
      "issued": "2026-06-26T11:00:00.000Z",
      "raw": "TAF WSSS 261100Z 2612/2718 17008KT 9999 FEW015 SCT020",
      "groups": [
        {
          "text": "TAF WSSS 261100Z 2612/2718 17008KT 9999 FEW015 SCT020",
          "offset_h": -4,
          "wdir": 170,
          "wspd": 8
        }
      ],
      "metar_raw": "METAR WSSS 261600Z 14007KT 9999 FEW018 BKN300 29/24 Q1010 NOSIG",
      "metar_wdir": 140,
      "metar_wspd": 7,
      "metar_oat": 29,
      "metar_qnh": 1010,
      "hourly_oat": [
        29,
        28,
        28,
        28,
        28,
        28,
        28,
        28,
        28,
        29,
        30,
        30,
        31,
        32,
        32,
        32,
        31,
        31,
        30,
        30,
        29,
        29,
        28,
        28,
        28
      ]
    }
  }
}