{
  "updated": "2026-07-03T01:52:46Z",
  "tafs": {
    "HKG": {
      "icao": "VHHH",
      "issued": "2026-07-02T23:58:00.000Z",
      "raw": "TAF AMD VHHH 022358Z 0300/0406 12020KT 9999 FEW015 SCT030 TX32/0306Z TX30/0406Z TN27/0322Z TEMPO 0300/0306 13020G30KT 2500 TSRA SHRA FEW008CB SCT015 TEMPO 0306/0315 13025G35KT 1500 TSRA +SHRA FEW008CB SCT015 TEMPO 0315/0321 13025G35KT 2000 TSRA SHRA FEW008CB SCT020 TEMPO 0321/0324 14020G30KT 1000 +SHRA FEW006CB SCT015 TEMPO 0400/0406 14020G30KT 1200 TSRA +SHRA FEW008CB SCT015",
      "groups": [
        {
          "text": "TAF AMD VHHH 022358Z 0300/0406 12020KT 9999 FEW015 SCT030 TX32/0306Z TX30/0406Z TN27/0322Z",
          "offset_h": -1,
          "wdir": 120,
          "wspd": 20
        },
        {
          "text": "TEMPO 0300/0306 13020G30KT 2500 TSRA SHRA FEW008CB SCT015",
          "offset_h": -1,
          "wdir": 130,
          "wspd": 20
        },
        {
          "text": "TEMPO 0306/0315 13025G35KT 1500 TSRA +SHRA FEW008CB SCT015",
          "offset_h": 5,
          "wdir": 130,
          "wspd": 25
        },
        {
          "text": "TEMPO 0315/0321 13025G35KT 2000 TSRA SHRA FEW008CB SCT020",
          "offset_h": 14,
          "wdir": 130,
          "wspd": 25
        },
        {
          "text": "TEMPO 0321/0324 14020G30KT 1000 +SHRA FEW006CB SCT015",
          "offset_h": 20,
          "wdir": 140,
          "wspd": 20
        },
        {
          "text": "TEMPO 0400/0406 14020G30KT 1200 TSRA +SHRA FEW008CB SCT015",
          "offset_h": 23,
          "wdir": 140,
          "wspd": 20
        }
      ],
      "metar_raw": "METAR VHHH 030130Z 12013KT 9999 -SHRA FEW010 FEW015CB SCT025 29/25 Q1010 TEMPO 2500 TSRA SHRA FEW008CB SCT015",
      "metar_wdir": 120,
      "metar_wspd": 13,
      "metar_oat": 29,
      "metar_qnh": 1010,
      "hourly_oat": [
        30,
        30,
        30,
        27,
        28,
        28,
        28,
        29,
        29,
        27,
        28,
        26,
        26,
        27,
        27,
        27,
        27,
        27,
        27,
        26,
        26,
        26,
        27,
        27,
        27
      ]
    },
    "LAX": {
      "icao": "KLAX",
      "issued": "2026-07-02T23:29:00.000Z",
      "raw": "TAF KLAX 022329Z 0300/0406 24013KT P6SM FEW015 FM030300 VRB03KT P6SM SKC FM030600 VRB03KT P6SM OVC012 FM031700 25006KT P6SM BKN015 FM031900 26012KT P6SM FEW015 FM040400 VRB03KT P6SM SCT015",
      "groups": [
        {
          "text": "TAF KLAX 022329Z 0300/0406 24013KT P6SM FEW015",
          "offset_h": -1,
          "wdir": 240,
          "wspd": 13
        },
        {
          "text": "FM030300 VRB03KT P6SM SKC",
          "offset_h": 2,
          "wdir": "VRB",
          "wspd": 3
        },
        {
          "text": "FM030600 VRB03KT P6SM OVC012",
          "offset_h": 5,
          "wdir": "VRB",
          "wspd": 3
        },
        {
          "text": "FM031700 25006KT P6SM BKN015",
          "offset_h": 16,
          "wdir": 250,
          "wspd": 6
        },
        {
          "text": "FM031900 26012KT P6SM FEW015",
          "offset_h": 18,
          "wdir": 260,
          "wspd": 12
        },
        {
          "text": "FM040400 VRB03KT P6SM SCT015",
          "offset_h": 27,
          "wdir": "VRB",
          "wspd": 3
        }
      ],
      "metar_raw": "METAR KLAX 030053Z 27015KT 10SM FEW014 FEW250 21/15 A2992 RMK AO2 SLP131 T02060150 $",
      "metar_wdir": 270,
      "metar_wspd": 15,
      "metar_oat": 21,
      "metar_qnh": 1013,
      "hourly_oat": [
        20,
        19,
        18,
        17,
        16,
        16,
        15,
        15,
        14,
        14,
        14,
        15,
        15,
        17,
        17,
        18,
        19,
        20,
        21,
        21,
        21,
        20,
        20,
        19,
        18
      ]
    },
    "HNL": {
      "icao": "PHNL",
      "issued": "2026-07-02T23:20:00.000Z",
      "raw": "TAF PHNL 022320Z 0300/0406 05010G18KT P6SM FEW025 SCT040 FM030600 05008KT P6SM SCT025 BKN040 FM032000 06014KT P6SM SCT025 BKN040",
      "groups": [
        {
          "text": "TAF PHNL 022320Z 0300/0406 05010G18KT P6SM FEW025 SCT040",
          "offset_h": -1,
          "wdir": 50,
          "wspd": 10
        },
        {
          "text": "FM030600 05008KT P6SM SCT025 BKN040",
          "offset_h": 5,
          "wdir": 50,
          "wspd": 8
        },
        {
          "text": "FM032000 06014KT P6SM SCT025 BKN040",
          "offset_h": 19,
          "wdir": 60,
          "wspd": 14
        }
      ],
      "metar_raw": "METAR PHNL 030053Z 04011G22KT 10SM FEW024 SCT034 SCT048 29/19 A2995 RMK AO2 SLP140 SHRA DSNT NW T02940194 $",
      "metar_wdir": 40,
      "metar_wspd": 11,
      "metar_oat": 29,
      "metar_qnh": 1014,
      "hourly_oat": [
        29,
        28,
        28,
        26,
        25,
        24,
        24,
        23,
        23,
        23,
        23,
        23,
        23,
        23,
        22,
        22,
        24,
        25,
        27,
        28,
        30,
        30,
        29,
        29,
        28
      ]
    },
    "SAN": {
      "icao": "KSAN",
      "issued": "2026-07-02T23:20:00.000Z",
      "raw": "TAF KSAN 022320Z 0300/0406 29011KT P6SM SKC FM030300 VRB04KT P6SM OVC015 FM031700 VRB05KT P6SM SCT018 FM031900 29011KT P6SM SKC FM040400 VRB05KT P6SM BKN012",
      "groups": [
        {
          "text": "TAF KSAN 022320Z 0300/0406 29011KT P6SM SKC",
          "offset_h": -1,
          "wdir": 290,
          "wspd": 11
        },
        {
          "text": "FM030300 VRB04KT P6SM OVC015",
          "offset_h": 2,
          "wdir": "VRB",
          "wspd": 4
        },
        {
          "text": "FM031700 VRB05KT P6SM SCT018",
          "offset_h": 16,
          "wdir": "VRB",
          "wspd": 5
        },
        {
          "text": "FM031900 29011KT P6SM SKC",
          "offset_h": 18,
          "wdir": 290,
          "wspd": 11
        },
        {
          "text": "FM040400 VRB05KT P6SM BKN012",
          "offset_h": 27,
          "wdir": "VRB",
          "wspd": 5
        }
      ],
      "metar_raw": "METAR KSAN 030051Z 30009KT 10SM FEW250 21/14 A2993 RMK AO2 SLP135 T02110144",
      "metar_wdir": 300,
      "metar_wspd": 9,
      "metar_oat": 21,
      "metar_qnh": 1014,
      "hourly_oat": [
        21,
        20,
        19,
        18,
        18,
        17,
        16,
        17,
        18,
        18,
        18,
        18,
        17,
        18,
        19,
        19,
        20,
        21,
        21,
        22,
        22,
        22,
        22,
        21,
        20
      ]
    },
    "KIX": {
      "icao": "RJBB",
      "issued": "2026-07-02T23:05:00.000Z",
      "raw": "TAF RJBB 022305Z 0300/0406 35006KT 9999 FEW030 BECMG 0301/0303 25006KT BECMG 0318/0321 05006KT TEMPO 0403/0406 3000 SHRA BR",
      "groups": [
        {
          "text": "TAF RJBB 022305Z 0300/0406 35006KT 9999 FEW030",
          "offset_h": -1,
          "wdir": 350,
          "wspd": 6
        },
        {
          "text": "BECMG 0301/0303 25006KT",
          "offset_h": 0,
          "wdir": 250,
          "wspd": 6
        },
        {
          "text": "BECMG 0318/0321 05006KT",
          "offset_h": 17,
          "wdir": 50,
          "wspd": 6
        },
        {
          "text": "TEMPO 0403/0406 3000 SHRA BR",
          "offset_h": 26,
          "wdir": null,
          "wspd": null
        }
      ],
      "metar_raw": "METAR RJBB 030130Z 36003KT 9999 FEW025 BKN/// 25/18 Q1012 NOSIG",
      "metar_wdir": 360,
      "metar_wspd": 3,
      "metar_oat": 25,
      "metar_qnh": 1012,
      "hourly_oat": [
        22,
        23,
        23,
        23,
        24,
        24,
        24,
        24,
        24,
        24,
        24,
        24,
        24,
        24,
        24,
        24,
        24,
        24,
        24,
        23,
        23,
        23,
        23,
        23,
        22
      ]
    },
    "HND": {
      "icao": "RJTT",
      "issued": "2026-07-02T23:05:00.000Z",
      "raw": "TAF RJTT 022305Z 0300/0406 05010KT 9999 FEW020 SCT040 BECMG 0309/0311 12010KT BECMG 0403/0406 18010KT",
      "groups": [
        {
          "text": "TAF RJTT 022305Z 0300/0406 05010KT 9999 FEW020 SCT040",
          "offset_h": -1,
          "wdir": 50,
          "wspd": 10
        },
        {
          "text": "BECMG 0309/0311 12010KT",
          "offset_h": 8,
          "wdir": 120,
          "wspd": 10
        },
        {
          "text": "BECMG 0403/0406 18010KT",
          "offset_h": 26,
          "wdir": 180,
          "wspd": 10
        }
      ],
      "metar_raw": "METAR RJTT 030130Z VRB01KT 9999 FEW015 BKN030 24/20 Q1011 NOSIG",
      "metar_wdir": "VRB",
      "metar_wspd": 1,
      "metar_oat": 24,
      "metar_qnh": 1011,
      "hourly_oat": [
        23,
        24,
        24,
        25,
        26,
        26,
        26,
        25,
        25,
        24,
        23,
        22,
        22,
        22,
        22,
        21,
        21,
        21,
        21,
        21,
        21,
        21,
        22,
        22,
        23
      ]
    },
    "ITM": {
      "icao": "RJOO",
      "issued": "2026-07-02T23:05:00.000Z",
      "raw": "TAF RJOO 022305Z 0300/0406 31006KT 9999 FEW020 SCT030 BECMG 0318/0321 07006KT TEMPO 0403/0406 2000 SHRA BR",
      "groups": [
        {
          "text": "TAF RJOO 022305Z 0300/0406 31006KT 9999 FEW020 SCT030",
          "offset_h": -1,
          "wdir": 310,
          "wspd": 6
        },
        {
          "text": "BECMG 0318/0321 07006KT",
          "offset_h": 17,
          "wdir": 70,
          "wspd": 6
        },
        {
          "text": "TEMPO 0403/0406 2000 SHRA BR",
          "offset_h": 26,
          "wdir": null,
          "wspd": null
        }
      ],
      "metar_raw": "METAR RJOO 030100Z 34009KT 300V020 9999 FEW030 BKN/// 27/17 Q1012",
      "metar_wdir": 340,
      "metar_wspd": 9,
      "metar_oat": 27,
      "metar_qnh": 1012,
      "hourly_oat": [
        26,
        28,
        29,
        29,
        29,
        29,
        29,
        29,
        29,
        28,
        26,
        25,
        24,
        23,
        23,
        22,
        22,
        22,
        21,
        21,
        21,
        22,
        22,
        22,
        22
      ]
    },
    "OKA": {
      "icao": "ROAH",
      "issued": "2026-07-02T23:05:00.000Z",
      "raw": "TAF ROAH 022305Z 0300/0406 20010KT 9999 FEW010",
      "groups": [
        {
          "text": "TAF ROAH 022305Z 0300/0406 20010KT 9999 FEW010",
          "offset_h": -1,
          "wdir": 200,
          "wspd": 10
        }
      ],
      "metar_raw": "METAR ROAH 030130Z 19007KT 9999 FEW010 30/27 Q1015",
      "metar_wdir": 190,
      "metar_wspd": 7,
      "metar_oat": 30,
      "metar_qnh": 1015,
      "hourly_oat": [
        30,
        30,
        30,
        30,
        30,
        30,
        30,
        30,
        29,
        28,
        28,
        27,
        27,
        27,
        27,
        27,
        27,
        27,
        27,
        27,
        27,
        27,
        28,
        29,
        29
      ]
    },
    "NGO": {
      "icao": "RJGG",
      "issued": "2026-07-02T23:05:00.000Z",
      "raw": "TAF RJGG 022305Z 0300/0406 31010KT 9999 FEW030 BECMG 0301/0303 17010KT",
      "groups": [
        {
          "text": "TAF RJGG 022305Z 0300/0406 31010KT 9999 FEW030",
          "offset_h": -1,
          "wdir": 310,
          "wspd": 10
        },
        {
          "text": "BECMG 0301/0303 17010KT",
          "offset_h": 0,
          "wdir": 170,
          "wspd": 10
        }
      ],
      "metar_raw": "METAR RJGG 030130Z 27005KT 9999 FEW030 BKN/// 26/21 Q1010 BECMG TL0200 22006KT",
      "metar_wdir": 270,
      "metar_wspd": 5,
      "metar_oat": 26,
      "metar_qnh": 1010,
      "hourly_oat": [
        25,
        25,
        25,
        26,
        26,
        26,
        25,
        25,
        24,
        24,
        24,
        24,
        23,
        23,
        23,
        23,
        23,
        23,
        23,
        23,
        23,
        23,
        23,
        24,
        24
      ]
    },
    "CTS": {
      "icao": "RJCC",
      "issued": "2026-07-02T23:05:00.000Z",
      "raw": "TAF RJCC 022305Z 0300/0406 18014KT 9999 FEW020 TEMPO 0315/0321 FEW002 BKN004",
      "groups": [
        {
          "text": "TAF RJCC 022305Z 0300/0406 18014KT 9999 FEW020",
          "offset_h": -1,
          "wdir": 180,
          "wspd": 14
        },
        {
          "text": "TEMPO 0315/0321 FEW002 BKN004",
          "offset_h": 14,
          "wdir": null,
          "wspd": null
        }
      ],
      "metar_raw": "METAR RJCC 030130Z 17012KT 9999 FEW010 SCT020 BKN/// 20/14 Q1013",
      "metar_wdir": 170,
      "metar_wspd": 12,
      "metar_oat": 20,
      "metar_qnh": 1013,
      "hourly_oat": [
        20,
        20,
        20,
        19,
        20,
        19,
        18,
        17,
        16,
        15,
        14,
        14,
        14,
        14,
        14,
        14,
        13,
        13,
        13,
        14,
        16,
        17,
        17,
        18,
        19
      ]
    },
    "FUK": {
      "icao": "RJFF",
      "issued": "2026-07-02T23:05:00.000Z",
      "raw": "TAF RJFF 022305Z 0300/0406 31008KT 9999 FEW015 BKN020 BECMG 0309/0311 19008KT TEMPO 0312/0315 4000 SHRA BR TEMPO 0315/0318 4000 TSRA BR FEW005 SCT009 BKN015 FEW015CB TEMPO 0318/0400 -TSRA FEW005 SCT008 BKN015 FEW015CB BECMG 0400/0403 28010KT",
      "groups": [
        {
          "text": "TAF RJFF 022305Z 0300/0406 31008KT 9999 FEW015 BKN020",
          "offset_h": -1,
          "wdir": 310,
          "wspd": 8
        },
        {
          "text": "BECMG 0309/0311 19008KT",
          "offset_h": 8,
          "wdir": 190,
          "wspd": 8
        },
        {
          "text": "TEMPO 0312/0315 4000 SHRA BR",
          "offset_h": 11,
          "wdir": null,
          "wspd": null
        },
        {
          "text": "TEMPO 0315/0318 4000 TSRA BR FEW005 SCT009 BKN015 FEW015CB",
          "offset_h": 14,
          "wdir": null,
          "wspd": null
        },
        {
          "text": "TEMPO 0318/0400 -TSRA FEW005 SCT008 BKN015 FEW015CB",
          "offset_h": 17,
          "wdir": null,
          "wspd": null
        },
        {
          "text": "BECMG 0400/0403 28010KT",
          "offset_h": 23,
          "wdir": 280,
          "wspd": 10
        }
      ],
      "metar_raw": "METAR RJFF 030130Z VRB02KT 9999 FEW015 BKN/// 27/20 Q1012 BECMG 30006KT",
      "metar_wdir": "VRB",
      "metar_wspd": 2,
      "metar_oat": 27,
      "metar_qnh": 1012,
      "hourly_oat": [
        25,
        26,
        26,
        26,
        25,
        25,
        24,
        23,
        23,
        22,
        22,
        22,
        22,
        23,
        23,
        23,
        23,
        23,
        23,
        23,
        24,
        24,
        25,
        25,
        24
      ]
    },
    "NRT": {
      "icao": "RJAA",
      "issued": "2026-07-02T23:05:00.000Z",
      "raw": "TAF RJAA 022305Z 0300/0406 04012KT 9999 FEW010 SCT030 TEMPO 0309/0312 FEW003 BKN008 BECMG 0312/0315 07004KT TEMPO 0312/0321 FEW001 BKN003 TEMPO 0321/0400 FEW003 BKN008 BECMG 0400/0403 14010KT",
      "groups": [
        {
          "text": "TAF RJAA 022305Z 0300/0406 04012KT 9999 FEW010 SCT030",
          "offset_h": -1,
          "wdir": 40,
          "wspd": 12
        },
        {
          "text": "TEMPO 0309/0312 FEW003 BKN008",
          "offset_h": 8,
          "wdir": null,
          "wspd": null
        },
        {
          "text": "BECMG 0312/0315 07004KT",
          "offset_h": 11,
          "wdir": 70,
          "wspd": 4
        },
        {
          "text": "TEMPO 0312/0321 FEW001 BKN003",
          "offset_h": 11,
          "wdir": null,
          "wspd": null
        },
        {
          "text": "TEMPO 0321/0400 FEW003 BKN008",
          "offset_h": 20,
          "wdir": null,
          "wspd": null
        },
        {
          "text": "BECMG 0400/0403 14010KT",
          "offset_h": 23,
          "wdir": 140,
          "wspd": 10
        }
      ],
      "metar_raw": "METAR RJAA 030130Z 04012KT 010V070 9999 FEW015 SCT025 BKN120 24/19 Q1011 NOSIG",
      "metar_wdir": 40,
      "metar_wspd": 12,
      "metar_oat": 24,
      "metar_qnh": 1011,
      "hourly_oat": [
        24,
        24,
        24,
        24,
        24,
        24,
        23,
        23,
        22,
        21,
        20,
        20,
        20,
        19,
        19,
        19,
        19,
        19,
        19,
        19,
        19,
        20,
        21,
        22,
        23
      ]
    },
    "SIN": {
      "icao": "WSSS",
      "issued": "2026-07-02T23:00:00.000Z",
      "raw": "TAF WSSS 022300Z 0300/0406 15007KT 9999 FEW015 SCT020 TEMPO 0306/0309 3000 TSRA FEW012CB BKN015",
      "groups": [
        {
          "text": "TAF WSSS 022300Z 0300/0406 15007KT 9999 FEW015 SCT020",
          "offset_h": -1,
          "wdir": 150,
          "wspd": 7
        },
        {
          "text": "TEMPO 0306/0309 3000 TSRA FEW012CB BKN015",
          "offset_h": 5,
          "wdir": null,
          "wspd": null
        }
      ],
      "metar_raw": "METAR WSSS 030130Z 16006KT 9999 FEW014 FEW018TCU SCT030 29/26 Q1011 NOSIG",
      "metar_wdir": 160,
      "metar_wspd": 6,
      "metar_oat": 29,
      "metar_qnh": 1011,
      "hourly_oat": [
        28,
        29,
        29,
        30,
        30,
        30,
        30,
        30,
        30,
        29,
        29,
        28,
        28,
        28,
        28,
        28,
        28,
        28,
        28,
        26,
        26,
        26,
        26,
        27,
        28
      ]
    },
    "CGK": {
      "icao": "WIII",
      "issued": "2026-07-02T23:00:00.000Z",
      "raw": "TAF WIII 022300Z 0300/0406 15003KT 3000 HZ FEW020 BECMG 0302/0304 02010KT 8000 NSW BECMG 0314/0316 16005KT 4000 HZ",
      "groups": [
        {
          "text": "TAF WIII 022300Z 0300/0406 15003KT 3000 HZ FEW020",
          "offset_h": -1,
          "wdir": 150,
          "wspd": 3
        },
        {
          "text": "BECMG 0302/0304 02010KT 8000 NSW",
          "offset_h": 1,
          "wdir": 20,
          "wspd": 10
        },
        {
          "text": "BECMG 0314/0316 16005KT 4000 HZ",
          "offset_h": 13,
          "wdir": 160,
          "wspd": 5
        }
      ],
      "metar_raw": "METAR WIII 030130Z 15009KT 4000 HZ FEW020 29/23 Q1012 NOSIG",
      "metar_wdir": 150,
      "metar_wspd": 9,
      "metar_oat": 29,
      "metar_qnh": 1012,
      "hourly_oat": [
        28,
        29,
        31,
        32,
        33,
        34,
        32,
        31,
        31,
        30,
        29,
        29,
        28,
        28,
        28,
        27,
        27,
        26,
        26,
        26,
        26,
        25,
        25,
        26,
        28
      ]
    },
    "BKK": {
      "icao": "VTBS",
      "issued": "2026-07-02T23:00:00.000Z",
      "raw": "TAF VTBS 022300Z 0300/0406 12005KT 9999 FEW020 BECMG 0302/0304 22008KT TEMPO 0310/0314 VRB15KT 4000 TSRA FEW018CB SCT030 BKN100 BECMG 0318/0320 13005KT BECMG 0402/0404 22008KT",
      "groups": [
        {
          "text": "TAF VTBS 022300Z 0300/0406 12005KT 9999 FEW020",
          "offset_h": -1,
          "wdir": 120,
          "wspd": 5
        },
        {
          "text": "BECMG 0302/0304 22008KT",
          "offset_h": 1,
          "wdir": 220,
          "wspd": 8
        },
        {
          "text": "TEMPO 0310/0314 VRB15KT 4000 TSRA FEW018CB SCT030 BKN100",
          "offset_h": 9,
          "wdir": "VRB",
          "wspd": 15
        },
        {
          "text": "BECMG 0318/0320 13005KT",
          "offset_h": 17,
          "wdir": 130,
          "wspd": 5
        },
        {
          "text": "BECMG 0402/0404 22008KT",
          "offset_h": 25,
          "wdir": 220,
          "wspd": 8
        }
      ],
      "metar_raw": "METAR VTBS 030130Z VRB02KT 9999 FEW020 29/26 Q1008 NOSIG",
      "metar_wdir": "VRB",
      "metar_wspd": 2,
      "metar_oat": 29,
      "metar_qnh": 1008,
      "hourly_oat": [
        28,
        30,
        31,
        32,
        30,
        31,
        31,
        30,
        29,
        29,
        26,
        26,
        27,
        27,
        27,
        26,
        26,
        26,
        26,
        26,
        26,
        26,
        26,
        26,
        26
      ]
    },
    "GMP": {
      "icao": "RKSS",
      "issued": "2026-07-02T23:00:00.000Z",
      "raw": "TAF RKSS 022300Z 0300/0406 19006KT 6000 SCT040 TX30/0306Z TN23/0320Z TX32/0406Z TEMPO 0300/0302 -SHRA FEW010 BKN030 BKN070 BECMG 0302/0304 25007KT 9999 BECMG 0314/0316 19005KT 6000 FEW010 BKN030 BECMG 0400/0402 25007KT 9999 SCT040",
      "groups": [
        {
          "text": "TAF RKSS 022300Z 0300/0406 19006KT 6000 SCT040 TX30/0306Z TN23/0320Z TX32/0406Z",
          "offset_h": -1,
          "wdir": 190,
          "wspd": 6
        },
        {
          "text": "TEMPO 0300/0302 -SHRA FEW010 BKN030 BKN070",
          "offset_h": -1,
          "wdir": null,
          "wspd": null
        },
        {
          "text": "BECMG 0302/0304 25007KT 9999",
          "offset_h": 1,
          "wdir": 250,
          "wspd": 7
        },
        {
          "text": "BECMG 0314/0316 19005KT 6000 FEW010 BKN030",
          "offset_h": 13,
          "wdir": 190,
          "wspd": 5
        },
        {
          "text": "BECMG 0400/0402 25007KT 9999 SCT040",
          "offset_h": 23,
          "wdir": 250,
          "wspd": 7
        }
      ],
      "metar_raw": "METAR RKSS 030100Z 19004KT 150V230 9999 FEW018 SCT030 BKN070 26/22 Q1011 NOSIG",
      "metar_wdir": 190,
      "metar_wspd": 4,
      "metar_oat": 26,
      "metar_qnh": 1011,
      "hourly_oat": [
        24,
        26,
        26,
        27,
        27,
        27,
        26,
        26,
        25,
        24,
        23,
        23,
        22,
        22,
        22,
        22,
        22,
        22,
        22,
        22,
        22,
        22,
        23,
        24,
        26
      ]
    },
    "KUL": {
      "icao": "WMKK",
      "issued": "2026-07-02T23:00:00.000Z",
      "raw": "TAF WMKK 022300Z 0300/0406 VRB03KT 9999 FEW018 TEMPO 0300/0304 5000 TSRA FEW017CB",
      "groups": [
        {
          "text": "TAF WMKK 022300Z 0300/0406 VRB03KT 9999 FEW018",
          "offset_h": -1,
          "wdir": "VRB",
          "wspd": 3
        },
        {
          "text": "TEMPO 0300/0304 5000 TSRA FEW017CB",
          "offset_h": -1,
          "wdir": null,
          "wspd": null
        }
      ],
      "metar_raw": "METAR WMKK 030130Z VRB02KT 8000 -TSRA FEW009 FEW017CB SCT030 25/24 Q1011 NOSIG",
      "metar_wdir": "VRB",
      "metar_wspd": 2,
      "metar_oat": 25,
      "metar_qnh": 1011,
      "hourly_oat": [
        25,
        26,
        28,
        29,
        30,
        31,
        31,
        30,
        30,
        29,
        28,
        28,
        27,
        27,
        26,
        26,
        26,
        26,
        25,
        25,
        25,
        25,
        24,
        25,
        26
      ]
    },
    "HAN": {
      "icao": "VVNB",
      "issued": "2026-07-02T23:00:00.000Z",
      "raw": "TAF VVNB 022300Z 0300/0324 33005KT 6000 SCT020 TEMPO 0305/0310 2500 +TSRA BKN010 FEW027CB TEMPO 0315/0320 3000 TSRA BKN012 FEW027CB",
      "groups": [
        {
          "text": "TAF VVNB 022300Z 0300/0324 33005KT 6000 SCT020",
          "offset_h": -1,
          "wdir": 330,
          "wspd": 5
        },
        {
          "text": "TEMPO 0305/0310 2500 +TSRA BKN010 FEW027CB",
          "offset_h": 4,
          "wdir": null,
          "wspd": null
        },
        {
          "text": "TEMPO 0315/0320 3000 TSRA BKN012 FEW027CB",
          "offset_h": 14,
          "wdir": null,
          "wspd": null
        }
      ],
      "metar_raw": "METAR VVNB 030130Z 30003KT 240V340 9999 FEW038 29/26 Q1006 NOSIG",
      "metar_wdir": 300,
      "metar_wspd": 3,
      "metar_oat": 29,
      "metar_qnh": 1006,
      "hourly_oat": [
        29,
        30,
        31,
        32,
        31,
        28,
        29,
        30,
        31,
        31,
        30,
        29,
        29,
        27,
        27,
        27,
        26,
        26,
        26,
        26,
        26,
        26,
        26,
        27,
        28
      ]
    },
    "SGN": {
      "icao": "VVTS",
      "issued": "2026-07-02T23:00:00.000Z",
      "raw": "TAF VVTS 022300Z 0300/0406 26010KT 9999 SCT017 SCT040 TEMPO 0302/0305 5000 SHRA SCT015 FEW017CB BKN040 TEMPO 0305/0309 26015G30KT 1500 +TSRA BKN013 SCT015CB TEMPO 0309/0314 5000 SHRA SCT015 FEW017CB BKN040",
      "groups": [
        {
          "text": "TAF VVTS 022300Z 0300/0406 26010KT 9999 SCT017 SCT040",
          "offset_h": -1,
          "wdir": 260,
          "wspd": 10
        },
        {
          "text": "TEMPO 0302/0305 5000 SHRA SCT015 FEW017CB BKN040",
          "offset_h": 1,
          "wdir": null,
          "wspd": null
        },
        {
          "text": "TEMPO 0305/0309 26015G30KT 1500 +TSRA BKN013 SCT015CB",
          "offset_h": 4,
          "wdir": 260,
          "wspd": 15
        },
        {
          "text": "TEMPO 0309/0314 5000 SHRA SCT015 FEW017CB BKN040",
          "offset_h": 8,
          "wdir": null,
          "wspd": null
        }
      ],
      "metar_raw": "METAR VVTS 030130Z 22011KT 9999 BKN015 29/26 Q1009 NOSIG",
      "metar_wdir": 220,
      "metar_wspd": 11,
      "metar_oat": 29,
      "metar_qnh": 1009,
      "hourly_oat": [
        26,
        26,
        27,
        28,
        26,
        28,
        26,
        27,
        26,
        26,
        26,
        26,
        26,
        26,
        26,
        26,
        26,
        25,
        25,
        25,
        25,
        25,
        25,
        26,
        26
      ]
    },
    "TSA": {
      "icao": "RCSS",
      "issued": "2026-07-02T23:00:00.000Z",
      "raw": "TAF RCSS 022300Z 0300/0324 31005KT 9999 FEW020 TEMPO 0306/0310 15005KT 5000 SHRA FEW012 FEW015CB BKN018 BKN050 BECMG 0310/0312 09005KT",
      "groups": [
        {
          "text": "TAF RCSS 022300Z 0300/0324 31005KT 9999 FEW020",
          "offset_h": -1,
          "wdir": 310,
          "wspd": 5
        },
        {
          "text": "TEMPO 0306/0310 15005KT 5000 SHRA FEW012 FEW015CB BKN018 BKN050",
          "offset_h": 5,
          "wdir": 150,
          "wspd": 5
        },
        {
          "text": "BECMG 0310/0312 09005KT",
          "offset_h": 9,
          "wdir": 90,
          "wspd": 5
        }
      ],
      "metar_raw": "METAR RCSS 030130Z VRB04KT 9999 FEW020 SCT035 34/26 Q1012 NOSIG RMK A2991",
      "metar_wdir": "VRB",
      "metar_wspd": 4,
      "metar_oat": 34,
      "metar_qnh": 1012,
      "hourly_oat": [
        31,
        32,
        34,
        33,
        32,
        32,
        32,
        32,
        31,
        30,
        29,
        29,
        28,
        28,
        28,
        27,
        27,
        27,
        26,
        26,
        26,
        26,
        28,
        30,
        32
      ]
    },
    "TPE": {
      "icao": "RCTP",
      "issued": "2026-07-02T23:00:00.000Z",
      "raw": "TAF RCTP 022300Z 0300/0406 31005KT 9999 FEW020 TEMPO 0307/0311 28010KT FEW012 FEW015TCU SCT020 BKN032 BECMG 0311/0313 21005KT BECMG 0401/0403 31005KT",
      "groups": [
        {
          "text": "TAF RCTP 022300Z 0300/0406 31005KT 9999 FEW020",
          "offset_h": -1,
          "wdir": 310,
          "wspd": 5
        },
        {
          "text": "TEMPO 0307/0311 28010KT FEW012 FEW015TCU SCT020 BKN032",
          "offset_h": 6,
          "wdir": 280,
          "wspd": 10
        },
        {
          "text": "BECMG 0311/0313 21005KT",
          "offset_h": 10,
          "wdir": 210,
          "wspd": 5
        },
        {
          "text": "BECMG 0401/0403 31005KT",
          "offset_h": 24,
          "wdir": 310,
          "wspd": 5
        }
      ],
      "metar_raw": "METAR RCTP 030130Z 26006KT 220V290 9999 FEW015 SCT022 34/26 Q1012 NOSIG RMK A2991",
      "metar_wdir": 260,
      "metar_wspd": 6,
      "metar_oat": 34,
      "metar_qnh": 1012,
      "hourly_oat": [
        31,
        32,
        31,
        31,
        30,
        30,
        29,
        29,
        29,
        29,
        28,
        28,
        27,
        27,
        27,
        27,
        26,
        26,
        26,
        26,
        26,
        26,
        28,
        29,
        30
      ]
    },
    "CAN": {
      "icao": "ZGGG",
      "issued": "2026-07-02T21:07:00.000Z",
      "raw": "TAF ZGGG 022107Z 0300/0406 13006MPS 8000 BKN033 TX33/0307Z TX30/0406Z TN25/0322Z TEMPO 0304/0308 2500 +TSRA SCT010 SCT026CB BKN033 TEMPO 0310/0314 TSRA SCT026CB BKN033 TEMPO 0320/0324 SHRA FEW026CB BKN033 TEMPO 0403/0406 2500 +TSRA SCT010 SCT026CB BKN033",
      "groups": [
        {
          "text": "TAF ZGGG 022107Z 0300/0406 13006MPS 8000 BKN033 TX33/0307Z TX30/0406Z TN25/0322Z",
          "offset_h": -1,
          "wdir": null,
          "wspd": null
        },
        {
          "text": "TEMPO 0304/0308 2500 +TSRA SCT010 SCT026CB BKN033",
          "offset_h": 3,
          "wdir": null,
          "wspd": null
        },
        {
          "text": "TEMPO 0310/0314 TSRA SCT026CB BKN033",
          "offset_h": 9,
          "wdir": null,
          "wspd": null
        },
        {
          "text": "TEMPO 0320/0324 SHRA FEW026CB BKN033",
          "offset_h": 19,
          "wdir": null,
          "wspd": null
        },
        {
          "text": "TEMPO 0403/0406 2500 +TSRA SCT010 SCT026CB BKN033",
          "offset_h": 26,
          "wdir": null,
          "wspd": null
        }
      ],
      "metar_raw": "METAR ZGGG 030130Z 10004MPS 080V140 9999 FEW020 SCT033 31/26 Q1010 NOSIG",
      "metar_wdir": null,
      "metar_wspd": null,
      "metar_oat": 31,
      "metar_qnh": 1010,
      "hourly_oat": [
        30,
        31,
        32,
        32,
        29,
        28,
        29,
        30,
        28,
        28,
        28,
        27,
        26,
        26,
        26,
        26,
        26,
        26,
        25,
        25,
        25,
        25,
        25,
        26,
        27
      ]
    },
    "DLC": {
      "icao": "ZYTL",
      "issued": "2026-07-02T21:06:00.000Z",
      "raw": "TAF ZYTL 022106Z 0300/0324 17004MPS 5000 BR FEW033 TX31/0306Z TN22/0320Z",
      "groups": [
        {
          "text": "TAF ZYTL 022106Z 0300/0324 17004MPS 5000 BR FEW033 TX31/0306Z TN22/0320Z",
          "offset_h": -1,
          "wdir": null,
          "wspd": null
        }
      ],
      "metar_raw": "METAR ZYTL 030130Z 16004MPS 140V200 5000 BR NSC 28/23 Q1006 NOSIG",
      "metar_wdir": null,
      "metar_wspd": null,
      "metar_oat": 28,
      "metar_qnh": 1006,
      "hourly_oat": [
        26,
        28,
        30,
        30,
        31,
        32,
        32,
        31,
        31,
        30,
        28,
        27,
        27,
        27,
        26,
        26,
        26,
        25,
        25,
        24,
        24,
        25,
        26,
        28,
        29
      ]
    },
    "PVG": {
      "icao": "ZSPD",
      "issued": "2026-07-02T21:05:00.000Z",
      "raw": "TAF ZSPD 022105Z 0300/0406 18004MPS 6000 -SHRA BKN015 TX29/0305Z TX31/0406Z TN24/0321Z TEMPO 0306/0310 33008G13MPS 2000 TSRA BKN010 SCT030CB BECMG 0315/0316 NSW",
      "groups": [
        {
          "text": "TAF ZSPD 022105Z 0300/0406 18004MPS 6000 -SHRA BKN015 TX29/0305Z TX31/0406Z TN24/0321Z",
          "offset_h": -1,
          "wdir": null,
          "wspd": null
        },
        {
          "text": "TEMPO 0306/0310 33008G13MPS 2000 TSRA BKN010 SCT030CB",
          "offset_h": 5,
          "wdir": null,
          "wspd": null
        },
        {
          "text": "BECMG 0315/0316 NSW",
          "offset_h": 14,
          "wdir": null,
          "wspd": null
        }
      ],
      "metar_raw": "METAR ZSPD 030130Z 15005MPS 9999 BKN006 27/27 Q1009 NOSIG",
      "metar_wdir": null,
      "metar_wspd": null,
      "metar_oat": 27,
      "metar_qnh": 1009,
      "hourly_oat": [
        29,
        30,
        30,
        31,
        30,
        26,
        26,
        26,
        27,
        27,
        27,
        26,
        26,
        26,
        25,
        25,
        25,
        25,
        25,
        25,
        24,
        25,
        26,
        27,
        28
      ]
    },
    "SHA": {
      "icao": "ZSSS",
      "issued": "2026-07-02T21:04:00.000Z",
      "raw": "TAF ZSSS 022104Z 0300/0406 18004MPS 6000 -SHRA BKN015 TX30/0305Z TX32/0406Z TN24/0321Z TEMPO 0306/0310 33008G13MPS 2000 TSRA BKN010 SCT030CB BECMG 0314/0315 NSW",
      "groups": [
        {
          "text": "TAF ZSSS 022104Z 0300/0406 18004MPS 6000 -SHRA BKN015 TX30/0305Z TX32/0406Z TN24/0321Z",
          "offset_h": -1,
          "wdir": null,
          "wspd": null
        },
        {
          "text": "TEMPO 0306/0310 33008G13MPS 2000 TSRA BKN010 SCT030CB",
          "offset_h": 5,
          "wdir": null,
          "wspd": null
        },
        {
          "text": "BECMG 0314/0315 NSW",
          "offset_h": 13,
          "wdir": null,
          "wspd": null
        }
      ],
      "metar_raw": "METAR ZSSS 030130Z 18003MPS 8000 BKN011 29/26 Q1009 NOSIG",
      "metar_wdir": null,
      "metar_wspd": null,
      "metar_oat": 29,
      "metar_qnh": 1009,
      "hourly_oat": [
        29,
        30,
        31,
        32,
        32,
        27,
        27,
        28,
        28,
        28,
        27,
        26,
        26,
        26,
        26,
        25,
        25,
        25,
        25,
        25,
        25,
        25,
        26,
        26,
        28
      ]
    },
    "PEK": {
      "icao": "ZBAA",
      "issued": "2026-07-02T21:02:00.000Z",
      "raw": "TAF ZBAA 022102Z 0300/0406 10003MPS 6000 NSC TX37/0306Z TX38/0406Z TN24/0321Z TEMPO 0309/0313 -TSRA FEW040CB BKN040",
      "groups": [
        {
          "text": "TAF ZBAA 022102Z 0300/0406 10003MPS 6000 NSC TX37/0306Z TX38/0406Z TN24/0321Z",
          "offset_h": -1,
          "wdir": null,
          "wspd": null
        },
        {
          "text": "TEMPO 0309/0313 -TSRA FEW040CB BKN040",
          "offset_h": 8,
          "wdir": null,
          "wspd": null
        }
      ],
      "metar_raw": "METAR ZBAA 030130Z VRB02MPS 8000 NSC 29/24 Q1004 NOSIG",
      "metar_wdir": null,
      "metar_wspd": null,
      "metar_oat": 29,
      "metar_qnh": 1004,
      "hourly_oat": [
        28,
        30,
        32,
        34,
        36,
        38,
        38,
        39,
        32,
        27,
        27,
        27,
        27,
        26,
        25,
        25,
        25,
        24,
        24,
        24,
        24,
        24,
        26,
        28,
        30
      ]
    }
  }
}