{
  "updated": "2026-06-19T00:19:22Z",
  "tafs": {
    "SAN": {
      "icao": "KSAN",
      "issued": "2026-06-18T23:28:00.000Z",
      "raw": "TAF KSAN 182328Z 1900/2006 31009KT P6SM SCT015 BKN022 FM190400 VRB04KT P6SM OVC018 FM191000 VRB05KT P6SM OVC022 FM191900 30011KT P6SM SCT025 TEMPO 1923/2003 BKN022 FM200300 31005KT P6SM OVC022",
      "groups": [
        {
          "text": "TAF KSAN 182328Z 1900/2006 31009KT P6SM SCT015 BKN022",
          "offset_h": 0,
          "wdir": 310,
          "wspd": 9
        },
        {
          "text": "FM190400 VRB04KT P6SM OVC018",
          "offset_h": 4,
          "wdir": "VRB",
          "wspd": 4
        },
        {
          "text": "FM191000 VRB05KT P6SM OVC022",
          "offset_h": 10,
          "wdir": "VRB",
          "wspd": 5
        },
        {
          "text": "FM191900 30011KT P6SM SCT025",
          "offset_h": 19,
          "wdir": 300,
          "wspd": 11
        },
        {
          "text": "TEMPO 1923/2003 BKN022",
          "offset_h": 23,
          "wdir": null,
          "wspd": null
        },
        {
          "text": "FM200300 31005KT P6SM OVC022",
          "offset_h": 27,
          "wdir": 310,
          "wspd": 5
        }
      ],
      "metar_raw": "METAR KSAN 182351Z 32007KT 10SM FEW018 BKN022 21/14 A2998 RMK AO2 SLP151 T02110144 10217 20189 58007",
      "metar_wdir": 320,
      "metar_wspd": 7,
      "metar_oat": 21,
      "metar_qnh": 1015,
      "hourly_oat": [
        21,
        20,
        20,
        19,
        18,
        18,
        18,
        18,
        18,
        17,
        18,
        18,
        18,
        18,
        18,
        18,
        19,
        19,
        20,
        22,
        22,
        22,
        22,
        21,
        21
      ]
    },
    "LAX": {
      "icao": "KLAX",
      "issued": "2026-06-18T23:23:00.000Z",
      "raw": "TAF KLAX 182323Z 1900/2006 25012KT P6SM SCT010 FM190300 25006KT P6SM OVC015 FM192000 26012KT P6SM SCT025",
      "groups": [
        {
          "text": "TAF KLAX 182323Z 1900/2006 25012KT P6SM SCT010",
          "offset_h": 0,
          "wdir": 250,
          "wspd": 12
        },
        {
          "text": "FM190300 25006KT P6SM OVC015",
          "offset_h": 3,
          "wdir": 250,
          "wspd": 6
        },
        {
          "text": "FM192000 26012KT P6SM SCT025",
          "offset_h": 20,
          "wdir": 260,
          "wspd": 12
        }
      ],
      "metar_raw": "METAR KLAX 182353Z 25015KT 10SM FEW014 20/14 A2997 RMK AO2 SLP145 T02000144 10211 20183 56006 $",
      "metar_wdir": 250,
      "metar_wspd": 15,
      "metar_oat": 20,
      "metar_qnh": 1015,
      "hourly_oat": [
        20,
        19,
        18,
        17,
        16,
        16,
        16,
        15,
        15,
        15,
        16,
        16,
        16,
        16,
        17,
        17,
        18,
        18,
        19,
        20,
        21,
        20,
        20,
        20,
        20
      ]
    },
    "HNL": {
      "icao": "PHNL",
      "issued": "2026-06-18T23:22:00.000Z",
      "raw": "TAF PHNL 182322Z 1900/2006 17008KT P6SM SCT025 SCT040 FM190100 22007KT P6SM VCSH SCT025 BKN040 FM190400 VRB05KT P6SM SCT025 BKN060 FM190900 34005KT P6SM FEW025 SCT060 FM192000 12008KT P6SM SCT025 SCT040",
      "groups": [
        {
          "text": "TAF PHNL 182322Z 1900/2006 17008KT P6SM SCT025 SCT040",
          "offset_h": 0,
          "wdir": 170,
          "wspd": 8
        },
        {
          "text": "FM190100 22007KT P6SM VCSH SCT025 BKN040",
          "offset_h": 1,
          "wdir": 220,
          "wspd": 7
        },
        {
          "text": "FM190400 VRB05KT P6SM SCT025 BKN060",
          "offset_h": 4,
          "wdir": "VRB",
          "wspd": 5
        },
        {
          "text": "FM190900 34005KT P6SM FEW025 SCT060",
          "offset_h": 9,
          "wdir": 340,
          "wspd": 5
        },
        {
          "text": "FM192000 12008KT P6SM SCT025 SCT040",
          "offset_h": 20,
          "wdir": 120,
          "wspd": 8
        }
      ],
      "metar_raw": "METAR PHNL 182353Z 14011KT 10SM FEW025 FEW040 31/23 A3000 RMK AO2 SLP159 T03110228 10322 20267 56008 $",
      "metar_wdir": 140,
      "metar_wspd": 11,
      "metar_oat": 31,
      "metar_qnh": 1016,
      "hourly_oat": [
        30,
        30,
        29,
        28,
        28,
        27,
        26,
        25,
        25,
        24,
        24,
        24,
        23,
        23,
        23,
        23,
        23,
        24,
        27,
        28,
        30,
        31,
        31,
        32,
        32
      ]
    },
    "OKA": {
      "icao": "ROAH",
      "issued": "2026-06-18T23:05:00.000Z",
      "raw": "TAF ROAH 182305Z 1900/2006 19010KT 9999 FEW005 SCT010 TEMPO 1900/1902 FEW005 BKN008 TEMPO 1912/2000 FEW003 BKN005",
      "groups": [
        {
          "text": "TAF ROAH 182305Z 1900/2006 19010KT 9999 FEW005 SCT010",
          "offset_h": 0,
          "wdir": 190,
          "wspd": 10
        },
        {
          "text": "TEMPO 1900/1902 FEW005 BKN008",
          "offset_h": 0,
          "wdir": null,
          "wspd": null
        },
        {
          "text": "TEMPO 1912/2000 FEW003 BKN005",
          "offset_h": 12,
          "wdir": null,
          "wspd": null
        }
      ],
      "metar_raw": "METAR ROAH 190000Z 17011KT 9999 FEW009 SCT015 BKN/// 28/26 Q1013",
      "metar_wdir": 170,
      "metar_wspd": 11,
      "metar_oat": 28,
      "metar_qnh": 1013,
      "hourly_oat": [
        28,
        28,
        29,
        29,
        29,
        29,
        29,
        28,
        28,
        27,
        26,
        26,
        26,
        26,
        26,
        26,
        26,
        26,
        26,
        26,
        26,
        26,
        26,
        28,
        28
      ]
    },
    "NGO": {
      "icao": "RJGG",
      "issued": "2026-06-18T23:05:00.000Z",
      "raw": "TAF RJGG 182305Z 1900/2006 19010KT 9999 FEW030 BECMG 1910/1912 12010KT TEMPO 1915/2000 2000 -RA BR FEW003 BKN008 TEMPO 2000/2006 2000 RA BR FEW003 SCT005 BKN008",
      "groups": [
        {
          "text": "TAF RJGG 182305Z 1900/2006 19010KT 9999 FEW030",
          "offset_h": 0,
          "wdir": 190,
          "wspd": 10
        },
        {
          "text": "BECMG 1910/1912 12010KT",
          "offset_h": 10,
          "wdir": 120,
          "wspd": 10
        },
        {
          "text": "TEMPO 1915/2000 2000 -RA BR FEW003 BKN008",
          "offset_h": 15,
          "wdir": null,
          "wspd": null
        },
        {
          "text": "TEMPO 2000/2006 2000 RA BR FEW003 SCT005 BKN008",
          "offset_h": 24,
          "wdir": null,
          "wspd": null
        }
      ],
      "metar_raw": "METAR RJGG 190000Z 30003KT 9999 FEW020 BKN/// 25/22 Q1010 NOSIG",
      "metar_wdir": 300,
      "metar_wspd": 3,
      "metar_oat": 25,
      "metar_qnh": 1010,
      "hourly_oat": [
        23,
        23,
        23,
        23,
        23,
        23,
        24,
        24,
        24,
        24,
        23,
        23,
        22,
        21,
        21,
        21,
        21,
        21,
        21,
        21,
        21,
        21,
        22,
        22,
        22
      ]
    },
    "FUK": {
      "icao": "RJFF",
      "issued": "2026-06-18T23:05:00.000Z",
      "raw": "TAF RJFF 182305Z 1900/2006 15010KT 9000 -SHRA FEW015 BKN040 BECMG 1901/1903 31006KT BECMG 1907/1909 16006KT TEMPO 1908/1915 3000 TSRA BR BKN008 FEW015CB BKN035 TEMPO 1915/2006 -TSRA FEW008 SCT010 BKN015 FEW015CB",
      "groups": [
        {
          "text": "TAF RJFF 182305Z 1900/2006 15010KT 9000 -SHRA FEW015 BKN040",
          "offset_h": 0,
          "wdir": 150,
          "wspd": 10
        },
        {
          "text": "BECMG 1901/1903 31006KT",
          "offset_h": 1,
          "wdir": 310,
          "wspd": 6
        },
        {
          "text": "BECMG 1907/1909 16006KT",
          "offset_h": 7,
          "wdir": 160,
          "wspd": 6
        },
        {
          "text": "TEMPO 1908/1915 3000 TSRA BR BKN008 FEW015CB BKN035",
          "offset_h": 8,
          "wdir": null,
          "wspd": null
        },
        {
          "text": "TEMPO 1915/2006 -TSRA FEW008 SCT010 BKN015 FEW015CB",
          "offset_h": 15,
          "wdir": null,
          "wspd": null
        }
      ],
      "metar_raw": "METAR RJFF 190000Z 14008KT 9999 -SHRA FEW005 BKN040 BKN070 26/24 Q1009 NOSIG",
      "metar_wdir": 140,
      "metar_wspd": 8,
      "metar_oat": 26,
      "metar_qnh": 1009,
      "hourly_oat": [
        25,
        25,
        25,
        25,
        27,
        26,
        25,
        25,
        25,
        25,
        25,
        24,
        24,
        24,
        24,
        25,
        25,
        25,
        25,
        25,
        25,
        25,
        25,
        26,
        26
      ]
    },
    "CTS": {
      "icao": "RJCC",
      "issued": "2026-06-18T23:05:00.000Z",
      "raw": "TAF RJCC 182305Z 1900/2006 17013KT 9999 FEW006 BKN015 TEMPO 1900/1903 4000 -SHRA BR FEW003 BKN005 TEMPO 1903/1909 FEW003 BKN006 TEMPO 1909/1912 3000 -SHRA BR FEW003 BKN005 TEMPO 1912/1921 1500 -SHRA BR FEW001 BKN003 TEMPO 1921/2000 3000 BR FEW003 BKN005",
      "groups": [
        {
          "text": "TAF RJCC 182305Z 1900/2006 17013KT 9999 FEW006 BKN015",
          "offset_h": 0,
          "wdir": 170,
          "wspd": 13
        },
        {
          "text": "TEMPO 1900/1903 4000 -SHRA BR FEW003 BKN005",
          "offset_h": 0,
          "wdir": null,
          "wspd": null
        },
        {
          "text": "TEMPO 1903/1909 FEW003 BKN006",
          "offset_h": 3,
          "wdir": null,
          "wspd": null
        },
        {
          "text": "TEMPO 1909/1912 3000 -SHRA BR FEW003 BKN005",
          "offset_h": 9,
          "wdir": null,
          "wspd": null
        },
        {
          "text": "TEMPO 1912/1921 1500 -SHRA BR FEW001 BKN003",
          "offset_h": 12,
          "wdir": null,
          "wspd": null
        },
        {
          "text": "TEMPO 1921/2000 3000 BR FEW003 BKN005",
          "offset_h": 21,
          "wdir": null,
          "wspd": null
        }
      ],
      "metar_raw": "METAR RJCC 190000Z 17010KT 9999 -SHRA FEW001 BKN004 BKN008 19/18 Q1012",
      "metar_wdir": 170,
      "metar_wspd": 10,
      "metar_oat": 19,
      "metar_qnh": 1012,
      "hourly_oat": [
        20,
        20,
        21,
        20,
        19,
        19,
        19,
        18,
        18,
        17,
        17,
        16,
        16,
        16,
        16,
        16,
        16,
        16,
        15,
        15,
        16,
        16,
        17,
        18,
        19
      ]
    },
    "KIX": {
      "icao": "RJBB",
      "issued": "2026-06-18T23:05:00.000Z",
      "raw": "TAF RJBB 182305Z 1900/2006 30004KT 9999 FEW030 BECMG 1906/1908 23010KT BECMG 1915/1918 07006KT TEMPO 1918/1921 4000 -RA BR TEMPO 1921/2006 3000 SHRA BR FEW003 SCT005 BKN008 BECMG 2000/2003 20010KT",
      "groups": [
        {
          "text": "TAF RJBB 182305Z 1900/2006 30004KT 9999 FEW030",
          "offset_h": 0,
          "wdir": 300,
          "wspd": 4
        },
        {
          "text": "BECMG 1906/1908 23010KT",
          "offset_h": 6,
          "wdir": 230,
          "wspd": 10
        },
        {
          "text": "BECMG 1915/1918 07006KT",
          "offset_h": 15,
          "wdir": 70,
          "wspd": 6
        },
        {
          "text": "TEMPO 1918/1921 4000 -RA BR",
          "offset_h": 18,
          "wdir": null,
          "wspd": null
        },
        {
          "text": "TEMPO 1921/2006 3000 SHRA BR FEW003 SCT005 BKN008",
          "offset_h": 21,
          "wdir": null,
          "wspd": null
        },
        {
          "text": "BECMG 2000/2003 20010KT",
          "offset_h": 24,
          "wdir": 200,
          "wspd": 10
        }
      ],
      "metar_raw": "METAR RJBB 190000Z 30003KT 9999 FEW010 SCT020 BKN/// 24/22 Q1011 NOSIG",
      "metar_wdir": 300,
      "metar_wspd": 3,
      "metar_oat": 24,
      "metar_qnh": 1011,
      "hourly_oat": [
        22,
        22,
        22,
        22,
        22,
        23,
        24,
        24,
        24,
        24,
        24,
        23,
        23,
        23,
        23,
        22,
        22,
        22,
        22,
        22,
        22,
        23,
        23,
        23,
        23
      ]
    },
    "NRT": {
      "icao": "RJAA",
      "issued": "2026-06-18T23:05:00.000Z",
      "raw": "TAF RJAA 182305Z 1900/2006 14012KT 9999 FEW012 SCT015 BKN020 TEMPO 1906/1912 FEW002 BKN005 TEMPO 1912/1921 1500 BR BCFG FEW001 BKN003 TEMPO 1921/2003 FEW002 BKN005",
      "groups": [
        {
          "text": "TAF RJAA 182305Z 1900/2006 14012KT 9999 FEW012 SCT015 BKN020",
          "offset_h": 0,
          "wdir": 140,
          "wspd": 12
        },
        {
          "text": "TEMPO 1906/1912 FEW002 BKN005",
          "offset_h": 6,
          "wdir": null,
          "wspd": null
        },
        {
          "text": "TEMPO 1912/1921 1500 BR BCFG FEW001 BKN003",
          "offset_h": 12,
          "wdir": null,
          "wspd": null
        },
        {
          "text": "TEMPO 1921/2003 FEW002 BKN005",
          "offset_h": 21,
          "wdir": null,
          "wspd": null
        }
      ],
      "metar_raw": "METAR RJAA 190000Z VRB02KT 9999 FEW020 25/20 Q1011 BECMG 14005KT",
      "metar_wdir": "VRB",
      "metar_wspd": 2,
      "metar_oat": 25,
      "metar_qnh": 1011,
      "hourly_oat": [
        24,
        26,
        26,
        26,
        26,
        25,
        25,
        24,
        24,
        23,
        22,
        22,
        22,
        22,
        22,
        22,
        22,
        21,
        21,
        21,
        21,
        21,
        22,
        22,
        23
      ]
    },
    "HND": {
      "icao": "RJTT",
      "issued": "2026-06-18T23:05:00.000Z",
      "raw": "TAF RJTT 182305Z 1900/2006 12004KT 9999 FEW012 SCT020 BECMG 1904/1906 18010KT TEMPO 1912/1921 FEW006 BKN008 BECMG 1918/1921 10006KT",
      "groups": [
        {
          "text": "TAF RJTT 182305Z 1900/2006 12004KT 9999 FEW012 SCT020",
          "offset_h": 0,
          "wdir": 120,
          "wspd": 4
        },
        {
          "text": "BECMG 1904/1906 18010KT",
          "offset_h": 4,
          "wdir": 180,
          "wspd": 10
        },
        {
          "text": "TEMPO 1912/1921 FEW006 BKN008",
          "offset_h": 12,
          "wdir": null,
          "wspd": null
        },
        {
          "text": "BECMG 1918/1921 10006KT",
          "offset_h": 18,
          "wdir": 100,
          "wspd": 6
        }
      ],
      "metar_raw": "METAR RJTT 190000Z 07004KT 9999 FEW010 SCT/// 23/21 Q1011 NOSIG",
      "metar_wdir": 70,
      "metar_wspd": 4,
      "metar_oat": 23,
      "metar_qnh": 1011,
      "hourly_oat": [
        24,
        24,
        24,
        25,
        25,
        25,
        26,
        26,
        25,
        24,
        24,
        23,
        23,
        23,
        22,
        22,
        22,
        22,
        22,
        22,
        22,
        22,
        22,
        22,
        22
      ]
    },
    "ITM": {
      "icao": "RJOO",
      "issued": "2026-06-18T23:05:00.000Z",
      "raw": "TAF RJOO 182305Z 1900/2006 20006KT 9999 FEW030 BECMG 1906/1908 26006KT BECMG 1918/1921 07010KT TEMPO 1921/2006 3000 SHRA BR FEW003 BKN008 BKN015",
      "groups": [
        {
          "text": "TAF RJOO 182305Z 1900/2006 20006KT 9999 FEW030",
          "offset_h": 0,
          "wdir": 200,
          "wspd": 6
        },
        {
          "text": "BECMG 1906/1908 26006KT",
          "offset_h": 6,
          "wdir": 260,
          "wspd": 6
        },
        {
          "text": "BECMG 1918/1921 07010KT",
          "offset_h": 18,
          "wdir": 70,
          "wspd": 10
        },
        {
          "text": "TEMPO 1921/2006 3000 SHRA BR FEW003 BKN008 BKN015",
          "offset_h": 21,
          "wdir": null,
          "wspd": null
        }
      ],
      "metar_raw": "METAR RJOO 190000Z VRB02KT 9999 SCT020 BKN/// 26/21 Q1011",
      "metar_wdir": "VRB",
      "metar_wspd": 2,
      "metar_oat": 26,
      "metar_qnh": 1011,
      "hourly_oat": [
        25,
        27,
        29,
        30,
        31,
        31,
        30,
        29,
        28,
        27,
        26,
        26,
        25,
        25,
        24,
        24,
        24,
        23,
        23,
        22,
        22,
        22,
        22,
        22,
        22
      ]
    },
    "GMP": {
      "icao": "RKSS",
      "issued": "2026-06-18T23:00:00.000Z",
      "raw": "TAF RKSS 182300Z 1900/2006 27006KT 9999 SCT045 TX33/1906Z TN22/1920Z TX25/2005Z TEMPO 1906/1908 6000 -SHRA FEW010 BKN035 OVC080 BECMG 1912/1914 10007KT 6000 -RA FEW010 BKN030 OVC070 TEMPO 1921/2001 09015G30KT 3000 RA BKN008 BKN020 OVC060",
      "groups": [
        {
          "text": "TAF RKSS 182300Z 1900/2006 27006KT 9999 SCT045 TX33/1906Z TN22/1920Z TX25/2005Z",
          "offset_h": 0,
          "wdir": 270,
          "wspd": 6
        },
        {
          "text": "TEMPO 1906/1908 6000 -SHRA FEW010 BKN035 OVC080",
          "offset_h": 6,
          "wdir": null,
          "wspd": null
        },
        {
          "text": "BECMG 1912/1914 10007KT 6000 -RA FEW010 BKN030 OVC070",
          "offset_h": 12,
          "wdir": 100,
          "wspd": 7
        },
        {
          "text": "TEMPO 1921/2001 09015G30KT 3000 RA BKN008 BKN020 OVC060",
          "offset_h": 21,
          "wdir": 90,
          "wspd": 15
        }
      ],
      "metar_raw": "METAR RKSS 190000Z 24003KT 160V330 CAVOK 29/20 Q1008 NOSIG",
      "metar_wdir": 240,
      "metar_wspd": 3,
      "metar_oat": 29,
      "metar_qnh": 1008,
      "hourly_oat": [
        24,
        26,
        27,
        28,
        29,
        29,
        29,
        28,
        27,
        26,
        25,
        24,
        24,
        24,
        23,
        23,
        22,
        22,
        22,
        22,
        21,
        21,
        21,
        21,
        21
      ]
    },
    "CGK": {
      "icao": "WIII",
      "issued": "2026-06-18T23:00:00.000Z",
      "raw": "TAF WIII 182300Z 1900/2006 14005KT 3000 HZ SCT020 BECMG 1901/1903 06011KT 8000 NSW BECMG 1915/1917 14005KT",
      "groups": [
        {
          "text": "TAF WIII 182300Z 1900/2006 14005KT 3000 HZ SCT020",
          "offset_h": 0,
          "wdir": 140,
          "wspd": 5
        },
        {
          "text": "BECMG 1901/1903 06011KT 8000 NSW",
          "offset_h": 1,
          "wdir": 60,
          "wspd": 11
        },
        {
          "text": "BECMG 1915/1917 14005KT",
          "offset_h": 15,
          "wdir": 140,
          "wspd": 5
        }
      ],
      "metar_raw": "METAR WIII 190000Z 17003KT 2000 HZ FEW020 26/24 Q1011 NOSIG",
      "metar_wdir": 170,
      "metar_wspd": 3,
      "metar_oat": 26,
      "metar_qnh": 1011,
      "hourly_oat": [
        26,
        28,
        30,
        32,
        33,
        34,
        34,
        33,
        32,
        31,
        30,
        29,
        29,
        29,
        28,
        28,
        27,
        27,
        26,
        26,
        25,
        25,
        25,
        25,
        26
      ]
    },
    "KUL": {
      "icao": "WMKK",
      "issued": "2026-06-18T23:00:00.000Z",
      "raw": "TAF WMKK 182300Z 1900/2006 14005KT 9999 FEW018 TEMPO 1908/1912 5000 TSRA FEW017CB",
      "groups": [
        {
          "text": "TAF WMKK 182300Z 1900/2006 14005KT 9999 FEW018",
          "offset_h": 0,
          "wdir": 140,
          "wspd": 5
        },
        {
          "text": "TEMPO 1908/1912 5000 TSRA FEW017CB",
          "offset_h": 8,
          "wdir": null,
          "wspd": null
        }
      ],
      "metar_raw": "METAR WMKK 190000Z VRB01KT 9000 FEW017CB 26/24 Q1009 NOSIG",
      "metar_wdir": "VRB",
      "metar_wspd": 1,
      "metar_oat": 26,
      "metar_qnh": 1009,
      "hourly_oat": [
        26,
        25,
        26,
        27,
        28,
        29,
        30,
        30,
        30,
        29,
        28,
        26,
        24,
        24,
        24,
        24,
        24,
        24,
        23,
        23,
        23,
        23,
        23,
        22,
        23
      ]
    },
    "SIN": {
      "icao": "WSSS",
      "issued": "2026-06-18T23:00:00.000Z",
      "raw": "TAF WSSS 182300Z 1900/2006 15008KT 9999 FEW015 SCT020 TEMPO 1906/1909 3000 TSRA FEW012CB BKN015",
      "groups": [
        {
          "text": "TAF WSSS 182300Z 1900/2006 15008KT 9999 FEW015 SCT020",
          "offset_h": 0,
          "wdir": 150,
          "wspd": 8
        },
        {
          "text": "TEMPO 1906/1909 3000 TSRA FEW012CB BKN015",
          "offset_h": 6,
          "wdir": null,
          "wspd": null
        }
      ],
      "metar_raw": "METAR WSSS 190000Z 16003KT 130V220 9999 FEW016CB FEW017TCU SCT160 BKN300 28/24 Q1011 NOSIG",
      "metar_wdir": 160,
      "metar_wspd": 3,
      "metar_oat": 28,
      "metar_qnh": 1011,
      "hourly_oat": [
        28,
        28,
        29,
        30,
        31,
        31,
        27,
        27,
        28,
        29,
        29,
        28,
        28,
        28,
        27,
        24,
        25,
        24,
        24,
        24,
        24,
        24,
        24,
        24,
        25
      ]
    },
    "HAN": {
      "icao": "VVNB",
      "issued": "2026-06-18T23:00:00.000Z",
      "raw": "TAF VVNB 182300Z 1900/1924 14005KT 9999 FEW030 PROB40 1908/1912 3500 TSRA SCT015 FEW027CB",
      "groups": [
        {
          "text": "TAF VVNB 182300Z 1900/1924 14005KT 9999 FEW030",
          "offset_h": 0,
          "wdir": 140,
          "wspd": 5
        },
        {
          "text": "PROB40 1908/1912 3500 TSRA SCT015 FEW027CB",
          "offset_h": 0,
          "wdir": null,
          "wspd": null
        }
      ],
      "metar_raw": "METAR VVNB 190000Z 05003KT CAVOK 30/26 Q1003 NOSIG",
      "metar_wdir": 50,
      "metar_wspd": 3,
      "metar_oat": 30,
      "metar_qnh": 1003,
      "hourly_oat": [
        29,
        29,
        31,
        32,
        33,
        33,
        33,
        32,
        33,
        32,
        32,
        32,
        31,
        30,
        30,
        30,
        30,
        29,
        29,
        28,
        28,
        28,
        28,
        28,
        29
      ]
    },
    "SGN": {
      "icao": "VVTS",
      "issued": "2026-06-18T23:00:00.000Z",
      "raw": "TAF VVTS 182300Z 1900/2006 VRB03KT 9999 SCT017 BECMG 1904/1905 25010KT TEMPO 1906/1910 5000 TSRA SCT015 FEW017CB",
      "groups": [
        {
          "text": "TAF VVTS 182300Z 1900/2006 VRB03KT 9999 SCT017",
          "offset_h": 0,
          "wdir": "VRB",
          "wspd": 3
        },
        {
          "text": "BECMG 1904/1905 25010KT",
          "offset_h": 4,
          "wdir": 250,
          "wspd": 10
        },
        {
          "text": "TEMPO 1906/1910 5000 TSRA SCT015 FEW017CB",
          "offset_h": 6,
          "wdir": null,
          "wspd": null
        }
      ],
      "metar_raw": "METAR VVTS 190000Z 01003KT 9999 FEW013 28/25 Q1010 NOSIG",
      "metar_wdir": 10,
      "metar_wspd": 3,
      "metar_oat": 28,
      "metar_qnh": 1010,
      "hourly_oat": [
        27,
        28,
        29,
        30,
        31,
        32,
        33,
        33,
        33,
        31,
        31,
        28,
        28,
        27,
        27,
        27,
        26,
        26,
        26,
        26,
        26,
        26,
        26,
        25,
        26
      ]
    },
    "HKG": {
      "icao": "VHHH",
      "issued": "2026-06-18T23:00:00.000Z",
      "raw": "TAF VHHH 182300Z 1900/2006 18015KT 9999 FEW010 SCT025 TX32/1906Z TX33/2006Z TN28/1922Z TEMPO 1900/1904 4000 SHRA FEW010CB SCT020",
      "groups": [
        {
          "text": "TAF VHHH 182300Z 1900/2006 18015KT 9999 FEW010 SCT025 TX32/1906Z TX33/2006Z TN28/1922Z",
          "offset_h": 0,
          "wdir": 180,
          "wspd": 15
        },
        {
          "text": "TEMPO 1900/1904 4000 SHRA FEW010CB SCT020",
          "offset_h": 0,
          "wdir": null,
          "wspd": null
        }
      ],
      "metar_raw": "METAR VHHH 190000Z 19015KT 9999 FEW008 SCT020 30/25 Q1009 WS R25L NOSIG",
      "metar_wdir": 190,
      "metar_wspd": 15,
      "metar_oat": 30,
      "metar_qnh": 1009,
      "hourly_oat": [
        28,
        28,
        29,
        29,
        29,
        30,
        30,
        30,
        29,
        29,
        29,
        29,
        29,
        29,
        29,
        29,
        28,
        28,
        28,
        28,
        28,
        28,
        28,
        29,
        29
      ]
    },
    "TSA": {
      "icao": "RCSS",
      "issued": "2026-06-18T23:00:00.000Z",
      "raw": "TAF RCSS 182300Z 1900/1924 31005KT 9999 FEW015 BKN032 TEMPO 1906/1910 12005KT 3200 SHRA FEW010 FEW012CB BKN016 BKN040 BECMG 1910/1912 09005KT",
      "groups": [
        {
          "text": "TAF RCSS 182300Z 1900/1924 31005KT 9999 FEW015 BKN032",
          "offset_h": 0,
          "wdir": 310,
          "wspd": 5
        },
        {
          "text": "TEMPO 1906/1910 12005KT 3200 SHRA FEW010 FEW012CB BKN016 BKN040",
          "offset_h": 6,
          "wdir": 120,
          "wspd": 5
        },
        {
          "text": "BECMG 1910/1912 09005KT",
          "offset_h": 10,
          "wdir": 90,
          "wspd": 5
        }
      ],
      "metar_raw": "METAR RCSS 190000Z VRB02KT 9999 FEW010 30/26 Q1010 NOSIG RMK A2984",
      "metar_wdir": "VRB",
      "metar_wspd": 2,
      "metar_oat": 30,
      "metar_qnh": 1010,
      "hourly_oat": [
        28,
        30,
        32,
        33,
        33,
        33,
        33,
        32,
        32,
        31,
        30,
        29,
        28,
        28,
        27,
        27,
        26,
        26,
        25,
        24,
        24,
        24,
        25,
        27,
        28
      ]
    },
    "TPE": {
      "icao": "RCTP",
      "issued": "2026-06-18T23:00:00.000Z",
      "raw": "TAF RCTP 182300Z 1900/2006 23010KT 9999 FEW020 TEMPO 1906/1910 29010KT BECMG 1910/1912 21005KT BECMG 2001/2003 25010KT",
      "groups": [
        {
          "text": "TAF RCTP 182300Z 1900/2006 23010KT 9999 FEW020",
          "offset_h": 0,
          "wdir": 230,
          "wspd": 10
        },
        {
          "text": "TEMPO 1906/1910 29010KT",
          "offset_h": 6,
          "wdir": 290,
          "wspd": 10
        },
        {
          "text": "BECMG 1910/1912 21005KT",
          "offset_h": 10,
          "wdir": 210,
          "wspd": 5
        },
        {
          "text": "BECMG 2001/2003 25010KT",
          "offset_h": 25,
          "wdir": 250,
          "wspd": 10
        }
      ],
      "metar_raw": "METAR RCTP 190000Z 24004KT 160V290 9999 FEW020 32/24 Q1010 NOSIG RMK A2984",
      "metar_wdir": 240,
      "metar_wspd": 4,
      "metar_oat": 32,
      "metar_qnh": 1010,
      "hourly_oat": [
        28,
        29,
        30,
        30,
        30,
        30,
        30,
        30,
        29,
        29,
        28,
        27,
        27,
        27,
        26,
        26,
        25,
        25,
        25,
        25,
        25,
        25,
        25,
        27,
        28
      ]
    },
    "BKK": {
      "icao": "VTBS",
      "issued": "2026-06-18T23:00:00.000Z",
      "raw": "TAF VTBS 182300Z 1900/2006 23008KT 9999 FEW020 TEMPO 1908/1912 VRB15KT 3000 TSRA FEW018CB SCT030 BKN080 BECMG 1916/1918 12005KT",
      "groups": [
        {
          "text": "TAF VTBS 182300Z 1900/2006 23008KT 9999 FEW020",
          "offset_h": 0,
          "wdir": 230,
          "wspd": 8
        },
        {
          "text": "TEMPO 1908/1912 VRB15KT 3000 TSRA FEW018CB SCT030 BKN080",
          "offset_h": 8,
          "wdir": "VRB",
          "wspd": 15
        },
        {
          "text": "BECMG 1916/1918 12005KT",
          "offset_h": 16,
          "wdir": 120,
          "wspd": 5
        }
      ],
      "metar_raw": "METAR VTBS 190000Z 01004KT 9999 FEW020 28/27 Q1009 NOSIG",
      "metar_wdir": 10,
      "metar_wspd": 4,
      "metar_oat": 28,
      "metar_qnh": 1009,
      "hourly_oat": [
        27,
        29,
        30,
        31,
        32,
        33,
        34,
        34,
        34,
        32,
        31,
        29,
        26,
        26,
        26,
        27,
        27,
        26,
        27,
        27,
        27,
        27,
        26,
        26,
        27
      ]
    },
    "SHA": {
      "icao": "ZSSS",
      "issued": "2026-06-18T21:14:00.000Z",
      "raw": "TAF ZSSS 182114Z 1900/2006 15004MPS 6000 BKN011 TX31/1906Z TX30/2006Z TN24/1921Z BECMG 1901/1902 BKN015 TEMPO 1906/1909 TSRA SCT030CB BKN033 BECMG 1910/1911 21008G14MPS TEMPO 1914/1918 2800 +TSRA BKN030CB BKN033 BECMG 1920/1921 28004MPS",
      "groups": [
        {
          "text": "TAF ZSSS 182114Z 1900/2006 15004MPS 6000 BKN011 TX31/1906Z TX30/2006Z TN24/1921Z",
          "offset_h": 0,
          "wdir": null,
          "wspd": null
        },
        {
          "text": "BECMG 1901/1902 BKN015",
          "offset_h": 1,
          "wdir": null,
          "wspd": null
        },
        {
          "text": "TEMPO 1906/1909 TSRA SCT030CB BKN033",
          "offset_h": 6,
          "wdir": null,
          "wspd": null
        },
        {
          "text": "BECMG 1910/1911 21008G14MPS",
          "offset_h": 10,
          "wdir": null,
          "wspd": null
        },
        {
          "text": "TEMPO 1914/1918 2800 +TSRA BKN030CB BKN033",
          "offset_h": 14,
          "wdir": null,
          "wspd": null
        },
        {
          "text": "BECMG 1920/1921 28004MPS",
          "offset_h": 20,
          "wdir": null,
          "wspd": null
        }
      ],
      "metar_raw": "METAR ZSSS 190000Z 16003MPS 5000 -RA BR BKN006 25/24 Q1005 NOSIG",
      "metar_wdir": null,
      "metar_wspd": null,
      "metar_oat": 25,
      "metar_qnh": 1005,
      "hourly_oat": [
        26,
        27,
        28,
        28,
        31,
        29,
        28,
        28,
        29,
        29,
        28,
        27,
        27,
        27,
        27,
        26,
        26,
        26,
        25,
        25,
        25,
        25,
        24,
        24,
        25
      ]
    },
    "PVG": {
      "icao": "ZSPD",
      "issued": "2026-06-18T21:14:00.000Z",
      "raw": "TAF ZSPD 182114Z 1900/2006 15004MPS 2000 BR BKN002 TX29/1906Z TX29/2006Z TN25/1921Z BECMG 1901/1902 5000 -SHRA BKN015 TEMPO 1907/1910 TSRA BKN020 SCT030CB BECMG 1909/1910 21008G15MPS TEMPO 1915/1919 2500 +TSRA BKN015 BKN030CB BECMG 1920/1921 28004MPS",
      "groups": [
        {
          "text": "TAF ZSPD 182114Z 1900/2006 15004MPS 2000 BR BKN002 TX29/1906Z TX29/2006Z TN25/1921Z",
          "offset_h": 0,
          "wdir": null,
          "wspd": null
        },
        {
          "text": "BECMG 1901/1902 5000 -SHRA BKN015",
          "offset_h": 1,
          "wdir": null,
          "wspd": null
        },
        {
          "text": "TEMPO 1907/1910 TSRA BKN020 SCT030CB",
          "offset_h": 7,
          "wdir": null,
          "wspd": null
        },
        {
          "text": "BECMG 1909/1910 21008G15MPS",
          "offset_h": 9,
          "wdir": null,
          "wspd": null
        },
        {
          "text": "TEMPO 1915/1919 2500 +TSRA BKN015 BKN030CB",
          "offset_h": 15,
          "wdir": null,
          "wspd": null
        },
        {
          "text": "BECMG 1920/1921 28004MPS",
          "offset_h": 20,
          "wdir": null,
          "wspd": null
        }
      ],
      "metar_raw": "METAR ZSPD 190000Z 17003MPS 4000 BR BKN006 25/25 Q1005 NOSIG",
      "metar_wdir": null,
      "metar_wspd": null,
      "metar_oat": 25,
      "metar_qnh": 1005,
      "hourly_oat": [
        27,
        28,
        28,
        29,
        31,
        31,
        30,
        29,
        29,
        28,
        27,
        27,
        27,
        27,
        27,
        26,
        26,
        26,
        26,
        25,
        25,
        25,
        25,
        25,
        26
      ]
    },
    "PEK": {
      "icao": "ZBAA",
      "issued": "2026-06-18T21:09:00.000Z",
      "raw": "TAF ZBAA 182109Z 1900/2006 10004MPS 3500 BR NSC TX28/1906Z TX29/2006Z TN21/1921Z TEMPO 1908/1912 -TSRA FEW040CB BKN040 BECMG 2001/2002 32007G14MPS",
      "groups": [
        {
          "text": "TAF ZBAA 182109Z 1900/2006 10004MPS 3500 BR NSC TX28/1906Z TX29/2006Z TN21/1921Z",
          "offset_h": 0,
          "wdir": null,
          "wspd": null
        },
        {
          "text": "TEMPO 1908/1912 -TSRA FEW040CB BKN040",
          "offset_h": 8,
          "wdir": null,
          "wspd": null
        },
        {
          "text": "BECMG 2001/2002 32007G14MPS",
          "offset_h": 25,
          "wdir": null,
          "wspd": null
        }
      ],
      "metar_raw": "METAR ZBAA 190000Z 12002MPS 070V160 4000 BR NSC 26/23 Q1003 NOSIG",
      "metar_wdir": null,
      "metar_wspd": null,
      "metar_oat": 26,
      "metar_qnh": 1003,
      "hourly_oat": [
        25,
        23,
        23,
        24,
        25,
        25,
        26,
        26,
        26,
        25,
        25,
        23,
        22,
        22,
        22,
        21,
        21,
        21,
        21,
        21,
        21,
        21,
        21,
        21,
        22
      ]
    },
    "CAN": {
      "icao": "ZGGG",
      "issued": "2026-06-18T21:06:00.000Z",
      "raw": "TAF ZGGG 182106Z 1900/2006 17004MPS 8000 BKN033 TX31/1907Z TX34/2006Z TN26/1922Z TEMPO 1900/1903 +SHRA SCT026CB BKN033 TEMPO 1905/1909 TSRA FEW026CB BKN033",
      "groups": [
        {
          "text": "TAF ZGGG 182106Z 1900/2006 17004MPS 8000 BKN033 TX31/1907Z TX34/2006Z TN26/1922Z",
          "offset_h": 0,
          "wdir": null,
          "wspd": null
        },
        {
          "text": "TEMPO 1900/1903 +SHRA SCT026CB BKN033",
          "offset_h": 0,
          "wdir": null,
          "wspd": null
        },
        {
          "text": "TEMPO 1905/1909 TSRA FEW026CB BKN033",
          "offset_h": 5,
          "wdir": null,
          "wspd": null
        }
      ],
      "metar_raw": "METAR ZGGG 190000Z 17004MPS 9999 -SHRA SCT010 OVC026 27/26 Q1008 NOSIG",
      "metar_wdir": null,
      "metar_wspd": null,
      "metar_oat": 27,
      "metar_qnh": 1008,
      "hourly_oat": [
        26,
        27,
        29,
        28,
        29,
        31,
        28,
        28,
        29,
        30,
        30,
        29,
        28,
        28,
        28,
        28,
        27,
        27,
        26,
        26,
        26,
        26,
        26,
        27,
        29
      ]
    },
    "DLC": {
      "icao": "ZYTL",
      "issued": "2026-06-18T21:05:00.000Z",
      "raw": "TAF ZYTL 182105Z 1900/1924 12004MPS 5000 BR FEW040 TX26/1906Z TN19/1921Z TEMPO 1903/1906 2000 -SHRA BR BKN010 BKN026",
      "groups": [
        {
          "text": "TAF ZYTL 182105Z 1900/1924 12004MPS 5000 BR FEW040 TX26/1906Z TN19/1921Z",
          "offset_h": 0,
          "wdir": null,
          "wspd": null
        },
        {
          "text": "TEMPO 1903/1906 2000 -SHRA BR BKN010 BKN026",
          "offset_h": 3,
          "wdir": null,
          "wspd": null
        }
      ],
      "metar_raw": "METAR ZYTL 190000Z 09004MPS 8000 FEW020 23/20 Q1007 NOSIG",
      "metar_wdir": null,
      "metar_wspd": null,
      "metar_oat": 23,
      "metar_qnh": 1007,
      "hourly_oat": [
        25,
        25,
        25,
        26,
        26,
        25,
        25,
        25,
        24,
        23,
        22,
        22,
        22,
        22,
        22,
        22,
        21,
        21,
        21,
        21,
        21,
        21,
        21,
        22,
        22
      ]
    }
  }
}