{
  "updated": "2026-05-21T18:29:04Z",
  "tafs": {
    "HNL": {
      "icao": "PHNL",
      "issued": "2026-05-21T17:39:00.000Z",
      "raw": "TAF PHNL 211739Z 2118/2224 06015G25KT P6SM FEW025 SCT045 FM212000 06020G30KT P6SM FEW035 SCT060 FM220800 06015G25KT P6SM FEW025 SCT045 FM222300 05019G29KT P6SM VCSH SCT030 BKN050",
      "groups": [
        {
          "text": "TAF PHNL 211739Z 2118/2224 06015G25KT P6SM FEW025 SCT045",
          "offset_h": 0,
          "wdir": 60,
          "wspd": 15
        },
        {
          "text": "FM212000 06020G30KT P6SM FEW035 SCT060",
          "offset_h": 2,
          "wdir": 60,
          "wspd": 20
        },
        {
          "text": "FM220800 06015G25KT P6SM FEW025 SCT045",
          "offset_h": 14,
          "wdir": 60,
          "wspd": 15
        },
        {
          "text": "FM222300 05019G29KT P6SM VCSH SCT030 BKN050",
          "offset_h": 29,
          "wdir": 50,
          "wspd": 19
        }
      ],
      "metar_raw": "METAR PHNL 211753Z 07015G21KT 10SM FEW025 FEW050 26/17 A3013 RMK AO2 SLP203 60000 T02610172 10261 20239 53016",
      "metar_wdir": 70,
      "metar_wspd": 15,
      "metar_oat": 26,
      "metar_qnh": 1020,
      "hourly_oat": [
        24,
        25,
        26,
        26,
        26,
        26,
        26,
        25,
        24,
        24,
        24,
        23,
        23,
        22,
        22,
        22,
        22,
        22,
        21,
        21,
        21,
        21,
        21,
        22,
        24
      ]
    },
    "LAX": {
      "icao": "KLAX",
      "issued": "2026-05-21T17:38:00.000Z",
      "raw": "TAF KLAX 211738Z 2118/2224 26006KT P6SM SKC FM211900 26012KT P6SM SKC FM220300 24006KT P6SM SKC FM220600 VRB03KT P6SM SKC FM220800 VRB03KT 5SM BR OVC006 FM221400 VRB03KT P6SM OVC010 FM221800 26006KT P6SM SCT010 FM222000 26012KT P6SM FEW010",
      "groups": [
        {
          "text": "TAF KLAX 211738Z 2118/2224 26006KT P6SM SKC",
          "offset_h": 0,
          "wdir": 260,
          "wspd": 6
        },
        {
          "text": "FM211900 26012KT P6SM SKC",
          "offset_h": 1,
          "wdir": 260,
          "wspd": 12
        },
        {
          "text": "FM220300 24006KT P6SM SKC",
          "offset_h": 9,
          "wdir": 240,
          "wspd": 6
        },
        {
          "text": "FM220600 VRB03KT P6SM SKC",
          "offset_h": 12,
          "wdir": "VRB",
          "wspd": 3
        },
        {
          "text": "FM220800 VRB03KT 5SM BR OVC006",
          "offset_h": 14,
          "wdir": "VRB",
          "wspd": 3
        },
        {
          "text": "FM221400 VRB03KT P6SM OVC010",
          "offset_h": 20,
          "wdir": "VRB",
          "wspd": 3
        },
        {
          "text": "FM221800 26006KT P6SM SCT010",
          "offset_h": 24,
          "wdir": 260,
          "wspd": 6
        },
        {
          "text": "FM222000 26012KT P6SM FEW010",
          "offset_h": 26,
          "wdir": 260,
          "wspd": 12
        }
      ],
      "metar_raw": "METAR KLAX 211753Z COR 26012KT 9SM FEW012 21/16 A2990 RMK AO2 SLP125 T02110156 10228 20161 51004 $",
      "metar_wdir": 260,
      "metar_wspd": 12,
      "metar_oat": 21,
      "metar_qnh": 1013,
      "hourly_oat": [
        22,
        22,
        21,
        20,
        19,
        18,
        18,
        17,
        16,
        15,
        15,
        14,
        14,
        14,
        14,
        14,
        14,
        14,
        14,
        14,
        14,
        15,
        16,
        17,
        17
      ]
    },
    "SAN": {
      "icao": "KSAN",
      "issued": "2026-05-21T17:20:00.000Z",
      "raw": "TAF KSAN 211720Z 2118/2224 22005KT P6SM SCT015 FM211900 27010KT P6SM SKC FM220300 VRB04KT P6SM OVC015 FM221800 27009KT P6SM SCT020",
      "groups": [
        {
          "text": "TAF KSAN 211720Z 2118/2224 22005KT P6SM SCT015",
          "offset_h": 0,
          "wdir": 220,
          "wspd": 5
        },
        {
          "text": "FM211900 27010KT P6SM SKC",
          "offset_h": 1,
          "wdir": 270,
          "wspd": 10
        },
        {
          "text": "FM220300 VRB04KT P6SM OVC015",
          "offset_h": 9,
          "wdir": "VRB",
          "wspd": 4
        },
        {
          "text": "FM221800 27009KT P6SM SCT020",
          "offset_h": 24,
          "wdir": 270,
          "wspd": 9
        }
      ],
      "metar_raw": "METAR KSAN 211751Z 20007KT 150V230 10SM SCT016 19/14 A2993 RMK AO2 SLP134 T01940139 10200 20178 50004 $",
      "metar_wdir": 200,
      "metar_wspd": 7,
      "metar_oat": 19,
      "metar_qnh": 1014,
      "hourly_oat": [
        20,
        21,
        22,
        22,
        22,
        20,
        20,
        19,
        18,
        17,
        17,
        16,
        16,
        16,
        16,
        15,
        15,
        15,
        15,
        15,
        15,
        17,
        16,
        18,
        19
      ]
    },
    "KIX": {
      "icao": "RJBB",
      "issued": "2026-05-21T17:06:00.000Z",
      "raw": "TAF RJBB 211706Z 2118/2300 27008KT 9999 FEW015 BKN030 BECMG 2201/2203 01008KT",
      "groups": [
        {
          "text": "TAF RJBB 211706Z 2118/2300 27008KT 9999 FEW015 BKN030",
          "offset_h": 0,
          "wdir": 270,
          "wspd": 8
        },
        {
          "text": "BECMG 2201/2203 01008KT",
          "offset_h": 7,
          "wdir": 10,
          "wspd": 8
        }
      ],
      "metar_raw": "METAR RJBB 211800Z AUTO 22007KT 9999 FEW025 SCT070 20/19 Q1005 NOSIG",
      "metar_wdir": 220,
      "metar_wspd": 7,
      "metar_oat": 20,
      "metar_qnh": 1005,
      "hourly_oat": [
        21,
        21,
        20,
        20,
        20,
        20,
        20,
        20,
        20,
        21,
        21,
        21,
        21,
        21,
        21,
        21,
        21,
        20,
        20,
        20,
        20,
        20,
        20,
        19,
        20
      ]
    },
    "ITM": {
      "icao": "RJOO",
      "issued": "2026-05-21T17:06:00.000Z",
      "raw": "TAF RJOO 211706Z 2118/2300 33012KT 9999 FEW012 BKN020 TEMPO 2118/2120 4000 -SHRA BR FEW001 SCT003 BKN005 BECMG 2215/2218 08012KT",
      "groups": [
        {
          "text": "TAF RJOO 211706Z 2118/2300 33012KT 9999 FEW012 BKN020",
          "offset_h": 0,
          "wdir": 330,
          "wspd": 12
        },
        {
          "text": "TEMPO 2118/2120 4000 -SHRA BR FEW001 SCT003 BKN005",
          "offset_h": 0,
          "wdir": null,
          "wspd": null
        },
        {
          "text": "BECMG 2215/2218 08012KT",
          "offset_h": 21,
          "wdir": 80,
          "wspd": 12
        }
      ],
      "metar_raw": "METAR RJOO 211800Z AUTO 22004KT 160V270 9999 BKN009 BKN090 //////TCU 21/20 Q1004",
      "metar_wdir": 220,
      "metar_wspd": 4,
      "metar_oat": 21,
      "metar_qnh": 1004,
      "hourly_oat": [
        20,
        20,
        20,
        20,
        21,
        21,
        22,
        22,
        21,
        21,
        22,
        23,
        23,
        22,
        22,
        21,
        20,
        19,
        19,
        18,
        18,
        18,
        18,
        18,
        19
      ]
    },
    "HND": {
      "icao": "RJTT",
      "issued": "2026-05-21T17:05:00.000Z",
      "raw": "TAF RJTT 211705Z 2118/2300 01020KT 8000 -SHRA FEW008 BKN015 TEMPO 2118/2120 3000 TSRA BR FEW003 BKN005 FEW020CB TEMPO 2120/2122 3000 SHRA BR FEW003 BKN005 TEMPO 2122/2203 FEW005 BKN008",
      "groups": [
        {
          "text": "TAF RJTT 211705Z 2118/2300 01020KT 8000 -SHRA FEW008 BKN015",
          "offset_h": 0,
          "wdir": 10,
          "wspd": 20
        },
        {
          "text": "TEMPO 2118/2120 3000 TSRA BR FEW003 BKN005 FEW020CB",
          "offset_h": 0,
          "wdir": null,
          "wspd": null
        },
        {
          "text": "TEMPO 2120/2122 3000 SHRA BR FEW003 BKN005",
          "offset_h": 2,
          "wdir": null,
          "wspd": null
        },
        {
          "text": "TEMPO 2122/2203 FEW005 BKN008",
          "offset_h": 4,
          "wdir": null,
          "wspd": null
        }
      ],
      "metar_raw": "METAR RJTT 211800Z 01013KT 9999 -SHRA FEW006 SCT013 BKN030 16/15 Q1006 TEMPO 4000 -SHRA BR FEW005 BKN008",
      "metar_wdir": 10,
      "metar_wspd": 13,
      "metar_oat": 16,
      "metar_qnh": 1006,
      "hourly_oat": [
        15,
        15,
        15,
        15,
        16,
        16,
        16,
        16,
        15,
        15,
        15,
        15,
        14,
        15,
        14,
        14,
        14,
        14,
        14,
        14,
        13,
        13,
        13,
        13,
        13
      ]
    },
    "FUK": {
      "icao": "RJFF",
      "issued": "2026-05-21T17:05:00.000Z",
      "raw": "TAF RJFF 211705Z 2118/2300 01011KT 9999 FEW015 BKN030 TEMPO 2118/2121 4000 -SHRA BR BKN008 BKN030 BECMG 2212/2215 15004KT",
      "groups": [
        {
          "text": "TAF RJFF 211705Z 2118/2300 01011KT 9999 FEW015 BKN030",
          "offset_h": 0,
          "wdir": 10,
          "wspd": 11
        },
        {
          "text": "TEMPO 2118/2121 4000 -SHRA BR BKN008 BKN030",
          "offset_h": 0,
          "wdir": null,
          "wspd": null
        },
        {
          "text": "BECMG 2212/2215 15004KT",
          "offset_h": 18,
          "wdir": 150,
          "wspd": 4
        }
      ],
      "metar_raw": "METAR RJFF 211800Z AUTO 34007KT 9999 -RA FEW007 BKN012 OVC023 20/18 Q1009 TEMPO 4000 -SHRA BR BKN008 BKN030",
      "metar_wdir": 340,
      "metar_wspd": 7,
      "metar_oat": 20,
      "metar_qnh": 1009,
      "hourly_oat": [
        19,
        18,
        18,
        19,
        19,
        20,
        20,
        21,
        22,
        22,
        22,
        22,
        22,
        22,
        22,
        22,
        20,
        20,
        19,
        19,
        19,
        19,
        18,
        18,
        18
      ]
    },
    "CTS": {
      "icao": "RJCC",
      "issued": "2026-05-21T17:05:00.000Z",
      "raw": "TAF RJCC 211705Z 2118/2300 17012KT 9999 FEW030 TEMPO 2118/2121 3000 BR",
      "groups": [
        {
          "text": "TAF RJCC 211705Z 2118/2300 17012KT 9999 FEW030",
          "offset_h": 0,
          "wdir": 170,
          "wspd": 12
        },
        {
          "text": "TEMPO 2118/2121 3000 BR",
          "offset_h": 0,
          "wdir": null,
          "wspd": null
        }
      ],
      "metar_raw": "METAR RJCC 211800Z 13005KT 6000 FEW001 06/06 Q1015",
      "metar_wdir": 130,
      "metar_wspd": 5,
      "metar_oat": 6,
      "metar_qnh": 1015,
      "hourly_oat": [
        9,
        9,
        9,
        10,
        12,
        14,
        15,
        16,
        16,
        16,
        14,
        14,
        13,
        12,
        10,
        9,
        8,
        8,
        7,
        7,
        7,
        7,
        6,
        6,
        6
      ]
    },
    "OKA": {
      "icao": "ROAH",
      "issued": "2026-05-21T17:05:00.000Z",
      "raw": "TAF ROAH 211705Z 2118/2300 21010KT 9999 FEW005 BKN010 TEMPO 2118/2206 FEW003 BKN005 TEMPO 2206/2209 4000 SHRA BR FEW003 BKN005 FEW015CB TEMPO 2209/2212 3000 +TSRA BR FEW003 BKN005 SCT015CB TEMPO 2212/2215 4000 SHRA BR FEW003 BKN005 FEW015CB TEMPO 2215/2221 FEW003 BKN005 TEMPO 2221/2300 4000 SHRA BR FEW003 BKN005 FEW015CB",
      "groups": [
        {
          "text": "TAF ROAH 211705Z 2118/2300 21010KT 9999 FEW005 BKN010",
          "offset_h": 0,
          "wdir": 210,
          "wspd": 10
        },
        {
          "text": "TEMPO 2118/2206 FEW003 BKN005",
          "offset_h": 0,
          "wdir": null,
          "wspd": null
        },
        {
          "text": "TEMPO 2206/2209 4000 SHRA BR FEW003 BKN005 FEW015CB",
          "offset_h": 12,
          "wdir": null,
          "wspd": null
        },
        {
          "text": "TEMPO 2209/2212 3000 +TSRA BR FEW003 BKN005 SCT015CB",
          "offset_h": 15,
          "wdir": null,
          "wspd": null
        },
        {
          "text": "TEMPO 2212/2215 4000 SHRA BR FEW003 BKN005 FEW015CB",
          "offset_h": 18,
          "wdir": null,
          "wspd": null
        },
        {
          "text": "TEMPO 2215/2221 FEW003 BKN005",
          "offset_h": 21,
          "wdir": null,
          "wspd": null
        },
        {
          "text": "TEMPO 2221/2300 4000 SHRA BR FEW003 BKN005 FEW015CB",
          "offset_h": 27,
          "wdir": null,
          "wspd": null
        }
      ],
      "metar_raw": "METAR ROAH 211800Z AUTO 21011KT 9999 FEW004 BKN050 25/25 Q1010",
      "metar_wdir": 210,
      "metar_wspd": 11,
      "metar_oat": 25,
      "metar_qnh": 1010,
      "hourly_oat": [
        25,
        25,
        25,
        24,
        24,
        24,
        25,
        25,
        26,
        26,
        26,
        25,
        25,
        25,
        25,
        25,
        25,
        25,
        25,
        25,
        25,
        24,
        24,
        25,
        24
      ]
    },
    "NGO": {
      "icao": "RJGG",
      "issued": "2026-05-21T17:05:00.000Z",
      "raw": "TAF RJGG 211705Z 2118/2300 18004KT 9999 FEW015 BKN030 BECMG 2118/2120 01006KT BECMG 2121/2123 12016KT",
      "groups": [
        {
          "text": "TAF RJGG 211705Z 2118/2300 18004KT 9999 FEW015 BKN030",
          "offset_h": 0,
          "wdir": 180,
          "wspd": 4
        },
        {
          "text": "BECMG 2118/2120 01006KT",
          "offset_h": 0,
          "wdir": 10,
          "wspd": 6
        },
        {
          "text": "BECMG 2121/2123 12016KT",
          "offset_h": 3,
          "wdir": 120,
          "wspd": 16
        }
      ],
      "metar_raw": "METAR RJGG 211800Z AUTO 33006KT 280V360 9999 FEW003 SCT017 OVC019 //////CB 21/21 Q1002 NOSIG",
      "metar_wdir": 330,
      "metar_wspd": 6,
      "metar_oat": 21,
      "metar_qnh": 1002,
      "hourly_oat": [
        21,
        21,
        21,
        21,
        21,
        21,
        21,
        21,
        21,
        20,
        20,
        20,
        20,
        20,
        20,
        20,
        20,
        20,
        20,
        20,
        19,
        19,
        19,
        18,
        18
      ]
    },
    "NRT": {
      "icao": "RJAA",
      "issued": "2026-05-21T17:05:00.000Z",
      "raw": "TAF RJAA 211705Z 2118/2300 02014KT 6000 -SHRA FEW003 BKN012 TEMPO 2118/2200 2000 SHRA BR FEW001 BKN003 TEMPO 2200/2203 02022G32KT 4000 -SHRA BR FEW003 SCT005 BKN008 TEMPO 2203/2206 02022G32KT",
      "groups": [
        {
          "text": "TAF RJAA 211705Z 2118/2300 02014KT 6000 -SHRA FEW003 BKN012",
          "offset_h": 0,
          "wdir": 20,
          "wspd": 14
        },
        {
          "text": "TEMPO 2118/2200 2000 SHRA BR FEW001 BKN003",
          "offset_h": 0,
          "wdir": null,
          "wspd": null
        },
        {
          "text": "TEMPO 2200/2203 02022G32KT 4000 -SHRA BR FEW003 SCT005 BKN008",
          "offset_h": 6,
          "wdir": 20,
          "wspd": 22
        },
        {
          "text": "TEMPO 2203/2206 02022G32KT",
          "offset_h": 9,
          "wdir": 20,
          "wspd": 22
        }
      ],
      "metar_raw": "METAR RJAA 211800Z AUTO 36011KT 7000 RA FEW005 SCT007 BKN009 //////CB 14/14 Q1007 TEMPO 3000 SHRA BR FEW003 BKN005",
      "metar_wdir": 360,
      "metar_wspd": 11,
      "metar_oat": 14,
      "metar_qnh": 1007,
      "hourly_oat": [
        15,
        15,
        15,
        15,
        15,
        15,
        15,
        15,
        15,
        14,
        14,
        14,
        13,
        13,
        13,
        13,
        13,
        14,
        14,
        13,
        13,
        13,
        13,
        13,
        13
      ]
    },
    "GMP": {
      "icao": "RKSS",
      "issued": "2026-05-21T17:00:00.000Z",
      "raw": "TAF RKSS 211700Z 2118/2224 03006KT CAVOK TN13/2121Z TX27/2206Z TN14/2221Z BECMG 2121/2123 10007KT BECMG 2204/2206 9999 BKN040 BECMG 2209/2211 CAVOK",
      "groups": [
        {
          "text": "TAF RKSS 211700Z 2118/2224 03006KT CAVOK TN13/2121Z TX27/2206Z TN14/2221Z",
          "offset_h": 0,
          "wdir": 30,
          "wspd": 6
        },
        {
          "text": "BECMG 2121/2123 10007KT",
          "offset_h": 3,
          "wdir": 100,
          "wspd": 7
        },
        {
          "text": "BECMG 2204/2206 9999 BKN040",
          "offset_h": 10,
          "wdir": null,
          "wspd": null
        },
        {
          "text": "BECMG 2209/2211 CAVOK",
          "offset_h": 15,
          "wdir": null,
          "wspd": null
        }
      ],
      "metar_raw": "METAR RKSS 211800Z 02008KT CAVOK 15/13 Q1011 NOSIG",
      "metar_wdir": 20,
      "metar_wspd": 8,
      "metar_oat": 15,
      "metar_qnh": 1011,
      "hourly_oat": [
        14,
        14,
        13,
        13,
        15,
        17,
        19,
        21,
        23,
        24,
        26,
        27,
        27,
        28,
        27,
        26,
        23,
        21,
        19,
        18,
        17,
        17,
        16,
        16,
        16
      ]
    },
    "TPE": {
      "icao": "RCTP",
      "issued": "2026-05-21T17:00:00.000Z",
      "raw": "TAF RCTP 211700Z 2118/2224 24010KT 9999 FEW015 BKN032 TEMPO 2118/2124 18005KT 6000 -RA FEW010 BKN020 TEMPO 2203/2209 28015KT BECMG 2210/2212 20005KT TEMPO 2216/2222 15005KT",
      "groups": [
        {
          "text": "TAF RCTP 211700Z 2118/2224 24010KT 9999 FEW015 BKN032",
          "offset_h": 0,
          "wdir": 240,
          "wspd": 10
        },
        {
          "text": "TEMPO 2118/2124 18005KT 6000 -RA FEW010 BKN020",
          "offset_h": 0,
          "wdir": 180,
          "wspd": 5
        },
        {
          "text": "TEMPO 2203/2209 28015KT",
          "offset_h": 9,
          "wdir": 280,
          "wspd": 15
        },
        {
          "text": "BECMG 2210/2212 20005KT",
          "offset_h": 16,
          "wdir": 200,
          "wspd": 5
        },
        {
          "text": "TEMPO 2216/2222 15005KT",
          "offset_h": 22,
          "wdir": 150,
          "wspd": 5
        }
      ],
      "metar_raw": "METAR RCTP 211800Z 22008KT 9999 FEW015 SCT070 BKN150 26/24 Q1010 NOSIG RMK A2984",
      "metar_wdir": 220,
      "metar_wspd": 8,
      "metar_oat": 26,
      "metar_qnh": 1010,
      "hourly_oat": [
        25,
        24,
        24,
        24,
        25,
        26,
        28,
        28,
        29,
        29,
        29,
        29,
        29,
        28,
        28,
        27,
        27,
        27,
        27,
        26,
        26,
        26,
        26,
        26,
        25
      ]
    },
    "HKG": {
      "icao": "VHHH",
      "issued": "2026-05-21T17:00:00.000Z",
      "raw": "TAF VHHH 211700Z 2118/2224 20010KT 9999 FEW010 SCT025 TX32/2206Z TN27/2122Z TN27/2222Z TEMPO 2118/2120 3000 TSRA SHRA FEW010CB SCT020 TEMPO 2120/2123 4000 SHRA FEW010CB SCT020",
      "groups": [
        {
          "text": "TAF VHHH 211700Z 2118/2224 20010KT 9999 FEW010 SCT025 TX32/2206Z TN27/2122Z TN27/2222Z",
          "offset_h": 0,
          "wdir": 200,
          "wspd": 10
        },
        {
          "text": "TEMPO 2118/2120 3000 TSRA SHRA FEW010CB SCT020",
          "offset_h": 0,
          "wdir": null,
          "wspd": null
        },
        {
          "text": "TEMPO 2120/2123 4000 SHRA FEW010CB SCT020",
          "offset_h": 2,
          "wdir": null,
          "wspd": null
        }
      ],
      "metar_raw": "METAR VHHH 211800Z 25004KT 9999 FEW008 SCT022 26/25 Q1010 NOSIG",
      "metar_wdir": 250,
      "metar_wspd": 4,
      "metar_oat": 26,
      "metar_qnh": 1010,
      "hourly_oat": [
        27,
        27,
        27,
        27,
        27,
        27,
        28,
        28,
        28,
        29,
        29,
        29,
        29,
        29,
        28,
        28,
        28,
        28,
        28,
        28,
        27,
        27,
        27,
        27,
        27
      ]
    },
    "BKK": {
      "icao": "VTBS",
      "issued": "2026-05-21T17:00:00.000Z",
      "raw": "TAF VTBS 211700Z 2118/2224 20008KT 9999 FEW020 TEMPO 2200/2206 VRB10G25KT 4000 TSRA FEW018CB SCT030 BKN100 TEMPO 2211/2215 VRB15KT 4000 TSRA FEW018CB SCT030 BKN100",
      "groups": [
        {
          "text": "TAF VTBS 211700Z 2118/2224 20008KT 9999 FEW020",
          "offset_h": 0,
          "wdir": 200,
          "wspd": 8
        },
        {
          "text": "TEMPO 2200/2206 VRB10G25KT 4000 TSRA FEW018CB SCT030 BKN100",
          "offset_h": 6,
          "wdir": "VRB",
          "wspd": 10
        },
        {
          "text": "TEMPO 2211/2215 VRB15KT 4000 TSRA FEW018CB SCT030 BKN100",
          "offset_h": 17,
          "wdir": "VRB",
          "wspd": 15
        }
      ],
      "metar_raw": "METAR VTBS 211800Z 20007KT 9999 FEW020 29/24 Q1008 NOSIG",
      "metar_wdir": 200,
      "metar_wspd": 7,
      "metar_oat": 29,
      "metar_qnh": 1008,
      "hourly_oat": [
        29,
        28,
        27,
        26,
        26,
        26,
        26,
        28,
        30,
        32,
        30,
        31,
        30,
        30,
        31,
        30,
        28,
        28,
        28,
        28,
        27,
        27,
        27,
        26,
        26
      ]
    },
    "SIN": {
      "icao": "WSSS",
      "issued": "2026-05-21T17:00:00.000Z",
      "raw": "TAF WSSS 211700Z 2118/2300 20003KT 9999 FEW015 SCT020",
      "groups": [
        {
          "text": "TAF WSSS 211700Z 2118/2300 20003KT 9999 FEW015 SCT020",
          "offset_h": 0,
          "wdir": 200,
          "wspd": 3
        }
      ],
      "metar_raw": "METAR WSSS 211800Z 20003KT 170V230 9999 FEW018 SCT150 BKN300 28/24 Q1010 NOSIG",
      "metar_wdir": 200,
      "metar_wspd": 3,
      "metar_oat": 28,
      "metar_qnh": 1010,
      "hourly_oat": [
        27,
        27,
        27,
        27,
        27,
        27,
        28,
        29,
        30,
        30,
        31,
        31,
        32,
        31,
        31,
        28,
        28,
        27,
        27,
        27,
        27,
        27,
        27,
        26,
        26
      ]
    },
    "CGK": {
      "icao": "WIII",
      "issued": "2026-05-21T17:00:00.000Z",
      "raw": "TAF WIII 211700Z 2118/2300 22007KT 5000 HZ SCT020 TEMPO 2118/2120 3000 TSRA FEW018CB BKN020 BECMG 2201/2203 02012KT 7000 NSW BECMG 2213/2215 18005KT BECMG 2215/2217 5000 HZ",
      "groups": [
        {
          "text": "TAF WIII 211700Z 2118/2300 22007KT 5000 HZ SCT020",
          "offset_h": 0,
          "wdir": 220,
          "wspd": 7
        },
        {
          "text": "TEMPO 2118/2120 3000 TSRA FEW018CB BKN020",
          "offset_h": 0,
          "wdir": null,
          "wspd": null
        },
        {
          "text": "BECMG 2201/2203 02012KT 7000 NSW",
          "offset_h": 7,
          "wdir": 20,
          "wspd": 12
        },
        {
          "text": "BECMG 2213/2215 18005KT",
          "offset_h": 19,
          "wdir": 180,
          "wspd": 5
        },
        {
          "text": "BECMG 2215/2217 5000 HZ",
          "offset_h": 21,
          "wdir": null,
          "wspd": null
        }
      ],
      "metar_raw": "METAR WIII 211800Z 23007KT 5000 HZ FEW018CB SCT019 27/25 Q1010 NOSIG RMK CB TO NE",
      "metar_wdir": 230,
      "metar_wspd": 7,
      "metar_oat": 27,
      "metar_qnh": 1010,
      "hourly_oat": [
        24,
        24,
        24,
        24,
        24,
        24,
        24,
        26,
        28,
        30,
        31,
        32,
        33,
        32,
        29,
        29,
        28,
        28,
        28,
        27,
        27,
        27,
        26,
        26,
        26
      ]
    },
    "KUL": {
      "icao": "WMKK",
      "issued": "2026-05-21T17:00:00.000Z",
      "raw": "TAF WMKK 211700Z 2118/2300 29005KT 9999 FEW020",
      "groups": [
        {
          "text": "TAF WMKK 211700Z 2118/2300 29005KT 9999 FEW020",
          "offset_h": 0,
          "wdir": 290,
          "wspd": 5
        }
      ],
      "metar_raw": "METAR WMKK 211800Z 00000KT 9999 FEW030 27/25 Q1009 NOSIG",
      "metar_wdir": 0,
      "metar_wspd": 0,
      "metar_oat": 27,
      "metar_qnh": 1009,
      "hourly_oat": [
        26,
        25,
        25,
        25,
        25,
        25,
        26,
        28,
        30,
        30,
        31,
        32,
        32,
        31,
        30,
        30,
        29,
        28,
        27,
        26,
        26,
        26,
        26,
        26,
        26
      ]
    },
    "HAN": {
      "icao": "VVNB",
      "issued": "2026-05-21T17:00:00.000Z",
      "raw": "TAF VVNB 211700Z 2118/2218 16008KT 6000 SCT020 TEMPO 2209/2215 3500 TSRA SCT010 FEW027CB",
      "groups": [
        {
          "text": "TAF VVNB 211700Z 2118/2218 16008KT 6000 SCT020",
          "offset_h": 0,
          "wdir": 160,
          "wspd": 8
        },
        {
          "text": "TEMPO 2209/2215 3500 TSRA SCT010 FEW027CB",
          "offset_h": 15,
          "wdir": null,
          "wspd": null
        }
      ],
      "metar_raw": "METAR VVNB 211800Z 14006KT 9999 FEW009 29/28 Q1006 NOSIG",
      "metar_wdir": 140,
      "metar_wspd": 6,
      "metar_oat": 29,
      "metar_qnh": 1006,
      "hourly_oat": [
        27,
        26,
        26,
        26,
        27,
        27,
        27,
        28,
        30,
        32,
        33,
        33,
        33,
        33,
        33,
        33,
        32,
        31,
        30,
        30,
        29,
        29,
        29,
        29,
        29
      ]
    },
    "SGN": {
      "icao": "VVTS",
      "issued": "2026-05-21T17:00:00.000Z",
      "raw": "TAF VVTS 211700Z 2118/2224 VRB03KT 9999 SCT017 BECMG 2200/2201 20010KT TEMPO 2206/2210 5000 TSRA BKN015 FEW017CB",
      "groups": [
        {
          "text": "TAF VVTS 211700Z 2118/2224 VRB03KT 9999 SCT017",
          "offset_h": 0,
          "wdir": "VRB",
          "wspd": 3
        },
        {
          "text": "BECMG 2200/2201 20010KT",
          "offset_h": 6,
          "wdir": 200,
          "wspd": 10
        },
        {
          "text": "TEMPO 2206/2210 5000 TSRA BKN015 FEW017CB",
          "offset_h": 12,
          "wdir": null,
          "wspd": null
        }
      ],
      "metar_raw": "METAR VVTS 211800Z 22005KT 9999 BKN017 29/26 Q1010 NOSIG",
      "metar_wdir": 220,
      "metar_wspd": 5,
      "metar_oat": 29,
      "metar_qnh": 1010,
      "hourly_oat": [
        27,
        26,
        26,
        26,
        26,
        26,
        28,
        29,
        30,
        32,
        33,
        34,
        28,
        28,
        29,
        30,
        30,
        29,
        29,
        28,
        27,
        27,
        26,
        26,
        26
      ]
    },
    "TSA": {
      "icao": "RCSS",
      "issued": "2026-05-21T17:00:00.000Z",
      "raw": "TAF RCSS 211700Z 2118/2218 27005KT 9999 FEW015 BKN032 TEMPO 2118/2122 6000 -RA FEW010 BKN020 TEMPO 2203/2209 29010KT TEMPO 2212/2218 VRB05KT",
      "groups": [
        {
          "text": "TAF RCSS 211700Z 2118/2218 27005KT 9999 FEW015 BKN032",
          "offset_h": 0,
          "wdir": 270,
          "wspd": 5
        },
        {
          "text": "TEMPO 2118/2122 6000 -RA FEW010 BKN020",
          "offset_h": 0,
          "wdir": null,
          "wspd": null
        },
        {
          "text": "TEMPO 2203/2209 29010KT",
          "offset_h": 9,
          "wdir": 290,
          "wspd": 10
        },
        {
          "text": "TEMPO 2212/2218 VRB05KT",
          "offset_h": 18,
          "wdir": "VRB",
          "wspd": 5
        }
      ],
      "metar_raw": "METAR RCSS 211800Z VRB02KT 9999 FEW020 SCT090 BKN150 27/24 Q1010 NOSIG RMK A2984",
      "metar_wdir": "VRB",
      "metar_wspd": 2,
      "metar_oat": 27,
      "metar_qnh": 1010,
      "hourly_oat": [
        25,
        25,
        24,
        24,
        24,
        25,
        27,
        28,
        30,
        31,
        30,
        31,
        32,
        31,
        30,
        29,
        28,
        27,
        27,
        26,
        26,
        26,
        26,
        25,
        25
      ]
    },
    "PVG": {
      "icao": "ZSPD",
      "issued": "2026-05-21T15:11:00.000Z",
      "raw": "TAF ZSPD 211511Z 2118/2224 10004MPS 6000 BKN020 TX25/2206Z TN17/2121Z TN19/2221Z",
      "groups": [
        {
          "text": "TAF ZSPD 211511Z 2118/2224 10004MPS 6000 BKN020 TX25/2206Z TN17/2121Z TN19/2221Z",
          "offset_h": 0,
          "wdir": null,
          "wspd": null
        }
      ],
      "metar_raw": "METAR ZSPD 211800Z 07004MPS 020V090 9999 FEW040 19/15 Q1011 NOSIG",
      "metar_wdir": null,
      "metar_wspd": null,
      "metar_oat": 19,
      "metar_qnh": 1011,
      "hourly_oat": [
        18,
        18,
        18,
        18,
        19,
        20,
        20,
        21,
        22,
        22,
        23,
        23,
        22,
        22,
        22,
        21,
        21,
        20,
        20,
        20,
        20,
        20,
        20,
        21,
        21
      ]
    },
    "DLC": {
      "icao": "ZYTL",
      "issued": "2026-05-21T15:10:00.000Z",
      "raw": "TAF ZYTL 211510Z 2118/2218 13004MPS 5000 BR FEW020 TX19/2206Z TN14/2120Z",
      "groups": [
        {
          "text": "TAF ZYTL 211510Z 2118/2218 13004MPS 5000 BR FEW020 TX19/2206Z TN14/2120Z",
          "offset_h": 0,
          "wdir": null,
          "wspd": null
        }
      ],
      "metar_raw": "METAR ZYTL 211800Z 11002MPS CAVOK 14/12 Q1012 NOSIG",
      "metar_wdir": null,
      "metar_wspd": null,
      "metar_oat": 14,
      "metar_qnh": 1012,
      "hourly_oat": [
        14,
        14,
        14,
        14,
        15,
        15,
        16,
        16,
        17,
        18,
        18,
        19,
        18,
        17,
        17,
        16,
        16,
        15,
        15,
        15,
        15,
        15,
        16,
        15,
        15
      ]
    },
    "PEK": {
      "icao": "ZBAA",
      "issued": "2026-05-21T15:06:00.000Z",
      "raw": "TAF ZBAA 211506Z 2118/2224 18004MPS 3500 BR NSC TX22/2207Z TN16/2121Z TN16/2221Z BECMG 2119/2120 2800 -RA BR TEMPO 2201/2203 RA BECMG 2206/2207 4000 BR",
      "groups": [
        {
          "text": "TAF ZBAA 211506Z 2118/2224 18004MPS 3500 BR NSC TX22/2207Z TN16/2121Z TN16/2221Z",
          "offset_h": 0,
          "wdir": null,
          "wspd": null
        },
        {
          "text": "BECMG 2119/2120 2800 -RA BR",
          "offset_h": 1,
          "wdir": null,
          "wspd": null
        },
        {
          "text": "TEMPO 2201/2203 RA",
          "offset_h": 7,
          "wdir": null,
          "wspd": null
        },
        {
          "text": "BECMG 2206/2207 4000 BR",
          "offset_h": 12,
          "wdir": null,
          "wspd": null
        }
      ],
      "metar_raw": "METAR ZBAA 211800Z VRB01MPS CAVOK 20/18 Q1008 NOSIG",
      "metar_wdir": null,
      "metar_wspd": null,
      "metar_oat": 20,
      "metar_qnh": 1008,
      "hourly_oat": [
        19,
        19,
        19,
        18,
        18,
        18,
        18,
        18,
        18,
        18,
        18,
        18,
        18,
        19,
        20,
        20,
        19,
        19,
        18,
        18,
        18,
        18,
        18,
        18,
        17
      ]
    },
    "CAN": {
      "icao": "ZGGG",
      "issued": "2026-05-21T15:06:00.000Z",
      "raw": "TAF ZGGG 211506Z 2118/2224 18003MPS 8000 BKN033 TX31/2207Z TN25/2122Z TN25/2222Z TEMPO 2122/2201 SHRA FEW026CB BKN030 TEMPO 2206/2210 TSRA SCT026CB BKN030",
      "groups": [
        {
          "text": "TAF ZGGG 211506Z 2118/2224 18003MPS 8000 BKN033 TX31/2207Z TN25/2122Z TN25/2222Z",
          "offset_h": 0,
          "wdir": null,
          "wspd": null
        },
        {
          "text": "TEMPO 2122/2201 SHRA FEW026CB BKN030",
          "offset_h": 4,
          "wdir": null,
          "wspd": null
        },
        {
          "text": "TEMPO 2206/2210 TSRA SCT026CB BKN030",
          "offset_h": 12,
          "wdir": null,
          "wspd": null
        }
      ],
      "metar_raw": "METAR ZGGG 211800Z 17002MPS 8000 -SHRA SCT010 FEW020CB BKN033 25/25 Q1010 NOSIG",
      "metar_wdir": null,
      "metar_wspd": null,
      "metar_oat": 25,
      "metar_qnh": 1010,
      "hourly_oat": [
        25,
        25,
        25,
        25,
        24,
        25,
        26,
        28,
        29,
        30,
        30,
        31,
        27,
        27,
        28,
        28,
        29,
        28,
        28,
        28,
        27,
        27,
        26,
        26,
        26
      ]
    },
    "SHA": {
      "icao": "ZSSS",
      "issued": "2026-05-21T15:05:00.000Z",
      "raw": "TAF ZSSS 211505Z 2118/2224 13004MPS 6000 BKN030 TX27/2206Z TN17/2121Z TN19/2221Z",
      "groups": [
        {
          "text": "TAF ZSSS 211505Z 2118/2224 13004MPS 6000 BKN030 TX27/2206Z TN17/2121Z TN19/2221Z",
          "offset_h": 0,
          "wdir": null,
          "wspd": null
        }
      ],
      "metar_raw": "METAR ZSSS 211800Z 12003MPS 090V150 9999 BKN033 20/16 Q1011 NOSIG",
      "metar_wdir": null,
      "metar_wspd": null,
      "metar_oat": 20,
      "metar_qnh": 1011,
      "hourly_oat": [
        18,
        18,
        18,
        18,
        18,
        19,
        21,
        22,
        24,
        25,
        26,
        27,
        26,
        26,
        25,
        24,
        23,
        22,
        21,
        21,
        21,
        21,
        21,
        21,
        21
      ]
    }
  }
}