{
  "updated": "2026-06-27T09:22:01Z",
  "tafs": {
    "LAX": {
      "icao": "KLAX",
      "issued": "2026-06-27T09:19:00.000Z",
      "raw": "TAF KLAX 270919Z 2709/2812 VRB03KT P6SM OVC025 FM271800 26010KT P6SM SCT025 FM272100 26015KT P6SM SKC FM280300 25008KT P6SM BKN025 FM280900 VRB03KT P6SM OVC015",
      "groups": [
        {
          "text": "TAF KLAX 270919Z 2709/2812 VRB03KT P6SM OVC025",
          "offset_h": 0,
          "wdir": "VRB",
          "wspd": 3
        },
        {
          "text": "FM271800 26010KT P6SM SCT025",
          "offset_h": 9,
          "wdir": 260,
          "wspd": 10
        },
        {
          "text": "FM272100 26015KT P6SM SKC",
          "offset_h": 12,
          "wdir": 260,
          "wspd": 15
        },
        {
          "text": "FM280300 25008KT P6SM BKN025",
          "offset_h": 18,
          "wdir": 250,
          "wspd": 8
        },
        {
          "text": "FM280900 VRB03KT P6SM OVC015",
          "offset_h": 24,
          "wdir": "VRB",
          "wspd": 3
        }
      ],
      "metar_raw": "METAR KLAX 270853Z 34004KT 10SM BKN021 18/14 A2994 RMK AO2 SLP135 T01780139 56008",
      "metar_wdir": 340,
      "metar_wspd": 4,
      "metar_oat": 18,
      "metar_qnh": 1014,
      "hourly_oat": [
        17,
        17,
        17,
        17,
        17,
        17,
        18,
        19,
        20,
        22,
        22,
        22,
        21,
        21,
        20,
        20,
        19,
        18,
        17,
        16,
        15,
        15,
        15,
        14,
        13
      ]
    },
    "TSA": {
      "icao": "RCSS",
      "issued": "2026-06-27T09:13:00.000Z",
      "raw": "TAF AMD RCSS 270913Z 2709/2806 09005KT 7000 FEW015 BKN032 TEMPO 2709/2712 12010KT 3200 TSRA FEW008 FEW012CB BKN014 TEMPO 2712/2716 5000 -RA BR FEW010 BKN020 BKN040 BECMG 2722/2724 29005KT TEMPO 2800/2806 4000 SHRA FEW010 FEW015CB BKN017",
      "groups": [
        {
          "text": "TAF AMD RCSS 270913Z 2709/2806 09005KT 7000 FEW015 BKN032",
          "offset_h": 0,
          "wdir": 90,
          "wspd": 5
        },
        {
          "text": "TEMPO 2709/2712 12010KT 3200 TSRA FEW008 FEW012CB BKN014",
          "offset_h": 0,
          "wdir": 120,
          "wspd": 10
        },
        {
          "text": "TEMPO 2712/2716 5000 -RA BR FEW010 BKN020 BKN040",
          "offset_h": 3,
          "wdir": null,
          "wspd": null
        },
        {
          "text": "BECMG 2722/2724 29005KT",
          "offset_h": 13,
          "wdir": 290,
          "wspd": 5
        },
        {
          "text": "TEMPO 2800/2806 4000 SHRA FEW010 FEW015CB BKN017",
          "offset_h": 15,
          "wdir": null,
          "wspd": null
        }
      ],
      "metar_raw": "SPECI RCSS 270916Z 12006KT 080V170 4000 -TSRA FEW006 FEW012CB SCT013 BKN028 25/25 Q1005 NOSIG RMK TS SE-S MOV NE A2970",
      "metar_wdir": 120,
      "metar_wspd": 6,
      "metar_oat": 25,
      "metar_qnh": 1005,
      "hourly_oat": [
        26,
        26,
        26,
        26,
        26,
        26,
        25,
        25,
        25,
        25,
        25,
        25,
        25,
        25,
        26,
        28,
        29,
        29,
        29,
        28,
        29,
        30,
        30,
        30,
        29
      ]
    },
    "HNL": {
      "icao": "PHNL",
      "issued": "2026-06-27T08:59:00.000Z",
      "raw": "TAF PHNL 270859Z 2709/2812 06012KT P6SM FEW025 BKN040 FM272000 06015G25KT P6SM FEW025 SCT040 FM280800 05010KT P6SM FEW025 SCT040",
      "groups": [
        {
          "text": "TAF PHNL 270859Z 2709/2812 06012KT P6SM FEW025 BKN040",
          "offset_h": 0,
          "wdir": 60,
          "wspd": 12
        },
        {
          "text": "FM272000 06015G25KT P6SM FEW025 SCT040",
          "offset_h": 11,
          "wdir": 60,
          "wspd": 15
        },
        {
          "text": "FM280800 05010KT P6SM FEW025 SCT040",
          "offset_h": 23,
          "wdir": 50,
          "wspd": 10
        }
      ],
      "metar_raw": "METAR PHNL 270853Z 08011G21KT 10SM FEW022 SCT037 BKN046 25/21 A3001 RMK AO2 SLP163 VCSH NE 60000 T02500206 53009 $",
      "metar_wdir": 80,
      "metar_wspd": 11,
      "metar_oat": 25,
      "metar_qnh": 1016,
      "hourly_oat": [
        23,
        23,
        23,
        23,
        23,
        23,
        23,
        23,
        24,
        25,
        26,
        27,
        28,
        29,
        29,
        30,
        29,
        28,
        27,
        26,
        25,
        24,
        24,
        24,
        24
      ]
    },
    "SAN": {
      "icao": "KSAN",
      "issued": "2026-06-27T08:41:00.000Z",
      "raw": "TAF KSAN 270841Z 2709/2812 VRB04KT P6SM BKN025 TEMPO 2713/2716 SCT030 FM271600 20006KT P6SM FEW030 FM271900 25010G18KT P6SM FEW030 FM280000 28008KT P6SM BKN028 FM280800 VRB05KT P6SM BKN030",
      "groups": [
        {
          "text": "TAF KSAN 270841Z 2709/2812 VRB04KT P6SM BKN025",
          "offset_h": 0,
          "wdir": "VRB",
          "wspd": 4
        },
        {
          "text": "TEMPO 2713/2716 SCT030",
          "offset_h": 4,
          "wdir": null,
          "wspd": null
        },
        {
          "text": "FM271600 20006KT P6SM FEW030",
          "offset_h": 7,
          "wdir": 200,
          "wspd": 6
        },
        {
          "text": "FM271900 25010G18KT P6SM FEW030",
          "offset_h": 10,
          "wdir": 250,
          "wspd": 10
        },
        {
          "text": "FM280000 28008KT P6SM BKN028",
          "offset_h": 15,
          "wdir": 280,
          "wspd": 8
        },
        {
          "text": "FM280800 VRB05KT P6SM BKN030",
          "offset_h": 23,
          "wdir": "VRB",
          "wspd": 5
        }
      ],
      "metar_raw": "METAR KSAN 270851Z 29004KT 10SM OVC024 18/13 A2997 RMK AO2 SLP147 T01830128 58006 $",
      "metar_wdir": 290,
      "metar_wspd": 4,
      "metar_oat": 18,
      "metar_qnh": 1015,
      "hourly_oat": [
        17,
        17,
        17,
        16,
        15,
        17,
        19,
        20,
        20,
        21,
        23,
        23,
        23,
        22,
        22,
        20,
        19,
        18,
        18,
        18,
        18,
        18,
        18,
        17,
        17
      ]
    },
    "HKG": {
      "icao": "VHHH",
      "issued": "2026-06-27T08:00:00.000Z",
      "raw": "TAF VHHH 270800Z 2709/2815 12010KT 9999 FEW010 SCT025 TX32/2806Z TN28/2722Z TEMPO 2709/2711 22010KT TEMPO 2711/2714 4000 SHRA FEW008CB SCT020 TEMPO 2718/2721 22010KT 4000 SHRA FEW010CB SCT020 TEMPO 2721/2803 22015G25KT 2500 TSRA SHRA FEW008CB SCT015 TEMPO 2803/2809 22010KT",
      "groups": [
        {
          "text": "TAF VHHH 270800Z 2709/2815 12010KT 9999 FEW010 SCT025 TX32/2806Z TN28/2722Z",
          "offset_h": 0,
          "wdir": 120,
          "wspd": 10
        },
        {
          "text": "TEMPO 2709/2711 22010KT",
          "offset_h": 0,
          "wdir": 220,
          "wspd": 10
        },
        {
          "text": "TEMPO 2711/2714 4000 SHRA FEW008CB SCT020",
          "offset_h": 2,
          "wdir": null,
          "wspd": null
        },
        {
          "text": "TEMPO 2718/2721 22010KT 4000 SHRA FEW010CB SCT020",
          "offset_h": 9,
          "wdir": 220,
          "wspd": 10
        },
        {
          "text": "TEMPO 2721/2803 22015G25KT 2500 TSRA SHRA FEW008CB SCT015",
          "offset_h": 12,
          "wdir": 220,
          "wspd": 15
        },
        {
          "text": "TEMPO 2803/2809 22010KT",
          "offset_h": 18,
          "wdir": 220,
          "wspd": 10
        }
      ],
      "metar_raw": "METAR VHHH 270900Z 09008KT 9999 FEW015 31/26 Q1002 NOSIG",
      "metar_wdir": 90,
      "metar_wspd": 8,
      "metar_oat": 31,
      "metar_qnh": 1002,
      "hourly_oat": [
        30,
        29,
        28,
        28,
        29,
        29,
        29,
        29,
        28,
        28,
        28,
        27,
        27,
        27,
        28,
        28,
        28,
        29,
        29,
        29,
        28,
        29,
        29,
        29,
        29
      ]
    },
    "KUL": {
      "icao": "WMKK",
      "issued": "2026-06-27T07:58:00.000Z",
      "raw": "TAF AMD WMKK 270758Z 2707/2812 VRB03KT 9999 FEW018",
      "groups": [
        {
          "text": "TAF AMD WMKK 270758Z 2707/2812 VRB03KT 9999 FEW018",
          "offset_h": -2,
          "wdir": "VRB",
          "wspd": 3
        }
      ],
      "metar_raw": "METAR WMKK 270900Z VRB03KT 9999 FEW018 33/22 Q1006 NOSIG",
      "metar_wdir": "VRB",
      "metar_wspd": 3,
      "metar_oat": 33,
      "metar_qnh": 1006,
      "hourly_oat": [
        31,
        30,
        29,
        27,
        27,
        26,
        26,
        25,
        25,
        25,
        25,
        24,
        23,
        24,
        24,
        24,
        25,
        26,
        28,
        30,
        30,
        31,
        31,
        30,
        30
      ]
    },
    "KIX": {
      "icao": "RJBB",
      "issued": "2026-06-27T07:41:00.000Z",
      "raw": "TAF AMD RJBB 270741Z 2707/2812 30006KT 9999 FEW030 SCT040 BECMG 2708/2710 03008KT BECMG 2809/2812 23004KT",
      "groups": [
        {
          "text": "TAF AMD RJBB 270741Z 2707/2812 30006KT 9999 FEW030 SCT040",
          "offset_h": -2,
          "wdir": 300,
          "wspd": 6
        },
        {
          "text": "BECMG 2708/2710 03008KT",
          "offset_h": -1,
          "wdir": 30,
          "wspd": 8
        },
        {
          "text": "BECMG 2809/2812 23004KT",
          "offset_h": 24,
          "wdir": 230,
          "wspd": 4
        }
      ],
      "metar_raw": "METAR RJBB 270900Z 04004KT 9999 FEW005 SCT015 BKN025 23/21 Q1003 NOSIG",
      "metar_wdir": 40,
      "metar_wspd": 4,
      "metar_oat": 23,
      "metar_qnh": 1003,
      "hourly_oat": [
        24,
        24,
        24,
        23,
        23,
        23,
        23,
        23,
        23,
        22,
        22,
        22,
        22,
        22,
        22,
        22,
        22,
        22,
        22,
        23,
        23,
        23,
        23,
        23,
        24
      ]
    },
    "OKA": {
      "icao": "ROAH",
      "issued": "2026-06-27T06:41:00.000Z",
      "raw": "TAF AMD ROAH 270641Z 2706/2812 03008KT 9999 FEW008 BKN012 TEMPO 2706/2708 4000 SHRA BR FEW005 BKN008 FEW020CB BECMG 2710/2712 10010KT TEMPO 2712/2718 FEW005 BKN008 BECMG 2713/2715 19010KT TEMPO 2718/2803 4000 SHRA BR FEW005 BKN008 FEW020CB TEMPO 2803/2806 4000 TSRA BR FEW005 BKN008 FEW020CB",
      "groups": [
        {
          "text": "TAF AMD ROAH 270641Z 2706/2812 03008KT 9999 FEW008 BKN012",
          "offset_h": -3,
          "wdir": 30,
          "wspd": 8
        },
        {
          "text": "TEMPO 2706/2708 4000 SHRA BR FEW005 BKN008 FEW020CB",
          "offset_h": -3,
          "wdir": null,
          "wspd": null
        },
        {
          "text": "BECMG 2710/2712 10010KT",
          "offset_h": 1,
          "wdir": 100,
          "wspd": 10
        },
        {
          "text": "TEMPO 2712/2718 FEW005 BKN008",
          "offset_h": 3,
          "wdir": null,
          "wspd": null
        },
        {
          "text": "BECMG 2713/2715 19010KT",
          "offset_h": 4,
          "wdir": 190,
          "wspd": 10
        },
        {
          "text": "TEMPO 2718/2803 4000 SHRA BR FEW005 BKN008 FEW020CB",
          "offset_h": 9,
          "wdir": null,
          "wspd": null
        },
        {
          "text": "TEMPO 2803/2806 4000 TSRA BR FEW005 BKN008 FEW020CB",
          "offset_h": 18,
          "wdir": null,
          "wspd": null
        }
      ],
      "metar_raw": "METAR ROAH 270900Z 02008KT 6000 -SHRA FEW003 SCT007 BKN014 25/25 Q1005",
      "metar_wdir": 20,
      "metar_wspd": 8,
      "metar_oat": 25,
      "metar_qnh": 1005,
      "hourly_oat": [
        27,
        26,
        25,
        25,
        25,
        26,
        26,
        26,
        26,
        26,
        26,
        26,
        26,
        27,
        28,
        28,
        28,
        28,
        29,
        28,
        26,
        26,
        26,
        27,
        27
      ]
    },
    "NGO": {
      "icao": "RJGG",
      "issued": "2026-06-27T06:16:00.000Z",
      "raw": "TAF AMD RJGG 270616Z 2706/2812 30012KT 9999 FEW020 BKN040 BECMG 2800/2803 14006KT",
      "groups": [
        {
          "text": "TAF AMD RJGG 270616Z 2706/2812 30012KT 9999 FEW020 BKN040",
          "offset_h": -3,
          "wdir": 300,
          "wspd": 12
        },
        {
          "text": "BECMG 2800/2803 14006KT",
          "offset_h": 15,
          "wdir": 140,
          "wspd": 6
        }
      ],
      "metar_raw": "METAR RJGG 270900Z 24005KT 9999 FEW010 SCT030 BKN040 22/22 Q1001 NOSIG",
      "metar_wdir": 240,
      "metar_wspd": 5,
      "metar_oat": 22,
      "metar_qnh": 1001,
      "hourly_oat": [
        24,
        24,
        24,
        24,
        24,
        24,
        24,
        24,
        24,
        23,
        23,
        23,
        23,
        23,
        23,
        23,
        23,
        23,
        23,
        24,
        24,
        25,
        25,
        25,
        24
      ]
    },
    "TPE": {
      "icao": "RCTP",
      "issued": "2026-06-27T05:45:00.000Z",
      "raw": "TAF COR RCTP 270545Z 2706/2812 33005KT 7000 FEW010 BKN022 BKN040 TEMPO 2706/2712 26010KT 3200 SHRA FEW008 FEW010CB BKN012 BECMG 2712/2714 07005KT TEMPO 2712/2716 5000 -RA BR SCT008 BKN014 TEMPO 2716/2722 14005KT FEW015 BKN032 TEMPO 2722/2804 22010KT 4000 SHRA FEW008 FEW010CB BKN012 BECMG 2804/2806 27005KT 9999 FEW015 BKN032 TEMPO 2806/2812 33008KT 6000 -SHRA FEW010 BKN017",
      "groups": [
        {
          "text": "TAF COR RCTP 270545Z 2706/2812 33005KT 7000 FEW010 BKN022 BKN040",
          "offset_h": -3,
          "wdir": 330,
          "wspd": 5
        },
        {
          "text": "TEMPO 2706/2712 26010KT 3200 SHRA FEW008 FEW010CB BKN012",
          "offset_h": -3,
          "wdir": 260,
          "wspd": 10
        },
        {
          "text": "BECMG 2712/2714 07005KT",
          "offset_h": 3,
          "wdir": 70,
          "wspd": 5
        },
        {
          "text": "TEMPO 2712/2716 5000 -RA BR SCT008 BKN014",
          "offset_h": 3,
          "wdir": null,
          "wspd": null
        },
        {
          "text": "TEMPO 2716/2722 14005KT FEW015 BKN032",
          "offset_h": 7,
          "wdir": 140,
          "wspd": 5
        },
        {
          "text": "TEMPO 2722/2804 22010KT 4000 SHRA FEW008 FEW010CB BKN012",
          "offset_h": 13,
          "wdir": 220,
          "wspd": 10
        },
        {
          "text": "BECMG 2804/2806 27005KT 9999 FEW015 BKN032",
          "offset_h": 19,
          "wdir": 270,
          "wspd": 5
        },
        {
          "text": "TEMPO 2806/2812 33008KT 6000 -SHRA FEW010 BKN017",
          "offset_h": 21,
          "wdir": 330,
          "wspd": 8
        }
      ],
      "metar_raw": "METAR RCTP 270900Z 01004KT 9999 FEW005 SCT016 BKN032 28/26 Q1005 NOSIG RMK A2969",
      "metar_wdir": 10,
      "metar_wspd": 4,
      "metar_oat": 28,
      "metar_qnh": 1005,
      "hourly_oat": [
        27,
        26,
        26,
        26,
        25,
        24,
        24,
        24,
        24,
        24,
        24,
        24,
        24,
        24,
        26,
        27,
        28,
        28,
        27,
        27,
        27,
        28,
        28,
        28,
        28
      ]
    },
    "DLC": {
      "icao": "ZYTL",
      "issued": "2026-06-27T05:09:00.000Z",
      "raw": "TAF AMD ZYTL 270509Z 2700/2724 16005MPS 6000 FEW030 TX28/2706Z TN20/2721Z BECMG 2709/2710 22004MPS",
      "groups": [
        {
          "text": "TAF AMD ZYTL 270509Z 2700/2724 16005MPS 6000 FEW030 TX28/2706Z TN20/2721Z",
          "offset_h": -9,
          "wdir": null,
          "wspd": null
        },
        {
          "text": "BECMG 2709/2710 22004MPS",
          "offset_h": 0,
          "wdir": null,
          "wspd": null
        }
      ],
      "metar_raw": "METAR ZYTL 270900Z 15005MPS CAVOK 28/11 Q1004 NOSIG",
      "metar_wdir": null,
      "metar_wspd": null,
      "metar_oat": 28,
      "metar_qnh": 1004,
      "hourly_oat": [
        29,
        28,
        26,
        24,
        23,
        23,
        23,
        22,
        22,
        22,
        22,
        21,
        21,
        22,
        24,
        25,
        27,
        27,
        28,
        29,
        29,
        29,
        29,
        28,
        27
      ]
    },
    "NRT": {
      "icao": "RJAA",
      "issued": "2026-06-27T05:05:00.000Z",
      "raw": "TAF RJAA 270505Z 2706/2812 10010KT 9999 FEW005 BKN012 TEMPO 2706/2709 1200 +SHRA BR FEW001 BKN003 BECMG 2708/2710 34012KT TEMPO 2709/2711 02015G25KT 1200 +SHRA BR FEW001 BKN003 TEMPO 2711/2713 36015G25KT 4000 -SHRA BR FEW001 BKN003 BECMG 2718/2721 09008KT TEMPO 2806/2812 FEW001 BKN005",
      "groups": [
        {
          "text": "TAF RJAA 270505Z 2706/2812 10010KT 9999 FEW005 BKN012",
          "offset_h": -3,
          "wdir": 100,
          "wspd": 10
        },
        {
          "text": "TEMPO 2706/2709 1200 +SHRA BR FEW001 BKN003",
          "offset_h": -3,
          "wdir": null,
          "wspd": null
        },
        {
          "text": "BECMG 2708/2710 34012KT",
          "offset_h": -1,
          "wdir": 340,
          "wspd": 12
        },
        {
          "text": "TEMPO 2709/2711 02015G25KT 1200 +SHRA BR FEW001 BKN003",
          "offset_h": 0,
          "wdir": 20,
          "wspd": 15
        },
        {
          "text": "TEMPO 2711/2713 36015G25KT 4000 -SHRA BR FEW001 BKN003",
          "offset_h": 2,
          "wdir": 360,
          "wspd": 15
        },
        {
          "text": "BECMG 2718/2721 09008KT",
          "offset_h": 9,
          "wdir": 90,
          "wspd": 8
        },
        {
          "text": "TEMPO 2806/2812 FEW001 BKN005",
          "offset_h": 21,
          "wdir": null,
          "wspd": null
        }
      ],
      "metar_raw": "METAR RJAA 270900Z 04010KT 4000 SHRA BR FEW002 BKN004 22/21 Q0998 TEMPO 3000 SHRA BR",
      "metar_wdir": 40,
      "metar_wspd": 10,
      "metar_oat": 22,
      "metar_qnh": 998,
      "hourly_oat": [
        23,
        23,
        22,
        21,
        21,
        21,
        21,
        21,
        20,
        20,
        20,
        20,
        20,
        20,
        20,
        21,
        21,
        21,
        20,
        20,
        20,
        20,
        20,
        20,
        20
      ]
    },
    "CTS": {
      "icao": "RJCC",
      "issued": "2026-06-27T05:05:00.000Z",
      "raw": "TAF RJCC 270505Z 2706/2812 35016KT 9999 FEW005 BKN020 TEMPO 2712/2721 FEW003 BKN008",
      "groups": [
        {
          "text": "TAF RJCC 270505Z 2706/2812 35016KT 9999 FEW005 BKN020",
          "offset_h": -3,
          "wdir": 350,
          "wspd": 16
        },
        {
          "text": "TEMPO 2712/2721 FEW003 BKN008",
          "offset_h": 3,
          "wdir": null,
          "wspd": null
        }
      ],
      "metar_raw": "METAR RJCC 270900Z 36013KT 9999 FEW020 20/17 Q1001",
      "metar_wdir": 360,
      "metar_wspd": 13,
      "metar_oat": 20,
      "metar_qnh": 1001,
      "hourly_oat": [
        19,
        17,
        16,
        16,
        16,
        16,
        16,
        16,
        16,
        16,
        16,
        16,
        17,
        18,
        18,
        19,
        21,
        21,
        22,
        22,
        21,
        20,
        19,
        18,
        17
      ]
    },
    "FUK": {
      "icao": "RJFF",
      "issued": "2026-06-27T05:05:00.000Z",
      "raw": "TAF RJFF 270505Z 2706/2812 34011KT 9999 FEW015 BKN025",
      "groups": [
        {
          "text": "TAF RJFF 270505Z 2706/2812 34011KT 9999 FEW015 BKN025",
          "offset_h": -3,
          "wdir": 340,
          "wspd": 11
        }
      ],
      "metar_raw": "METAR RJFF 270900Z 36008KT 9999 FEW015 SCT020 BKN030 23/19 Q1004 NOSIG",
      "metar_wdir": 360,
      "metar_wspd": 8,
      "metar_oat": 23,
      "metar_qnh": 1004,
      "hourly_oat": [
        23,
        23,
        22,
        22,
        22,
        22,
        22,
        21,
        21,
        21,
        21,
        21,
        21,
        22,
        22,
        23,
        23,
        24,
        24,
        24,
        24,
        24,
        24,
        23,
        23
      ]
    },
    "ITM": {
      "icao": "RJOO",
      "issued": "2026-06-27T05:05:00.000Z",
      "raw": "TAF RJOO 270505Z 2706/2812 34012KT 9999 FEW020 SCT030 BECMG 2800/2803 08006KT BECMG 2806/2809 31006KT",
      "groups": [
        {
          "text": "TAF RJOO 270505Z 2706/2812 34012KT 9999 FEW020 SCT030",
          "offset_h": -3,
          "wdir": 340,
          "wspd": 12
        },
        {
          "text": "BECMG 2800/2803 08006KT",
          "offset_h": 15,
          "wdir": 80,
          "wspd": 6
        },
        {
          "text": "BECMG 2806/2809 31006KT",
          "offset_h": 21,
          "wdir": 310,
          "wspd": 6
        }
      ],
      "metar_raw": "METAR RJOO 270900Z 33012KT 9999 FEW010 SCT025 BKN035 24/20 Q1003",
      "metar_wdir": 330,
      "metar_wspd": 12,
      "metar_oat": 24,
      "metar_qnh": 1003,
      "hourly_oat": [
        24,
        23,
        22,
        22,
        22,
        22,
        22,
        21,
        20,
        20,
        20,
        20,
        20,
        21,
        21,
        22,
        24,
        25,
        25,
        26,
        27,
        27,
        27,
        27,
        27
      ]
    },
    "HND": {
      "icao": "RJTT",
      "issued": "2026-06-27T05:05:00.000Z",
      "raw": "TAF RJTT 270505Z 2706/2812 02012KT 6000 -SHRA FEW005 BKN012 TEMPO 2706/2710 2000 SHRA BR FEW002 BKN003 TEMPO 2710/2712 4000 -SHRA BR FEW003 BKN005 BECMG 2715/2717 08008KT",
      "groups": [
        {
          "text": "TAF RJTT 270505Z 2706/2812 02012KT 6000 -SHRA FEW005 BKN012",
          "offset_h": -3,
          "wdir": 20,
          "wspd": 12
        },
        {
          "text": "TEMPO 2706/2710 2000 SHRA BR FEW002 BKN003",
          "offset_h": -3,
          "wdir": null,
          "wspd": null
        },
        {
          "text": "TEMPO 2710/2712 4000 -SHRA BR FEW003 BKN005",
          "offset_h": 1,
          "wdir": null,
          "wspd": null
        },
        {
          "text": "BECMG 2715/2717 08008KT",
          "offset_h": 6,
          "wdir": 80,
          "wspd": 8
        }
      ],
      "metar_raw": "METAR RJTT 270900Z 02010KT 6000 -SHRA FEW004 BKN008 BKN010 23/22 Q0999 TEMPO 3000 SHRA BR FEW003 BKN005",
      "metar_wdir": 20,
      "metar_wspd": 10,
      "metar_oat": 23,
      "metar_qnh": 999,
      "hourly_oat": [
        23,
        23,
        23,
        23,
        23,
        23,
        22,
        22,
        22,
        22,
        22,
        22,
        22,
        23,
        23,
        23,
        23,
        22,
        22,
        22,
        22,
        22,
        22,
        22,
        21
      ]
    },
    "GMP": {
      "icao": "RKSS",
      "issued": "2026-06-27T05:00:00.000Z",
      "raw": "TAF RKSS 270500Z 2706/2812 32006KT CAVOK TN20/2720Z TX32/2805Z BECMG 2711/2713 19005KT 6000 NSC BECMG 2800/2802 27006KT 9999 SCT040",
      "groups": [
        {
          "text": "TAF RKSS 270500Z 2706/2812 32006KT CAVOK TN20/2720Z TX32/2805Z",
          "offset_h": -3,
          "wdir": 320,
          "wspd": 6
        },
        {
          "text": "BECMG 2711/2713 19005KT 6000 NSC",
          "offset_h": 2,
          "wdir": 190,
          "wspd": 5
        },
        {
          "text": "BECMG 2800/2802 27006KT 9999 SCT040",
          "offset_h": 15,
          "wdir": 270,
          "wspd": 6
        }
      ],
      "metar_raw": "METAR RKSS 270900Z 28008KT CAVOK 30/20 Q1004 NOSIG",
      "metar_wdir": 280,
      "metar_wspd": 8,
      "metar_oat": 30,
      "metar_qnh": 1004,
      "hourly_oat": [
        26,
        25,
        23,
        22,
        22,
        22,
        21,
        21,
        20,
        20,
        20,
        19,
        19,
        20,
        22,
        24,
        26,
        28,
        29,
        30,
        30,
        29,
        28,
        28,
        26
      ]
    },
    "BKK": {
      "icao": "VTBS",
      "issued": "2026-06-27T05:00:00.000Z",
      "raw": "TAF VTBS 270500Z 2706/2812 22008KT 9999 FEW020 TEMPO 2712/2716 VRB15KT 4000 TSRA FEW018CB SCT030 BKN100",
      "groups": [
        {
          "text": "TAF VTBS 270500Z 2706/2812 22008KT 9999 FEW020",
          "offset_h": -3,
          "wdir": 220,
          "wspd": 8
        },
        {
          "text": "TEMPO 2712/2716 VRB15KT 4000 TSRA FEW018CB SCT030 BKN100",
          "offset_h": 3,
          "wdir": "VRB",
          "wspd": 15
        }
      ],
      "metar_raw": "METAR VTBS 270900Z 18013KT 9999 FEW030 33/23 Q1005 NOSIG",
      "metar_wdir": 180,
      "metar_wspd": 13,
      "metar_oat": 33,
      "metar_qnh": 1005,
      "hourly_oat": [
        32,
        30,
        30,
        29,
        29,
        29,
        29,
        28,
        28,
        28,
        28,
        27,
        27,
        26,
        26,
        27,
        29,
        30,
        32,
        33,
        34,
        31,
        31,
        30,
        30
      ]
    },
    "CGK": {
      "icao": "WIII",
      "issued": "2026-06-27T05:00:00.000Z",
      "raw": "TAF WIII 270500Z 2706/2812 08012KT 5000 HZ SCT020 BECMG 2713/2715 17005KT BECMG 2801/2803 05011KT",
      "groups": [
        {
          "text": "TAF WIII 270500Z 2706/2812 08012KT 5000 HZ SCT020",
          "offset_h": -3,
          "wdir": 80,
          "wspd": 12
        },
        {
          "text": "BECMG 2713/2715 17005KT",
          "offset_h": 4,
          "wdir": 170,
          "wspd": 5
        },
        {
          "text": "BECMG 2801/2803 05011KT",
          "offset_h": 16,
          "wdir": 50,
          "wspd": 11
        }
      ],
      "metar_raw": "METAR WIII 270900Z 04008KT 5000 HZ FEW020 31/25 Q1007 NOSIG",
      "metar_wdir": 40,
      "metar_wspd": 8,
      "metar_oat": 31,
      "metar_qnh": 1007,
      "hourly_oat": [
        30,
        29,
        28,
        27,
        26,
        26,
        26,
        25,
        25,
        25,
        25,
        24,
        24,
        24,
        24,
        25,
        27,
        29,
        30,
        32,
        33,
        33,
        33,
        32,
        30
      ]
    },
    "SIN": {
      "icao": "WSSS",
      "issued": "2026-06-27T05:00:00.000Z",
      "raw": "TAF WSSS 270500Z 2706/2812 17007KT 9999 FEW015 SCT020",
      "groups": [
        {
          "text": "TAF WSSS 270500Z 2706/2812 17007KT 9999 FEW015 SCT020",
          "offset_h": -3,
          "wdir": 170,
          "wspd": 7
        }
      ],
      "metar_raw": "METAR WSSS 270900Z 19009KT 9999 FEW020TCU BKN300 32/23 Q1007 NOSIG",
      "metar_wdir": 190,
      "metar_wspd": 9,
      "metar_oat": 32,
      "metar_qnh": 1007,
      "hourly_oat": [
        31,
        31,
        30,
        29,
        29,
        28,
        28,
        28,
        28,
        28,
        27,
        27,
        27,
        27,
        27,
        28,
        29,
        30,
        30,
        31,
        30,
        31,
        30,
        29,
        29
      ]
    },
    "HAN": {
      "icao": "VVNB",
      "issued": "2026-06-27T05:00:00.000Z",
      "raw": "TAF VVNB 270500Z 2706/2806 32006KT 6000 SCT015 BKN030 TEMPO 2706/2710 4000 SHRA SCT010 FEW025TCU BKN030 TEMPO 2712/2717 4000 SHRA SCT010 FEW025TCU BKN030 TEMPO 2718/2723 32015G25KT 2500 +TSRA BKN010 SCT027CB BKN030",
      "groups": [
        {
          "text": "TAF VVNB 270500Z 2706/2806 32006KT 6000 SCT015 BKN030",
          "offset_h": -3,
          "wdir": 320,
          "wspd": 6
        },
        {
          "text": "TEMPO 2706/2710 4000 SHRA SCT010 FEW025TCU BKN030",
          "offset_h": -3,
          "wdir": null,
          "wspd": null
        },
        {
          "text": "TEMPO 2712/2717 4000 SHRA SCT010 FEW025TCU BKN030",
          "offset_h": 3,
          "wdir": null,
          "wspd": null
        },
        {
          "text": "TEMPO 2718/2723 32015G25KT 2500 +TSRA BKN010 SCT027CB BKN030",
          "offset_h": 9,
          "wdir": 320,
          "wspd": 15
        }
      ],
      "metar_raw": "METAR VVNB 270900Z 33004KT 300V020 CAVOK 33/26 Q1001 NOSIG",
      "metar_wdir": 330,
      "metar_wspd": 4,
      "metar_oat": 33,
      "metar_qnh": 1001,
      "hourly_oat": [
        31,
        30,
        30,
        29,
        29,
        28,
        28,
        28,
        28,
        26,
        26,
        26,
        26,
        26,
        26,
        26,
        26,
        27,
        29,
        30,
        31,
        32,
        32,
        33,
        33
      ]
    },
    "SGN": {
      "icao": "VVTS",
      "issued": "2026-06-27T05:00:00.000Z",
      "raw": "TAF VVTS 270500Z 2706/2812 26010KT 9999 SCT017 TEMPO 2707/2710 26015G28KT 3500 TSRA BKN015 SCT017CB TEMPO 2710/2713 5000 TSRA SCT015 FEW017CB",
      "groups": [
        {
          "text": "TAF VVTS 270500Z 2706/2812 26010KT 9999 SCT017",
          "offset_h": -3,
          "wdir": 260,
          "wspd": 10
        },
        {
          "text": "TEMPO 2707/2710 26015G28KT 3500 TSRA BKN015 SCT017CB",
          "offset_h": -2,
          "wdir": 260,
          "wspd": 15
        },
        {
          "text": "TEMPO 2710/2713 5000 TSRA SCT015 FEW017CB",
          "offset_h": 1,
          "wdir": null,
          "wspd": null
        }
      ],
      "metar_raw": "METAR VVTS 270900Z 25012KT 9999 -RA SCT023 FEW028CB BKN041 33/24 Q1005 NOSIG",
      "metar_wdir": 250,
      "metar_wspd": 12,
      "metar_oat": 33,
      "metar_qnh": 1005,
      "hourly_oat": [
        28,
        28,
        28,
        27,
        27,
        27,
        26,
        26,
        26,
        26,
        26,
        26,
        26,
        25,
        26,
        27,
        29,
        30,
        31,
        33,
        32,
        29,
        27,
        28,
        28
      ]
    },
    "CAN": {
      "icao": "ZGGG",
      "issued": "2026-06-27T03:05:00.000Z",
      "raw": "TAF ZGGG 270305Z 2706/2812 14003MPS 8000 BKN033 TX34/2707Z TX33/2807Z TN26/2722Z TEMPO 2707/2711 TSRA SCT010 SCT026CB BKN033 TEMPO 2717/2721 SHRA FEW026CB BKN033 TEMPO 2802/2806 TSRA SCT010 SCT026CB BKN033",
      "groups": [
        {
          "text": "TAF ZGGG 270305Z 2706/2812 14003MPS 8000 BKN033 TX34/2707Z TX33/2807Z TN26/2722Z",
          "offset_h": -3,
          "wdir": null,
          "wspd": null
        },
        {
          "text": "TEMPO 2707/2711 TSRA SCT010 SCT026CB BKN033",
          "offset_h": -2,
          "wdir": null,
          "wspd": null
        },
        {
          "text": "TEMPO 2717/2721 SHRA FEW026CB BKN033",
          "offset_h": 8,
          "wdir": null,
          "wspd": null
        },
        {
          "text": "TEMPO 2802/2806 TSRA SCT010 SCT026CB BKN033",
          "offset_h": 17,
          "wdir": null,
          "wspd": null
        }
      ],
      "metar_raw": "METAR ZGGG 270900Z 22003MPS 180V250 9999 BKN036 33/25 Q1001 NOSIG",
      "metar_wdir": null,
      "metar_wspd": null,
      "metar_oat": 33,
      "metar_qnh": 1001,
      "hourly_oat": [
        27,
        27,
        27,
        27,
        26,
        26,
        26,
        26,
        25,
        25,
        25,
        25,
        25,
        25,
        26,
        26,
        27,
        28,
        29,
        31,
        28,
        28,
        29,
        30,
        30
      ]
    },
    "SHA": {
      "icao": "ZSSS",
      "issued": "2026-06-27T03:02:00.000Z",
      "raw": "TAF ZSSS 270302Z 2706/2812 13004MPS 8000 BKN020 TX30/2706Z TX31/2806Z TN22/2721Z",
      "groups": [
        {
          "text": "TAF ZSSS 270302Z 2706/2812 13004MPS 8000 BKN020 TX30/2706Z TX31/2806Z TN22/2721Z",
          "offset_h": -3,
          "wdir": null,
          "wspd": null
        }
      ],
      "metar_raw": "METAR ZSSS 270900Z 13004MPS 100V170 9999 BKN033 27/20 Q1005 NOSIG",
      "metar_wdir": null,
      "metar_wspd": null,
      "metar_oat": 27,
      "metar_qnh": 1005,
      "hourly_oat": [
        26,
        25,
        24,
        24,
        23,
        23,
        23,
        22,
        22,
        22,
        23,
        23,
        23,
        23,
        25,
        26,
        27,
        28,
        29,
        29,
        29,
        29,
        29,
        28,
        27
      ]
    },
    "PVG": {
      "icao": "ZSPD",
      "issued": "2026-06-27T03:02:00.000Z",
      "raw": "TAF ZSPD 270302Z 2706/2812 13004MPS 8000 BKN020 TX28/2706Z TX28/2806Z TN21/2721Z",
      "groups": [
        {
          "text": "TAF ZSPD 270302Z 2706/2812 13004MPS 8000 BKN020 TX28/2706Z TX28/2806Z TN21/2721Z",
          "offset_h": -3,
          "wdir": null,
          "wspd": null
        }
      ],
      "metar_raw": "METAR ZSPD 270900Z 12005MPS 090V150 9999 SCT033 26/20 Q1006 NOSIG",
      "metar_wdir": null,
      "metar_wspd": null,
      "metar_oat": 26,
      "metar_qnh": 1006,
      "hourly_oat": [
        24,
        24,
        23,
        23,
        23,
        22,
        22,
        22,
        22,
        22,
        22,
        22,
        23,
        24,
        25,
        26,
        27,
        28,
        28,
        28,
        28,
        28,
        27,
        27,
        26
      ]
    },
    "PEK": {
      "icao": "ZBAA",
      "issued": "2026-06-27T03:01:00.000Z",
      "raw": "TAF ZBAA 270301Z 2706/2812 18003MPS CAVOK TX35/2706Z TX31/2806Z TN20/2721Z TEMPO 2711/2713 -TSRA FEW030CB BKN040 TEMPO 2810/2812 -TSRA FEW030CB BKN040",
      "groups": [
        {
          "text": "TAF ZBAA 270301Z 2706/2812 18003MPS CAVOK TX35/2706Z TX31/2806Z TN20/2721Z",
          "offset_h": -3,
          "wdir": null,
          "wspd": null
        },
        {
          "text": "TEMPO 2711/2713 -TSRA FEW030CB BKN040",
          "offset_h": 2,
          "wdir": null,
          "wspd": null
        },
        {
          "text": "TEMPO 2810/2812 -TSRA FEW030CB BKN040",
          "offset_h": 25,
          "wdir": null,
          "wspd": null
        }
      ],
      "metar_raw": "METAR ZBAA 270900Z 15003MPS 120V190 CAVOK 32/15 Q1001 NOSIG",
      "metar_wdir": null,
      "metar_wspd": null,
      "metar_oat": 32,
      "metar_qnh": 1001,
      "hourly_oat": [
        35,
        33,
        30,
        28,
        26,
        25,
        25,
        24,
        23,
        22,
        22,
        22,
        22,
        22,
        24,
        25,
        27,
        29,
        30,
        31,
        32,
        31,
        30,
        23,
        23
      ]
    }
  }
}