{
  "updated": "2026-07-01T11:16:16Z",
  "tafs": {
    "GMP": {
      "icao": "RKSS",
      "issued": "2026-07-01T11:00:00.000Z",
      "raw": "TAF RKSS 011100Z 0112/0218 35006KT 6000 SCT040 TN22/0120Z TX31/0205Z BECMG 0118/0120 16005KT BECMG 0201/0203 25007KT 9999 TEMPO 0206/0208 28007KT 6000 -SHRA FEW010CB BKN025 OVC070 BECMG 0211/0213 17005KT",
      "groups": [
        {
          "text": "TAF RKSS 011100Z 0112/0218 35006KT 6000 SCT040 TN22/0120Z TX31/0205Z",
          "offset_h": 1,
          "wdir": 350,
          "wspd": 6
        },
        {
          "text": "BECMG 0118/0120 16005KT",
          "offset_h": 7,
          "wdir": 160,
          "wspd": 5
        },
        {
          "text": "BECMG 0201/0203 25007KT 9999",
          "offset_h": 14,
          "wdir": 250,
          "wspd": 7
        },
        {
          "text": "TEMPO 0206/0208 28007KT 6000 -SHRA FEW010CB BKN025 OVC070",
          "offset_h": 19,
          "wdir": 280,
          "wspd": 7
        },
        {
          "text": "BECMG 0211/0213 17005KT",
          "offset_h": 24,
          "wdir": 170,
          "wspd": 5
        }
      ],
      "metar_raw": "METAR RKSS 011100Z 32007KT CAVOK 24/22 Q1006 NOSIG",
      "metar_wdir": 320,
      "metar_wspd": 7,
      "metar_oat": 24,
      "metar_qnh": 1006,
      "hourly_oat": [
        25,
        24,
        24,
        24,
        23,
        22,
        22,
        22,
        22,
        21,
        21,
        22,
        22,
        23,
        24,
        24,
        26,
        27,
        27,
        27,
        26,
        26,
        25,
        24,
        23
      ]
    },
    "CGK": {
      "icao": "WIII",
      "issued": "2026-07-01T11:00:00.000Z",
      "raw": "TAF WIII 011100Z 0112/0218 35010KT 7000 SCT020 BECMG 0113/0115 VRB02KT 5000 HZ BECMG 0118/0120 3000 BR BECMG 0201/0203 01010KT 7000 NSW",
      "groups": [
        {
          "text": "TAF WIII 011100Z 0112/0218 35010KT 7000 SCT020",
          "offset_h": 1,
          "wdir": 350,
          "wspd": 10
        },
        {
          "text": "BECMG 0113/0115 VRB02KT 5000 HZ",
          "offset_h": 2,
          "wdir": "VRB",
          "wspd": 2
        },
        {
          "text": "BECMG 0118/0120 3000 BR",
          "offset_h": 7,
          "wdir": null,
          "wspd": null
        },
        {
          "text": "BECMG 0201/0203 01010KT 7000 NSW",
          "offset_h": 14,
          "wdir": 10,
          "wspd": 10
        }
      ],
      "metar_raw": "METAR WIII 011100Z 36006KT 6000 NSC 29/22 Q1008 NOSIG",
      "metar_wdir": 360,
      "metar_wspd": 6,
      "metar_oat": 29,
      "metar_qnh": 1008,
      "hourly_oat": [
        29,
        29,
        28,
        28,
        28,
        27,
        27,
        26,
        26,
        25,
        25,
        24,
        24,
        25,
        27,
        29,
        31,
        32,
        33,
        34,
        33,
        32,
        30,
        29,
        28
      ]
    },
    "TSA": {
      "icao": "RCSS",
      "issued": "2026-07-01T11:00:00.000Z",
      "raw": "TAF RCSS 011100Z 0112/0212 09005KT 9999 FEW015 BKN032 TEMPO 0118/0124 VRB05KT TEMPO 0203/0209 29010KT FEW010 FEW015TCU BKN017",
      "groups": [
        {
          "text": "TAF RCSS 011100Z 0112/0212 09005KT 9999 FEW015 BKN032",
          "offset_h": 1,
          "wdir": 90,
          "wspd": 5
        },
        {
          "text": "TEMPO 0118/0124 VRB05KT",
          "offset_h": 7,
          "wdir": "VRB",
          "wspd": 5
        },
        {
          "text": "TEMPO 0203/0209 29010KT FEW010 FEW015TCU BKN017",
          "offset_h": 16,
          "wdir": 290,
          "wspd": 10
        }
      ],
      "metar_raw": "METAR RCSS 011100Z 09005KT 9999 FEW015 BKN200 30/26 Q1009 NOSIG RMK A2980",
      "metar_wdir": 90,
      "metar_wspd": 5,
      "metar_oat": 30,
      "metar_qnh": 1009,
      "hourly_oat": [
        29,
        28,
        28,
        27,
        27,
        26,
        26,
        26,
        26,
        25,
        25,
        26,
        27,
        29,
        30,
        32,
        32,
        32,
        32,
        31,
        31,
        31,
        30,
        30,
        29
      ]
    },
    "TPE": {
      "icao": "RCTP",
      "issued": "2026-07-01T11:00:00.000Z",
      "raw": "TAF RCTP 011100Z 0112/0218 18005KT 9999 FEW015 BKN032 TEMPO 0118/0124 11005KT SCT008 BKN014 BECMG 0200/0202 01005KT TEMPO 0203/0209 32008KT BECMG 0210/0212 18005KT",
      "groups": [
        {
          "text": "TAF RCTP 011100Z 0112/0218 18005KT 9999 FEW015 BKN032",
          "offset_h": 1,
          "wdir": 180,
          "wspd": 5
        },
        {
          "text": "TEMPO 0118/0124 11005KT SCT008 BKN014",
          "offset_h": 7,
          "wdir": 110,
          "wspd": 5
        },
        {
          "text": "BECMG 0200/0202 01005KT",
          "offset_h": 13,
          "wdir": 10,
          "wspd": 5
        },
        {
          "text": "TEMPO 0203/0209 32008KT",
          "offset_h": 16,
          "wdir": 320,
          "wspd": 8
        },
        {
          "text": "BECMG 0210/0212 18005KT",
          "offset_h": 23,
          "wdir": 180,
          "wspd": 5
        }
      ],
      "metar_raw": "METAR RCTP 011100Z 33004KT 9999 FEW012 SCT020 BKN040 29/26 Q1009 NOSIG RMK A2981",
      "metar_wdir": 330,
      "metar_wspd": 4,
      "metar_oat": 29,
      "metar_qnh": 1009,
      "hourly_oat": [
        28,
        27,
        27,
        27,
        27,
        26,
        26,
        26,
        26,
        26,
        25,
        26,
        27,
        29,
        29,
        30,
        30,
        30,
        29,
        30,
        29,
        29,
        29,
        28,
        28
      ]
    },
    "HKG": {
      "icao": "VHHH",
      "issued": "2026-07-01T11:00:00.000Z",
      "raw": "TAF VHHH 011100Z 0112/0218 12010KT 9999 FEW015 SCT030 TX34/0206Z TN29/0122Z TEMPO 0121/0203 3000 SHRA FEW010CB SCT020",
      "groups": [
        {
          "text": "TAF VHHH 011100Z 0112/0218 12010KT 9999 FEW015 SCT030 TX34/0206Z TN29/0122Z",
          "offset_h": 1,
          "wdir": 120,
          "wspd": 10
        },
        {
          "text": "TEMPO 0121/0203 3000 SHRA FEW010CB SCT020",
          "offset_h": 10,
          "wdir": null,
          "wspd": null
        }
      ],
      "metar_raw": "METAR VHHH 011100Z 10011KT 9999 FEW020 31/25 Q1006 NOSIG",
      "metar_wdir": 100,
      "metar_wspd": 11,
      "metar_oat": 31,
      "metar_qnh": 1006,
      "hourly_oat": [
        30,
        29,
        29,
        29,
        29,
        29,
        29,
        29,
        29,
        28,
        28,
        28,
        29,
        29,
        30,
        30,
        30,
        30,
        30,
        31,
        30,
        30,
        30,
        30,
        29
      ]
    },
    "DLC": {
      "icao": "ZYTL",
      "issued": "2026-07-01T09:22:00.000Z",
      "raw": "TAF ZYTL 010922Z 0112/0212 15004MPS 5000 BR SCT011 BKN026 TX26/0206Z TN20/0120Z",
      "groups": [
        {
          "text": "TAF ZYTL 010922Z 0112/0212 15004MPS 5000 BR SCT011 BKN026 TX26/0206Z TN20/0120Z",
          "offset_h": 1,
          "wdir": null,
          "wspd": null
        }
      ],
      "metar_raw": "METAR ZYTL 011100Z 15003MPS 110V170 CAVOK 22/18 Q1007 NOSIG",
      "metar_wdir": null,
      "metar_wspd": null,
      "metar_oat": 22,
      "metar_qnh": 1007,
      "hourly_oat": [
        24,
        23,
        22,
        22,
        22,
        21,
        21,
        21,
        21,
        21,
        20,
        22,
        23,
        25,
        27,
        28,
        29,
        29,
        28,
        29,
        29,
        29,
        28,
        27,
        26
      ]
    },
    "SAN": {
      "icao": "KSAN",
      "issued": "2026-07-01T09:05:00.000Z",
      "raw": "TAF KSAN 010905Z 0109/0212 VRB04KT P6SM OVC025 FM011900 27010KT P6SM SCT025 FM020300 VRB03KT P6SM OVC022",
      "groups": [
        {
          "text": "TAF KSAN 010905Z 0109/0212 VRB04KT P6SM OVC025",
          "offset_h": -2,
          "wdir": "VRB",
          "wspd": 4
        },
        {
          "text": "FM011900 27010KT P6SM SCT025",
          "offset_h": 8,
          "wdir": 270,
          "wspd": 10
        },
        {
          "text": "FM020300 VRB03KT P6SM OVC022",
          "offset_h": 16,
          "wdir": "VRB",
          "wspd": 3
        }
      ],
      "metar_raw": "METAR KSAN 011051Z 26005KT 10SM OVC023 19/13 A2992 RMK AO2 SLP131 T01890133 $",
      "metar_wdir": 260,
      "metar_wspd": 5,
      "metar_oat": 19,
      "metar_qnh": 1013,
      "hourly_oat": [
        17,
        18,
        17,
        18,
        18,
        19,
        20,
        21,
        21,
        21,
        21,
        21,
        21,
        20,
        20,
        19,
        18,
        18,
        18,
        18,
        18,
        18,
        17,
        17,
        17
      ]
    },
    "PVG": {
      "icao": "ZSPD",
      "issued": "2026-07-01T09:03:00.000Z",
      "raw": "TAF ZSPD 010903Z 0112/0218 19004MPS 6000 BKN015 TX24/0112Z TX28/0206Z TN23/0121Z",
      "groups": [
        {
          "text": "TAF ZSPD 010903Z 0112/0218 19004MPS 6000 BKN015 TX24/0112Z TX28/0206Z TN23/0121Z",
          "offset_h": 1,
          "wdir": null,
          "wspd": null
        }
      ],
      "metar_raw": "METAR ZSPD 011100Z 20003MPS 170V250 CAVOK 25/25 Q1008 NOSIG",
      "metar_wdir": null,
      "metar_wspd": null,
      "metar_oat": 25,
      "metar_qnh": 1008,
      "hourly_oat": [
        24,
        24,
        23,
        23,
        23,
        23,
        23,
        23,
        23,
        23,
        23,
        24,
        24,
        26,
        25,
        25,
        26,
        26,
        26,
        27,
        27,
        27,
        27,
        26,
        25
      ]
    },
    "SHA": {
      "icao": "ZSSS",
      "issued": "2026-07-01T09:03:00.000Z",
      "raw": "TAF ZSSS 010903Z 0112/0218 19004MPS 6000 BKN020 TX25/0112Z TX29/0206Z TN23/0121Z",
      "groups": [
        {
          "text": "TAF ZSSS 010903Z 0112/0218 19004MPS 6000 BKN020 TX25/0112Z TX29/0206Z TN23/0121Z",
          "offset_h": 1,
          "wdir": null,
          "wspd": null
        }
      ],
      "metar_raw": "METAR ZSSS 011100Z 23003MPS 9999 SCT015 26/23 Q1008 NOSIG",
      "metar_wdir": null,
      "metar_wspd": null,
      "metar_oat": 26,
      "metar_qnh": 1008,
      "hourly_oat": [
        25,
        24,
        24,
        24,
        24,
        23,
        23,
        23,
        23,
        23,
        23,
        24,
        25,
        25,
        26,
        27,
        27,
        27,
        27,
        28,
        28,
        28,
        27,
        27,
        26
      ]
    },
    "CAN": {
      "icao": "ZGGG",
      "issued": "2026-07-01T09:03:00.000Z",
      "raw": "TAF ZGGG 010903Z 0112/0218 12003MPS 8000 SCT040 TX29/0112Z TX32/0207Z TN27/0122Z TEMPO 0205/0209 TSRA SCT026CB BKN033",
      "groups": [
        {
          "text": "TAF ZGGG 010903Z 0112/0218 12003MPS 8000 SCT040 TX29/0112Z TX32/0207Z TN27/0122Z",
          "offset_h": 1,
          "wdir": null,
          "wspd": null
        },
        {
          "text": "TEMPO 0205/0209 TSRA SCT026CB BKN033",
          "offset_h": 18,
          "wdir": null,
          "wspd": null
        }
      ],
      "metar_raw": "METAR ZGGG 011100Z 27002MPS 220V340 CAVOK 32/24 Q1006 NOSIG",
      "metar_wdir": null,
      "metar_wspd": null,
      "metar_oat": 32,
      "metar_qnh": 1006,
      "hourly_oat": [
        30,
        29,
        29,
        29,
        28,
        27,
        27,
        27,
        26,
        26,
        26,
        26,
        27,
        28,
        30,
        31,
        32,
        33,
        33,
        30,
        31,
        32,
        32,
        30,
        30
      ]
    },
    "PEK": {
      "icao": "ZBAA",
      "issued": "2026-07-01T09:00:00.000Z",
      "raw": "TAF ZBAA 010900Z 0112/0218 15004MPS 5000 BR NSC TX34/0207Z TN21/0121Z TN25/0218Z",
      "groups": [
        {
          "text": "TAF ZBAA 010900Z 0112/0218 15004MPS 5000 BR NSC TX34/0207Z TN21/0121Z TN25/0218Z",
          "offset_h": 1,
          "wdir": null,
          "wspd": null
        }
      ],
      "metar_raw": "METAR ZBAA 011100Z 18003MPS CAVOK 29/22 Q1004 NOSIG",
      "metar_wdir": null,
      "metar_wspd": null,
      "metar_oat": 29,
      "metar_qnh": 1004,
      "hourly_oat": [
        28,
        26,
        25,
        25,
        24,
        24,
        23,
        22,
        22,
        22,
        21,
        22,
        23,
        25,
        26,
        27,
        29,
        30,
        31,
        32,
        33,
        33,
        33,
        33,
        31
      ]
    },
    "HNL": {
      "icao": "PHNL",
      "issued": "2026-07-01T08:55:00.000Z",
      "raw": "TAF PHNL 010855Z 0109/0212 06015KT P6SM FEW020 FEW050 FM012000 06016G26KT P6SM FEW025 SCT040 FM020600 06012KT P6SM FEW025 SCT045",
      "groups": [
        {
          "text": "TAF PHNL 010855Z 0109/0212 06015KT P6SM FEW020 FEW050",
          "offset_h": -2,
          "wdir": 60,
          "wspd": 15
        },
        {
          "text": "FM012000 06016G26KT P6SM FEW025 SCT040",
          "offset_h": 9,
          "wdir": 60,
          "wspd": 16
        },
        {
          "text": "FM020600 06012KT P6SM FEW025 SCT045",
          "offset_h": 19,
          "wdir": 60,
          "wspd": 12
        }
      ],
      "metar_raw": "METAR PHNL 011053Z 06009KT 10SM FEW020 FEW045 FEW080 BKN200 27/21 A3002 RMK AO2 SLP164 T02670211 $",
      "metar_wdir": 60,
      "metar_wspd": 9,
      "metar_oat": 27,
      "metar_qnh": 1017,
      "hourly_oat": [
        24,
        24,
        24,
        24,
        24,
        23,
        24,
        26,
        27,
        28,
        28,
        29,
        29,
        29,
        29,
        29,
        28,
        26,
        25,
        24,
        24,
        24,
        24,
        24,
        24
      ]
    },
    "LAX": {
      "icao": "KLAX",
      "issued": "2026-07-01T08:37:00.000Z",
      "raw": "TAF KLAX 010837Z 0109/0212 28006KT P6SM BKN015 BKN035 FM011100 26005KT P6SM OVC015 FM011700 25012KT P6SM BKN025 FM012100 25012G20KT P6SM SCT035 FM020300 26010KT P6SM SKC FM020900 26005KT P6SM OVC015",
      "groups": [
        {
          "text": "TAF KLAX 010837Z 0109/0212 28006KT P6SM BKN015 BKN035",
          "offset_h": -2,
          "wdir": 280,
          "wspd": 6
        },
        {
          "text": "FM011100 26005KT P6SM OVC015",
          "offset_h": 0,
          "wdir": 260,
          "wspd": 5
        },
        {
          "text": "FM011700 25012KT P6SM BKN025",
          "offset_h": 6,
          "wdir": 250,
          "wspd": 12
        },
        {
          "text": "FM012100 25012G20KT P6SM SCT035",
          "offset_h": 10,
          "wdir": 250,
          "wspd": 12
        },
        {
          "text": "FM020300 26010KT P6SM SKC",
          "offset_h": 16,
          "wdir": 260,
          "wspd": 10
        },
        {
          "text": "FM020900 26005KT P6SM OVC015",
          "offset_h": 22,
          "wdir": 260,
          "wspd": 5
        }
      ],
      "metar_raw": "METAR KLAX 011053Z 28006KT 10SM BKN016 OVC035 18/14 A2990 RMK AO2 SLP124 T01780144 $",
      "metar_wdir": 280,
      "metar_wspd": 6,
      "metar_oat": 18,
      "metar_qnh": 1013,
      "hourly_oat": [
        17,
        17,
        17,
        17,
        18,
        19,
        20,
        20,
        20,
        19,
        19,
        20,
        20,
        19,
        19,
        18,
        17,
        16,
        16,
        16,
        16,
        16,
        16,
        16,
        15
      ]
    },
    "FUK": {
      "icao": "RJFF",
      "issued": "2026-07-01T08:17:00.000Z",
      "raw": "TAF AMD RJFF 010817Z 0108/0212 20014KT 9000 -SHRA FEW007 SCT010 BKN015 TEMPO 0108/0110 4000 -SHRA BR BECMG 0109/0111 32010KT TEMPO 0110/0112 3000 TSRA BR BKN005 BKN010 FEW012CB TEMPO 0112/0113 4000 -SHRA BR BKN008 BKN009 TEMPO 0113/0121 BKN008 BKN010",
      "groups": [
        {
          "text": "TAF AMD RJFF 010817Z 0108/0212 20014KT 9000 -SHRA FEW007 SCT010 BKN015",
          "offset_h": -3,
          "wdir": 200,
          "wspd": 14
        },
        {
          "text": "TEMPO 0108/0110 4000 -SHRA BR",
          "offset_h": -3,
          "wdir": null,
          "wspd": null
        },
        {
          "text": "BECMG 0109/0111 32010KT",
          "offset_h": -2,
          "wdir": 320,
          "wspd": 10
        },
        {
          "text": "TEMPO 0110/0112 3000 TSRA BR BKN005 BKN010 FEW012CB",
          "offset_h": -1,
          "wdir": null,
          "wspd": null
        },
        {
          "text": "TEMPO 0112/0113 4000 -SHRA BR BKN008 BKN009",
          "offset_h": 1,
          "wdir": null,
          "wspd": null
        },
        {
          "text": "TEMPO 0113/0121 BKN008 BKN010",
          "offset_h": 2,
          "wdir": null,
          "wspd": null
        }
      ],
      "metar_raw": "METAR RJFF 011100Z 23004KT 160V270 9999 VCSH FEW002 SCT030 BKN035 26/23 Q1006 BECMG 28010KT TEMPO 3000 TSRA BR BKN005 BKN010 FEW020CB",
      "metar_wdir": 230,
      "metar_wspd": 4,
      "metar_oat": 26,
      "metar_qnh": 1006,
      "hourly_oat": [
        25,
        25,
        24,
        23,
        22,
        22,
        22,
        22,
        22,
        22,
        22,
        22,
        23,
        23,
        24,
        24,
        24,
        24,
        24,
        24,
        24,
        24,
        24,
        23,
        23
      ]
    },
    "KIX": {
      "icao": "RJBB",
      "issued": "2026-07-01T08:04:00.000Z",
      "raw": "TAF AMD RJBB 010804Z 0108/0212 12006KT 7000 -SHRA FEW005 SCT015 BKN020 BECMG 0108/0110 18014KT TEMPO 0108/0114 3000 SHRA BR FEW003 BKN008 BKN015 BECMG 0113/0115 19024KT TEMPO 0114/0116 19028G38KT 2000 SHRA BR FEW003 SCT005 BKN008 TEMPO 0116/0118 21030G40KT 2000 TSRA BR FEW003 SCT005 BKN008 FEW015CB TEMPO 0118/0121 4000 BR FEW003 SCT005 BKN008 BECMG 0121/0200 26012KT",
      "groups": [
        {
          "text": "TAF AMD RJBB 010804Z 0108/0212 12006KT 7000 -SHRA FEW005 SCT015 BKN020",
          "offset_h": -3,
          "wdir": 120,
          "wspd": 6
        },
        {
          "text": "BECMG 0108/0110 18014KT",
          "offset_h": -3,
          "wdir": 180,
          "wspd": 14
        },
        {
          "text": "TEMPO 0108/0114 3000 SHRA BR FEW003 BKN008 BKN015",
          "offset_h": -3,
          "wdir": null,
          "wspd": null
        },
        {
          "text": "BECMG 0113/0115 19024KT",
          "offset_h": 2,
          "wdir": 190,
          "wspd": 24
        },
        {
          "text": "TEMPO 0114/0116 19028G38KT 2000 SHRA BR FEW003 SCT005 BKN008",
          "offset_h": 3,
          "wdir": 190,
          "wspd": 28
        },
        {
          "text": "TEMPO 0116/0118 21030G40KT 2000 TSRA BR FEW003 SCT005 BKN008 FEW015CB",
          "offset_h": 5,
          "wdir": 210,
          "wspd": 30
        },
        {
          "text": "TEMPO 0118/0121 4000 BR FEW003 SCT005 BKN008",
          "offset_h": 7,
          "wdir": null,
          "wspd": null
        },
        {
          "text": "BECMG 0121/0200 26012KT",
          "offset_h": 10,
          "wdir": 260,
          "wspd": 12
        }
      ],
      "metar_raw": "METAR RJBB 011100Z VRB02KT 9999 -RA FEW008 SCT070 OVC100 22/21 Q1008 BECMG 19006KT TEMPO 4000 RA BR",
      "metar_wdir": "VRB",
      "metar_wspd": 2,
      "metar_oat": 22,
      "metar_qnh": 1008,
      "hourly_oat": [
        24,
        24,
        24,
        25,
        25,
        25,
        25,
        25,
        25,
        25,
        25,
        25,
        25,
        24,
        24,
        25,
        25,
        25,
        25,
        25,
        25,
        25,
        25,
        25,
        25
      ]
    },
    "SGN": {
      "icao": "VVTS",
      "issued": "2026-07-01T07:43:00.000Z",
      "raw": "TAF AMD VVTS 010743Z 0108/0212 28012KT 9999 SCT017 TEMPO 0108/0110 28015G26KT TS SCT015 FEW017CB TEMPO 0110/0114 28015G30KT 3000 TSRA SCT013 SCT015CB TEMPO 0205/0209 27015G28KT 3000 TSRA SCT013 SCT015CB",
      "groups": [
        {
          "text": "TAF AMD VVTS 010743Z 0108/0212 28012KT 9999 SCT017",
          "offset_h": -3,
          "wdir": 280,
          "wspd": 12
        },
        {
          "text": "TEMPO 0108/0110 28015G26KT TS SCT015 FEW017CB",
          "offset_h": -3,
          "wdir": 280,
          "wspd": 15
        },
        {
          "text": "TEMPO 0110/0114 28015G30KT 3000 TSRA SCT013 SCT015CB",
          "offset_h": -1,
          "wdir": 280,
          "wspd": 15
        },
        {
          "text": "TEMPO 0205/0209 27015G28KT 3000 TSRA SCT013 SCT015CB",
          "offset_h": 18,
          "wdir": 270,
          "wspd": 15
        }
      ],
      "metar_raw": "METAR VVTS 011100Z 21011KT 9999 SCT037 32/25 Q1005 NOSIG",
      "metar_wdir": 210,
      "metar_wspd": 11,
      "metar_oat": 32,
      "metar_qnh": 1005,
      "hourly_oat": [
        27,
        26,
        26,
        26,
        26,
        26,
        26,
        25,
        25,
        25,
        25,
        25,
        26,
        26,
        28,
        28,
        29,
        29,
        26,
        27,
        26,
        28,
        28,
        26,
        26
      ]
    },
    "ITM": {
      "icao": "RJOO",
      "issued": "2026-07-01T05:06:00.000Z",
      "raw": "TAF RJOO 010506Z 0106/0212 09006KT 6000 -SHRA FEW005 SCT012 BKN015 TEMPO 0108/0115 2000 SHRA BR FEW003 SCT005 BKN008 TEMPO 0115/0118 2000 TSRA BR FEW003 SCT005 BKN008 FEW015CB BECMG 0118/0121 27010KT BECMG 0206/0209 33012KT",
      "groups": [
        {
          "text": "TAF RJOO 010506Z 0106/0212 09006KT 6000 -SHRA FEW005 SCT012 BKN015",
          "offset_h": -5,
          "wdir": 90,
          "wspd": 6
        },
        {
          "text": "TEMPO 0108/0115 2000 SHRA BR FEW003 SCT005 BKN008",
          "offset_h": -3,
          "wdir": null,
          "wspd": null
        },
        {
          "text": "TEMPO 0115/0118 2000 TSRA BR FEW003 SCT005 BKN008 FEW015CB",
          "offset_h": 4,
          "wdir": null,
          "wspd": null
        },
        {
          "text": "BECMG 0118/0121 27010KT",
          "offset_h": 7,
          "wdir": 270,
          "wspd": 10
        },
        {
          "text": "BECMG 0206/0209 33012KT",
          "offset_h": 19,
          "wdir": 330,
          "wspd": 12
        }
      ],
      "metar_raw": "METAR RJOO 011100Z 09004KT 030V130 9999 -RA FEW010 BKN035 BKN070 23/21 Q1008",
      "metar_wdir": 90,
      "metar_wspd": 4,
      "metar_oat": 23,
      "metar_qnh": 1008,
      "hourly_oat": [
        23,
        22,
        22,
        22,
        23,
        23,
        24,
        25,
        25,
        25,
        25,
        25,
        25,
        25,
        27,
        28,
        28,
        28,
        28,
        25,
        24,
        24,
        24,
        24,
        23
      ]
    },
    "NRT": {
      "icao": "RJAA",
      "issued": "2026-07-01T05:05:00.000Z",
      "raw": "TAF RJAA 010505Z 0106/0212 14008KT 8000 FEW010 SCT020 TEMPO 0110/0113 4000 BR TEMPO 0113/0116 4000 BR FEW003 BKN005 TEMPO 0116/0118 3000 -RA BR FEW001 SCT002 BKN003 TEMPO 0118/0121 2000 SHRA BR FEW001 SCT002 BKN003 TEMPO 0121/0203 1500 +SHRA BR FEW001 SCT002 BKN003 BECMG 0200/0203 01014KT TEMPO 0203/0206 FEW003 BKN008",
      "groups": [
        {
          "text": "TAF RJAA 010505Z 0106/0212 14008KT 8000 FEW010 SCT020",
          "offset_h": -5,
          "wdir": 140,
          "wspd": 8
        },
        {
          "text": "TEMPO 0110/0113 4000 BR",
          "offset_h": -1,
          "wdir": null,
          "wspd": null
        },
        {
          "text": "TEMPO 0113/0116 4000 BR FEW003 BKN005",
          "offset_h": 2,
          "wdir": null,
          "wspd": null
        },
        {
          "text": "TEMPO 0116/0118 3000 -RA BR FEW001 SCT002 BKN003",
          "offset_h": 5,
          "wdir": null,
          "wspd": null
        },
        {
          "text": "TEMPO 0118/0121 2000 SHRA BR FEW001 SCT002 BKN003",
          "offset_h": 7,
          "wdir": null,
          "wspd": null
        },
        {
          "text": "TEMPO 0121/0203 1500 +SHRA BR FEW001 SCT002 BKN003",
          "offset_h": 10,
          "wdir": null,
          "wspd": null
        },
        {
          "text": "BECMG 0200/0203 01014KT",
          "offset_h": 13,
          "wdir": 10,
          "wspd": 14
        },
        {
          "text": "TEMPO 0203/0206 FEW003 BKN008",
          "offset_h": 16,
          "wdir": null,
          "wspd": null
        }
      ],
      "metar_raw": "METAR RJAA 011100Z 14005KT 9999 BKN005 BKN023 22/21 Q1011 NOSIG",
      "metar_wdir": 140,
      "metar_wspd": 5,
      "metar_oat": 22,
      "metar_qnh": 1011,
      "hourly_oat": [
        21,
        21,
        21,
        21,
        21,
        21,
        21,
        21,
        21,
        22,
        21,
        21,
        22,
        23,
        22,
        23,
        23,
        22,
        22,
        21,
        21,
        21,
        21,
        20,
        20
      ]
    },
    "NGO": {
      "icao": "RJGG",
      "issued": "2026-07-01T05:05:00.000Z",
      "raw": "TAF RJGG 010505Z 0106/0212 15008KT 6000 -SHRA FEW008 BKN020 TEMPO 0110/0115 3000 SHRA BR FEW004 BKN008 TEMPO 0115/0118 3000 SHRA BR FEW002 BKN005 TEMPO 0118/0121 4000 -SHRA BR FEW002 BKN005 BECMG 0203/0206 31016KT",
      "groups": [
        {
          "text": "TAF RJGG 010505Z 0106/0212 15008KT 6000 -SHRA FEW008 BKN020",
          "offset_h": -5,
          "wdir": 150,
          "wspd": 8
        },
        {
          "text": "TEMPO 0110/0115 3000 SHRA BR FEW004 BKN008",
          "offset_h": -1,
          "wdir": null,
          "wspd": null
        },
        {
          "text": "TEMPO 0115/0118 3000 SHRA BR FEW002 BKN005",
          "offset_h": 4,
          "wdir": null,
          "wspd": null
        },
        {
          "text": "TEMPO 0118/0121 4000 -SHRA BR FEW002 BKN005",
          "offset_h": 7,
          "wdir": null,
          "wspd": null
        },
        {
          "text": "BECMG 0203/0206 31016KT",
          "offset_h": 16,
          "wdir": 310,
          "wspd": 16
        }
      ],
      "metar_raw": "METAR RJGG 011100Z 14007KT 9999 -RA FEW015 SCT050 BKN080 21/20 Q1011 TEMPO FM1200 4000 SHRA BR FEW004 BKN008",
      "metar_wdir": 140,
      "metar_wspd": 7,
      "metar_oat": 21,
      "metar_qnh": 1011,
      "hourly_oat": [
        23,
        22,
        22,
        22,
        22,
        22,
        23,
        23,
        24,
        24,
        24,
        24,
        24,
        24,
        25,
        24,
        24,
        25,
        27,
        27,
        26,
        25,
        25,
        25,
        24
      ]
    },
    "CTS": {
      "icao": "RJCC",
      "issued": "2026-07-01T05:05:00.000Z",
      "raw": "TAF RJCC 010505Z 0106/0212 35010KT 9999 FEW020 SCT040 BECMG 0115/0117 18008KT TEMPO 0115/0121 3000 BR FEW002 BKN004 TEMPO 0121/0200 FEW003 BKN006 TEMPO 0209/0212 FEW003 BKN008",
      "groups": [
        {
          "text": "TAF RJCC 010505Z 0106/0212 35010KT 9999 FEW020 SCT040",
          "offset_h": -5,
          "wdir": 350,
          "wspd": 10
        },
        {
          "text": "BECMG 0115/0117 18008KT",
          "offset_h": 4,
          "wdir": 180,
          "wspd": 8
        },
        {
          "text": "TEMPO 0115/0121 3000 BR FEW002 BKN004",
          "offset_h": 4,
          "wdir": null,
          "wspd": null
        },
        {
          "text": "TEMPO 0121/0200 FEW003 BKN006",
          "offset_h": 10,
          "wdir": null,
          "wspd": null
        },
        {
          "text": "TEMPO 0209/0212 FEW003 BKN008",
          "offset_h": 22,
          "wdir": null,
          "wspd": null
        }
      ],
      "metar_raw": "METAR RJCC 011100Z 34010KT 310V010 9999 FEW018 19/16 Q1011",
      "metar_wdir": 340,
      "metar_wspd": 10,
      "metar_oat": 19,
      "metar_qnh": 1011,
      "hourly_oat": [
        17,
        17,
        16,
        16,
        16,
        16,
        15,
        15,
        16,
        16,
        17,
        17,
        17,
        17,
        18,
        18,
        18,
        19,
        19,
        19,
        18,
        18,
        17,
        16,
        16
      ]
    },
    "HND": {
      "icao": "RJTT",
      "issued": "2026-07-01T05:05:00.000Z",
      "raw": "TAF RJTT 010505Z 0106/0212 18010KT 9999 FEW030 TEMPO 0116/0118 4000 -RA BR FEW005 BKN008 TEMPO 0118/0200 2000 +SHRA BR FEW001 BKN005 BECMG 0200/0203 35012KT TEMPO 0200/0203 4000 -SHRA BR FEW005 BKN008",
      "groups": [
        {
          "text": "TAF RJTT 010505Z 0106/0212 18010KT 9999 FEW030",
          "offset_h": -5,
          "wdir": 180,
          "wspd": 10
        },
        {
          "text": "TEMPO 0116/0118 4000 -RA BR FEW005 BKN008",
          "offset_h": 5,
          "wdir": null,
          "wspd": null
        },
        {
          "text": "TEMPO 0118/0200 2000 +SHRA BR FEW001 BKN005",
          "offset_h": 7,
          "wdir": null,
          "wspd": null
        },
        {
          "text": "BECMG 0200/0203 35012KT",
          "offset_h": 13,
          "wdir": 350,
          "wspd": 12
        },
        {
          "text": "TEMPO 0200/0203 4000 -SHRA BR FEW005 BKN008",
          "offset_h": 13,
          "wdir": null,
          "wspd": null
        }
      ],
      "metar_raw": "METAR RJTT 011100Z 18008KT 9999 FEW020 BKN160 25/21 Q1011 NOSIG",
      "metar_wdir": 180,
      "metar_wspd": 8,
      "metar_oat": 25,
      "metar_qnh": 1011,
      "hourly_oat": [
        23,
        23,
        23,
        23,
        23,
        23,
        22,
        22,
        22,
        22,
        22,
        23,
        22,
        22,
        22,
        22,
        22,
        22,
        22,
        22,
        22,
        22,
        22,
        22,
        22
      ]
    },
    "OKA": {
      "icao": "ROAH",
      "issued": "2026-07-01T05:05:00.000Z",
      "raw": "TAF ROAH 010505Z 0106/0212 19010KT 9999 FEW010 SCT015 TEMPO 0115/0121 FEW005 BKN008",
      "groups": [
        {
          "text": "TAF ROAH 010505Z 0106/0212 19010KT 9999 FEW010 SCT015",
          "offset_h": -5,
          "wdir": 190,
          "wspd": 10
        },
        {
          "text": "TEMPO 0115/0121 FEW005 BKN008",
          "offset_h": 4,
          "wdir": null,
          "wspd": null
        }
      ],
      "metar_raw": "METAR ROAH 011100Z 18007KT 9999 FEW009 28/26 Q1011",
      "metar_wdir": 180,
      "metar_wspd": 7,
      "metar_oat": 28,
      "metar_qnh": 1011,
      "hourly_oat": [
        27,
        27,
        27,
        27,
        27,
        27,
        27,
        27,
        27,
        27,
        27,
        28,
        28,
        29,
        29,
        29,
        30,
        30,
        30,
        30,
        29,
        29,
        28,
        28,
        27
      ]
    },
    "SIN": {
      "icao": "WSSS",
      "issued": "2026-07-01T05:00:00.000Z",
      "raw": "TAF WSSS 010500Z 0106/0212 20008KT 9999 FEW015 SCT020",
      "groups": [
        {
          "text": "TAF WSSS 010500Z 0106/0212 20008KT 9999 FEW015 SCT020",
          "offset_h": -5,
          "wdir": 200,
          "wspd": 8
        }
      ],
      "metar_raw": "METAR WSSS 011100Z 10008KT 9999 FEW016 SCT150 29/26 Q1008 NOSIG",
      "metar_wdir": 100,
      "metar_wspd": 8,
      "metar_oat": 29,
      "metar_qnh": 1008,
      "hourly_oat": [
        29,
        29,
        29,
        28,
        28,
        28,
        28,
        27,
        27,
        25,
        25,
        25,
        25,
        26,
        27,
        28,
        29,
        30,
        29,
        28,
        26,
        27,
        27,
        28,
        28
      ]
    },
    "HAN": {
      "icao": "VVNB",
      "issued": "2026-07-01T05:00:00.000Z",
      "raw": "TAF VVNB 010500Z 0106/0206 12008KT 8000 SCT020 TEMPO 0110/0115 3500 TSRA BKN010 FEW027CB TEMPO 0121/0201 3500 SHRA SCT010 FEW027CB",
      "groups": [
        {
          "text": "TAF VVNB 010500Z 0106/0206 12008KT 8000 SCT020",
          "offset_h": -5,
          "wdir": 120,
          "wspd": 8
        },
        {
          "text": "TEMPO 0110/0115 3500 TSRA BKN010 FEW027CB",
          "offset_h": -1,
          "wdir": null,
          "wspd": null
        },
        {
          "text": "TEMPO 0121/0201 3500 SHRA SCT010 FEW027CB",
          "offset_h": 10,
          "wdir": null,
          "wspd": null
        }
      ],
      "metar_raw": "METAR VVNB 011100Z 09008KT CAVOK 29/26 Q1004 NOSIG",
      "metar_wdir": 90,
      "metar_wspd": 8,
      "metar_oat": 29,
      "metar_qnh": 1004,
      "hourly_oat": [
        27,
        27,
        27,
        26,
        26,
        26,
        26,
        25,
        25,
        25,
        25,
        25,
        25,
        26,
        27,
        28,
        30,
        30,
        30,
        31,
        31,
        32,
        32,
        31,
        31
      ]
    },
    "KUL": {
      "icao": "WMKK",
      "issued": "2026-07-01T05:00:00.000Z",
      "raw": "TAF WMKK 010500Z 0106/0212 VRB03KT 9999 FEW018 PROB30 TEMPO 0110/0112 5000 TSRA FEW017CB",
      "groups": [
        {
          "text": "TAF WMKK 010500Z 0106/0212 VRB03KT 9999 FEW018",
          "offset_h": -5,
          "wdir": "VRB",
          "wspd": 3
        },
        {
          "text": "PROB30",
          "offset_h": 0,
          "wdir": null,
          "wspd": null
        },
        {
          "text": "TEMPO 0110/0112 5000 TSRA FEW017CB",
          "offset_h": -1,
          "wdir": null,
          "wspd": null
        }
      ],
      "metar_raw": "METAR WMKK 011100Z 00000KT 9999 FEW017CB 30/25 Q1006 NOSIG",
      "metar_wdir": 0,
      "metar_wspd": 0,
      "metar_oat": 30,
      "metar_qnh": 1006,
      "hourly_oat": [
        27,
        26,
        25,
        25,
        25,
        25,
        25,
        24,
        24,
        24,
        24,
        24,
        24,
        25,
        26,
        28,
        29,
        30,
        29,
        29,
        29,
        29,
        30,
        29,
        28
      ]
    },
    "BKK": {
      "icao": "VTBS",
      "issued": "2026-07-01T05:00:00.000Z",
      "raw": "TAF VTBS 010500Z 0106/0212 22008KT 9999 FEW020 TEMPO 0110/0114 VRB15KT 4000 TSRA FEW018CB SCT030 BKN100",
      "groups": [
        {
          "text": "TAF VTBS 010500Z 0106/0212 22008KT 9999 FEW020",
          "offset_h": -5,
          "wdir": 220,
          "wspd": 8
        },
        {
          "text": "TEMPO 0110/0114 VRB15KT 4000 TSRA FEW018CB SCT030 BKN100",
          "offset_h": -1,
          "wdir": "VRB",
          "wspd": 15
        }
      ],
      "metar_raw": "METAR VTBS 011100Z 20014KT 9999 FEW020 31/25 Q1004 NOSIG",
      "metar_wdir": 200,
      "metar_wspd": 14,
      "metar_oat": 31,
      "metar_qnh": 1004,
      "hourly_oat": [
        29,
        29,
        28,
        29,
        28,
        28,
        27,
        27,
        27,
        26,
        26,
        25,
        25,
        26,
        28,
        30,
        31,
        31,
        32,
        32,
        32,
        31,
        30,
        27,
        27
      ]
    }
  }
}