{
  "updated": "2026-07-15T22:47:36Z",
  "tafs": {
    "LAX": {
      "icao": "KLAX",
      "issued": "2026-07-15T21:51:00.000Z",
      "raw": "TAF KLAX 152151Z 1522/1624 26012KT P6SM SKC FM160300 26006KT P6SM SKC FM160900 11006KT P6SM SCT008 FM161800 24006KT P6SM FEW010 FM162000 26012KT P6SM SKC",
      "groups": [
        {
          "text": "TAF KLAX 152151Z 1522/1624 26012KT P6SM SKC",
          "offset_h": 0,
          "wdir": 260,
          "wspd": 12
        },
        {
          "text": "FM160300 26006KT P6SM SKC",
          "offset_h": 5,
          "wdir": 260,
          "wspd": 6
        },
        {
          "text": "FM160900 11006KT P6SM SCT008",
          "offset_h": 11,
          "wdir": 110,
          "wspd": 6
        },
        {
          "text": "FM161800 24006KT P6SM FEW010",
          "offset_h": 20,
          "wdir": 240,
          "wspd": 6
        },
        {
          "text": "FM162000 26012KT P6SM SKC",
          "offset_h": 22,
          "wdir": 260,
          "wspd": 12
        }
      ],
      "metar_raw": "METAR KLAX 152153Z 24011KT 10SM FEW100 FEW200 SCT250 26/18 A2983 RMK AO2 SLP098 T02610178 $",
      "metar_wdir": 240,
      "metar_wspd": 11,
      "metar_oat": 26,
      "metar_qnh": 1010,
      "hourly_oat": [
        27,
        27,
        26,
        24,
        23,
        21,
        20,
        20,
        19,
        19,
        18,
        18,
        18,
        18,
        17,
        18,
        19,
        22,
        25,
        28,
        29,
        29,
        30,
        31,
        30
      ]
    },
    "CAN": {
      "icao": "ZGGG",
      "issued": "2026-07-15T21:06:00.000Z",
      "raw": "TAF ZGGG 152106Z 1600/1706 12003MPS 8000 BKN030 TX34/1607Z TX32/1706Z TN26/1622Z TEMPO 1606/1610 TSRA SCT026CB BKN030 TEMPO 1619/1623 SHRA SCT026CB BKN030",
      "groups": [
        {
          "text": "TAF ZGGG 152106Z 1600/1706 12003MPS 8000 BKN030 TX34/1607Z TX32/1706Z TN26/1622Z",
          "offset_h": 2,
          "wdir": null,
          "wspd": null
        },
        {
          "text": "TEMPO 1606/1610 TSRA SCT026CB BKN030",
          "offset_h": 8,
          "wdir": null,
          "wspd": null
        },
        {
          "text": "TEMPO 1619/1623 SHRA SCT026CB BKN030",
          "offset_h": 21,
          "wdir": null,
          "wspd": null
        }
      ],
      "metar_raw": "METAR ZGGG 152230Z 06003MPS CAVOK 25/25 Q1005 NOSIG",
      "metar_wdir": null,
      "metar_wspd": null,
      "metar_oat": 25,
      "metar_qnh": 1005,
      "hourly_oat": [
        25,
        25,
        26,
        27,
        29,
        30,
        29,
        28,
        30,
        28,
        30,
        30,
        28,
        28,
        28,
        27,
        27,
        27,
        27,
        26,
        26,
        24,
        24,
        24,
        25
      ]
    },
    "PVG": {
      "icao": "ZSPD",
      "issued": "2026-07-15T21:05:00.000Z",
      "raw": "TAF ZSPD 152105Z 1600/1706 18004MPS 8000 SCT030 TX38/1606Z TX38/1706Z TN28/1621Z TEMPO 1606/1610 TSRA BKN008 SCT030CB",
      "groups": [
        {
          "text": "TAF ZSPD 152105Z 1600/1706 18004MPS 8000 SCT030 TX38/1606Z TX38/1706Z TN28/1621Z",
          "offset_h": 2,
          "wdir": null,
          "wspd": null
        },
        {
          "text": "TEMPO 1606/1610 TSRA BKN008 SCT030CB",
          "offset_h": 8,
          "wdir": null,
          "wspd": null
        }
      ],
      "metar_raw": "METAR ZSPD 152230Z 19003MPS CAVOK 32/27 Q1003 NOSIG",
      "metar_wdir": null,
      "metar_wspd": null,
      "metar_oat": 32,
      "metar_qnh": 1003,
      "hourly_oat": [
        30,
        32,
        34,
        36,
        37,
        38,
        38,
        37,
        35,
        35,
        34,
        34,
        33,
        32,
        32,
        31,
        30,
        30,
        30,
        30,
        30,
        29,
        29,
        29,
        30
      ]
    },
    "SHA": {
      "icao": "ZSSS",
      "issued": "2026-07-15T21:05:00.000Z",
      "raw": "TAF ZSSS 152105Z 1600/1706 18004MPS 8000 SCT030 TX38/1606Z TX38/1706Z TN28/1621Z TEMPO 1606/1610 TSRA BKN011 SCT030CB",
      "groups": [
        {
          "text": "TAF ZSSS 152105Z 1600/1706 18004MPS 8000 SCT030 TX38/1606Z TX38/1706Z TN28/1621Z",
          "offset_h": 2,
          "wdir": null,
          "wspd": null
        },
        {
          "text": "TEMPO 1606/1610 TSRA BKN011 SCT030CB",
          "offset_h": 8,
          "wdir": null,
          "wspd": null
        }
      ],
      "metar_raw": "METAR ZSSS 152230Z 24002MPS CAVOK 33/26 Q1003 NOSIG",
      "metar_wdir": null,
      "metar_wspd": null,
      "metar_oat": 33,
      "metar_qnh": 1003,
      "hourly_oat": [
        31,
        32,
        34,
        36,
        37,
        38,
        38,
        38,
        38,
        37,
        37,
        36,
        35,
        35,
        35,
        34,
        33,
        32,
        32,
        32,
        31,
        31,
        31,
        30,
        31
      ]
    },
    "DLC": {
      "icao": "ZYTL",
      "issued": "2026-07-15T21:04:00.000Z",
      "raw": "TAF ZYTL 152104Z 1600/1624 26004MPS 5000 BR FEW040 TX31/1606Z TN24/1620Z",
      "groups": [
        {
          "text": "TAF ZYTL 152104Z 1600/1624 26004MPS 5000 BR FEW040 TX31/1606Z TN24/1620Z",
          "offset_h": 2,
          "wdir": null,
          "wspd": null
        }
      ],
      "metar_raw": "METAR ZYTL 152230Z 28002MPS 250V310 CAVOK 28/23 Q1002 NOSIG",
      "metar_wdir": null,
      "metar_wspd": null,
      "metar_oat": 28,
      "metar_qnh": 1002,
      "hourly_oat": [
        25,
        26,
        28,
        29,
        30,
        30,
        30,
        30,
        30,
        29,
        28,
        28,
        28,
        27,
        26,
        25,
        25,
        24,
        24,
        24,
        24,
        24,
        24,
        24,
        24
      ]
    },
    "PEK": {
      "icao": "ZBAA",
      "issued": "2026-07-15T21:04:00.000Z",
      "raw": "TAF ZBAA 152104Z 1600/1706 18004MPS CAVOK TX33/1606Z TX33/1706Z TN24/1621Z",
      "groups": [
        {
          "text": "TAF ZBAA 152104Z 1600/1706 18004MPS CAVOK TX33/1606Z TX33/1706Z TN24/1621Z",
          "offset_h": 2,
          "wdir": null,
          "wspd": null
        }
      ],
      "metar_raw": "METAR ZBAA 152230Z 35002MPS 320V020 CAVOK 26/22 Q1002 NOSIG",
      "metar_wdir": null,
      "metar_wspd": null,
      "metar_oat": 26,
      "metar_qnh": 1002,
      "hourly_oat": [
        24,
        25,
        26,
        27,
        29,
        29,
        30,
        31,
        32,
        33,
        32,
        31,
        30,
        29,
        28,
        28,
        27,
        27,
        26,
        26,
        25,
        25,
        24,
        24,
        24
      ]
    },
    "HNL": {
      "icao": "PHNL",
      "issued": "2026-07-15T21:02:00.000Z",
      "raw": "TAF PHNL 152102Z 1521/1624 15011KT P6SM FEW025 SCT045 FM160600 VRB06KT P6SM FEW025 FEW040 FM162000 07014G22KT P6SM FEW025 SCT040",
      "groups": [
        {
          "text": "TAF PHNL 152102Z 1521/1624 15011KT P6SM FEW025 SCT045",
          "offset_h": -1,
          "wdir": 150,
          "wspd": 11
        },
        {
          "text": "FM160600 VRB06KT P6SM FEW025 FEW040",
          "offset_h": 8,
          "wdir": "VRB",
          "wspd": 6
        },
        {
          "text": "FM162000 07014G22KT P6SM FEW025 SCT040",
          "offset_h": 22,
          "wdir": 70,
          "wspd": 14
        }
      ],
      "metar_raw": "METAR PHNL 152153Z 16013G21KT 10SM FEW025 SCT040 29/20 A2994 RMK AO2 SLP139 T02890200 $",
      "metar_wdir": 160,
      "metar_wspd": 13,
      "metar_oat": 29,
      "metar_qnh": 1014,
      "hourly_oat": [
        29,
        29,
        29,
        29,
        29,
        28,
        26,
        25,
        24,
        24,
        24,
        24,
        24,
        23,
        23,
        23,
        23,
        23,
        23,
        24,
        26,
        27,
        28,
        29,
        30
      ]
    },
    "SAN": {
      "icao": "KSAN",
      "issued": "2026-07-15T20:30:00.000Z",
      "raw": "TAF KSAN 152030Z 1521/1624 28009KT P6SM FEW009 FM160200 19005KT P6SM FEW007 FEW200 FM160800 VRB04KT P6SM BKN007 FM161600 20011G20KT P6SM FEW010 FEW150",
      "groups": [
        {
          "text": "TAF KSAN 152030Z 1521/1624 28009KT P6SM FEW009",
          "offset_h": -1,
          "wdir": 280,
          "wspd": 9
        },
        {
          "text": "FM160200 19005KT P6SM FEW007 FEW200",
          "offset_h": 4,
          "wdir": 190,
          "wspd": 5
        },
        {
          "text": "FM160800 VRB04KT P6SM BKN007",
          "offset_h": 10,
          "wdir": "VRB",
          "wspd": 4
        },
        {
          "text": "FM161600 20011G20KT P6SM FEW010 FEW150",
          "offset_h": 18,
          "wdir": 200,
          "wspd": 11
        }
      ],
      "metar_raw": "METAR KSAN 152151Z 29006KT 10SM FEW010 FEW050 26/17 A2984 RMK AO2 SLP103 T02610172 $",
      "metar_wdir": 290,
      "metar_wspd": 6,
      "metar_oat": 26,
      "metar_qnh": 1011,
      "hourly_oat": [
        28,
        28,
        26,
        25,
        25,
        23,
        21,
        21,
        20,
        19,
        19,
        19,
        19,
        19,
        19,
        18,
        19,
        19,
        21,
        22,
        23,
        24,
        24,
        24,
        24
      ]
    },
    "HKG": {
      "icao": "VHHH",
      "issued": "2026-07-15T20:00:00.000Z",
      "raw": "TAF VHHH 152000Z 1521/1703 18010KT 9999 FEW010 SCT030 TX31/1606Z TN27/1522Z TN27/1622Z TEMPO 1521/1603 24015G25KT 2000 TSRA +SHRA FEW008CB SCT015 TEMPO 1603/1606 3000 SHRA FEW010CB SCT020 PROB30 TEMPO 1621/1703 24015G25KT 2500 TSRA SHRA FEW008CB SCT015",
      "groups": [
        {
          "text": "TAF VHHH 152000Z 1521/1703 18010KT 9999 FEW010 SCT030 TX31/1606Z TN27/1522Z TN27/1622Z",
          "offset_h": -1,
          "wdir": 180,
          "wspd": 10
        },
        {
          "text": "TEMPO 1521/1603 24015G25KT 2000 TSRA +SHRA FEW008CB SCT015",
          "offset_h": -1,
          "wdir": 240,
          "wspd": 15
        },
        {
          "text": "TEMPO 1603/1606 3000 SHRA FEW010CB SCT020",
          "offset_h": 5,
          "wdir": null,
          "wspd": null
        },
        {
          "text": "PROB30",
          "offset_h": 0,
          "wdir": null,
          "wspd": null
        },
        {
          "text": "TEMPO 1621/1703 24015G25KT 2500 TSRA SHRA FEW008CB SCT015",
          "offset_h": 23,
          "wdir": 240,
          "wspd": 15
        }
      ],
      "metar_raw": "SPECI VHHH 152243Z 20013KT 9999 -SHRA FEW010 SCT025 28/25 Q1006 RERA TEMPO 3000 SHRA FEW010CB SCT020",
      "metar_wdir": 200,
      "metar_wspd": 13,
      "metar_oat": 28,
      "metar_qnh": 1006,
      "hourly_oat": [
        26,
        27,
        26,
        27,
        27,
        27,
        27,
        28,
        29,
        29,
        29,
        29,
        28,
        28,
        28,
        28,
        28,
        28,
        27,
        26,
        26,
        26,
        25,
        26,
        26
      ]
    },
    "CTS": {
      "icao": "RJCC",
      "issued": "2026-07-15T19:46:00.000Z",
      "raw": "TAF AMD RJCC 151946Z 1519/1700 16012KT 9999 FEW015 SCT030 TEMPO 1519/1523 0700 FG VV001 BECMG 1522/1600 02010KT BECMG 1603/1605 17010KT TEMPO 1612/1618 FEW003 BKN005 TEMPO 1618/1700 1500 BR FEW001 BKN003",
      "groups": [
        {
          "text": "TAF AMD RJCC 151946Z 1519/1700 16012KT 9999 FEW015 SCT030",
          "offset_h": -3,
          "wdir": 160,
          "wspd": 12
        },
        {
          "text": "TEMPO 1519/1523 0700 FG VV001",
          "offset_h": -3,
          "wdir": null,
          "wspd": null
        },
        {
          "text": "BECMG 1522/1600 02010KT",
          "offset_h": 0,
          "wdir": 20,
          "wspd": 10
        },
        {
          "text": "BECMG 1603/1605 17010KT",
          "offset_h": 5,
          "wdir": 170,
          "wspd": 10
        },
        {
          "text": "TEMPO 1612/1618 FEW003 BKN005",
          "offset_h": 14,
          "wdir": null,
          "wspd": null
        },
        {
          "text": "TEMPO 1618/1700 1500 BR FEW001 BKN003",
          "offset_h": 20,
          "wdir": null,
          "wspd": null
        }
      ],
      "metar_raw": "METAR RJCC 152230Z 12005KT 4000 BR FEW001 SCT002 BKN003 22/22 Q0996",
      "metar_wdir": 120,
      "metar_wspd": 5,
      "metar_oat": 22,
      "metar_qnh": 996,
      "hourly_oat": [
        23,
        25,
        28,
        28,
        30,
        29,
        30,
        30,
        29,
        28,
        26,
        23,
        22,
        21,
        21,
        20,
        20,
        20,
        20,
        20,
        20,
        20,
        20,
        20,
        20
      ]
    },
    "HND": {
      "icao": "RJTT",
      "issued": "2026-07-15T19:44:00.000Z",
      "raw": "TAF AMD RJTT 151944Z 1519/1700 20010KT 9999 FEW008 SCT012 BECMG 1520/1522 11006KT BECMG 1604/1606 18012KT TEMPO 1606/1612 TS FEW025CB FEW030 BKN050 TEMPO 1615/1700 FEW005 BKN008",
      "groups": [
        {
          "text": "TAF AMD RJTT 151944Z 1519/1700 20010KT 9999 FEW008 SCT012",
          "offset_h": -3,
          "wdir": 200,
          "wspd": 10
        },
        {
          "text": "BECMG 1520/1522 11006KT",
          "offset_h": -2,
          "wdir": 110,
          "wspd": 6
        },
        {
          "text": "BECMG 1604/1606 18012KT",
          "offset_h": 6,
          "wdir": 180,
          "wspd": 12
        },
        {
          "text": "TEMPO 1606/1612 TS FEW025CB FEW030 BKN050",
          "offset_h": 8,
          "wdir": null,
          "wspd": null
        },
        {
          "text": "TEMPO 1615/1700 FEW005 BKN008",
          "offset_h": 17,
          "wdir": null,
          "wspd": null
        }
      ],
      "metar_raw": "METAR RJTT 152230Z 16006KT 130V220 9999 FEW019 BKN100 28/26 Q1000 NOSIG",
      "metar_wdir": 160,
      "metar_wspd": 6,
      "metar_oat": 28,
      "metar_qnh": 1000,
      "hourly_oat": [
        27,
        28,
        29,
        29,
        30,
        30,
        31,
        32,
        31,
        30,
        29,
        28,
        27,
        27,
        27,
        27,
        26,
        26,
        26,
        26,
        26,
        26,
        26,
        26,
        27
      ]
    },
    "ITM": {
      "icao": "RJOO",
      "issued": "2026-07-15T17:05:00.000Z",
      "raw": "TAF RJOO 151705Z 1518/1700 20006KT 9999 FEW020 SCT030 BECMG 1604/1606 32006KT",
      "groups": [
        {
          "text": "TAF RJOO 151705Z 1518/1700 20006KT 9999 FEW020 SCT030",
          "offset_h": -4,
          "wdir": 200,
          "wspd": 6
        },
        {
          "text": "BECMG 1604/1606 32006KT",
          "offset_h": 6,
          "wdir": 320,
          "wspd": 6
        }
      ],
      "metar_raw": "METAR RJOO 152200Z VRB02KT 9999 FEW020 BKN/// 30/24 Q1002",
      "metar_wdir": "VRB",
      "metar_wspd": 2,
      "metar_oat": 30,
      "metar_qnh": 1002,
      "hourly_oat": [
        27,
        28,
        30,
        31,
        31,
        32,
        32,
        32,
        32,
        32,
        32,
        32,
        31,
        29,
        28,
        28,
        27,
        26,
        26,
        25,
        25,
        25,
        24,
        24,
        25
      ]
    },
    "OKA": {
      "icao": "ROAH",
      "issued": "2026-07-15T17:05:00.000Z",
      "raw": "TAF ROAH 151705Z 1518/1700 23010KT 9999 FEW006 BKN010 TEMPO 1518/1521 4000 BR FEW003 BKN005 TEMPO 1521/1600 FEW003 BKN005 TEMPO 1600/1603 FEW005 BKN008 TEMPO 1612/1615 FEW005 BKN008 TEMPO 1615/1700 FEW003 BKN005",
      "groups": [
        {
          "text": "TAF ROAH 151705Z 1518/1700 23010KT 9999 FEW006 BKN010",
          "offset_h": -4,
          "wdir": 230,
          "wspd": 10
        },
        {
          "text": "TEMPO 1518/1521 4000 BR FEW003 BKN005",
          "offset_h": -4,
          "wdir": null,
          "wspd": null
        },
        {
          "text": "TEMPO 1521/1600 FEW003 BKN005",
          "offset_h": -1,
          "wdir": null,
          "wspd": null
        },
        {
          "text": "TEMPO 1600/1603 FEW005 BKN008",
          "offset_h": 2,
          "wdir": null,
          "wspd": null
        },
        {
          "text": "TEMPO 1612/1615 FEW005 BKN008",
          "offset_h": 14,
          "wdir": null,
          "wspd": null
        },
        {
          "text": "TEMPO 1615/1700 FEW003 BKN005",
          "offset_h": 17,
          "wdir": null,
          "wspd": null
        }
      ],
      "metar_raw": "METAR ROAH 152230Z 24011KT 9999 FEW004 SCT007 BKN010 28/27 Q1009",
      "metar_wdir": 240,
      "metar_wspd": 11,
      "metar_oat": 28,
      "metar_qnh": 1009,
      "hourly_oat": [
        28,
        28,
        29,
        29,
        30,
        30,
        30,
        30,
        30,
        30,
        29,
        29,
        28,
        28,
        28,
        28,
        28,
        28,
        28,
        27,
        27,
        27,
        27,
        27,
        28
      ]
    },
    "NGO": {
      "icao": "RJGG",
      "issued": "2026-07-15T17:05:00.000Z",
      "raw": "TAF RJGG 151705Z 1518/1700 23006KT 9999 FEW020 BECMG 1518/1520 29004KT BECMG 1600/1602 21006KT BECMG 1609/1612 32008KT BECMG 1621/1700 18004KT",
      "groups": [
        {
          "text": "TAF RJGG 151705Z 1518/1700 23006KT 9999 FEW020",
          "offset_h": -4,
          "wdir": 230,
          "wspd": 6
        },
        {
          "text": "BECMG 1518/1520 29004KT",
          "offset_h": -4,
          "wdir": 290,
          "wspd": 4
        },
        {
          "text": "BECMG 1600/1602 21006KT",
          "offset_h": 2,
          "wdir": 210,
          "wspd": 6
        },
        {
          "text": "BECMG 1609/1612 32008KT",
          "offset_h": 11,
          "wdir": 320,
          "wspd": 8
        },
        {
          "text": "BECMG 1621/1700 18004KT",
          "offset_h": 23,
          "wdir": 180,
          "wspd": 4
        }
      ],
      "metar_raw": "METAR RJGG 152230Z 28006KT CAVOK 30/25 Q1001 NOSIG",
      "metar_wdir": 280,
      "metar_wspd": 6,
      "metar_oat": 30,
      "metar_qnh": 1001,
      "hourly_oat": [
        27,
        27,
        27,
        28,
        28,
        28,
        29,
        30,
        30,
        29,
        29,
        28,
        28,
        29,
        28,
        28,
        28,
        27,
        27,
        27,
        27,
        27,
        26,
        26,
        26
      ]
    },
    "NRT": {
      "icao": "RJAA",
      "issued": "2026-07-15T17:05:00.000Z",
      "raw": "TAF RJAA 151705Z 1518/1700 17005KT 9999 FEW012 BKN020 TEMPO 1518/1520 4000 BR FEW005 BKN008 TEMPO 1615/1621 3000 BR FEW005 BKN008",
      "groups": [
        {
          "text": "TAF RJAA 151705Z 1518/1700 17005KT 9999 FEW012 BKN020",
          "offset_h": -4,
          "wdir": 170,
          "wspd": 5
        },
        {
          "text": "TEMPO 1518/1520 4000 BR FEW005 BKN008",
          "offset_h": -4,
          "wdir": null,
          "wspd": null
        },
        {
          "text": "TEMPO 1615/1621 3000 BR FEW005 BKN008",
          "offset_h": 17,
          "wdir": null,
          "wspd": null
        }
      ],
      "metar_raw": "METAR RJAA 152230Z 13003KT 6000 FEW011 SCT014 BKN025 27/25 Q1001 NOSIG",
      "metar_wdir": 130,
      "metar_wspd": 3,
      "metar_oat": 27,
      "metar_qnh": 1001,
      "hourly_oat": [
        27,
        28,
        29,
        30,
        31,
        32,
        32,
        32,
        31,
        31,
        30,
        30,
        29,
        28,
        27,
        27,
        26,
        26,
        26,
        26,
        26,
        26,
        26,
        26,
        27
      ]
    },
    "KIX": {
      "icao": "RJBB",
      "issued": "2026-07-15T17:05:00.000Z",
      "raw": "TAF RJBB 151705Z 1518/1700 24006KT 9999 FEW030 SCT040 BECMG 1612/1615 05010KT",
      "groups": [
        {
          "text": "TAF RJBB 151705Z 1518/1700 24006KT 9999 FEW030 SCT040",
          "offset_h": -4,
          "wdir": 240,
          "wspd": 6
        },
        {
          "text": "BECMG 1612/1615 05010KT",
          "offset_h": 14,
          "wdir": 50,
          "wspd": 10
        }
      ],
      "metar_raw": "METAR RJBB 152230Z 21006KT 9999 FEW025 BKN/// 30/25 Q1002 NOSIG",
      "metar_wdir": 210,
      "metar_wspd": 6,
      "metar_oat": 30,
      "metar_qnh": 1002,
      "hourly_oat": [
        28,
        27,
        27,
        27,
        28,
        28,
        28,
        29,
        29,
        29,
        29,
        29,
        29,
        29,
        28,
        28,
        28,
        28,
        28,
        27,
        27,
        27,
        26,
        26,
        26
      ]
    },
    "FUK": {
      "icao": "RJFF",
      "issued": "2026-07-15T17:05:00.000Z",
      "raw": "TAF RJFF 151705Z 1518/1700 16006KT 9999 FEW035 BECMG 1521/1523 31011KT BECMG 1612/1615 13006KT",
      "groups": [
        {
          "text": "TAF RJFF 151705Z 1518/1700 16006KT 9999 FEW035",
          "offset_h": -4,
          "wdir": 160,
          "wspd": 6
        },
        {
          "text": "BECMG 1521/1523 31011KT",
          "offset_h": -1,
          "wdir": 310,
          "wspd": 11
        },
        {
          "text": "BECMG 1612/1615 13006KT",
          "offset_h": 14,
          "wdir": 130,
          "wspd": 6
        }
      ],
      "metar_raw": "METAR RJFF 152230Z 15006KT 9999 FEW005 SCT015 BKN020 29/26 Q1004 BECMG 26004KT",
      "metar_wdir": 150,
      "metar_wspd": 6,
      "metar_oat": 29,
      "metar_qnh": 1004,
      "hourly_oat": [
        27,
        28,
        29,
        29,
        30,
        30,
        29,
        29,
        29,
        29,
        28,
        28,
        28,
        27,
        27,
        27,
        27,
        26,
        26,
        26,
        26,
        26,
        26,
        26,
        27
      ]
    },
    "KUL": {
      "icao": "WMKK",
      "issued": "2026-07-15T17:00:00.000Z",
      "raw": "TAF WMKK 151700Z 1518/1700 13005KT 9999 FEW030",
      "groups": [
        {
          "text": "TAF WMKK 151700Z 1518/1700 13005KT 9999 FEW030",
          "offset_h": -4,
          "wdir": 130,
          "wspd": 5
        }
      ],
      "metar_raw": "METAR WMKK 152230Z 13004KT 060V190 9999 FEW017CB 28/24 Q1010 NOSIG",
      "metar_wdir": 130,
      "metar_wspd": 4,
      "metar_oat": 28,
      "metar_qnh": 1010,
      "hourly_oat": [
        26,
        26,
        26,
        28,
        29,
        30,
        31,
        32,
        32,
        32,
        30,
        28,
        28,
        27,
        26,
        26,
        26,
        25,
        25,
        25,
        25,
        25,
        24,
        25,
        24
      ]
    },
    "HAN": {
      "icao": "VVNB",
      "issued": "2026-07-15T17:00:00.000Z",
      "raw": "TAF VVNB 151700Z 1518/1618 08005KT 9999 FEW025 TEMPO 1610/1613 4000 TSRA SCT015 FEW027CB",
      "groups": [
        {
          "text": "TAF VVNB 151700Z 1518/1618 08005KT 9999 FEW025",
          "offset_h": -4,
          "wdir": 80,
          "wspd": 5
        },
        {
          "text": "TEMPO 1610/1613 4000 TSRA SCT015 FEW027CB",
          "offset_h": 12,
          "wdir": null,
          "wspd": null
        }
      ],
      "metar_raw": "METAR VVNB 152230Z 07003KT 020V090 CAVOK 29/28 Q1000 NOSIG",
      "metar_wdir": 70,
      "metar_wspd": 3,
      "metar_oat": 29,
      "metar_qnh": 1000,
      "hourly_oat": [
        27,
        27,
        28,
        30,
        31,
        33,
        33,
        34,
        34,
        34,
        34,
        33,
        32,
        32,
        31,
        31,
        30,
        30,
        29,
        29,
        29,
        29,
        29,
        29,
        29
      ]
    },
    "SGN": {
      "icao": "VVTS",
      "issued": "2026-07-15T17:00:00.000Z",
      "raw": "TAF VVTS 151700Z 1518/1624 23008KT 9999 SCT017 SCT040 TEMPO 1606/1609 23015G26KT 2000 +TSRA SCT013 SCT015CB BKN040 TEMPO 1609/1612 5000 SHRA SCT015 FEW017CB BKN040",
      "groups": [
        {
          "text": "TAF VVTS 151700Z 1518/1624 23008KT 9999 SCT017 SCT040",
          "offset_h": -4,
          "wdir": 230,
          "wspd": 8
        },
        {
          "text": "TEMPO 1606/1609 23015G26KT 2000 +TSRA SCT013 SCT015CB BKN040",
          "offset_h": 8,
          "wdir": 230,
          "wspd": 15
        },
        {
          "text": "TEMPO 1609/1612 5000 SHRA SCT015 FEW017CB BKN040",
          "offset_h": 11,
          "wdir": null,
          "wspd": null
        }
      ],
      "metar_raw": "METAR VVTS 152230Z 25002KT CAVOK 25/24 Q1011 NOSIG",
      "metar_wdir": 250,
      "metar_wspd": 2,
      "metar_oat": 25,
      "metar_qnh": 1011,
      "hourly_oat": [
        24,
        24,
        25,
        26,
        28,
        29,
        30,
        31,
        32,
        29,
        26,
        26,
        26,
        26,
        26,
        26,
        25,
        25,
        25,
        25,
        25,
        25,
        25,
        25,
        25
      ]
    },
    "TSA": {
      "icao": "RCSS",
      "issued": "2026-07-15T17:00:00.000Z",
      "raw": "TAF RCSS 151700Z 1518/1618 09005KT 9999 FEW015 BKN032 TEMPO 1518/1524 10005KT 4000 RA FEW010 BKN020 TEMPO 1600/1605 30008KT TEMPO 1606/1612 10012KT 4000 SHRA FEW006 FEW010CB BKN018",
      "groups": [
        {
          "text": "TAF RCSS 151700Z 1518/1618 09005KT 9999 FEW015 BKN032",
          "offset_h": -4,
          "wdir": 90,
          "wspd": 5
        },
        {
          "text": "TEMPO 1518/1524 10005KT 4000 RA FEW010 BKN020",
          "offset_h": -4,
          "wdir": 100,
          "wspd": 5
        },
        {
          "text": "TEMPO 1600/1605 30008KT",
          "offset_h": 2,
          "wdir": 300,
          "wspd": 8
        },
        {
          "text": "TEMPO 1606/1612 10012KT 4000 SHRA FEW006 FEW010CB BKN018",
          "offset_h": 8,
          "wdir": 100,
          "wspd": 12
        }
      ],
      "metar_raw": "METAR RCSS 152230Z VRB01KT 9999 FEW020 SCT250 29/27 Q1008 NOSIG RMK A2978",
      "metar_wdir": "VRB",
      "metar_wspd": 1,
      "metar_oat": 29,
      "metar_qnh": 1008,
      "hourly_oat": [
        26,
        27,
        28,
        30,
        32,
        33,
        33,
        32,
        30,
        31,
        31,
        30,
        30,
        29,
        28,
        28,
        28,
        27,
        27,
        27,
        26,
        26,
        26,
        26,
        26
      ]
    },
    "TPE": {
      "icao": "RCTP",
      "issued": "2026-07-15T17:00:00.000Z",
      "raw": "TAF RCTP 151700Z 1518/1624 24013KT 9999 FEW015 BKN032 TEMPO 1518/1524 18005KT FEW010 BKN020 TEMPO 1603/1609 27015G25KT FEW010 BKN020 TEMPO 1612/1618 22005KT",
      "groups": [
        {
          "text": "TAF RCTP 151700Z 1518/1624 24013KT 9999 FEW015 BKN032",
          "offset_h": -4,
          "wdir": 240,
          "wspd": 13
        },
        {
          "text": "TEMPO 1518/1524 18005KT FEW010 BKN020",
          "offset_h": -4,
          "wdir": 180,
          "wspd": 5
        },
        {
          "text": "TEMPO 1603/1609 27015G25KT FEW010 BKN020",
          "offset_h": 5,
          "wdir": 270,
          "wspd": 15
        },
        {
          "text": "TEMPO 1612/1618 22005KT",
          "offset_h": 14,
          "wdir": 220,
          "wspd": 5
        }
      ],
      "metar_raw": "METAR RCTP 152230Z 23005KT 200V260 9999 FEW020 SCT200 30/25 Q1008 NOSIG RMK A2978",
      "metar_wdir": 230,
      "metar_wspd": 5,
      "metar_oat": 30,
      "metar_qnh": 1008,
      "hourly_oat": [
        27,
        28,
        29,
        30,
        30,
        30,
        30,
        30,
        30,
        30,
        30,
        29,
        29,
        28,
        28,
        28,
        28,
        27,
        27,
        27,
        27,
        27,
        27,
        27,
        27
      ]
    },
    "SIN": {
      "icao": "WSSS",
      "issued": "2026-07-15T17:00:00.000Z",
      "raw": "TAF WSSS 151700Z 1518/1700 14008KT 9999 FEW015 SCT020",
      "groups": [
        {
          "text": "TAF WSSS 151700Z 1518/1700 14008KT 9999 FEW015 SCT020",
          "offset_h": -4,
          "wdir": 140,
          "wspd": 8
        }
      ],
      "metar_raw": "METAR WSSS 152230Z 19002KT 9999 FEW018 BKN300 27/25 Q1011 NOSIG",
      "metar_wdir": 190,
      "metar_wspd": 2,
      "metar_oat": 27,
      "metar_qnh": 1011,
      "hourly_oat": [
        28,
        28,
        29,
        29,
        30,
        30,
        30,
        28,
        29,
        29,
        29,
        29,
        29,
        29,
        28,
        28,
        28,
        28,
        28,
        27,
        27,
        26,
        26,
        26,
        26
      ]
    },
    "BKK": {
      "icao": "VTBS",
      "issued": "2026-07-15T17:00:00.000Z",
      "raw": "TAF VTBS 151700Z 1518/1624 22008KT 9999 FEW020 TEMPO 1610/1615 VRB15KT 4000 TSRA FEW018CB SCT020 BKN080",
      "groups": [
        {
          "text": "TAF VTBS 151700Z 1518/1624 22008KT 9999 FEW020",
          "offset_h": -4,
          "wdir": 220,
          "wspd": 8
        },
        {
          "text": "TEMPO 1610/1615 VRB15KT 4000 TSRA FEW018CB SCT020 BKN080",
          "offset_h": 12,
          "wdir": "VRB",
          "wspd": 15
        }
      ],
      "metar_raw": "METAR VTBS 152230Z 22005KT 9999 FEW020 29/23 Q1010 NOSIG",
      "metar_wdir": 220,
      "metar_wspd": 5,
      "metar_oat": 29,
      "metar_qnh": 1010,
      "hourly_oat": [
        27,
        27,
        28,
        29,
        30,
        31,
        31,
        31,
        30,
        30,
        30,
        29,
        29,
        28,
        28,
        27,
        28,
        28,
        28,
        28,
        28,
        27,
        27,
        27,
        27
      ]
    },
    "GMP": {
      "icao": "RKSS",
      "issued": "2026-07-15T17:00:00.000Z",
      "raw": "TAF RKSS 151700Z 1518/1624 17005KT 6000 NSC TN22/1518Z TX32/1606Z TN23/1619Z BECMG 1601/1603 28007KT 9999 BECMG 1612/1614 06005KT 6000",
      "groups": [
        {
          "text": "TAF RKSS 151700Z 1518/1624 17005KT 6000 NSC TN22/1518Z TX32/1606Z TN23/1619Z",
          "offset_h": -4,
          "wdir": 170,
          "wspd": 5
        },
        {
          "text": "BECMG 1601/1603 28007KT 9999",
          "offset_h": 3,
          "wdir": 280,
          "wspd": 7
        },
        {
          "text": "BECMG 1612/1614 06005KT 6000",
          "offset_h": 14,
          "wdir": 60,
          "wspd": 5
        }
      ],
      "metar_raw": "METAR RKSS 152200Z 17004KT 140V200 5000 BR NSC 25/25 Q1004 NOSIG",
      "metar_wdir": 170,
      "metar_wspd": 4,
      "metar_oat": 25,
      "metar_qnh": 1004,
      "hourly_oat": [
        23,
        24,
        24,
        26,
        28,
        30,
        30,
        29,
        29,
        28,
        27,
        26,
        25,
        24,
        24,
        23,
        23,
        23,
        23,
        22,
        22,
        21,
        21,
        21,
        22
      ]
    },
    "CGK": {
      "icao": "WIII",
      "issued": "2026-07-15T17:00:00.000Z",
      "raw": "TAF WIII 151700Z 1518/1700 15005KT 8000 FEW020 BECMG 1519/1521 4000 HZ BECMG 1601/1603 06012KT 8000 NSW",
      "groups": [
        {
          "text": "TAF WIII 151700Z 1518/1700 15005KT 8000 FEW020",
          "offset_h": -4,
          "wdir": 150,
          "wspd": 5
        },
        {
          "text": "BECMG 1519/1521 4000 HZ",
          "offset_h": -3,
          "wdir": null,
          "wspd": null
        },
        {
          "text": "BECMG 1601/1603 06012KT 8000 NSW",
          "offset_h": 3,
          "wdir": 60,
          "wspd": 12
        }
      ],
      "metar_raw": "METAR WIII 152230Z 17005KT 7000 FEW020 25/22 Q1013 NOSIG",
      "metar_wdir": 170,
      "metar_wspd": 5,
      "metar_oat": 25,
      "metar_qnh": 1013,
      "hourly_oat": [
        24,
        24,
        25,
        28,
        30,
        32,
        33,
        34,
        34,
        33,
        32,
        32,
        31,
        30,
        29,
        29,
        28,
        28,
        27,
        27,
        26,
        26,
        26,
        25,
        25
      ]
    }
  }
}