{
  "updated": "2026-06-27T16:55:26Z",
  "tafs": {
    "NRT": {
      "icao": "RJAA",
      "issued": "2026-06-27T16:20:00.000Z",
      "raw": "TAF AMD RJAA 271620Z 2716/2818 15004KT 6000 FEW005 BKN012 TEMPO 2716/2721 0700 FG FEW001 BKN003 TEMPO 2721/2800 2000 BR FEW001 BKN005 TEMPO 2800/2812 FEW001 BKN005 TEMPO 2812/2818 2000 -SHRA BR FEW001 BKN003 BECMG 2815/2818 03006KT",
      "groups": [
        {
          "text": "TAF AMD RJAA 271620Z 2716/2818 15004KT 6000 FEW005 BKN012",
          "offset_h": 0,
          "wdir": 150,
          "wspd": 4
        },
        {
          "text": "TEMPO 2716/2721 0700 FG FEW001 BKN003",
          "offset_h": 0,
          "wdir": null,
          "wspd": null
        },
        {
          "text": "TEMPO 2721/2800 2000 BR FEW001 BKN005",
          "offset_h": 5,
          "wdir": null,
          "wspd": null
        },
        {
          "text": "TEMPO 2800/2812 FEW001 BKN005",
          "offset_h": 8,
          "wdir": null,
          "wspd": null
        },
        {
          "text": "TEMPO 2812/2818 2000 -SHRA BR FEW001 BKN003",
          "offset_h": 20,
          "wdir": null,
          "wspd": null
        },
        {
          "text": "BECMG 2815/2818 03006KT",
          "offset_h": 23,
          "wdir": 30,
          "wspd": 6
        }
      ],
      "metar_raw": "METAR RJAA 271630Z AUTO 18002KT 0300 R16R/0900V1500U R16L/1100VP2000D FG OVC000 20/20 Q1004 NOSIG",
      "metar_wdir": 180,
      "metar_wspd": 2,
      "metar_oat": 20,
      "metar_qnh": 1004,
      "hourly_oat": [
        20,
        20,
        20,
        20,
        20,
        20,
        20,
        20,
        20,
        20,
        21,
        21,
        21,
        21,
        21,
        21,
        20,
        20,
        20,
        19,
        19,
        19,
        19,
        19,
        19
      ]
    },
    "SAN": {
      "icao": "KSAN",
      "issued": "2026-06-27T16:05:00.000Z",
      "raw": "TAF KSAN 271605Z 2716/2818 VRB04KT P6SM OVC024 FM271800 25010G18KT P6SM FEW030 FM280000 28007KT P6SM OVC028 FM281300 VRB03KT P6SM BKN035",
      "groups": [
        {
          "text": "TAF KSAN 271605Z 2716/2818 VRB04KT P6SM OVC024",
          "offset_h": 0,
          "wdir": "VRB",
          "wspd": 4
        },
        {
          "text": "FM271800 25010G18KT P6SM FEW030",
          "offset_h": 2,
          "wdir": 250,
          "wspd": 10
        },
        {
          "text": "FM280000 28007KT P6SM OVC028",
          "offset_h": 8,
          "wdir": 280,
          "wspd": 7
        },
        {
          "text": "FM281300 VRB03KT P6SM BKN035",
          "offset_h": 21,
          "wdir": "VRB",
          "wspd": 3
        }
      ],
      "metar_raw": "METAR KSAN 271651Z 22006KT 10SM OVC022 19/13 A3001 RMK AO2 SLP161 T01940133 $",
      "metar_wdir": 220,
      "metar_wspd": 6,
      "metar_oat": 19,
      "metar_qnh": 1016,
      "hourly_oat": [
        19,
        20,
        21,
        21,
        21,
        22,
        20,
        20,
        21,
        20,
        19,
        18,
        18,
        18,
        18,
        18,
        17,
        17,
        16,
        16,
        16,
        16,
        17,
        17,
        18
      ]
    },
    "SHA": {
      "icao": "ZSSS",
      "issued": "2026-06-27T15:08:00.000Z",
      "raw": "TAF ZSSS 271508Z 2718/2824 13004MPS 8000 BKN020 TX30/2806Z TN22/2721Z TN23/2821Z",
      "groups": [
        {
          "text": "TAF ZSSS 271508Z 2718/2824 13004MPS 8000 BKN020 TX30/2806Z TN22/2721Z TN23/2821Z",
          "offset_h": 2,
          "wdir": null,
          "wspd": null
        }
      ],
      "metar_raw": "METAR ZSSS 271630Z 15002MPS CAVOK 23/20 Q1007 NOSIG",
      "metar_wdir": null,
      "metar_wspd": null,
      "metar_oat": 23,
      "metar_qnh": 1007,
      "hourly_oat": [
        23,
        22,
        22,
        22,
        22,
        22,
        23,
        24,
        26,
        27,
        28,
        29,
        29,
        29,
        28,
        28,
        28,
        27,
        26,
        25,
        25,
        24,
        24,
        24,
        23
      ]
    },
    "PVG": {
      "icao": "ZSPD",
      "issued": "2026-06-27T15:07:00.000Z",
      "raw": "TAF ZSPD 271507Z 2718/2824 13004MPS 8000 BKN020 TX29/2806Z TN22/2721Z TN23/2821Z",
      "groups": [
        {
          "text": "TAF ZSPD 271507Z 2718/2824 13004MPS 8000 BKN020 TX29/2806Z TN22/2721Z TN23/2821Z",
          "offset_h": 2,
          "wdir": null,
          "wspd": null
        }
      ],
      "metar_raw": "METAR ZSPD 271630Z 16002MPS CAVOK 22/20 Q1007 NOSIG",
      "metar_wdir": null,
      "metar_wspd": null,
      "metar_oat": 22,
      "metar_qnh": 1007,
      "hourly_oat": [
        22,
        22,
        22,
        22,
        22,
        22,
        23,
        25,
        26,
        27,
        28,
        28,
        28,
        28,
        28,
        27,
        27,
        26,
        25,
        25,
        24,
        24,
        24,
        23,
        23
      ]
    },
    "CAN": {
      "icao": "ZGGG",
      "issued": "2026-06-27T15:06:00.000Z",
      "raw": "TAF ZGGG 271506Z 2718/2824 14003MPS 8000 BKN033 TX33/2807Z TN27/2722Z TN26/2822Z TEMPO 2720/2724 +SHRA FEW026CB BKN033 TEMPO 2805/2809 2500 +TSRA SCT010 SCT026CB BKN033 TEMPO 2819/2823 SHRA FEW026CB BKN033",
      "groups": [
        {
          "text": "TAF ZGGG 271506Z 2718/2824 14003MPS 8000 BKN033 TX33/2807Z TN27/2722Z TN26/2822Z",
          "offset_h": 2,
          "wdir": null,
          "wspd": null
        },
        {
          "text": "TEMPO 2720/2724 +SHRA FEW026CB BKN033",
          "offset_h": 4,
          "wdir": null,
          "wspd": null
        },
        {
          "text": "TEMPO 2805/2809 2500 +TSRA SCT010 SCT026CB BKN033",
          "offset_h": 13,
          "wdir": null,
          "wspd": null
        },
        {
          "text": "TEMPO 2819/2823 SHRA FEW026CB BKN033",
          "offset_h": 27,
          "wdir": null,
          "wspd": null
        }
      ],
      "metar_raw": "METAR ZGGG 271630Z 07002MPS 9999 FEW020 BKN040 29/26 Q1004 NOSIG",
      "metar_wdir": null,
      "metar_wspd": null,
      "metar_oat": 29,
      "metar_qnh": 1004,
      "hourly_oat": [
        26,
        26,
        25,
        25,
        25,
        25,
        25,
        25,
        26,
        27,
        27,
        28,
        30,
        31,
        28,
        27,
        28,
        28,
        28,
        28,
        27,
        27,
        27,
        27,
        26
      ]
    },
    "PEK": {
      "icao": "ZBAA",
      "issued": "2026-06-27T15:04:00.000Z",
      "raw": "TAF ZBAA 271504Z 2718/2824 18004MPS CAVOK TX31/2806Z TN20/2721Z TN19/2821Z TEMPO 2810/2813 -TSRA FEW030CB BKN040",
      "groups": [
        {
          "text": "TAF ZBAA 271504Z 2718/2824 18004MPS CAVOK TX31/2806Z TN20/2721Z TN19/2821Z",
          "offset_h": 2,
          "wdir": null,
          "wspd": null
        },
        {
          "text": "TEMPO 2810/2813 -TSRA FEW030CB BKN040",
          "offset_h": 18,
          "wdir": null,
          "wspd": null
        }
      ],
      "metar_raw": "METAR ZBAA 271630Z 01003MPS CAVOK 24/20 Q1002 NOSIG",
      "metar_wdir": null,
      "metar_wspd": null,
      "metar_oat": 24,
      "metar_qnh": 1002,
      "hourly_oat": [
        25,
        23,
        22,
        22,
        22,
        22,
        22,
        24,
        25,
        24,
        25,
        28,
        30,
        31,
        32,
        31,
        28,
        27,
        27,
        25,
        24,
        24,
        23,
        22,
        22
      ]
    },
    "LAX": {
      "icao": "KLAX",
      "issued": "2026-06-27T15:03:00.000Z",
      "raw": "TAF KLAX 271503Z 2715/2818 VRB03KT P6SM OVC025 FM271800 26010KT P6SM SCT025 FM272100 26015KT P6SM SKC FM280400 25008KT P6SM BKN025 FM280800 VRB03KT P6SM OVC020",
      "groups": [
        {
          "text": "TAF KLAX 271503Z 2715/2818 VRB03KT P6SM OVC025",
          "offset_h": -1,
          "wdir": "VRB",
          "wspd": 3
        },
        {
          "text": "FM271800 26010KT P6SM SCT025",
          "offset_h": 2,
          "wdir": 260,
          "wspd": 10
        },
        {
          "text": "FM272100 26015KT P6SM SKC",
          "offset_h": 5,
          "wdir": 260,
          "wspd": 15
        },
        {
          "text": "FM280400 25008KT P6SM BKN025",
          "offset_h": 12,
          "wdir": 250,
          "wspd": 8
        },
        {
          "text": "FM280800 VRB03KT P6SM OVC020",
          "offset_h": 16,
          "wdir": "VRB",
          "wspd": 3
        }
      ],
      "metar_raw": "METAR KLAX 271653Z VRB06KT 10SM SCT024 BKN032 21/13 A2998 RMK AO2 SLP150 T02110128",
      "metar_wdir": "VRB",
      "metar_wspd": 6,
      "metar_oat": 21,
      "metar_qnh": 1015,
      "hourly_oat": [
        19,
        21,
        23,
        22,
        22,
        22,
        22,
        21,
        20,
        19,
        18,
        18,
        17,
        16,
        15,
        15,
        14,
        14,
        15,
        15,
        16,
        16,
        16,
        17,
        19
      ]
    },
    "DLC": {
      "icao": "ZYTL",
      "issued": "2026-06-27T15:01:00.000Z",
      "raw": "TAF ZYTL 271501Z 2718/2818 16004MPS 6000 FEW040 TX29/2806Z TN20/2721Z",
      "groups": [
        {
          "text": "TAF ZYTL 271501Z 2718/2818 16004MPS 6000 FEW040 TX29/2806Z TN20/2721Z",
          "offset_h": 2,
          "wdir": null,
          "wspd": null
        }
      ],
      "metar_raw": "METAR ZYTL 271630Z 11003MPS 9000 NSC 21/18 Q1006 NOSIG",
      "metar_wdir": null,
      "metar_wspd": null,
      "metar_oat": 21,
      "metar_qnh": 1006,
      "hourly_oat": [
        22,
        22,
        22,
        22,
        21,
        21,
        22,
        24,
        26,
        27,
        28,
        28,
        29,
        29,
        29,
        29,
        28,
        28,
        27,
        26,
        25,
        25,
        24,
        24,
        23
      ]
    },
    "HNL": {
      "icao": "PHNL",
      "issued": "2026-06-27T14:55:00.000Z",
      "raw": "TAF PHNL 271455Z 2715/2818 06010KT P6SM VCSH FEW020 BKN040 FM272000 06015G25KT P6SM FEW025 SCT040 FM280800 05010KT P6SM FEW025 SCT040",
      "groups": [
        {
          "text": "TAF PHNL 271455Z 2715/2818 06010KT P6SM VCSH FEW020 BKN040",
          "offset_h": -1,
          "wdir": 60,
          "wspd": 10
        },
        {
          "text": "FM272000 06015G25KT P6SM FEW025 SCT040",
          "offset_h": 4,
          "wdir": 60,
          "wspd": 15
        },
        {
          "text": "FM280800 05010KT P6SM FEW025 SCT040",
          "offset_h": 16,
          "wdir": 50,
          "wspd": 10
        }
      ],
      "metar_raw": "METAR PHNL 271653Z 05009KT 10SM FEW025 FEW035 SCT055 25/18 A2999 RMK AO2 SLP156 T02500178 $",
      "metar_wdir": 50,
      "metar_wspd": 9,
      "metar_oat": 25,
      "metar_qnh": 1016,
      "hourly_oat": [
        23,
        24,
        25,
        26,
        27,
        28,
        29,
        30,
        30,
        29,
        28,
        27,
        26,
        25,
        24,
        24,
        24,
        24,
        24,
        23,
        23,
        23,
        23,
        23,
        23
      ]
    },
    "HKG": {
      "icao": "VHHH",
      "issued": "2026-06-27T14:00:00.000Z",
      "raw": "TAF VHHH 271400Z 2715/2821 16010KT 9999 FEW010 SCT025 TX32/2806Z TN27/2722Z TEMPO 2718/2722 22010KT 4000 SHRA FEW010CB SCT020 TEMPO 2722/2804 22015G25KT 2500 TSRA SHRA FEW008CB SCT015 TEMPO 2804/2810 22010KT PROB30 TEMPO 2816/2821 VRB15G25KT 2500 TSRA SHRA FEW008CB SCT015",
      "groups": [
        {
          "text": "TAF VHHH 271400Z 2715/2821 16010KT 9999 FEW010 SCT025 TX32/2806Z TN27/2722Z",
          "offset_h": -1,
          "wdir": 160,
          "wspd": 10
        },
        {
          "text": "TEMPO 2718/2722 22010KT 4000 SHRA FEW010CB SCT020",
          "offset_h": 2,
          "wdir": 220,
          "wspd": 10
        },
        {
          "text": "TEMPO 2722/2804 22015G25KT 2500 TSRA SHRA FEW008CB SCT015",
          "offset_h": 6,
          "wdir": 220,
          "wspd": 15
        },
        {
          "text": "TEMPO 2804/2810 22010KT",
          "offset_h": 12,
          "wdir": 220,
          "wspd": 10
        },
        {
          "text": "PROB30",
          "offset_h": 0,
          "wdir": null,
          "wspd": null
        },
        {
          "text": "TEMPO 2816/2821 VRB15G25KT 2500 TSRA SHRA FEW008CB SCT015",
          "offset_h": 24,
          "wdir": "VRB",
          "wspd": 15
        }
      ],
      "metar_raw": "METAR VHHH 271630Z 17005KT 090V200 9999 FEW010 SCT040 30/25 Q1004 NOSIG",
      "metar_wdir": 170,
      "metar_wspd": 5,
      "metar_oat": 30,
      "metar_qnh": 1004,
      "hourly_oat": [
        28,
        28,
        28,
        28,
        26,
        26,
        26,
        26,
        27,
        28,
        28,
        28,
        26,
        26,
        27,
        27,
        27,
        27,
        28,
        28,
        28,
        28,
        28,
        28,
        28
      ]
    },
    "ITM": {
      "icao": "RJOO",
      "issued": "2026-06-27T11:07:00.000Z",
      "raw": "TAF RJOO 271107Z 2712/2818 32006KT 9999 FEW010 BKN030 BECMG 2800/2803 22005KT BECMG 2809/2812 32005KT",
      "groups": [
        {
          "text": "TAF RJOO 271107Z 2712/2818 32006KT 9999 FEW010 BKN030",
          "offset_h": -4,
          "wdir": 320,
          "wspd": 6
        },
        {
          "text": "BECMG 2800/2803 22005KT",
          "offset_h": 8,
          "wdir": 220,
          "wspd": 5
        },
        {
          "text": "BECMG 2809/2812 32005KT",
          "offset_h": 17,
          "wdir": 320,
          "wspd": 5
        }
      ],
      "metar_raw": "METAR RJOO 271600Z AUTO 33005KT 9999 NSC 21/19 Q1005",
      "metar_wdir": 330,
      "metar_wspd": 5,
      "metar_oat": 21,
      "metar_qnh": 1005,
      "hourly_oat": [
        22,
        21,
        21,
        20,
        20,
        20,
        21,
        21,
        22,
        24,
        25,
        26,
        26,
        27,
        27,
        26,
        26,
        26,
        25,
        24,
        24,
        23,
        23,
        22,
        22
      ]
    },
    "KIX": {
      "icao": "RJBB",
      "issued": "2026-06-27T11:07:00.000Z",
      "raw": "TAF RJBB 271107Z 2712/2818 04008KT 9999 FEW010 BKN025 BECMG 2803/2806 25006KT",
      "groups": [
        {
          "text": "TAF RJBB 271107Z 2712/2818 04008KT 9999 FEW010 BKN025",
          "offset_h": -4,
          "wdir": 40,
          "wspd": 8
        },
        {
          "text": "BECMG 2803/2806 25006KT",
          "offset_h": 11,
          "wdir": 250,
          "wspd": 6
        }
      ],
      "metar_raw": "METAR RJBB 271630Z AUTO 07006KT 9999 -RA BKN044 BKN049 OVC070 21/20 Q1006 NOSIG",
      "metar_wdir": 70,
      "metar_wspd": 6,
      "metar_oat": 21,
      "metar_qnh": 1006,
      "hourly_oat": [
        23,
        22,
        22,
        22,
        22,
        22,
        22,
        22,
        22,
        22,
        22,
        23,
        23,
        23,
        23,
        23,
        23,
        23,
        23,
        23,
        23,
        23,
        23,
        23,
        23
      ]
    },
    "NGO": {
      "icao": "RJGG",
      "issued": "2026-06-27T11:05:00.000Z",
      "raw": "TAF RJGG 271105Z 2712/2818 31008KT 9999 FEW030 BECMG 2800/2803 18008KT BECMG 2812/2815 05004KT",
      "groups": [
        {
          "text": "TAF RJGG 271105Z 2712/2818 31008KT 9999 FEW030",
          "offset_h": -4,
          "wdir": 310,
          "wspd": 8
        },
        {
          "text": "BECMG 2800/2803 18008KT",
          "offset_h": 8,
          "wdir": 180,
          "wspd": 8
        },
        {
          "text": "BECMG 2812/2815 05004KT",
          "offset_h": 20,
          "wdir": 50,
          "wspd": 4
        }
      ],
      "metar_raw": "METAR RJGG 271630Z AUTO 25004KT 9999 BKN048 BKN090 OVC130 21/20 Q1004 BECMG 30006KT",
      "metar_wdir": 250,
      "metar_wspd": 4,
      "metar_oat": 21,
      "metar_qnh": 1004,
      "hourly_oat": [
        24,
        24,
        24,
        23,
        23,
        23,
        23,
        23,
        23,
        23,
        23,
        23,
        23,
        23,
        23,
        24,
        24,
        24,
        24,
        23,
        23,
        23,
        23,
        23,
        23
      ]
    },
    "FUK": {
      "icao": "RJFF",
      "issued": "2026-06-27T11:05:00.000Z",
      "raw": "TAF RJFF 271105Z 2712/2818 35004KT 9999 FEW011 BKN020",
      "groups": [
        {
          "text": "TAF RJFF 271105Z 2712/2818 35004KT 9999 FEW011 BKN020",
          "offset_h": -4,
          "wdir": 350,
          "wspd": 4
        }
      ],
      "metar_raw": "METAR RJFF 271630Z AUTO 35003KT 320V020 9999 SCT012 OVC033 22/19 Q1006 NOSIG",
      "metar_wdir": 350,
      "metar_wspd": 3,
      "metar_oat": 22,
      "metar_qnh": 1006,
      "hourly_oat": [
        21,
        21,
        21,
        21,
        21,
        21,
        22,
        22,
        23,
        23,
        23,
        24,
        24,
        24,
        24,
        23,
        23,
        23,
        22,
        22,
        22,
        22,
        21,
        21,
        20
      ]
    },
    "CTS": {
      "icao": "RJCC",
      "issued": "2026-06-27T11:05:00.000Z",
      "raw": "TAF RJCC 271105Z 2712/2818 34012KT 9999 FEW008 BKN015 TEMPO 2712/2721 FEW003 BKN008 TEMPO 2815/2818 FEW003 BKN008",
      "groups": [
        {
          "text": "TAF RJCC 271105Z 2712/2818 34012KT 9999 FEW008 BKN015",
          "offset_h": -4,
          "wdir": 340,
          "wspd": 12
        },
        {
          "text": "TEMPO 2712/2721 FEW003 BKN008",
          "offset_h": -4,
          "wdir": null,
          "wspd": null
        },
        {
          "text": "TEMPO 2815/2818 FEW003 BKN008",
          "offset_h": 23,
          "wdir": null,
          "wspd": null
        }
      ],
      "metar_raw": "METAR RJCC 271630Z 35009KT 9999 FEW005 BKN007 BKN015 17/16 Q1004",
      "metar_wdir": 350,
      "metar_wspd": 9,
      "metar_oat": 17,
      "metar_qnh": 1004,
      "hourly_oat": [
        16,
        16,
        16,
        16,
        16,
        17,
        18,
        19,
        20,
        21,
        21,
        22,
        21,
        21,
        20,
        19,
        18,
        17,
        16,
        15,
        15,
        15,
        14,
        14,
        14
      ]
    },
    "HND": {
      "icao": "RJTT",
      "issued": "2026-06-27T11:05:00.000Z",
      "raw": "TAF RJTT 271105Z 2712/2818 34004KT 9999 FEW008 BKN015 BECMG 2717/2719 15006KT BECMG 2812/2815 02008KT TEMPO 2812/2818 FEW005 BKN008",
      "groups": [
        {
          "text": "TAF RJTT 271105Z 2712/2818 34004KT 9999 FEW008 BKN015",
          "offset_h": -4,
          "wdir": 340,
          "wspd": 4
        },
        {
          "text": "BECMG 2717/2719 15006KT",
          "offset_h": 1,
          "wdir": 150,
          "wspd": 6
        },
        {
          "text": "BECMG 2812/2815 02008KT",
          "offset_h": 20,
          "wdir": 20,
          "wspd": 8
        },
        {
          "text": "TEMPO 2812/2818 FEW005 BKN008",
          "offset_h": 20,
          "wdir": null,
          "wspd": null
        }
      ],
      "metar_raw": "METAR RJTT 271630Z 20006KT 9999 FEW010 BKN060 22/21 Q1004 NOSIG",
      "metar_wdir": 200,
      "metar_wspd": 6,
      "metar_oat": 22,
      "metar_qnh": 1004,
      "hourly_oat": [
        22,
        22,
        22,
        22,
        22,
        22,
        22,
        22,
        22,
        22,
        23,
        23,
        23,
        22,
        22,
        22,
        22,
        22,
        21,
        21,
        20,
        20,
        20,
        20,
        20
      ]
    },
    "OKA": {
      "icao": "ROAH",
      "issued": "2026-06-27T11:05:00.000Z",
      "raw": "TAF ROAH 271105Z 2712/2818 08006KT 9999 FEW008 BKN012 TEMPO 2712/2715 FEW005 BKN008 BECMG 2713/2715 17008KT TEMPO 2715/2721 FEW002 BKN005 TEMPO 2721/2803 4000 SHRA BR FEW005 BKN008 FEW020CB TEMPO 2803/2806 4000 TSRA BR FEW005 BKN008 FEW020CB",
      "groups": [
        {
          "text": "TAF ROAH 271105Z 2712/2818 08006KT 9999 FEW008 BKN012",
          "offset_h": -4,
          "wdir": 80,
          "wspd": 6
        },
        {
          "text": "TEMPO 2712/2715 FEW005 BKN008",
          "offset_h": -4,
          "wdir": null,
          "wspd": null
        },
        {
          "text": "BECMG 2713/2715 17008KT",
          "offset_h": -3,
          "wdir": 170,
          "wspd": 8
        },
        {
          "text": "TEMPO 2715/2721 FEW002 BKN005",
          "offset_h": -1,
          "wdir": null,
          "wspd": null
        },
        {
          "text": "TEMPO 2721/2803 4000 SHRA BR FEW005 BKN008 FEW020CB",
          "offset_h": 5,
          "wdir": null,
          "wspd": null
        },
        {
          "text": "TEMPO 2803/2806 4000 TSRA BR FEW005 BKN008 FEW020CB",
          "offset_h": 11,
          "wdir": null,
          "wspd": null
        }
      ],
      "metar_raw": "METAR ROAH 271630Z AUTO 24007KT 9999 FEW038 BKN110 BKN130 25/25 Q1008",
      "metar_wdir": 240,
      "metar_wspd": 7,
      "metar_oat": 25,
      "metar_qnh": 1008,
      "hourly_oat": [
        26,
        26,
        26,
        26,
        26,
        26,
        26,
        27,
        28,
        28,
        28,
        28,
        28,
        28,
        28,
        28,
        27,
        27,
        27,
        27,
        26,
        26,
        26,
        26,
        26
      ]
    },
    "BKK": {
      "icao": "VTBS",
      "issued": "2026-06-27T11:00:00.000Z",
      "raw": "TAF VTBS 271100Z 2712/2818 22008KT 9999 FEW020 TEMPO 2712/2716 VRB15KT 4000 TSRA FEW018CB SCT030 BKN100 TEMPO 2812/2816 VRB15KT 4000 TSRA FEW018CB SCT030 BKN100",
      "groups": [
        {
          "text": "TAF VTBS 271100Z 2712/2818 22008KT 9999 FEW020",
          "offset_h": -4,
          "wdir": 220,
          "wspd": 8
        },
        {
          "text": "TEMPO 2712/2716 VRB15KT 4000 TSRA FEW018CB SCT030 BKN100",
          "offset_h": -4,
          "wdir": "VRB",
          "wspd": 15
        },
        {
          "text": "TEMPO 2812/2816 VRB15KT 4000 TSRA FEW018CB SCT030 BKN100",
          "offset_h": 20,
          "wdir": "VRB",
          "wspd": 15
        }
      ],
      "metar_raw": "METAR VTBS 271630Z 18007KT 9999 -TSRA FEW030CB 28/24 Q1009 NOSIG",
      "metar_wdir": 180,
      "metar_wspd": 7,
      "metar_oat": 28,
      "metar_qnh": 1009,
      "hourly_oat": [
        28,
        28,
        28,
        27,
        27,
        26,
        26,
        26,
        27,
        29,
        30,
        32,
        33,
        34,
        34,
        31,
        33,
        33,
        31,
        26,
        27,
        27,
        27,
        26,
        26
      ]
    },
    "SIN": {
      "icao": "WSSS",
      "issued": "2026-06-27T11:00:00.000Z",
      "raw": "TAF WSSS 271100Z 2712/2818 16006KT 9999 FEW015 SCT020",
      "groups": [
        {
          "text": "TAF WSSS 271100Z 2712/2818 16006KT 9999 FEW015 SCT020",
          "offset_h": -4,
          "wdir": 160,
          "wspd": 6
        }
      ],
      "metar_raw": "METAR WSSS 271630Z 15004KT 110V180 9999 FEW018 BKN300 28/25 Q1010 NOSIG",
      "metar_wdir": 150,
      "metar_wspd": 4,
      "metar_oat": 28,
      "metar_qnh": 1010,
      "hourly_oat": [
        28,
        28,
        28,
        28,
        27,
        27,
        27,
        27,
        28,
        29,
        30,
        31,
        31,
        32,
        32,
        30,
        30,
        30,
        30,
        29,
        29,
        28,
        28,
        28,
        28
      ]
    },
    "KUL": {
      "icao": "WMKK",
      "issued": "2026-06-27T11:00:00.000Z",
      "raw": "TAF WMKK 271100Z 2712/2818 14005KT 9999 FEW030",
      "groups": [
        {
          "text": "TAF WMKK 271100Z 2712/2818 14005KT 9999 FEW030",
          "offset_h": -4,
          "wdir": 140,
          "wspd": 5
        }
      ],
      "metar_raw": "METAR WMKK 271630Z VRB02KT 9999 FEW030 28/24 Q1009 NOSIG",
      "metar_wdir": "VRB",
      "metar_wspd": 2,
      "metar_oat": 28,
      "metar_qnh": 1009,
      "hourly_oat": [
        25,
        25,
        25,
        24,
        24,
        24,
        24,
        23,
        24,
        25,
        27,
        29,
        30,
        30,
        30,
        31,
        30,
        30,
        29,
        28,
        27,
        26,
        26,
        25,
        25
      ]
    },
    "TSA": {
      "icao": "RCSS",
      "issued": "2026-06-27T11:00:00.000Z",
      "raw": "TAF RCSS 271100Z 2712/2812 09005KT 7000 FEW015 BKN032 TEMPO 2712/2716 5000 -RA BR FEW010 BKN020 BKN040 BECMG 2800/2802 29005KT TEMPO 2804/2810 10008KT 3200 SHRA FEW008 FEW012CB BKN014",
      "groups": [
        {
          "text": "TAF RCSS 271100Z 2712/2812 09005KT 7000 FEW015 BKN032",
          "offset_h": -4,
          "wdir": 90,
          "wspd": 5
        },
        {
          "text": "TEMPO 2712/2716 5000 -RA BR FEW010 BKN020 BKN040",
          "offset_h": -4,
          "wdir": null,
          "wspd": null
        },
        {
          "text": "BECMG 2800/2802 29005KT",
          "offset_h": 8,
          "wdir": 290,
          "wspd": 5
        },
        {
          "text": "TEMPO 2804/2810 10008KT 3200 SHRA FEW008 FEW012CB BKN014",
          "offset_h": 12,
          "wdir": 100,
          "wspd": 8
        }
      ],
      "metar_raw": "METAR RCSS 271600Z VRB02KT 9999 -RA FEW010 BKN050 25/25 Q1007 NOSIG RMK A2974 RA AMT 1.0MM",
      "metar_wdir": "VRB",
      "metar_wspd": 2,
      "metar_oat": 25,
      "metar_qnh": 1007,
      "hourly_oat": [
        25,
        25,
        25,
        24,
        24,
        24,
        25,
        25,
        26,
        28,
        29,
        30,
        29,
        29,
        29,
        29,
        27,
        27,
        27,
        26,
        26,
        25,
        25,
        25,
        25
      ]
    },
    "TPE": {
      "icao": "RCTP",
      "issued": "2026-06-27T11:00:00.000Z",
      "raw": "TAF RCTP 271100Z 2712/2818 07005KT 7000 FEW015 BKN032 TEMPO 2712/2716 5000 -RA BR SCT008 BKN014 TEMPO 2716/2722 14005KT BECMG 2722/2724 22005KT 9999 TEMPO 2803/2809 29008KT 6000 -SHRA FEW010 BKN017 BECMG 2810/2812 09005KT",
      "groups": [
        {
          "text": "TAF RCTP 271100Z 2712/2818 07005KT 7000 FEW015 BKN032",
          "offset_h": -4,
          "wdir": 70,
          "wspd": 5
        },
        {
          "text": "TEMPO 2712/2716 5000 -RA BR SCT008 BKN014",
          "offset_h": -4,
          "wdir": null,
          "wspd": null
        },
        {
          "text": "TEMPO 2716/2722 14005KT",
          "offset_h": 0,
          "wdir": 140,
          "wspd": 5
        },
        {
          "text": "BECMG 2722/2724 22005KT 9999",
          "offset_h": 6,
          "wdir": 220,
          "wspd": 5
        },
        {
          "text": "TEMPO 2803/2809 29008KT 6000 -SHRA FEW010 BKN017",
          "offset_h": 11,
          "wdir": 290,
          "wspd": 8
        },
        {
          "text": "BECMG 2810/2812 09005KT",
          "offset_h": 18,
          "wdir": 90,
          "wspd": 5
        }
      ],
      "metar_raw": "METAR RCTP 271630Z 11005KT 080V190 9999 -DZ FEW012 BKN022 BKN130 26/25 Q1006 NOSIG RMK A2972",
      "metar_wdir": 110,
      "metar_wspd": 5,
      "metar_oat": 26,
      "metar_qnh": 1006,
      "hourly_oat": [
        24,
        24,
        24,
        24,
        24,
        24,
        24,
        25,
        26,
        28,
        27,
        27,
        27,
        26,
        26,
        26,
        27,
        26,
        26,
        26,
        26,
        26,
        25,
        25,
        25
      ]
    },
    "GMP": {
      "icao": "RKSS",
      "issued": "2026-06-27T11:00:00.000Z",
      "raw": "TAF RKSS 271100Z 2712/2818 19005KT CAVOK TN21/2720Z TX32/2805Z BECMG 2800/2802 27006KT 9999 SCT040 BECMG 2811/2813 19005KT",
      "groups": [
        {
          "text": "TAF RKSS 271100Z 2712/2818 19005KT CAVOK TN21/2720Z TX32/2805Z",
          "offset_h": -4,
          "wdir": 190,
          "wspd": 5
        },
        {
          "text": "BECMG 2800/2802 27006KT 9999 SCT040",
          "offset_h": 8,
          "wdir": 270,
          "wspd": 6
        },
        {
          "text": "BECMG 2811/2813 19005KT",
          "offset_h": 19,
          "wdir": 190,
          "wspd": 5
        }
      ],
      "metar_raw": "METAR RKSS 271600Z 04002KT CAVOK 22/18 Q1007 NOSIG",
      "metar_wdir": 40,
      "metar_wspd": 2,
      "metar_oat": 22,
      "metar_qnh": 1007,
      "hourly_oat": [
        21,
        20,
        20,
        19,
        19,
        19,
        20,
        22,
        24,
        26,
        27,
        29,
        30,
        30,
        29,
        28,
        27,
        26,
        24,
        23,
        22,
        22,
        21,
        21,
        21
      ]
    },
    "CGK": {
      "icao": "WIII",
      "issued": "2026-06-27T11:00:00.000Z",
      "raw": "TAF WIII 271100Z 2712/2818 08010KT 7000 SCT020 BECMG 2712/2714 17005KT 5000 HZ BECMG 2802/2804 06011KT",
      "groups": [
        {
          "text": "TAF WIII 271100Z 2712/2818 08010KT 7000 SCT020",
          "offset_h": -4,
          "wdir": 80,
          "wspd": 10
        },
        {
          "text": "BECMG 2712/2714 17005KT 5000 HZ",
          "offset_h": -4,
          "wdir": 170,
          "wspd": 5
        },
        {
          "text": "BECMG 2802/2804 06011KT",
          "offset_h": 10,
          "wdir": 60,
          "wspd": 11
        }
      ],
      "metar_raw": "METAR WIII 271630Z VRB02KT 7000 FEW020 28/25 Q1010 NOSIG",
      "metar_wdir": "VRB",
      "metar_wspd": 2,
      "metar_oat": 28,
      "metar_qnh": 1010,
      "hourly_oat": [
        25,
        25,
        25,
        24,
        24,
        24,
        24,
        24,
        25,
        27,
        29,
        31,
        32,
        33,
        33,
        33,
        31,
        30,
        29,
        29,
        27,
        27,
        26,
        26,
        25
      ]
    },
    "HAN": {
      "icao": "VVNB",
      "issued": "2026-06-27T11:00:00.000Z",
      "raw": "TAF VVNB 271100Z 2712/2812 02006KT 9999 FEW020 TEMPO 2716/2721 22015G25KT 2500 +TSRA BKN010 SCT027CB TEMPO 2722/2802 4000 SHRA SCT010 FEW025TCU TEMPO 2808/2812 4000 SHRA SCT010 FEW025TCU",
      "groups": [
        {
          "text": "TAF VVNB 271100Z 2712/2812 02006KT 9999 FEW020",
          "offset_h": -4,
          "wdir": 20,
          "wspd": 6
        },
        {
          "text": "TEMPO 2716/2721 22015G25KT 2500 +TSRA BKN010 SCT027CB",
          "offset_h": 0,
          "wdir": 220,
          "wspd": 15
        },
        {
          "text": "TEMPO 2722/2802 4000 SHRA SCT010 FEW025TCU",
          "offset_h": 6,
          "wdir": null,
          "wspd": null
        },
        {
          "text": "TEMPO 2808/2812 4000 SHRA SCT010 FEW025TCU",
          "offset_h": 16,
          "wdir": null,
          "wspd": null
        }
      ],
      "metar_raw": "METAR VVNB 271630Z 11004KT 080V150 9999 -RA SCT017 BKN035 28/26 Q1004 NOSIG",
      "metar_wdir": 110,
      "metar_wspd": 4,
      "metar_oat": 28,
      "metar_qnh": 1004,
      "hourly_oat": [
        28,
        26,
        26,
        25,
        25,
        25,
        25,
        25,
        25,
        26,
        27,
        29,
        30,
        31,
        32,
        33,
        33,
        32,
        30,
        28,
        27,
        27,
        27,
        27,
        27
      ]
    },
    "SGN": {
      "icao": "VVTS",
      "issued": "2026-06-27T11:00:00.000Z",
      "raw": "TAF VVTS 271100Z 2712/2818 26010KT 9999 SCT017 TEMPO 2806/2809 26015G28KT 2500 +TSRA BKN015 SCT017CB TEMPO 2809/2812 5000 TSRA SCT015 FEW017CB",
      "groups": [
        {
          "text": "TAF VVTS 271100Z 2712/2818 26010KT 9999 SCT017",
          "offset_h": -4,
          "wdir": 260,
          "wspd": 10
        },
        {
          "text": "TEMPO 2806/2809 26015G28KT 2500 +TSRA BKN015 SCT017CB",
          "offset_h": 14,
          "wdir": 260,
          "wspd": 15
        },
        {
          "text": "TEMPO 2809/2812 5000 TSRA SCT015 FEW017CB",
          "offset_h": 17,
          "wdir": null,
          "wspd": null
        }
      ],
      "metar_raw": "METAR VVTS 271630Z 23007KT 190V250 CAVOK 29/26 Q1009 NOSIG",
      "metar_wdir": 230,
      "metar_wspd": 7,
      "metar_oat": 29,
      "metar_qnh": 1009,
      "hourly_oat": [
        28,
        27,
        27,
        27,
        26,
        26,
        26,
        26,
        27,
        29,
        31,
        32,
        33,
        34,
        34,
        27,
        27,
        29,
        29,
        28,
        28,
        28,
        27,
        27,
        27
      ]
    }
  }
}