{
  "updated": "2026-06-18T20:09:56Z",
  "tafs": {
    "HKG": {
      "icao": "VHHH",
      "issued": "2026-06-18T20:00:00.000Z",
      "raw": "TAF VHHH 182000Z 1821/2003 18015KT 9999 FEW010 SCT025 TX32/1906Z TN28/1822Z TN28/1922Z TEMPO 1821/1903 4000 SHRA FEW010CB SCT020",
      "groups": [
        {
          "text": "TAF VHHH 182000Z 1821/2003 18015KT 9999 FEW010 SCT025 TX32/1906Z TN28/1822Z TN28/1922Z",
          "offset_h": 1,
          "wdir": 180,
          "wspd": 15
        },
        {
          "text": "TEMPO 1821/1903 4000 SHRA FEW010CB SCT020",
          "offset_h": 1,
          "wdir": null,
          "wspd": null
        }
      ],
      "metar_raw": "METAR VHHH 182000Z 19014KT 9999 FEW008 SCT020 29/25 Q1007 NOSIG",
      "metar_wdir": 190,
      "metar_wspd": 14,
      "metar_oat": 29,
      "metar_qnh": 1007,
      "hourly_oat": [
        27,
        27,
        27,
        28,
        28,
        28,
        29,
        29,
        29,
        30,
        30,
        30,
        29,
        29,
        29,
        29,
        29,
        29,
        29,
        29,
        28,
        28,
        28,
        28,
        28
      ]
    },
    "NRT": {
      "icao": "RJAA",
      "issued": "2026-06-18T19:52:00.000Z",
      "raw": "TAF AMD RJAA 181952Z 1819/2000 01004KT 6000 FEW003 BKN012 TEMPO 1819/1822 1500 BR BCFG FEW001 BKN003 BECMG 1822/1900 14005KT TEMPO 1822/1900 FEW002 BKN005 TEMPO 1906/1912 FEW002 BKN005 TEMPO 1912/1921 2000 BR FEW001 BKN003 TEMPO 1921/2000 FEW001 BKN003",
      "groups": [
        {
          "text": "TAF AMD RJAA 181952Z 1819/2000 01004KT 6000 FEW003 BKN012",
          "offset_h": -1,
          "wdir": 10,
          "wspd": 4
        },
        {
          "text": "TEMPO 1819/1822 1500 BR BCFG FEW001 BKN003",
          "offset_h": -1,
          "wdir": null,
          "wspd": null
        },
        {
          "text": "BECMG 1822/1900 14005KT",
          "offset_h": 2,
          "wdir": 140,
          "wspd": 5
        },
        {
          "text": "TEMPO 1822/1900 FEW002 BKN005",
          "offset_h": 2,
          "wdir": null,
          "wspd": null
        },
        {
          "text": "TEMPO 1906/1912 FEW002 BKN005",
          "offset_h": 10,
          "wdir": null,
          "wspd": null
        },
        {
          "text": "TEMPO 1912/1921 2000 BR FEW001 BKN003",
          "offset_h": 16,
          "wdir": null,
          "wspd": null
        },
        {
          "text": "TEMPO 1921/2000 FEW001 BKN003",
          "offset_h": 25,
          "wdir": null,
          "wspd": null
        }
      ],
      "metar_raw": "METAR RJAA 182000Z AUTO 17002KT 0100 R16R/P2000N R16L/1300VP2000U FG BKN001 OVC003 19/18 Q1011 BECMG 2000 BR BCFG",
      "metar_wdir": 170,
      "metar_wspd": 2,
      "metar_oat": 19,
      "metar_qnh": 1011,
      "hourly_oat": [
        19,
        19,
        20,
        21,
        23,
        25,
        25,
        25,
        25,
        25,
        24,
        24,
        23,
        23,
        22,
        22,
        22,
        22,
        22,
        22,
        22,
        21,
        21,
        21,
        21
      ]
    },
    "PVG": {
      "icao": "ZSPD",
      "issued": "2026-06-18T19:17:00.000Z",
      "raw": "TAF AMD ZSPD 181917Z 1818/1924 15004MPS 1500 BR BKN002 TX30/1906Z TN24/1821Z TN25/1921Z TEMPO 1822/1902 SHRA BKN011 SCT030CB BECMG 1901/1902 5000 -SHRA BKN015 TEMPO 1907/1910 TSRA BKN020 SCT030CB BECMG 1909/1910 22006MPS TEMPO 1915/1918 2500 +TSRA BKN015 BKN030CB",
      "groups": [
        {
          "text": "TAF AMD ZSPD 181917Z 1818/1924 15004MPS 1500 BR BKN002 TX30/1906Z TN24/1821Z TN25/1921Z",
          "offset_h": -2,
          "wdir": null,
          "wspd": null
        },
        {
          "text": "TEMPO 1822/1902 SHRA BKN011 SCT030CB",
          "offset_h": 2,
          "wdir": null,
          "wspd": null
        },
        {
          "text": "BECMG 1901/1902 5000 -SHRA BKN015",
          "offset_h": 5,
          "wdir": null,
          "wspd": null
        },
        {
          "text": "TEMPO 1907/1910 TSRA BKN020 SCT030CB",
          "offset_h": 11,
          "wdir": null,
          "wspd": null
        },
        {
          "text": "BECMG 1909/1910 22006MPS",
          "offset_h": 13,
          "wdir": null,
          "wspd": null
        },
        {
          "text": "TEMPO 1915/1918 2500 +TSRA BKN015 BKN030CB",
          "offset_h": 19,
          "wdir": null,
          "wspd": null
        }
      ],
      "metar_raw": "METAR ZSPD 182000Z 11003MPS 090V160 1200 R17L/1000D R16R/0650N R17R/0900N R16L/0900N PRFG BR BKN002 24/24 Q1005 NOSIG",
      "metar_wdir": null,
      "metar_wspd": null,
      "metar_oat": 24,
      "metar_qnh": 1005,
      "hourly_oat": [
        24,
        24,
        24,
        26,
        27,
        28,
        28,
        29,
        31,
        31,
        30,
        29,
        29,
        28,
        27,
        27,
        27,
        27,
        27,
        26,
        26,
        26,
        26,
        25,
        25
      ]
    },
    "LAX": {
      "icao": "KLAX",
      "issued": "2026-06-18T17:39:00.000Z",
      "raw": "TAF KLAX 181739Z 1818/1924 24010KT P6SM SCT015 OVC022 FM182030 25011KT P6SM SCT025 FM190100 24008KT P6SM OVC015 FM191200 23004KT P6SM OVC020 FM191800 24011KT P6SM BKN022 FM192000 25009KT P6SM SCT025",
      "groups": [
        {
          "text": "TAF KLAX 181739Z 1818/1924 24010KT P6SM SCT015 OVC022",
          "offset_h": -2,
          "wdir": 240,
          "wspd": 10
        },
        {
          "text": "FM182030 25011KT P6SM SCT025",
          "offset_h": 0,
          "wdir": 250,
          "wspd": 11
        },
        {
          "text": "FM190100 24008KT P6SM OVC015",
          "offset_h": 5,
          "wdir": 240,
          "wspd": 8
        },
        {
          "text": "FM191200 23004KT P6SM OVC020",
          "offset_h": 16,
          "wdir": 230,
          "wspd": 4
        },
        {
          "text": "FM191800 24011KT P6SM BKN022",
          "offset_h": 22,
          "wdir": 240,
          "wspd": 11
        },
        {
          "text": "FM192000 25009KT P6SM SCT025",
          "offset_h": 24,
          "wdir": 250,
          "wspd": 9
        }
      ],
      "metar_raw": "METAR KLAX 181953Z 26008KT 10SM FEW010 BKN026 BKN032 20/14 A2999 RMK AO2 SLP153 T02000139 $",
      "metar_wdir": 260,
      "metar_wspd": 8,
      "metar_oat": 20,
      "metar_qnh": 1016,
      "hourly_oat": [
        20,
        20,
        20,
        20,
        20,
        18,
        18,
        17,
        17,
        17,
        16,
        15,
        15,
        14,
        15,
        16,
        16,
        16,
        17,
        17,
        17,
        18,
        19,
        20,
        20
      ]
    },
    "SAN": {
      "icao": "KSAN",
      "issued": "2026-06-18T17:33:00.000Z",
      "raw": "TAF KSAN 181733Z 1818/1924 VRB04KT P6SM OVC020 FM182100 29010KT P6SM BKN020 TEMPO 1821/1901 SCT020 FM190100 31007KT P6SM BKN022 FM190500 VRB04KT P6SM OVC020 FM192000 29010KT P6SM SCT020",
      "groups": [
        {
          "text": "TAF KSAN 181733Z 1818/1924 VRB04KT P6SM OVC020",
          "offset_h": -2,
          "wdir": "VRB",
          "wspd": 4
        },
        {
          "text": "FM182100 29010KT P6SM BKN020",
          "offset_h": 1,
          "wdir": 290,
          "wspd": 10
        },
        {
          "text": "TEMPO 1821/1901 SCT020",
          "offset_h": 1,
          "wdir": null,
          "wspd": null
        },
        {
          "text": "FM190100 31007KT P6SM BKN022",
          "offset_h": 5,
          "wdir": 310,
          "wspd": 7
        },
        {
          "text": "FM190500 VRB04KT P6SM OVC020",
          "offset_h": 9,
          "wdir": "VRB",
          "wspd": 4
        },
        {
          "text": "FM192000 29010KT P6SM SCT020",
          "offset_h": 24,
          "wdir": 290,
          "wspd": 10
        }
      ],
      "metar_raw": "METAR KSAN 181951Z 31006KT 10SM FEW012 BKN017 19/16 A3001 RMK AO2 SLP160 T01940156",
      "metar_wdir": 310,
      "metar_wspd": 6,
      "metar_oat": 19,
      "metar_qnh": 1016,
      "hourly_oat": [
        21,
        22,
        22,
        22,
        21,
        20,
        19,
        19,
        18,
        18,
        18,
        18,
        18,
        18,
        18,
        18,
        17,
        17,
        17,
        17,
        18,
        20,
        20,
        21,
        22
      ]
    },
    "HNL": {
      "icao": "PHNL",
      "issued": "2026-06-18T17:30:00.000Z",
      "raw": "TAF PHNL 181730Z 1818/1924 08004KT P6SM FEW025 FEW040 FM182000 16008KT P6SM SCT025 SCT040 FM190000 22007KT P6SM VCSH SCT025 BKN040 FM190400 VRB05KT P6SM SCT025 BKN060 FM190900 34005KT P6SM FEW025 SCT060 FM192000 12008KT P6SM SCT025 SCT040",
      "groups": [
        {
          "text": "TAF PHNL 181730Z 1818/1924 08004KT P6SM FEW025 FEW040",
          "offset_h": -2,
          "wdir": 80,
          "wspd": 4
        },
        {
          "text": "FM182000 16008KT P6SM SCT025 SCT040",
          "offset_h": 0,
          "wdir": 160,
          "wspd": 8
        },
        {
          "text": "FM190000 22007KT P6SM VCSH SCT025 BKN040",
          "offset_h": 4,
          "wdir": 220,
          "wspd": 7
        },
        {
          "text": "FM190400 VRB05KT P6SM SCT025 BKN060",
          "offset_h": 8,
          "wdir": "VRB",
          "wspd": 5
        },
        {
          "text": "FM190900 34005KT P6SM FEW025 SCT060",
          "offset_h": 13,
          "wdir": 340,
          "wspd": 5
        },
        {
          "text": "FM192000 12008KT P6SM SCT025 SCT040",
          "offset_h": 24,
          "wdir": 120,
          "wspd": 8
        }
      ],
      "metar_raw": "METAR PHNL 181953Z 17007KT 10SM FEW030 29/23 A3003 RMK AO2 SLP170 T02890228 $",
      "metar_wdir": 170,
      "metar_wspd": 7,
      "metar_oat": 29,
      "metar_qnh": 1017,
      "hourly_oat": [
        29,
        30,
        30,
        30,
        30,
        30,
        29,
        28,
        28,
        27,
        26,
        25,
        25,
        24,
        24,
        24,
        23,
        23,
        23,
        23,
        23,
        24,
        27,
        28,
        30
      ]
    },
    "ITM": {
      "icao": "RJOO",
      "issued": "2026-06-18T17:05:00.000Z",
      "raw": "TAF RJOO 181705Z 1818/2000 33005KT 9999 FEW030 BECMG 1823/1901 20006KT TEMPO 1918/1921 4000 -RA BR TEMPO 1921/2000 3000 SHRA BR FEW005 BKN008 BKN015",
      "groups": [
        {
          "text": "TAF RJOO 181705Z 1818/2000 33005KT 9999 FEW030",
          "offset_h": -2,
          "wdir": 330,
          "wspd": 5
        },
        {
          "text": "BECMG 1823/1901 20006KT",
          "offset_h": 3,
          "wdir": 200,
          "wspd": 6
        },
        {
          "text": "TEMPO 1918/1921 4000 -RA BR",
          "offset_h": 22,
          "wdir": null,
          "wspd": null
        },
        {
          "text": "TEMPO 1921/2000 3000 SHRA BR FEW005 BKN008 BKN015",
          "offset_h": 25,
          "wdir": null,
          "wspd": null
        }
      ],
      "metar_raw": "METAR RJOO 182000Z AUTO 31005KT 9999 NCD 22/19 Q1011",
      "metar_wdir": 310,
      "metar_wspd": 5,
      "metar_oat": 22,
      "metar_qnh": 1011,
      "hourly_oat": [
        20,
        21,
        22,
        23,
        25,
        27,
        29,
        30,
        31,
        31,
        30,
        29,
        28,
        28,
        27,
        26,
        25,
        25,
        24,
        24,
        23,
        23,
        23,
        23,
        23
      ]
    },
    "FUK": {
      "icao": "RJFF",
      "issued": "2026-06-18T17:05:00.000Z",
      "raw": "TAF RJFF 181705Z 1818/2000 15010KT 8000 -SHRA FEW008 SCT012 BKN015 TEMPO 1900/1902 4000 SHRA BR BKN005 BKN013 BECMG 1901/1903 31008KT BECMG 1906/1909 15010KT TEMPO 1906/1915 3000 TSRA BR BKN005 FEW015CB BKN025",
      "groups": [
        {
          "text": "TAF RJFF 181705Z 1818/2000 15010KT 8000 -SHRA FEW008 SCT012 BKN015",
          "offset_h": -2,
          "wdir": 150,
          "wspd": 10
        },
        {
          "text": "TEMPO 1900/1902 4000 SHRA BR BKN005 BKN013",
          "offset_h": 4,
          "wdir": null,
          "wspd": null
        },
        {
          "text": "BECMG 1901/1903 31008KT",
          "offset_h": 5,
          "wdir": 310,
          "wspd": 8
        },
        {
          "text": "BECMG 1906/1909 15010KT",
          "offset_h": 10,
          "wdir": 150,
          "wspd": 10
        },
        {
          "text": "TEMPO 1906/1915 3000 TSRA BR BKN005 FEW015CB BKN025",
          "offset_h": 10,
          "wdir": null,
          "wspd": null
        }
      ],
      "metar_raw": "METAR RJFF 182000Z AUTO 15007KT 9999 SCT033 BKN034 OVC041 //////TCU 25/23 Q1009 NOSIG",
      "metar_wdir": 150,
      "metar_wspd": 7,
      "metar_oat": 25,
      "metar_qnh": 1009,
      "hourly_oat": [
        24,
        24,
        24,
        24,
        24,
        25,
        25,
        25,
        26,
        26,
        25,
        25,
        25,
        24,
        24,
        24,
        24,
        25,
        24,
        24,
        25,
        25,
        25,
        25,
        25
      ]
    },
    "CTS": {
      "icao": "RJCC",
      "issued": "2026-06-18T17:05:00.000Z",
      "raw": "TAF RJCC 181705Z 1818/2000 16009KT 7000 FEW003 BKN012 TEMPO 1818/1822 1500 -SHRA BR FEW001 BKN003 TEMPO 1822/1900 3000 -SHRA BR FEW003 BKN005 TEMPO 1900/1909 FEW003 BKN006 TEMPO 1909/1912 3000 -SHRA BR FEW003 BKN005 TEMPO 1912/1921 1500 -SHRA BR FEW001 BKN003 TEMPO 1921/2000 3000 BR FEW003 BKN005",
      "groups": [
        {
          "text": "TAF RJCC 181705Z 1818/2000 16009KT 7000 FEW003 BKN012",
          "offset_h": -2,
          "wdir": 160,
          "wspd": 9
        },
        {
          "text": "TEMPO 1818/1822 1500 -SHRA BR FEW001 BKN003",
          "offset_h": -2,
          "wdir": null,
          "wspd": null
        },
        {
          "text": "TEMPO 1822/1900 3000 -SHRA BR FEW003 BKN005",
          "offset_h": 2,
          "wdir": null,
          "wspd": null
        },
        {
          "text": "TEMPO 1900/1909 FEW003 BKN006",
          "offset_h": 4,
          "wdir": null,
          "wspd": null
        },
        {
          "text": "TEMPO 1909/1912 3000 -SHRA BR FEW003 BKN005",
          "offset_h": 13,
          "wdir": null,
          "wspd": null
        },
        {
          "text": "TEMPO 1912/1921 1500 -SHRA BR FEW001 BKN003",
          "offset_h": 16,
          "wdir": null,
          "wspd": null
        },
        {
          "text": "TEMPO 1921/2000 3000 BR FEW003 BKN005",
          "offset_h": 25,
          "wdir": null,
          "wspd": null
        }
      ],
      "metar_raw": "METAR RJCC 182000Z 18007KT 7000 -SHRA FEW001 BKN003 18/17 Q1012",
      "metar_wdir": 180,
      "metar_wspd": 7,
      "metar_oat": 18,
      "metar_qnh": 1012,
      "hourly_oat": [
        16,
        18,
        18,
        19,
        20,
        20,
        21,
        20,
        19,
        19,
        19,
        18,
        18,
        17,
        17,
        16,
        16,
        16,
        16,
        16,
        16,
        16,
        15,
        15,
        16
      ]
    },
    "OKA": {
      "icao": "ROAH",
      "issued": "2026-06-18T17:05:00.000Z",
      "raw": "TAF ROAH 181705Z 1818/2000 18010KT 3000 BR FEW001 BKN003 TEMPO 1818/1900 0600 FG VV000 BECMG 1900/1902 9999 NSW FEW003 BKN008 BECMG 1902/1904 FEW005 SCT010 TEMPO 1912/2000 FEW003 BKN005",
      "groups": [
        {
          "text": "TAF ROAH 181705Z 1818/2000 18010KT 3000 BR FEW001 BKN003",
          "offset_h": -2,
          "wdir": 180,
          "wspd": 10
        },
        {
          "text": "TEMPO 1818/1900 0600 FG VV000",
          "offset_h": -2,
          "wdir": null,
          "wspd": null
        },
        {
          "text": "BECMG 1900/1902 9999 NSW FEW003 BKN008",
          "offset_h": 4,
          "wdir": null,
          "wspd": null
        },
        {
          "text": "BECMG 1902/1904 FEW005 SCT010",
          "offset_h": 6,
          "wdir": null,
          "wspd": null
        },
        {
          "text": "TEMPO 1912/2000 FEW003 BKN005",
          "offset_h": 16,
          "wdir": null,
          "wspd": null
        }
      ],
      "metar_raw": "METAR ROAH 182000Z AUTO 19005KT 9999 FEW000 OVC013 26/26 Q1013",
      "metar_wdir": 190,
      "metar_wspd": 5,
      "metar_oat": 26,
      "metar_qnh": 1013,
      "hourly_oat": [
        26,
        26,
        26,
        27,
        28,
        28,
        29,
        29,
        29,
        29,
        29,
        28,
        28,
        27,
        26,
        26,
        26,
        26,
        26,
        26,
        26,
        26,
        26,
        26,
        26
      ]
    },
    "NGO": {
      "icao": "RJGG",
      "issued": "2026-06-18T17:05:00.000Z",
      "raw": "TAF RJGG 181705Z 1818/2000 29004KT 9999 FEW030 BECMG 1900/1902 25006KT BECMG 1903/1905 19010KT BECMG 1909/1912 13008KT BECMG 1915/1918 30004KT TEMPO 1918/2000 3000 -RA BR FEW003 BKN005",
      "groups": [
        {
          "text": "TAF RJGG 181705Z 1818/2000 29004KT 9999 FEW030",
          "offset_h": -2,
          "wdir": 290,
          "wspd": 4
        },
        {
          "text": "BECMG 1900/1902 25006KT",
          "offset_h": 4,
          "wdir": 250,
          "wspd": 6
        },
        {
          "text": "BECMG 1903/1905 19010KT",
          "offset_h": 7,
          "wdir": 190,
          "wspd": 10
        },
        {
          "text": "BECMG 1909/1912 13008KT",
          "offset_h": 13,
          "wdir": 130,
          "wspd": 8
        },
        {
          "text": "BECMG 1915/1918 30004KT",
          "offset_h": 19,
          "wdir": 300,
          "wspd": 4
        },
        {
          "text": "TEMPO 1918/2000 3000 -RA BR FEW003 BKN005",
          "offset_h": 22,
          "wdir": null,
          "wspd": null
        }
      ],
      "metar_raw": "METAR RJGG 182000Z AUTO 09002KT 9999 NCD 23/21 Q1010 NOSIG",
      "metar_wdir": 90,
      "metar_wspd": 2,
      "metar_oat": 23,
      "metar_qnh": 1010,
      "hourly_oat": [
        22,
        22,
        22,
        22,
        22,
        23,
        23,
        23,
        24,
        24,
        24,
        24,
        24,
        24,
        23,
        23,
        21,
        21,
        21,
        21,
        21,
        21,
        21,
        21,
        21
      ]
    },
    "KIX": {
      "icao": "RJBB",
      "issued": "2026-06-18T17:05:00.000Z",
      "raw": "TAF RJBB 181705Z 1818/2000 06004KT 9999 FEW030 BECMG 1901/1903 23009KT BECMG 1912/1915 08006KT TEMPO 1915/1918 4000 -RA BR TEMPO 1918/2000 3000 SHRA BR FEW005 BKN008 BKN020",
      "groups": [
        {
          "text": "TAF RJBB 181705Z 1818/2000 06004KT 9999 FEW030",
          "offset_h": -2,
          "wdir": 60,
          "wspd": 4
        },
        {
          "text": "BECMG 1901/1903 23009KT",
          "offset_h": 5,
          "wdir": 230,
          "wspd": 9
        },
        {
          "text": "BECMG 1912/1915 08006KT",
          "offset_h": 16,
          "wdir": 80,
          "wspd": 6
        },
        {
          "text": "TEMPO 1915/1918 4000 -RA BR",
          "offset_h": 19,
          "wdir": null,
          "wspd": null
        },
        {
          "text": "TEMPO 1918/2000 3000 SHRA BR FEW005 BKN008 BKN020",
          "offset_h": 22,
          "wdir": null,
          "wspd": null
        }
      ],
      "metar_raw": "METAR RJBB 182000Z AUTO VRB01KT 9999 NCD 22/21 Q1011 NOSIG",
      "metar_wdir": "VRB",
      "metar_wspd": 1,
      "metar_oat": 22,
      "metar_qnh": 1011,
      "hourly_oat": [
        22,
        22,
        22,
        22,
        22,
        22,
        22,
        22,
        22,
        23,
        23,
        24,
        24,
        24,
        23,
        23,
        23,
        22,
        22,
        23,
        22,
        22,
        22,
        22,
        22
      ]
    },
    "HND": {
      "icao": "RJTT",
      "issued": "2026-06-18T17:05:00.000Z",
      "raw": "TAF RJTT 181705Z 1818/2000 12006KT 9999 FEW012 BKN020 TEMPO 1818/1821 FEW006 BKN008 BECMG 1904/1906 18012KT BECMG 1915/1918 09006KT",
      "groups": [
        {
          "text": "TAF RJTT 181705Z 1818/2000 12006KT 9999 FEW012 BKN020",
          "offset_h": -2,
          "wdir": 120,
          "wspd": 6
        },
        {
          "text": "TEMPO 1818/1821 FEW006 BKN008",
          "offset_h": -2,
          "wdir": null,
          "wspd": null
        },
        {
          "text": "BECMG 1904/1906 18012KT",
          "offset_h": 8,
          "wdir": 180,
          "wspd": 12
        },
        {
          "text": "BECMG 1915/1918 09006KT",
          "offset_h": 19,
          "wdir": 90,
          "wspd": 6
        }
      ],
      "metar_raw": "METAR RJTT 182000Z 07001KT 9999 SCT006 21/20 Q1011 TEMPO FEW006 BKN008",
      "metar_wdir": 70,
      "metar_wspd": 1,
      "metar_oat": 21,
      "metar_qnh": 1011,
      "hourly_oat": [
        20,
        21,
        21,
        22,
        23,
        24,
        24,
        25,
        25,
        26,
        26,
        26,
        25,
        24,
        23,
        23,
        23,
        23,
        22,
        22,
        22,
        22,
        22,
        22,
        22
      ]
    },
    "BKK": {
      "icao": "VTBS",
      "issued": "2026-06-18T17:00:00.000Z",
      "raw": "TAF VTBS 181700Z 1818/1924 23008KT 9999 FEW020 TEMPO 1908/1912 VRB15KT 3000 TSRA FEW018CB SCT025 BKN080",
      "groups": [
        {
          "text": "TAF VTBS 181700Z 1818/1924 23008KT 9999 FEW020",
          "offset_h": -2,
          "wdir": 230,
          "wspd": 8
        },
        {
          "text": "TEMPO 1908/1912 VRB15KT 3000 TSRA FEW018CB SCT025 BKN080",
          "offset_h": 12,
          "wdir": "VRB",
          "wspd": 15
        }
      ],
      "metar_raw": "METAR VTBS 182000Z VRB02KT 9999 FEW020 27/25 Q1009 NOSIG",
      "metar_wdir": "VRB",
      "metar_wspd": 2,
      "metar_oat": 27,
      "metar_qnh": 1009,
      "hourly_oat": [
        27,
        27,
        27,
        26,
        27,
        29,
        30,
        31,
        32,
        33,
        34,
        34,
        34,
        32,
        31,
        29,
        26,
        26,
        26,
        27,
        27,
        26,
        27,
        27,
        27
      ]
    },
    "CGK": {
      "icao": "WIII",
      "issued": "2026-06-18T17:00:00.000Z",
      "raw": "TAF WIII 181700Z 1818/2000 13005KT 7000 SCT020 BECMG 1901/1903 05012KT",
      "groups": [
        {
          "text": "TAF WIII 181700Z 1818/2000 13005KT 7000 SCT020",
          "offset_h": -2,
          "wdir": 130,
          "wspd": 5
        },
        {
          "text": "BECMG 1901/1903 05012KT",
          "offset_h": 5,
          "wdir": 50,
          "wspd": 12
        }
      ],
      "metar_raw": "METAR WIII 182000Z 14005KT 3500 HZ FEW020 26/24 Q1011 NOSIG",
      "metar_wdir": 140,
      "metar_wspd": 5,
      "metar_oat": 26,
      "metar_qnh": 1011,
      "hourly_oat": [
        25,
        25,
        24,
        24,
        26,
        28,
        30,
        32,
        33,
        34,
        34,
        33,
        32,
        31,
        30,
        29,
        29,
        29,
        28,
        28,
        27,
        27,
        26,
        26,
        25
      ]
    },
    "KUL": {
      "icao": "WMKK",
      "issued": "2026-06-18T17:00:00.000Z",
      "raw": "TAF WMKK 181700Z 1818/2000 VRB03KT 9999 FEW030 TEMPO 1908/1912 5000 TSRA FEW017CB",
      "groups": [
        {
          "text": "TAF WMKK 181700Z 1818/2000 VRB03KT 9999 FEW030",
          "offset_h": -2,
          "wdir": "VRB",
          "wspd": 3
        },
        {
          "text": "TEMPO 1908/1912 5000 TSRA FEW017CB",
          "offset_h": 12,
          "wdir": null,
          "wspd": null
        }
      ],
      "metar_raw": "METAR WMKK 182000Z 00000KT 9999 FEW030 26/24 Q1009 NOSIG",
      "metar_wdir": 0,
      "metar_wspd": 0,
      "metar_oat": 26,
      "metar_qnh": 1009,
      "hourly_oat": [
        25,
        25,
        25,
        25,
        26,
        25,
        26,
        27,
        28,
        29,
        30,
        30,
        30,
        29,
        28,
        26,
        24,
        24,
        24,
        24,
        24,
        24,
        23,
        23,
        23
      ]
    },
    "TSA": {
      "icao": "RCSS",
      "issued": "2026-06-18T17:00:00.000Z",
      "raw": "TAF RCSS 181700Z 1818/1918 09005KT 9999 FEW010 BKN032 TEMPO 1900/1906 27005KT TEMPO 1906/1910 27005KT 3000 RA FEW010 BKN014 FEW020CB",
      "groups": [
        {
          "text": "TAF RCSS 181700Z 1818/1918 09005KT 9999 FEW010 BKN032",
          "offset_h": -2,
          "wdir": 90,
          "wspd": 5
        },
        {
          "text": "TEMPO 1900/1906 27005KT",
          "offset_h": 4,
          "wdir": 270,
          "wspd": 5
        },
        {
          "text": "TEMPO 1906/1910 27005KT 3000 RA FEW010 BKN014 FEW020CB",
          "offset_h": 10,
          "wdir": 270,
          "wspd": 5
        }
      ],
      "metar_raw": "METAR RCSS 182000Z 10003KT 9999 FEW020 BKN180 25/24 Q1010 NOSIG RMK A2983",
      "metar_wdir": 100,
      "metar_wspd": 3,
      "metar_oat": 25,
      "metar_qnh": 1010,
      "hourly_oat": [
        24,
        24,
        25,
        26,
        28,
        30,
        32,
        33,
        33,
        33,
        33,
        32,
        32,
        31,
        30,
        29,
        28,
        28,
        27,
        27,
        26,
        26,
        25,
        24,
        24
      ]
    },
    "HAN": {
      "icao": "VVNB",
      "issued": "2026-06-18T17:00:00.000Z",
      "raw": "TAF VVNB 181700Z 1818/1918 17005KT 9999 FEW030",
      "groups": [
        {
          "text": "TAF VVNB 181700Z 1818/1918 17005KT 9999 FEW030",
          "offset_h": -2,
          "wdir": 170,
          "wspd": 5
        }
      ],
      "metar_raw": "METAR VVNB 182000Z 15005KT 120V180 CAVOK 30/25 Q1001 NOSIG",
      "metar_wdir": 150,
      "metar_wspd": 5,
      "metar_oat": 30,
      "metar_qnh": 1001,
      "hourly_oat": [
        29,
        28,
        28,
        28,
        29,
        29,
        31,
        32,
        33,
        33,
        33,
        32,
        33,
        32,
        32,
        32,
        31,
        30,
        30,
        30,
        30,
        29,
        29,
        28,
        28
      ]
    },
    "SGN": {
      "icao": "VVTS",
      "issued": "2026-06-18T17:00:00.000Z",
      "raw": "TAF VVTS 181700Z 1818/1924 VRB03KT 9999 SCT017 BECMG 1821/1822 4000 BR BECMG 1900/1901 25010KT 9999 NSW TEMPO 1908/1912 25015G28KT 3000 TSRA SCT013 SCT015CB",
      "groups": [
        {
          "text": "TAF VVTS 181700Z 1818/1924 VRB03KT 9999 SCT017",
          "offset_h": -2,
          "wdir": "VRB",
          "wspd": 3
        },
        {
          "text": "BECMG 1821/1822 4000 BR",
          "offset_h": 1,
          "wdir": null,
          "wspd": null
        },
        {
          "text": "BECMG 1900/1901 25010KT 9999 NSW",
          "offset_h": 4,
          "wdir": 250,
          "wspd": 10
        },
        {
          "text": "TEMPO 1908/1912 25015G28KT 3000 TSRA SCT013 SCT015CB",
          "offset_h": 12,
          "wdir": 250,
          "wspd": 15
        }
      ],
      "metar_raw": "METAR VVTS 182000Z 07005KT 9999 FEW019 25/24 Q1009 NOSIG",
      "metar_wdir": 70,
      "metar_wspd": 5,
      "metar_oat": 25,
      "metar_qnh": 1009,
      "hourly_oat": [
        25,
        25,
        25,
        25,
        27,
        28,
        29,
        30,
        31,
        32,
        33,
        33,
        33,
        31,
        31,
        28,
        28,
        27,
        27,
        27,
        26,
        26,
        26,
        26,
        26
      ]
    },
    "SIN": {
      "icao": "WSSS",
      "issued": "2026-06-18T17:00:00.000Z",
      "raw": "TAF WSSS 181700Z 1818/2000 12007KT 9999 FEW015 SCT020 TEMPO 1906/1909 3000 TSRA FEW012CB BKN015",
      "groups": [
        {
          "text": "TAF WSSS 181700Z 1818/2000 12007KT 9999 FEW015 SCT020",
          "offset_h": -2,
          "wdir": 120,
          "wspd": 7
        },
        {
          "text": "TEMPO 1906/1909 3000 TSRA FEW012CB BKN015",
          "offset_h": 10,
          "wdir": null,
          "wspd": null
        }
      ],
      "metar_raw": "METAR WSSS 182000Z 14006KT 110V190 9999 FEW016 SCT160 BKN300 28/24 Q1010 NOSIG",
      "metar_wdir": 140,
      "metar_wspd": 6,
      "metar_oat": 28,
      "metar_qnh": 1010,
      "hourly_oat": [
        28,
        28,
        27,
        27,
        28,
        28,
        29,
        30,
        31,
        31,
        27,
        27,
        28,
        29,
        29,
        28,
        28,
        28,
        27,
        24,
        25,
        24,
        24,
        24,
        24
      ]
    },
    "GMP": {
      "icao": "RKSS",
      "issued": "2026-06-18T17:00:00.000Z",
      "raw": "TAF RKSS 181700Z 1818/1924 13005KT CAVOK TN21/1820Z TX32/1905Z TN22/1920Z BECMG 1900/1902 27006KT 9999 SCT040 TEMPO 1906/1909 6000 -SHRA FEW010 BKN030 OVC080 BECMG 1912/1914 09006KT 6000 -RA FEW010 BKN025 OVC070 BECMG 1920/1922 06010G25KT 4000 RA",
      "groups": [
        {
          "text": "TAF RKSS 181700Z 1818/1924 13005KT CAVOK TN21/1820Z TX32/1905Z TN22/1920Z",
          "offset_h": -2,
          "wdir": 130,
          "wspd": 5
        },
        {
          "text": "BECMG 1900/1902 27006KT 9999 SCT040",
          "offset_h": 4,
          "wdir": 270,
          "wspd": 6
        },
        {
          "text": "TEMPO 1906/1909 6000 -SHRA FEW010 BKN030 OVC080",
          "offset_h": 10,
          "wdir": null,
          "wspd": null
        },
        {
          "text": "BECMG 1912/1914 09006KT 6000 -RA FEW010 BKN025 OVC070",
          "offset_h": 16,
          "wdir": 90,
          "wspd": 6
        },
        {
          "text": "BECMG 1920/1922 06010G25KT 4000 RA",
          "offset_h": 24,
          "wdir": 60,
          "wspd": 10
        }
      ],
      "metar_raw": "METAR RKSS 182000Z 27002KT CAVOK 21/21 Q1009 NOSIG",
      "metar_wdir": 270,
      "metar_wspd": 2,
      "metar_oat": 21,
      "metar_qnh": 1009,
      "hourly_oat": [
        19,
        20,
        21,
        23,
        24,
        26,
        27,
        28,
        28,
        28,
        27,
        27,
        27,
        26,
        25,
        24,
        24,
        24,
        23,
        23,
        22,
        22,
        22,
        22,
        21
      ]
    },
    "TPE": {
      "icao": "RCTP",
      "issued": "2026-06-18T17:00:00.000Z",
      "raw": "TAF RCTP 181700Z 1818/1924 18005KT 9999 FEW010 BKN032 TEMPO 1818/1824 12005KT BECMG 1900/1902 24011KT TEMPO 1902/1908 24020KT TEMPO 1908/1914 24016KT TEMPO 1914/1918 21005KT",
      "groups": [
        {
          "text": "TAF RCTP 181700Z 1818/1924 18005KT 9999 FEW010 BKN032",
          "offset_h": -2,
          "wdir": 180,
          "wspd": 5
        },
        {
          "text": "TEMPO 1818/1824 12005KT",
          "offset_h": -2,
          "wdir": 120,
          "wspd": 5
        },
        {
          "text": "BECMG 1900/1902 24011KT",
          "offset_h": 4,
          "wdir": 240,
          "wspd": 11
        },
        {
          "text": "TEMPO 1902/1908 24020KT",
          "offset_h": 6,
          "wdir": 240,
          "wspd": 20
        },
        {
          "text": "TEMPO 1908/1914 24016KT",
          "offset_h": 12,
          "wdir": 240,
          "wspd": 16
        },
        {
          "text": "TEMPO 1914/1918 21005KT",
          "offset_h": 18,
          "wdir": 210,
          "wspd": 5
        }
      ],
      "metar_raw": "METAR RCTP 182000Z 18006KT 9999 FEW015 26/24 Q1010 NOSIG RMK A2983",
      "metar_wdir": 180,
      "metar_wspd": 6,
      "metar_oat": 26,
      "metar_qnh": 1010,
      "hourly_oat": [
        24,
        24,
        24,
        26,
        28,
        29,
        30,
        30,
        30,
        30,
        30,
        30,
        29,
        29,
        28,
        27,
        27,
        27,
        26,
        26,
        25,
        25,
        25,
        25,
        25
      ]
    },
    "SHA": {
      "icao": "ZSSS",
      "issued": "2026-06-18T15:18:00.000Z",
      "raw": "TAF ZSSS 181518Z 1818/1924 15004MPS 6000 BKN015 TX31/1906Z TN24/1821Z TN24/1921Z TEMPO 1821/1901 TSRA SCT030CB SCT040 TEMPO 1906/1909 TSRA SCT030CB BKN033 BECMG 1910/1911 21008G14MPS TEMPO 1914/1918 2800 +TSRA BKN030CB BKN033 BECMG 1920/1921 28004MPS",
      "groups": [
        {
          "text": "TAF ZSSS 181518Z 1818/1924 15004MPS 6000 BKN015 TX31/1906Z TN24/1821Z TN24/1921Z",
          "offset_h": -2,
          "wdir": null,
          "wspd": null
        },
        {
          "text": "TEMPO 1821/1901 TSRA SCT030CB SCT040",
          "offset_h": 1,
          "wdir": null,
          "wspd": null
        },
        {
          "text": "TEMPO 1906/1909 TSRA SCT030CB BKN033",
          "offset_h": 10,
          "wdir": null,
          "wspd": null
        },
        {
          "text": "BECMG 1910/1911 21008G14MPS",
          "offset_h": 14,
          "wdir": null,
          "wspd": null
        },
        {
          "text": "TEMPO 1914/1918 2800 +TSRA BKN030CB BKN033",
          "offset_h": 18,
          "wdir": null,
          "wspd": null
        },
        {
          "text": "BECMG 1920/1921 28004MPS",
          "offset_h": 24,
          "wdir": null,
          "wspd": null
        }
      ],
      "metar_raw": "METAR ZSSS 182000Z 13003MPS 9999 BKN007 25/23 Q1005 NOSIG",
      "metar_wdir": null,
      "metar_wspd": null,
      "metar_oat": 25,
      "metar_qnh": 1005,
      "hourly_oat": [
        24,
        24,
        24,
        25,
        26,
        27,
        28,
        28,
        31,
        29,
        28,
        28,
        29,
        29,
        28,
        27,
        27,
        27,
        27,
        26,
        26,
        26,
        25,
        25,
        25
      ]
    },
    "PEK": {
      "icao": "ZBAA",
      "issued": "2026-06-18T15:07:00.000Z",
      "raw": "TAF ZBAA 181507Z 1818/1924 10004MPS 3500 BR NSC TX29/1907Z TN22/1821Z TN21/1921Z TEMPO 1821/1824 FEW040CB BKN040 TEMPO 1908/1912 -TSRA FEW040CB BKN040",
      "groups": [
        {
          "text": "TAF ZBAA 181507Z 1818/1924 10004MPS 3500 BR NSC TX29/1907Z TN22/1821Z TN21/1921Z",
          "offset_h": -2,
          "wdir": null,
          "wspd": null
        },
        {
          "text": "TEMPO 1821/1824 FEW040CB BKN040",
          "offset_h": 1,
          "wdir": null,
          "wspd": null
        },
        {
          "text": "TEMPO 1908/1912 -TSRA FEW040CB BKN040",
          "offset_h": 12,
          "wdir": null,
          "wspd": null
        }
      ],
      "metar_raw": "METAR ZBAA 182000Z VRB01MPS 5000 BR NSC 23/22 Q1004 NOSIG",
      "metar_wdir": null,
      "metar_wspd": null,
      "metar_oat": 23,
      "metar_qnh": 1004,
      "hourly_oat": [
        21,
        21,
        22,
        23,
        25,
        23,
        23,
        24,
        25,
        25,
        26,
        26,
        26,
        25,
        25,
        23,
        22,
        22,
        22,
        21,
        21,
        21,
        21,
        21,
        21
      ]
    },
    "DLC": {
      "icao": "ZYTL",
      "issued": "2026-06-18T15:03:00.000Z",
      "raw": "TAF ZYTL 181503Z 1818/1918 12004MPS 5000 BR FEW040 TX26/1906Z TN19/1821Z TEMPO 1903/1906 2000 -SHRA BR BKN010 BKN026",
      "groups": [
        {
          "text": "TAF ZYTL 181503Z 1818/1918 12004MPS 5000 BR FEW040 TX26/1906Z TN19/1821Z",
          "offset_h": -2,
          "wdir": null,
          "wspd": null
        },
        {
          "text": "TEMPO 1903/1906 2000 -SHRA BR BKN010 BKN026",
          "offset_h": 7,
          "wdir": null,
          "wspd": null
        }
      ],
      "metar_raw": "METAR ZYTL 182000Z 12003MPS 090V170 8000 NSC 21/20 Q1007 NOSIG",
      "metar_wdir": null,
      "metar_wspd": null,
      "metar_oat": 21,
      "metar_qnh": 1007,
      "hourly_oat": [
        21,
        21,
        22,
        23,
        25,
        25,
        25,
        26,
        26,
        25,
        25,
        25,
        24,
        23,
        22,
        22,
        22,
        22,
        22,
        22,
        21,
        21,
        21,
        21,
        21
      ]
    },
    "CAN": {
      "icao": "ZGGG",
      "issued": "2026-06-18T15:01:00.000Z",
      "raw": "TAF ZGGG 181501Z 1818/1924 17004MPS 8000 BKN033 TX32/1907Z TN25/1822Z TN25/1922Z TEMPO 1818/1822 SHRA FEW026CB BKN033",
      "groups": [
        {
          "text": "TAF ZGGG 181501Z 1818/1924 17004MPS 8000 BKN033 TX32/1907Z TN25/1822Z TN25/1922Z",
          "offset_h": -2,
          "wdir": null,
          "wspd": null
        },
        {
          "text": "TEMPO 1818/1822 SHRA FEW026CB BKN033",
          "offset_h": -2,
          "wdir": null,
          "wspd": null
        }
      ],
      "metar_raw": "METAR ZGGG 182000Z VRB01MPS 8000 -SHRA SCT013 OVC023 26/25 Q1007 RESHRA NOSIG",
      "metar_wdir": null,
      "metar_wspd": null,
      "metar_oat": 26,
      "metar_qnh": 1007,
      "hourly_oat": [
        24,
        24,
        24,
        25,
        26,
        27,
        29,
        28,
        29,
        31,
        28,
        28,
        29,
        30,
        30,
        29,
        28,
        28,
        28,
        28,
        27,
        27,
        26,
        26,
        26
      ]
    }
  }
}