{
  "updated": "2026-07-14T11:16:50Z",
  "tafs": {
    "HKG": {
      "icao": "VHHH",
      "issued": "2026-07-14T11:00:00.000Z",
      "raw": "TAF VHHH 141100Z 1412/1518 20015KT 9999 FEW015 SCT025 TX30/1506Z TN26/1422Z TEMPO 1416/1421 20020G30KT 2000 +SHRA FEW010CB SCT020 TEMPO 1421/1503 20020G30KT 1500 TSRA +SHRA FEW008CB SCT015 TEMPO 1503/1506 3000 SHRA FEW010CB SCT020",
      "groups": [
        {
          "text": "TAF VHHH 141100Z 1412/1518 20015KT 9999 FEW015 SCT025 TX30/1506Z TN26/1422Z",
          "offset_h": 1,
          "wdir": 200,
          "wspd": 15
        },
        {
          "text": "TEMPO 1416/1421 20020G30KT 2000 +SHRA FEW010CB SCT020",
          "offset_h": 5,
          "wdir": 200,
          "wspd": 20
        },
        {
          "text": "TEMPO 1421/1503 20020G30KT 1500 TSRA +SHRA FEW008CB SCT015",
          "offset_h": 10,
          "wdir": 200,
          "wspd": 20
        },
        {
          "text": "TEMPO 1503/1506 3000 SHRA FEW010CB SCT020",
          "offset_h": 16,
          "wdir": null,
          "wspd": null
        }
      ],
      "metar_raw": "METAR VHHH 141100Z 19012KT 130V210 9999 -RA FEW010 SCT020 27/24 Q1003 NOSIG",
      "metar_wdir": 190,
      "metar_wspd": 12,
      "metar_oat": 27,
      "metar_qnh": 1003,
      "hourly_oat": [
        27,
        27,
        28,
        27,
        27,
        27,
        26,
        26,
        26,
        26,
        27,
        26,
        26,
        26,
        26,
        27,
        28,
        29,
        28,
        29,
        29,
        28,
        28,
        28,
        28
      ]
    },
    "CGK": {
      "icao": "WIII",
      "issued": "2026-07-14T11:00:00.000Z",
      "raw": "TAF WIII 141100Z 1412/1518 06010KT 8000 FEW020 BECMG 1415/1417 15005KT 4000 HZ BECMG 1501/1503 05012KT 8000 NSW",
      "groups": [
        {
          "text": "TAF WIII 141100Z 1412/1518 06010KT 8000 FEW020",
          "offset_h": 1,
          "wdir": 60,
          "wspd": 10
        },
        {
          "text": "BECMG 1415/1417 15005KT 4000 HZ",
          "offset_h": 4,
          "wdir": 150,
          "wspd": 5
        },
        {
          "text": "BECMG 1501/1503 05012KT 8000 NSW",
          "offset_h": 14,
          "wdir": 50,
          "wspd": 12
        }
      ],
      "metar_raw": "METAR WIII 141100Z 06013KT 9999 FEW020 28/23 Q1010 NOSIG",
      "metar_wdir": 60,
      "metar_wspd": 13,
      "metar_oat": 28,
      "metar_qnh": 1010,
      "hourly_oat": [
        29,
        29,
        28,
        28,
        27,
        27,
        26,
        26,
        26,
        26,
        25,
        25,
        25,
        26,
        28,
        30,
        32,
        33,
        34,
        35,
        34,
        33,
        31,
        30,
        29
      ]
    },
    "GMP": {
      "icao": "RKSS",
      "issued": "2026-07-14T11:00:00.000Z",
      "raw": "TAF RKSS 141100Z 1412/1518 20016G35KT 6000 -RA SCT010 BKN025 OVC070 TN25/1420Z TX30/1506Z TEMPO 1412/1415 3500 RA SCT008CB BKN020 OVC060 BECMG 1416/1418 23015G25KT BECMG 1419/1421 25008KT 9999 NSW BKN030 BECMG 1502/1504 SCT035 BECMG 1514/1516 19005KT 6000 SCT010",
      "groups": [
        {
          "text": "TAF RKSS 141100Z 1412/1518 20016G35KT 6000 -RA SCT010 BKN025 OVC070 TN25/1420Z TX30/1506Z",
          "offset_h": 1,
          "wdir": 200,
          "wspd": 16
        },
        {
          "text": "TEMPO 1412/1415 3500 RA SCT008CB BKN020 OVC060",
          "offset_h": 1,
          "wdir": null,
          "wspd": null
        },
        {
          "text": "BECMG 1416/1418 23015G25KT",
          "offset_h": 5,
          "wdir": 230,
          "wspd": 15
        },
        {
          "text": "BECMG 1419/1421 25008KT 9999 NSW BKN030",
          "offset_h": 8,
          "wdir": 250,
          "wspd": 8
        },
        {
          "text": "BECMG 1502/1504 SCT035",
          "offset_h": 15,
          "wdir": null,
          "wspd": null
        },
        {
          "text": "BECMG 1514/1516 19005KT 6000 SCT010",
          "offset_h": 27,
          "wdir": 190,
          "wspd": 5
        }
      ],
      "metar_raw": "SPECI RKSS 141105Z 19015G28KT 150V210 4500 RA SCT012 BKN025 OVC060 26/26 Q0998 NOSIG",
      "metar_wdir": 190,
      "metar_wspd": 15,
      "metar_oat": 26,
      "metar_qnh": 998,
      "hourly_oat": [
        26,
        26,
        25,
        25,
        25,
        25,
        25,
        24,
        24,
        24,
        24,
        25,
        25,
        25,
        25,
        26,
        27,
        28,
        28,
        28,
        28,
        28,
        27,
        26,
        24
      ]
    },
    "TPE": {
      "icao": "RCTP",
      "issued": "2026-07-14T11:00:00.000Z",
      "raw": "TAF RCTP 141100Z 1412/1518 14005KT 9999 FEW010 BKN032 TEMPO 1412/1418 20005KT TEMPO 1418/1424 21005KT TEMPO 1500/1503 24005KT BECMG 1503/1504 36005KT TEMPO 1506/1512 13005KT",
      "groups": [
        {
          "text": "TAF RCTP 141100Z 1412/1518 14005KT 9999 FEW010 BKN032",
          "offset_h": 1,
          "wdir": 140,
          "wspd": 5
        },
        {
          "text": "TEMPO 1412/1418 20005KT",
          "offset_h": 1,
          "wdir": 200,
          "wspd": 5
        },
        {
          "text": "TEMPO 1418/1424 21005KT",
          "offset_h": 7,
          "wdir": 210,
          "wspd": 5
        },
        {
          "text": "TEMPO 1500/1503 24005KT",
          "offset_h": 13,
          "wdir": 240,
          "wspd": 5
        },
        {
          "text": "BECMG 1503/1504 36005KT",
          "offset_h": 16,
          "wdir": 360,
          "wspd": 5
        },
        {
          "text": "TEMPO 1506/1512 13005KT",
          "offset_h": 19,
          "wdir": 130,
          "wspd": 5
        }
      ],
      "metar_raw": "METAR RCTP 141100Z 14003KT 090V200 9999 FEW015 BKN030 BKN090 29/26 Q1008 NOSIG RMK R23 A2979",
      "metar_wdir": 140,
      "metar_wspd": 3,
      "metar_oat": 29,
      "metar_qnh": 1008,
      "hourly_oat": [
        27,
        27,
        27,
        27,
        27,
        26,
        26,
        26,
        26,
        26,
        26,
        26,
        27,
        29,
        30,
        31,
        31,
        31,
        30,
        30,
        29,
        30,
        30,
        29,
        28
      ]
    },
    "TSA": {
      "icao": "RCSS",
      "issued": "2026-07-14T11:00:00.000Z",
      "raw": "TAF RCSS 141100Z 1412/1512 09005KT 9999 FEW010 BKN032 TEMPO 1412/1418 15005KT TEMPO 1418/1424 16005KT TEMPO 1502/1508 28005KT TEMPO 1508/1512 30005KT 4000 SHRA FEW010 BKN017",
      "groups": [
        {
          "text": "TAF RCSS 141100Z 1412/1512 09005KT 9999 FEW010 BKN032",
          "offset_h": 1,
          "wdir": 90,
          "wspd": 5
        },
        {
          "text": "TEMPO 1412/1418 15005KT",
          "offset_h": 1,
          "wdir": 150,
          "wspd": 5
        },
        {
          "text": "TEMPO 1418/1424 16005KT",
          "offset_h": 7,
          "wdir": 160,
          "wspd": 5
        },
        {
          "text": "TEMPO 1502/1508 28005KT",
          "offset_h": 15,
          "wdir": 280,
          "wspd": 5
        },
        {
          "text": "TEMPO 1508/1512 30005KT 4000 SHRA FEW010 BKN017",
          "offset_h": 21,
          "wdir": 300,
          "wspd": 5
        }
      ],
      "metar_raw": "METAR RCSS 141100Z 09003KT 050V140 9999 SCT020 SCT035 BKN090 29/27 Q1008 NOSIG RMK A2979",
      "metar_wdir": 90,
      "metar_wspd": 3,
      "metar_oat": 29,
      "metar_qnh": 1008,
      "hourly_oat": [
        27,
        27,
        27,
        27,
        27,
        27,
        27,
        26,
        26,
        26,
        26,
        26,
        28,
        30,
        31,
        32,
        33,
        33,
        33,
        29,
        28,
        29,
        29,
        29,
        28
      ]
    },
    "PVG": {
      "icao": "ZSPD",
      "issued": "2026-07-14T09:05:00.000Z",
      "raw": "TAF ZSPD 140905Z 1412/1518 18004MPS 8000 SCT030 TX32/1412Z TX35/1506Z TN28/1421Z TEMPO 1505/1509 TSRA BKN008 SCT030CB",
      "groups": [
        {
          "text": "TAF ZSPD 140905Z 1412/1518 18004MPS 8000 SCT030 TX32/1412Z TX35/1506Z TN28/1421Z",
          "offset_h": 1,
          "wdir": null,
          "wspd": null
        },
        {
          "text": "TEMPO 1505/1509 TSRA BKN008 SCT030CB",
          "offset_h": 18,
          "wdir": null,
          "wspd": null
        }
      ],
      "metar_raw": "METAR ZSPD 141100Z 17003MPS CAVOK 32/27 Q1003 NOSIG",
      "metar_wdir": null,
      "metar_wspd": null,
      "metar_oat": 32,
      "metar_qnh": 1003,
      "hourly_oat": [
        31,
        30,
        30,
        30,
        30,
        29,
        28,
        28,
        28,
        28,
        28,
        28,
        30,
        31,
        33,
        34,
        35,
        36,
        36,
        36,
        36,
        35,
        34,
        33,
        32
      ]
    },
    "DLC": {
      "icao": "ZYTL",
      "issued": "2026-07-14T09:05:00.000Z",
      "raw": "TAF ZYTL 140905Z 1412/1512 29004MPS 5000 BR SCT030 TX30/1506Z TN23/1421Z",
      "groups": [
        {
          "text": "TAF ZYTL 140905Z 1412/1512 29004MPS 5000 BR SCT030 TX30/1506Z TN23/1421Z",
          "offset_h": 1,
          "wdir": null,
          "wspd": null
        }
      ],
      "metar_raw": "METAR ZYTL 141100Z 32005MPS 280V340 9999 FEW010 SCT033 25/23 Q0997 NOSIG",
      "metar_wdir": null,
      "metar_wspd": null,
      "metar_oat": 25,
      "metar_qnh": 997,
      "hourly_oat": [
        26,
        25,
        25,
        25,
        24,
        24,
        24,
        24,
        24,
        24,
        24,
        25,
        26,
        28,
        29,
        30,
        30,
        31,
        31,
        31,
        30,
        30,
        29,
        28,
        27
      ]
    },
    "SHA": {
      "icao": "ZSSS",
      "issued": "2026-07-14T09:04:00.000Z",
      "raw": "TAF ZSSS 140904Z 1412/1518 18004MPS 8000 SCT030 TX34/1412Z TX37/1506Z TN29/1421Z TEMPO 1506/1509 TSRA BKN008 SCT030CB",
      "groups": [
        {
          "text": "TAF ZSSS 140904Z 1412/1518 18004MPS 8000 SCT030 TX34/1412Z TX37/1506Z TN29/1421Z",
          "offset_h": 1,
          "wdir": null,
          "wspd": null
        },
        {
          "text": "TEMPO 1506/1509 TSRA BKN008 SCT030CB",
          "offset_h": 19,
          "wdir": null,
          "wspd": null
        }
      ],
      "metar_raw": "METAR ZSSS 141100Z 18004MPS CAVOK 34/25 Q1002 NOSIG",
      "metar_wdir": null,
      "metar_wspd": null,
      "metar_oat": 34,
      "metar_qnh": 1002,
      "hourly_oat": [
        32,
        31,
        31,
        31,
        31,
        30,
        30,
        29,
        29,
        28,
        28,
        28,
        30,
        31,
        33,
        34,
        36,
        36,
        37,
        37,
        37,
        37,
        36,
        36,
        35
      ]
    },
    "CAN": {
      "icao": "ZGGG",
      "issued": "2026-07-14T09:02:00.000Z",
      "raw": "TAF ZGGG 140902Z 1412/1518 14004MPS 8000 BKN033 TX29/1412Z TX35/1507Z TN27/1422Z TEMPO 1412/1415 SHRA FEW026CB BKN033 TEMPO 1421/1501 SHRA FEW026CB BKN033 TEMPO 1505/1509 TSRA SCT026CB BKN033",
      "groups": [
        {
          "text": "TAF ZGGG 140902Z 1412/1518 14004MPS 8000 BKN033 TX29/1412Z TX35/1507Z TN27/1422Z",
          "offset_h": 1,
          "wdir": null,
          "wspd": null
        },
        {
          "text": "TEMPO 1412/1415 SHRA FEW026CB BKN033",
          "offset_h": 1,
          "wdir": null,
          "wspd": null
        },
        {
          "text": "TEMPO 1421/1501 SHRA FEW026CB BKN033",
          "offset_h": 10,
          "wdir": null,
          "wspd": null
        },
        {
          "text": "TEMPO 1505/1509 TSRA SCT026CB BKN033",
          "offset_h": 18,
          "wdir": null,
          "wspd": null
        }
      ],
      "metar_raw": "METAR ZGGG 141100Z 12004MPS 9999 -SHRA SCT016 BKN036 29/25 Q1000 RESHRA NOSIG",
      "metar_wdir": null,
      "metar_wspd": null,
      "metar_oat": 29,
      "metar_qnh": 1000,
      "hourly_oat": [
        26,
        26,
        26,
        26,
        26,
        26,
        26,
        26,
        26,
        26,
        25,
        26,
        26,
        27,
        28,
        29,
        30,
        31,
        28,
        30,
        30,
        30,
        28,
        28,
        27
      ]
    },
    "PEK": {
      "icao": "ZBAA",
      "issued": "2026-07-14T09:01:00.000Z",
      "raw": "TAF ZBAA 140901Z 1412/1518 17004MPS CAVOK TX36/1506Z TN23/1421Z TN25/1518Z",
      "groups": [
        {
          "text": "TAF ZBAA 140901Z 1412/1518 17004MPS CAVOK TX36/1506Z TN23/1421Z TN25/1518Z",
          "offset_h": 1,
          "wdir": null,
          "wspd": null
        }
      ],
      "metar_raw": "METAR ZBAA 141100Z VRB01MPS CAVOK 28/24 Q0999 NOSIG",
      "metar_wdir": null,
      "metar_wspd": null,
      "metar_oat": 28,
      "metar_qnh": 999,
      "hourly_oat": [
        29,
        28,
        27,
        27,
        26,
        26,
        25,
        25,
        24,
        24,
        23,
        23,
        25,
        27,
        28,
        30,
        32,
        33,
        34,
        34,
        34,
        34,
        33,
        32,
        31
      ]
    },
    "HNL": {
      "icao": "PHNL",
      "issued": "2026-07-14T08:58:00.000Z",
      "raw": "TAF PHNL 140858Z 1409/1512 04008KT P6SM FEW025 SCT040 FM141200 35005KT P6SM FEW025 SCT040 FM142000 07012G20KT P6SM VCSH SCT025 BKN040 FM150500 05008KT P6SM SCT025 BKN040",
      "groups": [
        {
          "text": "TAF PHNL 140858Z 1409/1512 04008KT P6SM FEW025 SCT040",
          "offset_h": -2,
          "wdir": 40,
          "wspd": 8
        },
        {
          "text": "FM141200 35005KT P6SM FEW025 SCT040",
          "offset_h": 1,
          "wdir": 350,
          "wspd": 5
        },
        {
          "text": "FM142000 07012G20KT P6SM VCSH SCT025 BKN040",
          "offset_h": 9,
          "wdir": 70,
          "wspd": 12
        },
        {
          "text": "FM150500 05008KT P6SM SCT025 BKN040",
          "offset_h": 18,
          "wdir": 50,
          "wspd": 8
        }
      ],
      "metar_raw": "METAR PHNL 141053Z 05004KT 10SM FEW024 24/18 A2998 RMK AO2 SLP152 T02390183 $",
      "metar_wdir": 50,
      "metar_wspd": 4,
      "metar_oat": 24,
      "metar_qnh": 1015,
      "hourly_oat": [
        23,
        22,
        22,
        22,
        22,
        22,
        24,
        26,
        27,
        28,
        28,
        28,
        28,
        28,
        28,
        27,
        26,
        26,
        24,
        24,
        23,
        23,
        23,
        23,
        22
      ]
    },
    "LAX": {
      "icao": "KLAX",
      "issued": "2026-07-14T08:43:00.000Z",
      "raw": "TAF KLAX 140843Z 1409/1512 VRB03KT P6SM BKN012 FM141000 VRB03KT P6SM OVC006 FM141700 26006KT P6SM SCT008 FM141900 26012KT P6SM SCT250 FM150300 26008KT P6SM SCT250 FM150500 24005KT P6SM BKN008 FM151000 VRB03KT P6SM OVC006",
      "groups": [
        {
          "text": "TAF KLAX 140843Z 1409/1512 VRB03KT P6SM BKN012",
          "offset_h": -2,
          "wdir": "VRB",
          "wspd": 3
        },
        {
          "text": "FM141000 VRB03KT P6SM OVC006",
          "offset_h": -1,
          "wdir": "VRB",
          "wspd": 3
        },
        {
          "text": "FM141700 26006KT P6SM SCT008",
          "offset_h": 6,
          "wdir": 260,
          "wspd": 6
        },
        {
          "text": "FM141900 26012KT P6SM SCT250",
          "offset_h": 8,
          "wdir": 260,
          "wspd": 12
        },
        {
          "text": "FM150300 26008KT P6SM SCT250",
          "offset_h": 16,
          "wdir": 260,
          "wspd": 8
        },
        {
          "text": "FM150500 24005KT P6SM BKN008",
          "offset_h": 18,
          "wdir": 240,
          "wspd": 5
        },
        {
          "text": "FM151000 VRB03KT P6SM OVC006",
          "offset_h": 23,
          "wdir": "VRB",
          "wspd": 3
        }
      ],
      "metar_raw": "METAR KLAX 141053Z 00000KT 10SM FEW009 20/17 A2998 RMK AO2 SLP148 T02000172 $",
      "metar_wdir": 0,
      "metar_wspd": 0,
      "metar_oat": 20,
      "metar_qnh": 1015,
      "hourly_oat": [
        19,
        19,
        19,
        20,
        21,
        21,
        21,
        21,
        23,
        23,
        23,
        24,
        24,
        23,
        22,
        22,
        20,
        20,
        20,
        19,
        19,
        18,
        18,
        17,
        17
      ]
    },
    "SAN": {
      "icao": "KSAN",
      "issued": "2026-07-14T08:09:00.000Z",
      "raw": "TAF KSAN 140809Z 1408/1512 VRB03KT P6SM SCT012 TEMPO 1410/1412 BKN012 FM141200 VRB03KT P6SM OVC011 FM141700 28005KT P6SM SCT015 FM141900 30011KT P6SM FEW200 FM150300 VRB04KT P6SM FEW012",
      "groups": [
        {
          "text": "TAF KSAN 140809Z 1408/1512 VRB03KT P6SM SCT012",
          "offset_h": -3,
          "wdir": "VRB",
          "wspd": 3
        },
        {
          "text": "TEMPO 1410/1412 BKN012",
          "offset_h": -1,
          "wdir": null,
          "wspd": null
        },
        {
          "text": "FM141200 VRB03KT P6SM OVC011",
          "offset_h": 1,
          "wdir": "VRB",
          "wspd": 3
        },
        {
          "text": "FM141700 28005KT P6SM SCT015",
          "offset_h": 6,
          "wdir": 280,
          "wspd": 5
        },
        {
          "text": "FM141900 30011KT P6SM FEW200",
          "offset_h": 8,
          "wdir": 300,
          "wspd": 11
        },
        {
          "text": "FM150300 VRB04KT P6SM FEW012",
          "offset_h": 16,
          "wdir": "VRB",
          "wspd": 4
        }
      ],
      "metar_raw": "SPECI KSAN 141102Z 30005KT 10SM SCT009 BKN170 20/18 A2998 RMK AO2 T02000183 $",
      "metar_wdir": 300,
      "metar_wspd": 5,
      "metar_oat": 20,
      "metar_qnh": 1015,
      "hourly_oat": [
        19,
        19,
        19,
        20,
        22,
        24,
        24,
        25,
        25,
        26,
        26,
        25,
        24,
        24,
        24,
        23,
        21,
        20,
        20,
        19,
        19,
        19,
        19,
        19,
        18
      ]
    },
    "FUK": {
      "icao": "RJFF",
      "issued": "2026-07-14T05:05:00.000Z",
      "raw": "TAF RJFF 140505Z 1406/1512 16012KT 9999 FEW030 BECMG 1500/1503 23010KT",
      "groups": [
        {
          "text": "TAF RJFF 140505Z 1406/1512 16012KT 9999 FEW030",
          "offset_h": -5,
          "wdir": 160,
          "wspd": 12
        },
        {
          "text": "BECMG 1500/1503 23010KT",
          "offset_h": 13,
          "wdir": 230,
          "wspd": 10
        }
      ],
      "metar_raw": "METAR RJFF 141100Z 17012KT 9999 FEW030 SCT040 BKN/// 31/23 Q1008 NOSIG",
      "metar_wdir": 170,
      "metar_wspd": 12,
      "metar_oat": 31,
      "metar_qnh": 1008,
      "hourly_oat": [
        29,
        28,
        28,
        28,
        28,
        28,
        27,
        27,
        28,
        28,
        28,
        28,
        29,
        30,
        31,
        32,
        32,
        32,
        32,
        32,
        32,
        32,
        31,
        30,
        29
      ]
    },
    "CTS": {
      "icao": "RJCC",
      "issued": "2026-07-14T05:05:00.000Z",
      "raw": "TAF RJCC 140505Z 1406/1512 17010KT 6000 FEW003 BKN012 TEMPO 1406/1409 4000 -SHRA BR FEW002 BKN004 TEMPO 1409/1412 1500 BR FEW001 BKN003 TEMPO 1412/1500 0700 FG VV001 TEMPO 1500/1503 FEW003 BKN005 BECMG 1509/1512 15024KT TEMPO 1509/1512 4000 SHRA BR FEW003 BKN005",
      "groups": [
        {
          "text": "TAF RJCC 140505Z 1406/1512 17010KT 6000 FEW003 BKN012",
          "offset_h": -5,
          "wdir": 170,
          "wspd": 10
        },
        {
          "text": "TEMPO 1406/1409 4000 -SHRA BR FEW002 BKN004",
          "offset_h": -5,
          "wdir": null,
          "wspd": null
        },
        {
          "text": "TEMPO 1409/1412 1500 BR FEW001 BKN003",
          "offset_h": -2,
          "wdir": null,
          "wspd": null
        },
        {
          "text": "TEMPO 1412/1500 0700 FG VV001",
          "offset_h": 1,
          "wdir": null,
          "wspd": null
        },
        {
          "text": "TEMPO 1500/1503 FEW003 BKN005",
          "offset_h": 13,
          "wdir": null,
          "wspd": null
        },
        {
          "text": "BECMG 1509/1512 15024KT",
          "offset_h": 22,
          "wdir": 150,
          "wspd": 24
        },
        {
          "text": "TEMPO 1509/1512 4000 SHRA BR FEW003 BKN005",
          "offset_h": 22,
          "wdir": null,
          "wspd": null
        }
      ],
      "metar_raw": "METAR RJCC 141100Z 17007KT 2300 BR FEW001 BKN002 BKN003 22/22 Q1004",
      "metar_wdir": 170,
      "metar_wspd": 7,
      "metar_oat": 22,
      "metar_qnh": 1004,
      "hourly_oat": [
        21,
        21,
        20,
        20,
        20,
        20,
        20,
        21,
        21,
        20,
        21,
        21,
        21,
        21,
        22,
        23,
        23,
        25,
        26,
        25,
        24,
        23,
        22,
        21,
        21
      ]
    },
    "NRT": {
      "icao": "RJAA",
      "issued": "2026-07-14T05:05:00.000Z",
      "raw": "TAF RJAA 140505Z 1406/1512 13008KT 9999 FEW030",
      "groups": [
        {
          "text": "TAF RJAA 140505Z 1406/1512 13008KT 9999 FEW030",
          "offset_h": -5,
          "wdir": 130,
          "wspd": 8
        }
      ],
      "metar_raw": "METAR RJAA 141100Z 15004KT CAVOK 26/24 Q1006 NOSIG",
      "metar_wdir": 150,
      "metar_wspd": 4,
      "metar_oat": 26,
      "metar_qnh": 1006,
      "hourly_oat": [
        26,
        26,
        26,
        25,
        25,
        25,
        24,
        24,
        24,
        24,
        25,
        26,
        28,
        29,
        30,
        30,
        31,
        31,
        31,
        31,
        30,
        30,
        29,
        28,
        27
      ]
    },
    "KIX": {
      "icao": "RJBB",
      "issued": "2026-07-14T05:05:00.000Z",
      "raw": "TAF RJBB 140505Z 1406/1512 22006KT 9999 FEW030",
      "groups": [
        {
          "text": "TAF RJBB 140505Z 1406/1512 22006KT 9999 FEW030",
          "offset_h": -5,
          "wdir": 220,
          "wspd": 6
        }
      ],
      "metar_raw": "METAR RJBB 141100Z 21009KT CAVOK 30/24 Q1006 NOSIG",
      "metar_wdir": 210,
      "metar_wspd": 9,
      "metar_oat": 30,
      "metar_qnh": 1006,
      "hourly_oat": [
        28,
        28,
        28,
        27,
        27,
        27,
        27,
        26,
        26,
        26,
        27,
        27,
        27,
        27,
        27,
        27,
        27,
        27,
        27,
        27,
        27,
        28,
        28,
        28,
        27
      ]
    },
    "HND": {
      "icao": "RJTT",
      "issued": "2026-07-14T05:05:00.000Z",
      "raw": "TAF RJTT 140505Z 1406/1512 19012KT 9999 FEW030",
      "groups": [
        {
          "text": "TAF RJTT 140505Z 1406/1512 19012KT 9999 FEW030",
          "offset_h": -5,
          "wdir": 190,
          "wspd": 12
        }
      ],
      "metar_raw": "METAR RJTT 141100Z 20013KT 9999 FEW050 BKN/// 28/25 Q1006 NOSIG",
      "metar_wdir": 200,
      "metar_wspd": 13,
      "metar_oat": 28,
      "metar_qnh": 1006,
      "hourly_oat": [
        26,
        26,
        26,
        26,
        26,
        25,
        25,
        25,
        25,
        25,
        26,
        26,
        27,
        28,
        29,
        30,
        30,
        31,
        30,
        30,
        29,
        28,
        27,
        27,
        26
      ]
    },
    "ITM": {
      "icao": "RJOO",
      "issued": "2026-07-14T05:05:00.000Z",
      "raw": "TAF RJOO 140505Z 1406/1512 22006KT 9999 FEW030 BECMG 1409/1411 01004KT BECMG 1421/1500 21008KT BECMG 1503/1506 23008KT",
      "groups": [
        {
          "text": "TAF RJOO 140505Z 1406/1512 22006KT 9999 FEW030",
          "offset_h": -5,
          "wdir": 220,
          "wspd": 6
        },
        {
          "text": "BECMG 1409/1411 01004KT",
          "offset_h": -2,
          "wdir": 10,
          "wspd": 4
        },
        {
          "text": "BECMG 1421/1500 21008KT",
          "offset_h": 10,
          "wdir": 210,
          "wspd": 8
        },
        {
          "text": "BECMG 1503/1506 23008KT",
          "offset_h": 16,
          "wdir": 230,
          "wspd": 8
        }
      ],
      "metar_raw": "METAR RJOO 141100Z 31004KT 9999 FEW030 BKN/// 32/23 Q1006",
      "metar_wdir": 310,
      "metar_wspd": 4,
      "metar_oat": 32,
      "metar_qnh": 1006,
      "hourly_oat": [
        30,
        29,
        28,
        28,
        27,
        26,
        26,
        26,
        25,
        25,
        25,
        26,
        28,
        30,
        31,
        31,
        32,
        32,
        32,
        32,
        32,
        31,
        30,
        29,
        28
      ]
    },
    "OKA": {
      "icao": "ROAH",
      "issued": "2026-07-14T05:05:00.000Z",
      "raw": "TAF ROAH 140505Z 1406/1512 19010KT 9999 FEW008 SCT015 TEMPO 1415/1500 FEW005 BKN008",
      "groups": [
        {
          "text": "TAF ROAH 140505Z 1406/1512 19010KT 9999 FEW008 SCT015",
          "offset_h": -5,
          "wdir": 190,
          "wspd": 10
        },
        {
          "text": "TEMPO 1415/1500 FEW005 BKN008",
          "offset_h": 4,
          "wdir": null,
          "wspd": null
        }
      ],
      "metar_raw": "METAR ROAH 141100Z 18009KT 9999 FEW009 SCT/// 27/25 Q1011",
      "metar_wdir": 180,
      "metar_wspd": 9,
      "metar_oat": 27,
      "metar_qnh": 1011,
      "hourly_oat": [
        27,
        27,
        27,
        27,
        26,
        26,
        26,
        26,
        26,
        26,
        26,
        27,
        28,
        28,
        28,
        29,
        29,
        29,
        29,
        30,
        29,
        29,
        28,
        28,
        28
      ]
    },
    "NGO": {
      "icao": "RJGG",
      "issued": "2026-07-14T05:05:00.000Z",
      "raw": "TAF RJGG 140505Z 1406/1512 32014KT 9999 FEW030 BECMG 1413/1415 28004KT BECMG 1421/1500 19012KT",
      "groups": [
        {
          "text": "TAF RJGG 140505Z 1406/1512 32014KT 9999 FEW030",
          "offset_h": -5,
          "wdir": 320,
          "wspd": 14
        },
        {
          "text": "BECMG 1413/1415 28004KT",
          "offset_h": 2,
          "wdir": 280,
          "wspd": 4
        },
        {
          "text": "BECMG 1421/1500 19012KT",
          "offset_h": 10,
          "wdir": 190,
          "wspd": 12
        }
      ],
      "metar_raw": "METAR RJGG 141100Z 33016KT 9999 FEW020 BKN/// 28/23 Q1006 NOSIG",
      "metar_wdir": 330,
      "metar_wspd": 16,
      "metar_oat": 28,
      "metar_qnh": 1006,
      "hourly_oat": [
        29,
        28,
        28,
        28,
        27,
        27,
        27,
        27,
        27,
        26,
        26,
        26,
        26,
        27,
        27,
        28,
        28,
        29,
        29,
        29,
        28,
        28,
        28,
        28,
        28
      ]
    },
    "BKK": {
      "icao": "VTBS",
      "issued": "2026-07-14T05:00:00.000Z",
      "raw": "TAF VTBS 140500Z 1406/1512 21008KT 9999 FEW020 TEMPO 1406/1412 VRB15G25KT 4000 TSRA FEW018CB SCT030 BKN100 TEMPO 1508/1512 VRB15G25KT 4000 TSRA FEW018CB SCT030 BKN100",
      "groups": [
        {
          "text": "TAF VTBS 140500Z 1406/1512 21008KT 9999 FEW020",
          "offset_h": -5,
          "wdir": 210,
          "wspd": 8
        },
        {
          "text": "TEMPO 1406/1412 VRB15G25KT 4000 TSRA FEW018CB SCT030 BKN100",
          "offset_h": -5,
          "wdir": "VRB",
          "wspd": 15
        },
        {
          "text": "TEMPO 1508/1512 VRB15G25KT 4000 TSRA FEW018CB SCT030 BKN100",
          "offset_h": 21,
          "wdir": "VRB",
          "wspd": 15
        }
      ],
      "metar_raw": "METAR VTBS 141100Z 22011KT 9999 FEW020 30/23 Q1006 NOSIG",
      "metar_wdir": 220,
      "metar_wspd": 11,
      "metar_oat": 30,
      "metar_qnh": 1006,
      "hourly_oat": [
        28,
        28,
        28,
        28,
        28,
        28,
        27,
        27,
        27,
        27,
        27,
        27,
        27,
        27,
        28,
        29,
        30,
        30,
        31,
        31,
        30,
        30,
        29,
        27,
        26
      ]
    },
    "HAN": {
      "icao": "VVNB",
      "issued": "2026-07-14T05:00:00.000Z",
      "raw": "TAF VVNB 140500Z 1406/1506 08006KT 9999 FEW025 PROB40 TEMPO 1409/1414 4000 TSRA SCT012 FEW027CB",
      "groups": [
        {
          "text": "TAF VVNB 140500Z 1406/1506 08006KT 9999 FEW025",
          "offset_h": -5,
          "wdir": 80,
          "wspd": 6
        },
        {
          "text": "PROB40",
          "offset_h": 0,
          "wdir": null,
          "wspd": null
        },
        {
          "text": "TEMPO 1409/1414 4000 TSRA SCT012 FEW027CB",
          "offset_h": -2,
          "wdir": null,
          "wspd": null
        }
      ],
      "metar_raw": "METAR VVNB 141100Z 13006KT CAVOK 35/24 Q1000 NOSIG",
      "metar_wdir": 130,
      "metar_wspd": 6,
      "metar_oat": 35,
      "metar_qnh": 1000,
      "hourly_oat": [
        31,
        30,
        29,
        29,
        28,
        28,
        28,
        27,
        27,
        27,
        27,
        27,
        27,
        28,
        30,
        31,
        32,
        33,
        34,
        34,
        35,
        34,
        33,
        33,
        32
      ]
    },
    "SGN": {
      "icao": "VVTS",
      "issued": "2026-07-14T05:00:00.000Z",
      "raw": "TAF VVTS 140500Z 1406/1512 26012KT 9999 SCT017 TEMPO 1407/1410 26015G28KT 4000 TSRA SCT015 SCT017CB TEMPO 1410/1413 5000 SHRA SCT015 FEW017CB TEMPO 1506/1509 26015G26KT 2000 +TSRA SCT013 SCT015CB",
      "groups": [
        {
          "text": "TAF VVTS 140500Z 1406/1512 26012KT 9999 SCT017",
          "offset_h": -5,
          "wdir": 260,
          "wspd": 12
        },
        {
          "text": "TEMPO 1407/1410 26015G28KT 4000 TSRA SCT015 SCT017CB",
          "offset_h": -4,
          "wdir": 260,
          "wspd": 15
        },
        {
          "text": "TEMPO 1410/1413 5000 SHRA SCT015 FEW017CB",
          "offset_h": -1,
          "wdir": null,
          "wspd": null
        },
        {
          "text": "TEMPO 1506/1509 26015G26KT 2000 +TSRA SCT013 SCT015CB",
          "offset_h": 19,
          "wdir": 260,
          "wspd": 15
        }
      ],
      "metar_raw": "METAR VVTS 141100Z 26011KT CAVOK 30/24 Q1008 NOSIG",
      "metar_wdir": 260,
      "metar_wspd": 11,
      "metar_oat": 30,
      "metar_qnh": 1008,
      "hourly_oat": [
        28,
        27,
        26,
        26,
        26,
        26,
        25,
        25,
        25,
        25,
        25,
        25,
        25,
        26,
        28,
        30,
        30,
        31,
        31,
        28,
        28,
        28,
        29,
        29,
        28
      ]
    },
    "SIN": {
      "icao": "WSSS",
      "issued": "2026-07-14T05:00:00.000Z",
      "raw": "TAF WSSS 140500Z 1406/1512 16009KT 9999 FEW015 SCT020",
      "groups": [
        {
          "text": "TAF WSSS 140500Z 1406/1512 16009KT 9999 FEW015 SCT020",
          "offset_h": -5,
          "wdir": 160,
          "wspd": 9
        }
      ],
      "metar_raw": "METAR WSSS 141100Z 14011KT 9999 FEW018 BKN270 30/24 Q1009 NOSIG",
      "metar_wdir": 140,
      "metar_wspd": 11,
      "metar_oat": 30,
      "metar_qnh": 1009,
      "hourly_oat": [
        28,
        29,
        29,
        29,
        29,
        29,
        29,
        28,
        28,
        28,
        28,
        28,
        28,
        28,
        29,
        30,
        31,
        30,
        30,
        30,
        30,
        30,
        30,
        27,
        26
      ]
    },
    "KUL": {
      "icao": "WMKK",
      "issued": "2026-07-14T05:00:00.000Z",
      "raw": "TAF WMKK 140500Z 1406/1512 15007KT 9999 FEW018 PROB30 TEMPO 1406/1410 6000 -TSRA FEW017CB SCT018",
      "groups": [
        {
          "text": "TAF WMKK 140500Z 1406/1512 15007KT 9999 FEW018",
          "offset_h": -5,
          "wdir": 150,
          "wspd": 7
        },
        {
          "text": "PROB30",
          "offset_h": 0,
          "wdir": null,
          "wspd": null
        },
        {
          "text": "TEMPO 1406/1410 6000 -TSRA FEW017CB SCT018",
          "offset_h": -5,
          "wdir": null,
          "wspd": null
        }
      ],
      "metar_raw": "METAR WMKK 141100Z 14005KT 070V220 9000 FEW030 30/26 Q1007 NOSIG",
      "metar_wdir": 140,
      "metar_wspd": 5,
      "metar_oat": 30,
      "metar_qnh": 1007,
      "hourly_oat": [
        29,
        28,
        28,
        28,
        28,
        27,
        27,
        27,
        26,
        26,
        26,
        26,
        25,
        26,
        28,
        29,
        30,
        30,
        31,
        31,
        30,
        31,
        30,
        30,
        29
      ]
    }
  }
}