{
  "updated": "2026-05-19T10:47:37Z",
  "tafs": {
    "": {
      "icao": "",
      "issued": "2026-05-19T05:00:00.000Z",
      "raw": "TAF VVTS 190500Z 1906/2012 22010KT 9999 SCT017 TEMPO 1907/1910 22016G25KT 5000 TSRA SCT013 FEW015CB TEMPO 2006/2009 23015G27KT 3000 TSRA SCT015 SCT017CB"
    }
  }
}