{
  "updated": "2026-06-28T22:53:07Z",
  "tafs": {
    "NRT": {
      "icao": "RJAA",
      "issued": "2026-06-28T22:15:00.000Z",
      "raw": "TAF AMD RJAA 282215Z 2822/3000 08006KT 9999 FEW008 BKN015 TEMPO 2822/2902 3000 -SHRA BR FEW001 BKN003 BECMG 2912/2915 03006KT TEMPO 2912/2915 FEW001 BKN003 TEMPO 2915/3000 1500 BR BCFG FEW001 BKN003",
      "groups": [
        {
          "text": "TAF AMD RJAA 282215Z 2822/3000 08006KT 9999 FEW008 BKN015",
          "offset_h": 0,
          "wdir": 80,
          "wspd": 6
        },
        {
          "text": "TEMPO 2822/2902 3000 -SHRA BR FEW001 BKN003",
          "offset_h": 0,
          "wdir": null,
          "wspd": null
        },
        {
          "text": "BECMG 2912/2915 03006KT",
          "offset_h": 14,
          "wdir": 30,
          "wspd": 6
        },
        {
          "text": "TEMPO 2912/2915 FEW001 BKN003",
          "offset_h": 14,
          "wdir": null,
          "wspd": null
        },
        {
          "text": "TEMPO 2915/3000 1500 BR BCFG FEW001 BKN003",
          "offset_h": 17,
          "wdir": null,
          "wspd": null
        }
      ],
      "metar_raw": "METAR RJAA 282230Z 06003KT 2500 -SHRA BR FEW002 BKN003 21/20 Q1013 NOSIG",
      "metar_wdir": 60,
      "metar_wspd": 3,
      "metar_oat": 21,
      "metar_qnh": 1013,
      "hourly_oat": [
        21,
        22,
        22,
        23,
        24,
        24,
        24,
        24,
        24,
        23,
        23,
        22,
        22,
        21,
        21,
        21,
        20,
        20,
        20,
        20,
        19,
        19,
        19,
        20,
        20
      ]
    },
    "HAN": {
      "icao": "VVNB",
      "issued": "2026-06-28T21:40:00.000Z",
      "raw": "TAF AMD VVNB 282140Z 2822/2918 06005KT 9999 SCT020 TEMPO 2900/2903 4000 TSRA SCT010 FEW027CB TEMPO 2910/2916 18015G25KT 2500 +TSRA BKN012 SCT027CB",
      "groups": [
        {
          "text": "TAF AMD VVNB 282140Z 2822/2918 06005KT 9999 SCT020",
          "offset_h": 0,
          "wdir": 60,
          "wspd": 5
        },
        {
          "text": "TEMPO 2900/2903 4000 TSRA SCT010 FEW027CB",
          "offset_h": 2,
          "wdir": null,
          "wspd": null
        },
        {
          "text": "TEMPO 2910/2916 18015G25KT 2500 +TSRA BKN012 SCT027CB",
          "offset_h": 12,
          "wdir": 180,
          "wspd": 15
        }
      ],
      "metar_raw": "METAR VVNB 282230Z 05004KT 9999 FEW007 BKN009 26/25 Q1002 NOSIG",
      "metar_wdir": 50,
      "metar_wspd": 4,
      "metar_oat": 26,
      "metar_qnh": 1002,
      "hourly_oat": [
        25,
        26,
        26,
        27,
        28,
        29,
        30,
        30,
        29,
        28,
        29,
        30,
        30,
        27,
        27,
        27,
        26,
        25,
        26,
        25,
        25,
        25,
        25,
        25,
        25
      ]
    },
    "DLC": {
      "icao": "ZYTL",
      "issued": "2026-06-28T21:13:00.000Z",
      "raw": "TAF ZYTL 282113Z 2900/2924 13004MPS 5000 BR FEW040 TX27/2906Z TN20/2921Z",
      "groups": [
        {
          "text": "TAF ZYTL 282113Z 2900/2924 13004MPS 5000 BR FEW040 TX27/2906Z TN20/2921Z",
          "offset_h": 2,
          "wdir": null,
          "wspd": null
        }
      ],
      "metar_raw": "METAR ZYTL 282230Z 14004MPS 110V170 9999 SCT012 23/20 Q1010 NOSIG",
      "metar_wdir": null,
      "metar_wspd": null,
      "metar_oat": 23,
      "metar_qnh": 1010,
      "hourly_oat": [
        22,
        23,
        24,
        25,
        26,
        27,
        26,
        25,
        25,
        25,
        24,
        25,
        24,
        23,
        22,
        22,
        22,
        22,
        22,
        21,
        21,
        21,
        21,
        21,
        22
      ]
    },
    "PEK": {
      "icao": "ZBAA",
      "issued": "2026-06-28T21:07:00.000Z",
      "raw": "TAF ZBAA 282107Z 2900/3006 13003MPS 3200 BR NSC TX29/2906Z TX28/3006Z TN21/2921Z TEMPO 2908/2914 -TSRA FEW040CB BKN040",
      "groups": [
        {
          "text": "TAF ZBAA 282107Z 2900/3006 13003MPS 3200 BR NSC TX29/2906Z TX28/3006Z TN21/2921Z",
          "offset_h": 2,
          "wdir": null,
          "wspd": null
        },
        {
          "text": "TEMPO 2908/2914 -TSRA FEW040CB BKN040",
          "offset_h": 10,
          "wdir": null,
          "wspd": null
        }
      ],
      "metar_raw": "METAR ZBAA 282230Z 32003MPS 280V360 8000 -SHRA FEW040CB 22/20 Q1007 NOSIG",
      "metar_wdir": null,
      "metar_wspd": null,
      "metar_oat": 22,
      "metar_qnh": 1007,
      "hourly_oat": [
        21,
        21,
        22,
        24,
        25,
        27,
        27,
        28,
        29,
        29,
        25,
        24,
        25,
        24,
        23,
        23,
        23,
        22,
        22,
        22,
        22,
        22,
        22,
        22,
        22
      ]
    },
    "CAN": {
      "icao": "ZGGG",
      "issued": "2026-06-28T21:06:00.000Z",
      "raw": "TAF ZGGG 282106Z 2900/3006 16003MPS 6000 BKN033 TX32/2907Z TX33/3006Z TN27/2922Z TEMPO 2900/2902 SHRA FEW026CB BKN033 TEMPO 2906/2910 TSRA FEW026CB BKN033",
      "groups": [
        {
          "text": "TAF ZGGG 282106Z 2900/3006 16003MPS 6000 BKN033 TX32/2907Z TX33/3006Z TN27/2922Z",
          "offset_h": 2,
          "wdir": null,
          "wspd": null
        },
        {
          "text": "TEMPO 2900/2902 SHRA FEW026CB BKN033",
          "offset_h": 2,
          "wdir": null,
          "wspd": null
        },
        {
          "text": "TEMPO 2906/2910 TSRA FEW026CB BKN033",
          "offset_h": 8,
          "wdir": null,
          "wspd": null
        }
      ],
      "metar_raw": "METAR ZGGG 282230Z 09002MPS 060V180 6000 SCT010 OVC016 27/26 Q1006 NOSIG",
      "metar_wdir": null,
      "metar_wspd": null,
      "metar_oat": 27,
      "metar_qnh": 1006,
      "hourly_oat": [
        24,
        25,
        26,
        28,
        29,
        30,
        30,
        31,
        28,
        30,
        31,
        31,
        28,
        27,
        27,
        27,
        27,
        26,
        26,
        26,
        26,
        26,
        26,
        26,
        25
      ]
    },
    "PVG": {
      "icao": "ZSPD",
      "issued": "2026-06-28T21:03:00.000Z",
      "raw": "TAF ZSPD 282103Z 2900/3006 13004MPS 8000 BKN020 TX28/2906Z TX27/3006Z TN23/2921Z BECMG 2913/2914 -SHRA BKN011",
      "groups": [
        {
          "text": "TAF ZSPD 282103Z 2900/3006 13004MPS 8000 BKN020 TX28/2906Z TX27/3006Z TN23/2921Z",
          "offset_h": 2,
          "wdir": null,
          "wspd": null
        },
        {
          "text": "BECMG 2913/2914 -SHRA BKN011",
          "offset_h": 15,
          "wdir": null,
          "wspd": null
        }
      ],
      "metar_raw": "METAR ZSPD 282230Z 13005MPS CAVOK 25/23 Q1009 NOSIG",
      "metar_wdir": null,
      "metar_wspd": null,
      "metar_oat": 25,
      "metar_qnh": 1009,
      "hourly_oat": [
        24,
        25,
        26,
        27,
        27,
        27,
        26,
        26,
        26,
        26,
        26,
        25,
        25,
        25,
        25,
        25,
        25,
        25,
        25,
        25,
        25,
        25,
        25,
        24,
        24
      ]
    },
    "SHA": {
      "icao": "ZSSS",
      "issued": "2026-06-28T21:03:00.000Z",
      "raw": "TAF ZSSS 282103Z 2900/3006 13004MPS 8000 BKN020 TX29/2906Z TX27/3006Z TN24/2921Z BECMG 2913/2914 -SHRA BKN011",
      "groups": [
        {
          "text": "TAF ZSSS 282103Z 2900/3006 13004MPS 8000 BKN020 TX29/2906Z TX27/3006Z TN24/2921Z",
          "offset_h": 2,
          "wdir": null,
          "wspd": null
        },
        {
          "text": "BECMG 2913/2914 -SHRA BKN011",
          "offset_h": 15,
          "wdir": null,
          "wspd": null
        }
      ],
      "metar_raw": "METAR ZSSS 282230Z 14004MPS CAVOK 25/21 Q1008 NOSIG",
      "metar_wdir": null,
      "metar_wspd": null,
      "metar_oat": 25,
      "metar_qnh": 1008,
      "hourly_oat": [
        24,
        25,
        26,
        27,
        27,
        28,
        28,
        27,
        27,
        27,
        26,
        26,
        26,
        25,
        25,
        25,
        25,
        24,
        25,
        25,
        25,
        24,
        24,
        24,
        24
      ]
    },
    "HNL": {
      "icao": "PHNL",
      "issued": "2026-06-28T20:55:00.000Z",
      "raw": "TAF PHNL 282055Z 2821/2924 06015G25KT P6SM FEW025 SCT045 FM290500 05010KT P6SM FEW025 SCT040 FM291900 06015G25KT P6SM FEW025 SCT040",
      "groups": [
        {
          "text": "TAF PHNL 282055Z 2821/2924 06015G25KT P6SM FEW025 SCT045",
          "offset_h": -1,
          "wdir": 60,
          "wspd": 15
        },
        {
          "text": "FM290500 05010KT P6SM FEW025 SCT040",
          "offset_h": 7,
          "wdir": 50,
          "wspd": 10
        },
        {
          "text": "FM291900 06015G25KT P6SM FEW025 SCT040",
          "offset_h": 21,
          "wdir": 60,
          "wspd": 15
        }
      ],
      "metar_raw": "METAR PHNL 282153Z 04015G23KT 10SM FEW030 FEW050 30/18 A2998 RMK AO2 PK WND 02026/2116 SLP151 T03000178 $",
      "metar_wdir": 40,
      "metar_wspd": 15,
      "metar_oat": 30,
      "metar_qnh": 1015,
      "hourly_oat": [
        30,
        30,
        30,
        29,
        28,
        27,
        26,
        24,
        24,
        24,
        24,
        24,
        23,
        23,
        23,
        23,
        22,
        22,
        23,
        24,
        25,
        27,
        28,
        29,
        29
      ]
    },
    "LAX": {
      "icao": "KLAX",
      "issued": "2026-06-28T20:39:00.000Z",
      "raw": "TAF KLAX 282039Z 2821/2924 26009KT P6SM SCT030 FM290400 VRB03KT P6SM SKC FM290800 VRB03KT P6SM OVC025 FM291700 22006KT P6SM SCT030 FM291900 25013KT P6SM SCT025",
      "groups": [
        {
          "text": "TAF KLAX 282039Z 2821/2924 26009KT P6SM SCT030",
          "offset_h": -1,
          "wdir": 260,
          "wspd": 9
        },
        {
          "text": "FM290400 VRB03KT P6SM SKC",
          "offset_h": 6,
          "wdir": "VRB",
          "wspd": 3
        },
        {
          "text": "FM290800 VRB03KT P6SM OVC025",
          "offset_h": 10,
          "wdir": "VRB",
          "wspd": 3
        },
        {
          "text": "FM291700 22006KT P6SM SCT030",
          "offset_h": 19,
          "wdir": 220,
          "wspd": 6
        },
        {
          "text": "FM291900 25013KT P6SM SCT025",
          "offset_h": 21,
          "wdir": 250,
          "wspd": 13
        }
      ],
      "metar_raw": "METAR KLAX 282153Z 27012KT 10SM FEW032 FEW038 22/13 A2990 RMK AO2 SLP122 T02170133",
      "metar_wdir": 270,
      "metar_wspd": 12,
      "metar_oat": 22,
      "metar_qnh": 1013,
      "hourly_oat": [
        21,
        21,
        20,
        19,
        18,
        17,
        17,
        16,
        15,
        15,
        14,
        14,
        14,
        15,
        15,
        16,
        16,
        17,
        17,
        17,
        19,
        21,
        21,
        21,
        21
      ]
    },
    "SAN": {
      "icao": "KSAN",
      "issued": "2026-06-28T20:32:00.000Z",
      "raw": "TAF KSAN 282032Z 2821/2924 24010G17KT P6SM FEW035 FM290000 24008KT P6SM BKN025 FM290300 VRB04KT P6SM FEW015 OVC020 FM291700 23008KT P6SM SCT035",
      "groups": [
        {
          "text": "TAF KSAN 282032Z 2821/2924 24010G17KT P6SM FEW035",
          "offset_h": -1,
          "wdir": 240,
          "wspd": 10
        },
        {
          "text": "FM290000 24008KT P6SM BKN025",
          "offset_h": 2,
          "wdir": 240,
          "wspd": 8
        },
        {
          "text": "FM290300 VRB04KT P6SM FEW015 OVC020",
          "offset_h": 5,
          "wdir": "VRB",
          "wspd": 4
        },
        {
          "text": "FM291700 23008KT P6SM SCT035",
          "offset_h": 19,
          "wdir": 230,
          "wspd": 8
        }
      ],
      "metar_raw": "METAR KSAN 282151Z 24009KT 10SM FEW032 21/11 A2993 RMK AO2 SLP136 T02060111",
      "metar_wdir": 240,
      "metar_wspd": 9,
      "metar_oat": 21,
      "metar_qnh": 1014,
      "hourly_oat": [
        19,
        20,
        20,
        18,
        18,
        18,
        17,
        17,
        17,
        17,
        17,
        17,
        17,
        17,
        16,
        16,
        17,
        18,
        19,
        20,
        20,
        20,
        20,
        20,
        21
      ]
    },
    "HKG": {
      "icao": "VHHH",
      "issued": "2026-06-28T20:00:00.000Z",
      "raw": "TAF VHHH 282000Z 2821/3003 14010KT 9999 FEW010 SCT025 TX31/2906Z TN26/2822Z TN27/2922Z TEMPO 2821/2824 VRB15G25KT 2000 TSRA +SHRA FEW008CB SCT015 TEMPO 2900/2906 4000 SHRA FEW010CB SCT020 TEMPO 2922/3002 4000 SHRA FEW010CB SCT020",
      "groups": [
        {
          "text": "TAF VHHH 282000Z 2821/3003 14010KT 9999 FEW010 SCT025 TX31/2906Z TN26/2822Z TN27/2922Z",
          "offset_h": -1,
          "wdir": 140,
          "wspd": 10
        },
        {
          "text": "TEMPO 2821/2824 VRB15G25KT 2000 TSRA +SHRA FEW008CB SCT015",
          "offset_h": -1,
          "wdir": "VRB",
          "wspd": 15
        },
        {
          "text": "TEMPO 2900/2906 4000 SHRA FEW010CB SCT020",
          "offset_h": 2,
          "wdir": null,
          "wspd": null
        },
        {
          "text": "TEMPO 2922/3002 4000 SHRA FEW010CB SCT020",
          "offset_h": 24,
          "wdir": null,
          "wspd": null
        }
      ],
      "metar_raw": "METAR VHHH 282230Z 07005KT 040V100 9999 FEW015 27/25 Q1006 NOSIG",
      "metar_wdir": 70,
      "metar_wspd": 5,
      "metar_oat": 27,
      "metar_qnh": 1006,
      "hourly_oat": [
        26,
        26,
        27,
        28,
        29,
        28,
        28,
        29,
        30,
        30,
        30,
        30,
        29,
        29,
        29,
        29,
        28,
        28,
        27,
        27,
        26,
        26,
        26,
        26,
        27
      ]
    },
    "NGO": {
      "icao": "RJGG",
      "issued": "2026-06-28T18:14:00.000Z",
      "raw": "TAF AMD RJGG 281814Z 2818/3000 32006KT 4500 BR FEW030 TEMPO 2818/2821 3000 BR BECMG 2820/2822 9999 NSW BECMG 2901/2903 15008KT",
      "groups": [
        {
          "text": "TAF AMD RJGG 281814Z 2818/3000 32006KT 4500 BR FEW030",
          "offset_h": -4,
          "wdir": 320,
          "wspd": 6
        },
        {
          "text": "TEMPO 2818/2821 3000 BR",
          "offset_h": -4,
          "wdir": null,
          "wspd": null
        },
        {
          "text": "BECMG 2820/2822 9999 NSW",
          "offset_h": -2,
          "wdir": null,
          "wspd": null
        },
        {
          "text": "BECMG 2901/2903 15008KT",
          "offset_h": 3,
          "wdir": 150,
          "wspd": 8
        }
      ],
      "metar_raw": "METAR RJGG 282230Z 28001KT 5000 BR FEW003 BKN080 22/22 Q1012 NOSIG",
      "metar_wdir": 280,
      "metar_wspd": 1,
      "metar_oat": 22,
      "metar_qnh": 1012,
      "hourly_oat": [
        22,
        22,
        23,
        23,
        23,
        23,
        24,
        24,
        25,
        25,
        24,
        24,
        24,
        24,
        23,
        23,
        23,
        23,
        23,
        23,
        23,
        22,
        22,
        22,
        23
      ]
    },
    "KIX": {
      "icao": "RJBB",
      "issued": "2026-06-28T17:05:00.000Z",
      "raw": "TAF RJBB 281705Z 2818/3000 28006KT 9999 FEW020 BKN040 BECMG 2819/2821 01004KT BECMG 2901/2903 26006KT BECMG 2912/2915 05006KT",
      "groups": [
        {
          "text": "TAF RJBB 281705Z 2818/3000 28006KT 9999 FEW020 BKN040",
          "offset_h": -4,
          "wdir": 280,
          "wspd": 6
        },
        {
          "text": "BECMG 2819/2821 01004KT",
          "offset_h": -3,
          "wdir": 10,
          "wspd": 4
        },
        {
          "text": "BECMG 2901/2903 26006KT",
          "offset_h": 3,
          "wdir": 260,
          "wspd": 6
        },
        {
          "text": "BECMG 2912/2915 05006KT",
          "offset_h": 14,
          "wdir": 50,
          "wspd": 6
        }
      ],
      "metar_raw": "METAR RJBB 282230Z 20003KT 9999 FEW005 SCT015 BKN020 24/22 Q1012 NOSIG",
      "metar_wdir": 200,
      "metar_wspd": 3,
      "metar_oat": 24,
      "metar_qnh": 1012,
      "hourly_oat": [
        23,
        23,
        23,
        23,
        23,
        23,
        23,
        23,
        24,
        24,
        24,
        25,
        25,
        24,
        24,
        24,
        24,
        24,
        23,
        23,
        23,
        23,
        23,
        23,
        23
      ]
    },
    "HND": {
      "icao": "RJTT",
      "issued": "2026-06-28T17:05:00.000Z",
      "raw": "TAF RJTT 281705Z 2818/3000 03010KT 6000 -RA FEW005 BKN012 TEMPO 2818/2900 3000 -RA BR FEW002 BKN005 TEMPO 2900/2903 FEW005 BKN008 BECMG 2909/2912 09006KT BECMG 2915/2918 05006KT TEMPO 2915/3000 FEW005 BKN008",
      "groups": [
        {
          "text": "TAF RJTT 281705Z 2818/3000 03010KT 6000 -RA FEW005 BKN012",
          "offset_h": -4,
          "wdir": 30,
          "wspd": 10
        },
        {
          "text": "TEMPO 2818/2900 3000 -RA BR FEW002 BKN005",
          "offset_h": -4,
          "wdir": null,
          "wspd": null
        },
        {
          "text": "TEMPO 2900/2903 FEW005 BKN008",
          "offset_h": 2,
          "wdir": null,
          "wspd": null
        },
        {
          "text": "BECMG 2909/2912 09006KT",
          "offset_h": 11,
          "wdir": 90,
          "wspd": 6
        },
        {
          "text": "BECMG 2915/2918 05006KT",
          "offset_h": 17,
          "wdir": 50,
          "wspd": 6
        },
        {
          "text": "TEMPO 2915/3000 FEW005 BKN008",
          "offset_h": 17,
          "wdir": null,
          "wspd": null
        }
      ],
      "metar_raw": "METAR RJTT 282230Z 35006KT 3500 -RA BR FEW003 SCT004 BKN006 21/21 Q1013 TEMPO 3000 -RA BR FEW003 BKN005",
      "metar_wdir": 350,
      "metar_wspd": 6,
      "metar_oat": 21,
      "metar_qnh": 1013,
      "hourly_oat": [
        21,
        21,
        21,
        22,
        23,
        23,
        24,
        24,
        24,
        24,
        23,
        23,
        23,
        23,
        22,
        22,
        22,
        22,
        22,
        21,
        21,
        21,
        21,
        21,
        22
      ]
    },
    "ITM": {
      "icao": "RJOO",
      "issued": "2026-06-28T17:05:00.000Z",
      "raw": "TAF RJOO 281705Z 2818/3000 32005KT 9999 FEW020 BKN030 BECMG 2821/2823 21006KT BECMG 2906/2909 30006KT BECMG 2921/3000 08004KT",
      "groups": [
        {
          "text": "TAF RJOO 281705Z 2818/3000 32005KT 9999 FEW020 BKN030",
          "offset_h": -4,
          "wdir": 320,
          "wspd": 5
        },
        {
          "text": "BECMG 2821/2823 21006KT",
          "offset_h": -1,
          "wdir": 210,
          "wspd": 6
        },
        {
          "text": "BECMG 2906/2909 30006KT",
          "offset_h": 8,
          "wdir": 300,
          "wspd": 6
        },
        {
          "text": "BECMG 2921/3000 08004KT",
          "offset_h": 23,
          "wdir": 80,
          "wspd": 4
        }
      ],
      "metar_raw": "METAR RJOO 282200Z VRB01KT 9999 VCSH FEW008 BKN015 BKN050 24/21 Q1012",
      "metar_wdir": "VRB",
      "metar_wspd": 1,
      "metar_oat": 24,
      "metar_qnh": 1012,
      "hourly_oat": [
        22,
        23,
        25,
        26,
        28,
        29,
        30,
        30,
        30,
        29,
        29,
        28,
        27,
        26,
        25,
        25,
        24,
        23,
        23,
        22,
        22,
        22,
        22,
        22,
        23
      ]
    },
    "OKA": {
      "icao": "ROAH",
      "issued": "2026-06-28T17:05:00.000Z",
      "raw": "TAF ROAH 281705Z 2818/3000 18010KT 9999 FEW008 BKN012 TEMPO 2818/2821 FEW003 BKN005 TEMPO 2821/2900 FEW005 BKN008 TEMPO 2912/2921 FEW005 BKN008",
      "groups": [
        {
          "text": "TAF ROAH 281705Z 2818/3000 18010KT 9999 FEW008 BKN012",
          "offset_h": -4,
          "wdir": 180,
          "wspd": 10
        },
        {
          "text": "TEMPO 2818/2821 FEW003 BKN005",
          "offset_h": -4,
          "wdir": null,
          "wspd": null
        },
        {
          "text": "TEMPO 2821/2900 FEW005 BKN008",
          "offset_h": -1,
          "wdir": null,
          "wspd": null
        },
        {
          "text": "TEMPO 2912/2921 FEW005 BKN008",
          "offset_h": 14,
          "wdir": null,
          "wspd": null
        }
      ],
      "metar_raw": "METAR ROAH 282230Z 17011KT 9999 FEW005 BKN200 27/27 Q1011",
      "metar_wdir": 170,
      "metar_wspd": 11,
      "metar_oat": 27,
      "metar_qnh": 1011,
      "hourly_oat": [
        27,
        28,
        29,
        29,
        29,
        29,
        30,
        30,
        30,
        29,
        29,
        28,
        28,
        27,
        27,
        27,
        27,
        27,
        27,
        27,
        27,
        27,
        26,
        26,
        27
      ]
    },
    "FUK": {
      "icao": "RJFF",
      "issued": "2026-06-28T17:05:00.000Z",
      "raw": "TAF RJFF 281705Z 2818/3000 11004KT 9999 FEW013 BKN030 BECMG 2823/2901 32012KT BECMG 2912/2915 14004KT",
      "groups": [
        {
          "text": "TAF RJFF 281705Z 2818/3000 11004KT 9999 FEW013 BKN030",
          "offset_h": -4,
          "wdir": 110,
          "wspd": 4
        },
        {
          "text": "BECMG 2823/2901 32012KT",
          "offset_h": 1,
          "wdir": 320,
          "wspd": 12
        },
        {
          "text": "BECMG 2912/2915 14004KT",
          "offset_h": 14,
          "wdir": 140,
          "wspd": 4
        }
      ],
      "metar_raw": "METAR RJFF 282230Z 05003KT 360V100 9999 FEW015 23/19 Q1012 NOSIG",
      "metar_wdir": 50,
      "metar_wspd": 3,
      "metar_oat": 23,
      "metar_qnh": 1012,
      "hourly_oat": [
        20,
        22,
        23,
        25,
        25,
        25,
        26,
        26,
        26,
        26,
        25,
        24,
        24,
        23,
        22,
        22,
        21,
        21,
        21,
        20,
        20,
        20,
        20,
        20,
        21
      ]
    },
    "CTS": {
      "icao": "RJCC",
      "issued": "2026-06-28T17:05:00.000Z",
      "raw": "TAF RJCC 281705Z 2818/3000 35010KT 9999 FEW008 BKN015 TEMPO 2818/2821 FEW005 BKN008 TEMPO 2915/2921 FEW005 BKN008 BECMG 2921/3000 20006KT",
      "groups": [
        {
          "text": "TAF RJCC 281705Z 2818/3000 35010KT 9999 FEW008 BKN015",
          "offset_h": -4,
          "wdir": 350,
          "wspd": 10
        },
        {
          "text": "TEMPO 2818/2821 FEW005 BKN008",
          "offset_h": -4,
          "wdir": null,
          "wspd": null
        },
        {
          "text": "TEMPO 2915/2921 FEW005 BKN008",
          "offset_h": 17,
          "wdir": null,
          "wspd": null
        },
        {
          "text": "BECMG 2921/3000 20006KT",
          "offset_h": 23,
          "wdir": 200,
          "wspd": 6
        }
      ],
      "metar_raw": "METAR RJCC 282230Z 01009KT 9999 FEW010 SCT015 19/15 Q1013",
      "metar_wdir": 10,
      "metar_wspd": 9,
      "metar_oat": 19,
      "metar_qnh": 1013,
      "hourly_oat": [
        17,
        18,
        19,
        19,
        21,
        21,
        22,
        22,
        22,
        20,
        18,
        17,
        16,
        16,
        15,
        14,
        14,
        14,
        14,
        13,
        13,
        13,
        13,
        15,
        16
      ]
    },
    "GMP": {
      "icao": "RKSS",
      "issued": "2026-06-28T17:00:00.000Z",
      "raw": "TAF RKSS 281700Z 2818/2924 21005KT CAVOK TN20/2818Z TX32/2906Z TN21/2919Z BECMG 2900/2902 27007KT 9999 SCT040 BECMG 2912/2914 21005KT CAVOK",
      "groups": [
        {
          "text": "TAF RKSS 281700Z 2818/2924 21005KT CAVOK TN20/2818Z TX32/2906Z TN21/2919Z",
          "offset_h": -4,
          "wdir": 210,
          "wspd": 5
        },
        {
          "text": "BECMG 2900/2902 27007KT 9999 SCT040",
          "offset_h": 2,
          "wdir": 270,
          "wspd": 7
        },
        {
          "text": "BECMG 2912/2914 21005KT CAVOK",
          "offset_h": 14,
          "wdir": 210,
          "wspd": 5
        }
      ],
      "metar_raw": "SPECI RKSS 282234Z 30004KT 270V350 5000 BR FEW012 SCT040 23/22 Q1012 NOSIG",
      "metar_wdir": 300,
      "metar_wspd": 4,
      "metar_oat": 23,
      "metar_qnh": 1012,
      "hourly_oat": [
        20,
        21,
        22,
        25,
        27,
        28,
        28,
        28,
        28,
        27,
        26,
        25,
        24,
        22,
        21,
        20,
        20,
        20,
        20,
        20,
        19,
        19,
        19,
        19,
        20
      ]
    },
    "TPE": {
      "icao": "RCTP",
      "issued": "2026-06-28T17:00:00.000Z",
      "raw": "TAF RCTP 281700Z 2818/2924 15005KT 9999 FEW015 BKN032 BECMG 2900/2902 30005KT TEMPO 2907/2911 24008KT 4000 SHRA FEW010 FEW015CB BKN017 BECMG 2911/2913 17005KT TEMPO 2922/2924 12005KT",
      "groups": [
        {
          "text": "TAF RCTP 281700Z 2818/2924 15005KT 9999 FEW015 BKN032",
          "offset_h": -4,
          "wdir": 150,
          "wspd": 5
        },
        {
          "text": "BECMG 2900/2902 30005KT",
          "offset_h": 2,
          "wdir": 300,
          "wspd": 5
        },
        {
          "text": "TEMPO 2907/2911 24008KT 4000 SHRA FEW010 FEW015CB BKN017",
          "offset_h": 9,
          "wdir": 240,
          "wspd": 8
        },
        {
          "text": "BECMG 2911/2913 17005KT",
          "offset_h": 13,
          "wdir": 170,
          "wspd": 5
        },
        {
          "text": "TEMPO 2922/2924 12005KT",
          "offset_h": 24,
          "wdir": 120,
          "wspd": 5
        }
      ],
      "metar_raw": "METAR RCTP 282230Z VRB02KT 9999 FEW015 SCT035 BKN180 29/26 Q1009 NOSIG RMK A2981",
      "metar_wdir": "VRB",
      "metar_wspd": 2,
      "metar_oat": 29,
      "metar_qnh": 1009,
      "hourly_oat": [
        25,
        27,
        29,
        30,
        30,
        29,
        29,
        29,
        30,
        29,
        28,
        29,
        28,
        27,
        27,
        26,
        26,
        26,
        26,
        26,
        26,
        26,
        25,
        25,
        25
      ]
    },
    "TSA": {
      "icao": "RCSS",
      "issued": "2026-06-28T17:00:00.000Z",
      "raw": "TAF RCSS 281700Z 2818/2918 09005KT 9999 FEW015 BKN032 TEMPO 2906/2910 27012KT 2000 TSRA SCT006 BKN012 FEW020CB TEMPO 2915/2918 VRB05KT",
      "groups": [
        {
          "text": "TAF RCSS 281700Z 2818/2918 09005KT 9999 FEW015 BKN032",
          "offset_h": -4,
          "wdir": 90,
          "wspd": 5
        },
        {
          "text": "TEMPO 2906/2910 27012KT 2000 TSRA SCT006 BKN012 FEW020CB",
          "offset_h": 8,
          "wdir": 270,
          "wspd": 12
        },
        {
          "text": "TEMPO 2915/2918 VRB05KT",
          "offset_h": 17,
          "wdir": "VRB",
          "wspd": 5
        }
      ],
      "metar_raw": "METAR RCSS 282230Z VRB01KT 9999 FEW010 BKN180 BKN200 27/26 Q1009 NOSIG RMK A2980",
      "metar_wdir": "VRB",
      "metar_wspd": 1,
      "metar_oat": 27,
      "metar_qnh": 1009,
      "hourly_oat": [
        26,
        27,
        29,
        31,
        32,
        32,
        32,
        32,
        32,
        29,
        29,
        29,
        28,
        27,
        27,
        27,
        27,
        27,
        27,
        26,
        26,
        26,
        26,
        25,
        26
      ]
    },
    "SGN": {
      "icao": "VVTS",
      "issued": "2026-06-28T17:00:00.000Z",
      "raw": "TAF VVTS 281700Z 2818/2924 25008KT 9999 SCT017 TEMPO 2904/2907 5000 SHRA SCT015 FEW017CB TEMPO 2907/2911 25015G28KT 2000 +TSRA BKN013 SCT015CB",
      "groups": [
        {
          "text": "TAF VVTS 281700Z 2818/2924 25008KT 9999 SCT017",
          "offset_h": -4,
          "wdir": 250,
          "wspd": 8
        },
        {
          "text": "TEMPO 2904/2907 5000 SHRA SCT015 FEW017CB",
          "offset_h": 6,
          "wdir": null,
          "wspd": null
        },
        {
          "text": "TEMPO 2907/2911 25015G28KT 2000 +TSRA BKN013 SCT015CB",
          "offset_h": 9,
          "wdir": 250,
          "wspd": 15
        }
      ],
      "metar_raw": "METAR VVTS 282230Z 24007KT 9999 FEW016 28/27 Q1007 NOSIG",
      "metar_wdir": 240,
      "metar_wspd": 7,
      "metar_oat": 28,
      "metar_qnh": 1007,
      "hourly_oat": [
        25,
        26,
        27,
        28,
        30,
        31,
        28,
        28,
        30,
        31,
        29,
        28,
        28,
        25,
        25,
        25,
        26,
        26,
        26,
        26,
        26,
        25,
        25,
        25,
        24
      ]
    },
    "KUL": {
      "icao": "WMKK",
      "issued": "2026-06-28T17:00:00.000Z",
      "raw": "TAF WMKK 281700Z 2818/3000 VRB03KT 9999 FEW030 PROB30 TEMPO 2820/2900 5000 TSRA FEW010 FEW017CB",
      "groups": [
        {
          "text": "TAF WMKK 281700Z 2818/3000 VRB03KT 9999 FEW030",
          "offset_h": -4,
          "wdir": "VRB",
          "wspd": 3
        },
        {
          "text": "PROB30",
          "offset_h": 0,
          "wdir": null,
          "wspd": null
        },
        {
          "text": "TEMPO 2820/2900 5000 TSRA FEW010 FEW017CB",
          "offset_h": -2,
          "wdir": null,
          "wspd": null
        }
      ],
      "metar_raw": "METAR WMKK 282230Z 12004KT 070V200 8000 FEW017CB 27/24 Q1008 NOSIG",
      "metar_wdir": 120,
      "metar_wspd": 4,
      "metar_oat": 27,
      "metar_qnh": 1008,
      "hourly_oat": [
        23,
        23,
        23,
        24,
        26,
        28,
        29,
        30,
        30,
        29,
        30,
        29,
        28,
        28,
        26,
        26,
        26,
        26,
        25,
        25,
        24,
        24,
        24,
        23,
        23
      ]
    },
    "CGK": {
      "icao": "WIII",
      "issued": "2026-06-28T17:00:00.000Z",
      "raw": "TAF WIII 281700Z 2818/3000 VRB05KT 5000 HZ SCT020 BECMG 2901/2903 06012KT 8000 NSW",
      "groups": [
        {
          "text": "TAF WIII 281700Z 2818/3000 VRB05KT 5000 HZ SCT020",
          "offset_h": -4,
          "wdir": "VRB",
          "wspd": 5
        },
        {
          "text": "BECMG 2901/2903 06012KT 8000 NSW",
          "offset_h": 3,
          "wdir": 60,
          "wspd": 12
        }
      ],
      "metar_raw": "METAR WIII 282230Z VRB02KT 4000 HZ FEW020 26/24 Q1010 NOSIG",
      "metar_wdir": "VRB",
      "metar_wspd": 2,
      "metar_oat": 26,
      "metar_qnh": 1010,
      "hourly_oat": [
        24,
        24,
        25,
        27,
        29,
        30,
        32,
        32,
        33,
        32,
        31,
        30,
        29,
        28,
        27,
        26,
        25,
        25,
        24,
        24,
        24,
        24,
        24,
        24,
        23
      ]
    },
    "SIN": {
      "icao": "WSSS",
      "issued": "2026-06-28T17:00:00.000Z",
      "raw": "TAF WSSS 281700Z 2818/3000 17008KT 9999 FEW015 SCT020 TEMPO 2906/2909 3000 TSRA FEW012CB BKN015",
      "groups": [
        {
          "text": "TAF WSSS 281700Z 2818/3000 17008KT 9999 FEW015 SCT020",
          "offset_h": -4,
          "wdir": 170,
          "wspd": 8
        },
        {
          "text": "TEMPO 2906/2909 3000 TSRA FEW012CB BKN015",
          "offset_h": 8,
          "wdir": null,
          "wspd": null
        }
      ],
      "metar_raw": "METAR WSSS 282230Z 15004KT 9999 FEW016 SCT020 BKN300 28/25 Q1009 NOSIG",
      "metar_wdir": 150,
      "metar_wspd": 4,
      "metar_oat": 28,
      "metar_qnh": 1009,
      "hourly_oat": [
        25,
        25,
        25,
        25,
        26,
        27,
        28,
        29,
        28,
        29,
        30,
        29,
        29,
        28,
        28,
        28,
        28,
        28,
        27,
        27,
        26,
        26,
        26,
        25,
        26
      ]
    },
    "BKK": {
      "icao": "VTBS",
      "issued": "2026-06-28T17:00:00.000Z",
      "raw": "TAF VTBS 281700Z 2818/2924 23008KT 9999 FEW020 TEMPO 2910/2914 VRB15KT 4000 TSRA FEW018CB SCT030 BKN100",
      "groups": [
        {
          "text": "TAF VTBS 281700Z 2818/2924 23008KT 9999 FEW020",
          "offset_h": -4,
          "wdir": 230,
          "wspd": 8
        },
        {
          "text": "TEMPO 2910/2914 VRB15KT 4000 TSRA FEW018CB SCT030 BKN100",
          "offset_h": 12,
          "wdir": "VRB",
          "wspd": 15
        }
      ],
      "metar_raw": "METAR VTBS 282230Z 25004KT 9999 FEW020 27/22 Q1006 NOSIG",
      "metar_wdir": 250,
      "metar_wspd": 4,
      "metar_oat": 27,
      "metar_qnh": 1006,
      "hourly_oat": [
        26,
        26,
        27,
        28,
        30,
        30,
        31,
        32,
        32,
        28,
        28,
        30,
        29,
        29,
        28,
        28,
        28,
        28,
        27,
        27,
        26,
        26,
        26,
        26,
        26
      ]
    }
  }
}