{
  "updated": "2026-07-21T04:57:52Z",
  "tafs": {
    "LAX": {
      "icao": "KLAX",
      "issued": "2026-07-21T04:45:00.000Z",
      "raw": "TAF KLAX 210445Z 2105/2206 28005KT P6SM SCT200 FM210800 VRB03KT P6SM SCT250 FM211700 26006KT P6SM SCT250 FM212100 26012KT P6SM SCT250 FM220300 26008KT P6SM SCT250",
      "groups": [
        {
          "text": "TAF KLAX 210445Z 2105/2206 28005KT P6SM SCT200",
          "offset_h": 1,
          "wdir": 280,
          "wspd": 5
        },
        {
          "text": "FM210800 VRB03KT P6SM SCT250",
          "offset_h": 4,
          "wdir": "VRB",
          "wspd": 3
        },
        {
          "text": "FM211700 26006KT P6SM SCT250",
          "offset_h": 13,
          "wdir": 260,
          "wspd": 6
        },
        {
          "text": "FM212100 26012KT P6SM SCT250",
          "offset_h": 17,
          "wdir": 260,
          "wspd": 12
        },
        {
          "text": "FM220300 26008KT P6SM SCT250",
          "offset_h": 23,
          "wdir": 260,
          "wspd": 8
        }
      ],
      "metar_raw": "METAR KLAX 210453Z 26008KT 10SM SCT200 22/18 A2991 RMK AO2 SLP125 T02170183 $",
      "metar_wdir": 260,
      "metar_wspd": 8,
      "metar_oat": 22,
      "metar_qnh": 1013,
      "hourly_oat": [
        21,
        20,
        20,
        19,
        19,
        19,
        20,
        20,
        20,
        19,
        20,
        21,
        24,
        26,
        26,
        26,
        26,
        25,
        25,
        24,
        24,
        23,
        23,
        21,
        20
      ]
    },
    "HKG": {
      "icao": "VHHH",
      "issued": "2026-07-21T03:52:00.000Z",
      "raw": "TAF AMD VHHH 210352Z 2104/2209 20010KT 9999 FEW010 SCT025 TX31/2106Z TX32/2206Z TN26/2122Z TEMPO 2104/2107 24025G35KT 2000 TSRA +SHRA FEW008CB SCT015 TEMPO 2107/2109 3000 SHRA FEW010CB SCT020",
      "groups": [
        {
          "text": "TAF AMD VHHH 210352Z 2104/2209 20010KT 9999 FEW010 SCT025 TX31/2106Z TX32/2206Z TN26/2122Z",
          "offset_h": 0,
          "wdir": 200,
          "wspd": 10
        },
        {
          "text": "TEMPO 2104/2107 24025G35KT 2000 TSRA +SHRA FEW008CB SCT015",
          "offset_h": 0,
          "wdir": 240,
          "wspd": 25
        },
        {
          "text": "TEMPO 2107/2109 3000 SHRA FEW010CB SCT020",
          "offset_h": 3,
          "wdir": null,
          "wspd": null
        }
      ],
      "metar_raw": "SPECI VHHH 210447Z 23012KT 1200 0600N R07R/1100D R25L/P2000N R07L/P2000D R25R/P2000D VCTS +SHRA FEW010CB SCT020 27/25 Q1008 TEMPO 24022G32KT 1500 TSRA +SHRA FEW008CB SCT015",
      "metar_wdir": 230,
      "metar_wspd": 12,
      "metar_oat": 27,
      "metar_qnh": 1008,
      "hourly_oat": [
        28,
        29,
        28,
        28,
        28,
        29,
        29,
        29,
        29,
        29,
        29,
        29,
        28,
        28,
        28,
        29,
        29,
        28,
        28,
        29,
        29,
        30,
        30,
        30,
        29
      ]
    },
    "CAN": {
      "icao": "ZGGG",
      "issued": "2026-07-21T03:08:00.000Z",
      "raw": "TAF ZGGG 210308Z 2106/2212 17003MPS 8000 BKN033 TX30/2107Z TX32/2207Z TN27/2122Z TEMPO 2106/2110 TSRA SCT026CB BKN030 TEMPO 2121/2201 TSRA SCT026CB BKN030 TEMPO 2205/2209 TSRA SCT026CB BKN030",
      "groups": [
        {
          "text": "TAF ZGGG 210308Z 2106/2212 17003MPS 8000 BKN033 TX30/2107Z TX32/2207Z TN27/2122Z",
          "offset_h": 2,
          "wdir": null,
          "wspd": null
        },
        {
          "text": "TEMPO 2106/2110 TSRA SCT026CB BKN030",
          "offset_h": 2,
          "wdir": null,
          "wspd": null
        },
        {
          "text": "TEMPO 2121/2201 TSRA SCT026CB BKN030",
          "offset_h": 17,
          "wdir": null,
          "wspd": null
        },
        {
          "text": "TEMPO 2205/2209 TSRA SCT026CB BKN030",
          "offset_h": 25,
          "wdir": null,
          "wspd": null
        }
      ],
      "metar_raw": "METAR ZGGG 210430Z 12002MPS 080V160 9999 -SHRA SCT033 OVC060 27/26 Q1007 NOSIG",
      "metar_wdir": null,
      "metar_wspd": null,
      "metar_oat": 27,
      "metar_qnh": 1007,
      "hourly_oat": [
        30,
        28,
        29,
        31,
        29,
        29,
        29,
        29,
        28,
        27,
        27,
        27,
        27,
        27,
        26,
        26,
        26,
        26,
        25,
        26,
        27,
        28,
        30,
        31,
        28
      ]
    },
    "SHA": {
      "icao": "ZSSS",
      "issued": "2026-07-21T03:07:00.000Z",
      "raw": "TAF ZSSS 210307Z 2106/2212 21004MPS 6000 BKN030 TX34/2106Z TX33/2206Z TN27/2121Z TEMPO 2106/2110 33007G12MPS TSRA BKN011 FEW030CB TEMPO 2110/2113 33007G12MPS TSRA BKN011 FEW030CB",
      "groups": [
        {
          "text": "TAF ZSSS 210307Z 2106/2212 21004MPS 6000 BKN030 TX34/2106Z TX33/2206Z TN27/2121Z",
          "offset_h": 2,
          "wdir": null,
          "wspd": null
        },
        {
          "text": "TEMPO 2106/2110 33007G12MPS TSRA BKN011 FEW030CB",
          "offset_h": 2,
          "wdir": null,
          "wspd": null
        },
        {
          "text": "TEMPO 2110/2113 33007G12MPS TSRA BKN011 FEW030CB",
          "offset_h": 6,
          "wdir": null,
          "wspd": null
        }
      ],
      "metar_raw": "METAR ZSSS 210430Z 26003MPS 180V330 9999 SCT026 33/26 Q1005 NOSIG",
      "metar_wdir": null,
      "metar_wspd": null,
      "metar_oat": 33,
      "metar_qnh": 1005,
      "hourly_oat": [
        31,
        31,
        31,
        32,
        29,
        28,
        27,
        27,
        27,
        27,
        27,
        27,
        27,
        27,
        27,
        26,
        27,
        27,
        27,
        27,
        27,
        28,
        29,
        29,
        30
      ]
    },
    "PVG": {
      "icao": "ZSPD",
      "issued": "2026-07-21T03:07:00.000Z",
      "raw": "TAF ZSPD 210307Z 2106/2212 22004MPS 6000 BKN030 TX34/2106Z TX32/2206Z TN28/2121Z TEMPO 2107/2110 33007G12MPS TSRA BKN011 FEW030CB TEMPO 2110/2114 33007G12MPS TSRA BKN011 FEW030CB",
      "groups": [
        {
          "text": "TAF ZSPD 210307Z 2106/2212 22004MPS 6000 BKN030 TX34/2106Z TX32/2206Z TN28/2121Z",
          "offset_h": 2,
          "wdir": null,
          "wspd": null
        },
        {
          "text": "TEMPO 2107/2110 33007G12MPS TSRA BKN011 FEW030CB",
          "offset_h": 3,
          "wdir": null,
          "wspd": null
        },
        {
          "text": "TEMPO 2110/2114 33007G12MPS TSRA BKN011 FEW030CB",
          "offset_h": 6,
          "wdir": null,
          "wspd": null
        }
      ],
      "metar_raw": "METAR ZSPD 210430Z 06003MPS 360V090 9999 BKN033 33/27 Q1005 NOSIG",
      "metar_wdir": null,
      "metar_wspd": null,
      "metar_oat": 33,
      "metar_qnh": 1005,
      "hourly_oat": [
        32,
        31,
        30,
        30,
        30,
        30,
        28,
        27,
        27,
        27,
        27,
        27,
        27,
        27,
        27,
        27,
        27,
        27,
        27,
        27,
        28,
        28,
        28,
        29,
        29
      ]
    },
    "DLC": {
      "icao": "ZYTL",
      "issued": "2026-07-21T03:01:00.000Z",
      "raw": "TAF ZYTL 210301Z 2106/2206 18004MPS 5000 BR FEW033 TX32/2106Z TN24/2121Z",
      "groups": [
        {
          "text": "TAF ZYTL 210301Z 2106/2206 18004MPS 5000 BR FEW033 TX32/2106Z TN24/2121Z",
          "offset_h": 2,
          "wdir": null,
          "wspd": null
        }
      ],
      "metar_raw": "METAR ZYTL 210430Z 15003MPS 090V210 9999 FEW026 29/22 Q1005 NOSIG",
      "metar_wdir": null,
      "metar_wspd": null,
      "metar_oat": 29,
      "metar_qnh": 1005,
      "hourly_oat": [
        32,
        32,
        32,
        32,
        31,
        30,
        29,
        28,
        26,
        25,
        24,
        24,
        24,
        24,
        24,
        24,
        24,
        24,
        25,
        27,
        29,
        30,
        31,
        32,
        32
      ]
    },
    "PEK": {
      "icao": "ZBAA",
      "issued": "2026-07-21T03:01:00.000Z",
      "raw": "TAF ZBAA 210301Z 2106/2212 18003MPS 5000 BR NSC TX30/2106Z TX31/2206Z TN23/2121Z",
      "groups": [
        {
          "text": "TAF ZBAA 210301Z 2106/2212 18003MPS 5000 BR NSC TX30/2106Z TX31/2206Z TN23/2121Z",
          "offset_h": 2,
          "wdir": null,
          "wspd": null
        }
      ],
      "metar_raw": "METAR ZBAA 210430Z VRB02MPS 8000 NSC 30/22 Q1004 NOSIG",
      "metar_wdir": null,
      "metar_wspd": null,
      "metar_oat": 30,
      "metar_qnh": 1004,
      "hourly_oat": [
        27,
        28,
        29,
        30,
        30,
        30,
        29,
        28,
        27,
        26,
        26,
        25,
        25,
        25,
        24,
        24,
        24,
        24,
        24,
        24,
        26,
        28,
        29,
        30,
        29
      ]
    },
    "HNL": {
      "icao": "PHNL",
      "issued": "2026-07-21T02:59:00.000Z",
      "raw": "TAF PHNL 210259Z 2103/2206 06013G21KT P6SM FEW030 SCT050 FM210600 06010KT P6SM SCT030 SCT045 FM211000 05008KT P6SM VCSH SCT025 BKN045 FM212100 08012G20KT P6SM VCSH SCT025 SCT040 BKN060",
      "groups": [
        {
          "text": "TAF PHNL 210259Z 2103/2206 06013G21KT P6SM FEW030 SCT050",
          "offset_h": -1,
          "wdir": 60,
          "wspd": 13
        },
        {
          "text": "FM210600 06010KT P6SM SCT030 SCT045",
          "offset_h": 2,
          "wdir": 60,
          "wspd": 10
        },
        {
          "text": "FM211000 05008KT P6SM VCSH SCT025 BKN045",
          "offset_h": 6,
          "wdir": 50,
          "wspd": 8
        },
        {
          "text": "FM212100 08012G20KT P6SM VCSH SCT025 SCT040 BKN060",
          "offset_h": 17,
          "wdir": 80,
          "wspd": 12
        }
      ],
      "metar_raw": "METAR PHNL 210453Z 07018G23KT 10SM FEW025 FEW040 27/19 A2991 RMK AO2 SLP129 T02720194 $",
      "metar_wdir": 70,
      "metar_wspd": 18,
      "metar_oat": 27,
      "metar_qnh": 1013,
      "hourly_oat": [
        26,
        25,
        24,
        24,
        24,
        24,
        24,
        24,
        24,
        23,
        22,
        22,
        22,
        23,
        25,
        26,
        28,
        29,
        30,
        30,
        29,
        29,
        28,
        27,
        26
      ]
    },
    "SAN": {
      "icao": "KSAN",
      "issued": "2026-07-21T02:34:00.000Z",
      "raw": "TAF KSAN 210234Z 2103/2206 VRB04KT P6SM FEW010 SCT150 TEMPO 2108/2111 BKN010 FM211100 VRB04KT P6SM BKN010 TEMPO 2111/2115 SCT010 FM211500 VRB04KT P6SM FEW015 FM211800 28010KT P6SM SCT150 FM220300 VRB04KT P6SM FEW009 FEW150",
      "groups": [
        {
          "text": "TAF KSAN 210234Z 2103/2206 VRB04KT P6SM FEW010 SCT150",
          "offset_h": -1,
          "wdir": "VRB",
          "wspd": 4
        },
        {
          "text": "TEMPO 2108/2111 BKN010",
          "offset_h": 4,
          "wdir": null,
          "wspd": null
        },
        {
          "text": "FM211100 VRB04KT P6SM BKN010",
          "offset_h": 7,
          "wdir": "VRB",
          "wspd": 4
        },
        {
          "text": "TEMPO 2111/2115 SCT010",
          "offset_h": 7,
          "wdir": null,
          "wspd": null
        },
        {
          "text": "FM211500 VRB04KT P6SM FEW015",
          "offset_h": 11,
          "wdir": "VRB",
          "wspd": 4
        },
        {
          "text": "FM211800 28010KT P6SM SCT150",
          "offset_h": 14,
          "wdir": 280,
          "wspd": 10
        },
        {
          "text": "FM220300 VRB04KT P6SM FEW009 FEW150",
          "offset_h": 23,
          "wdir": "VRB",
          "wspd": 4
        }
      ],
      "metar_raw": "METAR KSAN 210451Z 29003KT 10SM FEW012 BKN220 23/19 A2993 RMK AO2 SLP136 T02280194",
      "metar_wdir": 290,
      "metar_wspd": 3,
      "metar_oat": 23,
      "metar_qnh": 1014,
      "hourly_oat": [
        22,
        21,
        21,
        21,
        21,
        21,
        21,
        20,
        19,
        19,
        20,
        21,
        23,
        24,
        26,
        26,
        26,
        26,
        26,
        26,
        26,
        24,
        24,
        22,
        22
      ]
    },
    "KIX": {
      "icao": "RJBB",
      "issued": "2026-07-20T23:06:00.000Z",
      "raw": "TAF RJBB 202306Z 2100/2206 27006KT 9999 FEW025 BECMG 2108/2110 20012KT",
      "groups": [
        {
          "text": "TAF RJBB 202306Z 2100/2206 27006KT 9999 FEW025",
          "offset_h": -4,
          "wdir": 270,
          "wspd": 6
        },
        {
          "text": "BECMG 2108/2110 20012KT",
          "offset_h": 4,
          "wdir": 200,
          "wspd": 12
        }
      ],
      "metar_raw": "METAR RJBB 210430Z 29006KT 9999 FEW030 31/27 Q1008 NOSIG",
      "metar_wdir": 290,
      "metar_wspd": 6,
      "metar_oat": 31,
      "metar_qnh": 1008,
      "hourly_oat": [
        28,
        28,
        28,
        28,
        28,
        29,
        29,
        29,
        29,
        29,
        29,
        28,
        28,
        28,
        28,
        28,
        28,
        28,
        28,
        28,
        28,
        28,
        28,
        28,
        28
      ]
    },
    "ITM": {
      "icao": "RJOO",
      "issued": "2026-07-20T23:06:00.000Z",
      "raw": "TAF RJOO 202306Z 2100/2206 24004KT 9999 FEW020 SCT040 BECMG 2100/2102 21006KT TEMPO 2103/2112 TS FEW015 FEW025CB BKN035 BECMG 2110/2112 26006KT BECMG 2200/2203 21006KT",
      "groups": [
        {
          "text": "TAF RJOO 202306Z 2100/2206 24004KT 9999 FEW020 SCT040",
          "offset_h": -4,
          "wdir": 240,
          "wspd": 4
        },
        {
          "text": "BECMG 2100/2102 21006KT",
          "offset_h": -4,
          "wdir": 210,
          "wspd": 6
        },
        {
          "text": "TEMPO 2103/2112 TS FEW015 FEW025CB BKN035",
          "offset_h": -1,
          "wdir": null,
          "wspd": null
        },
        {
          "text": "BECMG 2110/2112 26006KT",
          "offset_h": 6,
          "wdir": 260,
          "wspd": 6
        },
        {
          "text": "BECMG 2200/2203 21006KT",
          "offset_h": 20,
          "wdir": 210,
          "wspd": 6
        }
      ],
      "metar_raw": "METAR RJOO 210400Z 24006KT 190V300 9999 FEW025 36/25 Q1008",
      "metar_wdir": 240,
      "metar_wspd": 6,
      "metar_oat": 36,
      "metar_qnh": 1008,
      "hourly_oat": [
        34,
        34,
        34,
        34,
        34,
        34,
        32,
        31,
        30,
        29,
        29,
        28,
        28,
        27,
        27,
        27,
        26,
        26,
        27,
        29,
        30,
        31,
        32,
        33,
        34
      ]
    },
    "FUK": {
      "icao": "RJFF",
      "issued": "2026-07-20T23:05:00.000Z",
      "raw": "TAF RJFF 202305Z 2100/2206 18008KT 9999 FEW020 SCT040 BECMG 2100/2102 32011KT BECMG 2109/2111 02004KT BECMG 2115/2118 15006KT BECMG 2200/2203 31011KT",
      "groups": [
        {
          "text": "TAF RJFF 202305Z 2100/2206 18008KT 9999 FEW020 SCT040",
          "offset_h": -4,
          "wdir": 180,
          "wspd": 8
        },
        {
          "text": "BECMG 2100/2102 32011KT",
          "offset_h": -4,
          "wdir": 320,
          "wspd": 11
        },
        {
          "text": "BECMG 2109/2111 02004KT",
          "offset_h": 5,
          "wdir": 20,
          "wspd": 4
        },
        {
          "text": "BECMG 2115/2118 15006KT",
          "offset_h": 11,
          "wdir": 150,
          "wspd": 6
        },
        {
          "text": "BECMG 2200/2203 31011KT",
          "offset_h": 20,
          "wdir": 310,
          "wspd": 11
        }
      ],
      "metar_raw": "METAR RJFF 210430Z 30008KT 270V340 9999 FEW030 SCT045 33/25 Q1009 NOSIG",
      "metar_wdir": 300,
      "metar_wspd": 8,
      "metar_oat": 33,
      "metar_qnh": 1009,
      "hourly_oat": [
        31,
        31,
        31,
        30,
        30,
        30,
        29,
        28,
        28,
        28,
        27,
        27,
        27,
        26,
        26,
        26,
        25,
        25,
        26,
        28,
        29,
        30,
        31,
        31,
        31
      ]
    },
    "CTS": {
      "icao": "RJCC",
      "issued": "2026-07-20T23:05:00.000Z",
      "raw": "TAF RJCC 202305Z 2100/2206 35014KT 9999 FEW020 BKN040 TEMPO 2115/2121 FEW001 BKN003 TEMPO 2121/2200 FEW005 BKN007 BECMG 2203/2206 16010KT",
      "groups": [
        {
          "text": "TAF RJCC 202305Z 2100/2206 35014KT 9999 FEW020 BKN040",
          "offset_h": -4,
          "wdir": 350,
          "wspd": 14
        },
        {
          "text": "TEMPO 2115/2121 FEW001 BKN003",
          "offset_h": 11,
          "wdir": null,
          "wspd": null
        },
        {
          "text": "TEMPO 2121/2200 FEW005 BKN007",
          "offset_h": 17,
          "wdir": null,
          "wspd": null
        },
        {
          "text": "BECMG 2203/2206 16010KT",
          "offset_h": 23,
          "wdir": 160,
          "wspd": 10
        }
      ],
      "metar_raw": "METAR RJCC 210430Z 36011KT 9999 FEW020 31/19 Q1006",
      "metar_wdir": 360,
      "metar_wspd": 11,
      "metar_oat": 31,
      "metar_qnh": 1006,
      "hourly_oat": [
        29,
        28,
        28,
        26,
        25,
        23,
        22,
        21,
        21,
        20,
        20,
        20,
        20,
        20,
        20,
        20,
        20,
        21,
        21,
        22,
        22,
        22,
        22,
        25,
        27
      ]
    },
    "OKA": {
      "icao": "ROAH",
      "issued": "2026-07-20T23:05:00.000Z",
      "raw": "TAF ROAH 202305Z 2100/2206 25008KT 9999 FEW010 SCT020 TEMPO 2106/2109 4000 SHRA BR FEW005 BKN008 FEW015CB",
      "groups": [
        {
          "text": "TAF ROAH 202305Z 2100/2206 25008KT 9999 FEW010 SCT020",
          "offset_h": -4,
          "wdir": 250,
          "wspd": 8
        },
        {
          "text": "TEMPO 2106/2109 4000 SHRA BR FEW005 BKN008 FEW015CB",
          "offset_h": 2,
          "wdir": null,
          "wspd": null
        }
      ],
      "metar_raw": "METAR ROAH 210430Z 24006KT 9999 FEW015 30/27 Q1009",
      "metar_wdir": 240,
      "metar_wspd": 6,
      "metar_oat": 30,
      "metar_qnh": 1009,
      "hourly_oat": [
        31,
        31,
        31,
        31,
        30,
        30,
        29,
        28,
        28,
        28,
        28,
        28,
        28,
        27,
        27,
        27,
        27,
        27,
        28,
        29,
        30,
        30,
        31,
        31,
        31
      ]
    },
    "HND": {
      "icao": "RJTT",
      "issued": "2026-07-20T23:05:00.000Z",
      "raw": "TAF RJTT 202305Z 2100/2206 18012KT 9999 FEW030 BECMG 2115/2118 02004KT BECMG 2200/2203 12006KT BECMG 2203/2206 18014KT",
      "groups": [
        {
          "text": "TAF RJTT 202305Z 2100/2206 18012KT 9999 FEW030",
          "offset_h": -4,
          "wdir": 180,
          "wspd": 12
        },
        {
          "text": "BECMG 2115/2118 02004KT",
          "offset_h": 11,
          "wdir": 20,
          "wspd": 4
        },
        {
          "text": "BECMG 2200/2203 12006KT",
          "offset_h": 20,
          "wdir": 120,
          "wspd": 6
        },
        {
          "text": "BECMG 2203/2206 18014KT",
          "offset_h": 23,
          "wdir": 180,
          "wspd": 14
        }
      ],
      "metar_raw": "METAR RJTT 210430Z 19013KT 9999 FEW020 BKN/// 32/26 Q1007 NOSIG",
      "metar_wdir": 190,
      "metar_wspd": 13,
      "metar_oat": 32,
      "metar_qnh": 1007,
      "hourly_oat": [
        32,
        32,
        32,
        32,
        31,
        30,
        28,
        28,
        28,
        28,
        27,
        27,
        27,
        26,
        26,
        26,
        26,
        26,
        27,
        28,
        29,
        30,
        31,
        31,
        32
      ]
    },
    "NRT": {
      "icao": "RJAA",
      "issued": "2026-07-20T23:05:00.000Z",
      "raw": "TAF RJAA 202305Z 2100/2206 22006KT 9999 FEW030",
      "groups": [
        {
          "text": "TAF RJAA 202305Z 2100/2206 22006KT 9999 FEW030",
          "offset_h": -4,
          "wdir": 220,
          "wspd": 6
        }
      ],
      "metar_raw": "METAR RJAA 210430Z 14006KT 080V190 9999 SCT030 34/27 Q1007 NOSIG",
      "metar_wdir": 140,
      "metar_wspd": 6,
      "metar_oat": 34,
      "metar_qnh": 1007,
      "hourly_oat": [
        36,
        36,
        36,
        35,
        34,
        32,
        31,
        30,
        29,
        28,
        28,
        27,
        26,
        26,
        26,
        25,
        25,
        26,
        27,
        29,
        31,
        32,
        34,
        35,
        35
      ]
    },
    "NGO": {
      "icao": "RJGG",
      "issued": "2026-07-20T23:05:00.000Z",
      "raw": "TAF RJGG 202305Z 2100/2206 24004KT 9999 FEW030 BECMG 2105/2107 18010KT BECMG 2112/2115 12006KT BECMG 2118/2121 31006KT BECMG 2200/2203 20008KT",
      "groups": [
        {
          "text": "TAF RJGG 202305Z 2100/2206 24004KT 9999 FEW030",
          "offset_h": -4,
          "wdir": 240,
          "wspd": 4
        },
        {
          "text": "BECMG 2105/2107 18010KT",
          "offset_h": 1,
          "wdir": 180,
          "wspd": 10
        },
        {
          "text": "BECMG 2112/2115 12006KT",
          "offset_h": 8,
          "wdir": 120,
          "wspd": 6
        },
        {
          "text": "BECMG 2118/2121 31006KT",
          "offset_h": 14,
          "wdir": 310,
          "wspd": 6
        },
        {
          "text": "BECMG 2200/2203 20008KT",
          "offset_h": 20,
          "wdir": 200,
          "wspd": 8
        }
      ],
      "metar_raw": "METAR RJGG 210430Z 20006KT 9999 FEW020 34/28 Q1007 NOSIG",
      "metar_wdir": 200,
      "metar_wspd": 6,
      "metar_oat": 34,
      "metar_qnh": 1007,
      "hourly_oat": [
        29,
        30,
        30,
        31,
        31,
        30,
        30,
        29,
        29,
        29,
        29,
        28,
        28,
        28,
        28,
        28,
        28,
        28,
        28,
        28,
        28,
        29,
        29,
        29,
        30
      ]
    },
    "TPE": {
      "icao": "RCTP",
      "issued": "2026-07-20T23:00:00.000Z",
      "raw": "TAF RCTP 202300Z 2100/2206 24015KT 9999 FEW015 TEMPO 2108/2112 5000 SHRA FEW010 FEW015TCU SCT020 BKN032 BECMG 2112/2114 21005KT BECMG 2200/2202 24015KT",
      "groups": [
        {
          "text": "TAF RCTP 202300Z 2100/2206 24015KT 9999 FEW015",
          "offset_h": -4,
          "wdir": 240,
          "wspd": 15
        },
        {
          "text": "TEMPO 2108/2112 5000 SHRA FEW010 FEW015TCU SCT020 BKN032",
          "offset_h": 4,
          "wdir": null,
          "wspd": null
        },
        {
          "text": "BECMG 2112/2114 21005KT",
          "offset_h": 8,
          "wdir": 210,
          "wspd": 5
        },
        {
          "text": "BECMG 2200/2202 24015KT",
          "offset_h": 20,
          "wdir": 240,
          "wspd": 15
        }
      ],
      "metar_raw": "METAR RCTP 210430Z 27015KT 9999 FEW020 SCT150 34/26 Q1008 NOSIG RMK A2978",
      "metar_wdir": 270,
      "metar_wspd": 15,
      "metar_oat": 34,
      "metar_qnh": 1008,
      "hourly_oat": [
        31,
        31,
        31,
        31,
        31,
        30,
        29,
        28,
        28,
        28,
        27,
        27,
        27,
        26,
        26,
        26,
        26,
        26,
        26,
        27,
        29,
        30,
        30,
        31,
        31
      ]
    },
    "TSA": {
      "icao": "RCSS",
      "issued": "2026-07-20T23:00:00.000Z",
      "raw": "TAF RCSS 202300Z 2100/2124 31005KT 9999 FEW020 TEMPO 2102/2106 28010KT TEMPO 2106/2110 15010KT 3200 TSRA SCT008 FEW015CB BKN016 BKN040 BECMG 2110/2112 09005KT",
      "groups": [
        {
          "text": "TAF RCSS 202300Z 2100/2124 31005KT 9999 FEW020",
          "offset_h": -4,
          "wdir": 310,
          "wspd": 5
        },
        {
          "text": "TEMPO 2102/2106 28010KT",
          "offset_h": -2,
          "wdir": 280,
          "wspd": 10
        },
        {
          "text": "TEMPO 2106/2110 15010KT 3200 TSRA SCT008 FEW015CB BKN016 BKN040",
          "offset_h": 2,
          "wdir": 150,
          "wspd": 10
        },
        {
          "text": "BECMG 2110/2112 09005KT",
          "offset_h": 6,
          "wdir": 90,
          "wspd": 5
        }
      ],
      "metar_raw": "METAR RCSS 210430Z 32007KT 280V360 9999 FEW018 BKN050 BKN200 34/26 Q1008 NOSIG RMK 33006KT/R10 A2977",
      "metar_wdir": 320,
      "metar_wspd": 7,
      "metar_oat": 34,
      "metar_qnh": 1008,
      "hourly_oat": [
        34,
        33,
        32,
        31,
        29,
        28,
        28,
        28,
        27,
        27,
        26,
        26,
        26,
        26,
        26,
        25,
        25,
        25,
        26,
        27,
        28,
        30,
        31,
        32,
        32
      ]
    },
    "GMP": {
      "icao": "RKSS",
      "issued": "2026-07-20T23:00:00.000Z",
      "raw": "TAF RKSS 202300Z 2100/2206 19007KT 6000 FEW010 BKN020 OVC070 TX27/2106Z TN24/2121Z TX30/2206Z TEMPO 2101/2104 -RA BECMG 2104/2106 22007KT -RA BECMG 2108/2110 NSW TEMPO 2203/2206 -RA",
      "groups": [
        {
          "text": "TAF RKSS 202300Z 2100/2206 19007KT 6000 FEW010 BKN020 OVC070 TX27/2106Z TN24/2121Z TX30/2206Z",
          "offset_h": -4,
          "wdir": 190,
          "wspd": 7
        },
        {
          "text": "TEMPO 2101/2104 -RA",
          "offset_h": -3,
          "wdir": null,
          "wspd": null
        },
        {
          "text": "BECMG 2104/2106 22007KT -RA",
          "offset_h": 0,
          "wdir": 220,
          "wspd": 7
        },
        {
          "text": "BECMG 2108/2110 NSW",
          "offset_h": 4,
          "wdir": null,
          "wspd": null
        },
        {
          "text": "TEMPO 2203/2206 -RA",
          "offset_h": 23,
          "wdir": null,
          "wspd": null
        }
      ],
      "metar_raw": "SPECI RKSS 210427Z 20004KT 150V240 5000 -RA SCT010 BKN025 OVC070 25/25 Q1006 NOSIG",
      "metar_wdir": 200,
      "metar_wspd": 4,
      "metar_oat": 25,
      "metar_qnh": 1006,
      "hourly_oat": [
        26,
        26,
        26,
        26,
        26,
        25,
        25,
        25,
        24,
        24,
        24,
        24,
        24,
        24,
        23,
        23,
        23,
        23,
        24,
        24,
        25,
        25,
        26,
        28,
        28
      ]
    },
    "CGK": {
      "icao": "WIII",
      "issued": "2026-07-20T23:00:00.000Z",
      "raw": "TAF WIII 202300Z 2100/2206 15005KT 4000 HZ FEW020 BECMG 2102/2104 05012KT 8000 NSW BECMG 2115/2117 10005KT 4000 HZ",
      "groups": [
        {
          "text": "TAF WIII 202300Z 2100/2206 15005KT 4000 HZ FEW020",
          "offset_h": -4,
          "wdir": 150,
          "wspd": 5
        },
        {
          "text": "BECMG 2102/2104 05012KT 8000 NSW",
          "offset_h": -2,
          "wdir": 50,
          "wspd": 12
        },
        {
          "text": "BECMG 2115/2117 10005KT 4000 HZ",
          "offset_h": 11,
          "wdir": 100,
          "wspd": 5
        }
      ],
      "metar_raw": "METAR WIII 210430Z 20004KT 6000 SCT020 32/22 Q1012 NOSIG",
      "metar_wdir": 200,
      "metar_wspd": 4,
      "metar_oat": 32,
      "metar_qnh": 1012,
      "hourly_oat": [
        31,
        32,
        32,
        31,
        31,
        30,
        29,
        28,
        28,
        28,
        27,
        27,
        27,
        26,
        26,
        25,
        25,
        24,
        24,
        24,
        25,
        27,
        29,
        30,
        31
      ]
    },
    "BKK": {
      "icao": "VTBS",
      "issued": "2026-07-20T23:00:00.000Z",
      "raw": "TAF VTBS 202300Z 2100/2206 26005KT 9999 FEW020 BECMG 2105/2107 20008KT TEMPO 2107/2112 VRB15G25KT 4000 TSRA FEW018CB SCT030 BKN100",
      "groups": [
        {
          "text": "TAF VTBS 202300Z 2100/2206 26005KT 9999 FEW020",
          "offset_h": -4,
          "wdir": 260,
          "wspd": 5
        },
        {
          "text": "BECMG 2105/2107 20008KT",
          "offset_h": 1,
          "wdir": 200,
          "wspd": 8
        },
        {
          "text": "TEMPO 2107/2112 VRB15G25KT 4000 TSRA FEW018CB SCT030 BKN100",
          "offset_h": 3,
          "wdir": "VRB",
          "wspd": 15
        }
      ],
      "metar_raw": "METAR VTBS 210430Z 26010KT 240V300 9999 FEW020 BKN080 32/20 Q1011 NOSIG",
      "metar_wdir": 260,
      "metar_wspd": 10,
      "metar_oat": 32,
      "metar_qnh": 1011,
      "hourly_oat": [
        32,
        33,
        33,
        31,
        32,
        32,
        32,
        31,
        29,
        29,
        26,
        27,
        27,
        26,
        26,
        26,
        26,
        26,
        26,
        26,
        27,
        28,
        30,
        32,
        32
      ]
    },
    "KUL": {
      "icao": "WMKK",
      "issued": "2026-07-20T23:00:00.000Z",
      "raw": "TAF WMKK 202300Z 2100/2206 VRB03KT 9999 FEW018 PROB40 TEMPO 2105/2108 6000 -TSRA FEW017CB",
      "groups": [
        {
          "text": "TAF WMKK 202300Z 2100/2206 VRB03KT 9999 FEW018",
          "offset_h": -4,
          "wdir": "VRB",
          "wspd": 3
        },
        {
          "text": "PROB40",
          "offset_h": 0,
          "wdir": null,
          "wspd": null
        },
        {
          "text": "TEMPO 2105/2108 6000 -TSRA FEW017CB",
          "offset_h": 1,
          "wdir": null,
          "wspd": null
        }
      ],
      "metar_raw": "METAR WMKK 210430Z VRB03KT 9999 FEW018 33/25 Q1011 NOSIG",
      "metar_wdir": "VRB",
      "metar_wspd": 3,
      "metar_oat": 33,
      "metar_qnh": 1011,
      "hourly_oat": [
        30,
        31,
        29,
        29,
        30,
        29,
        29,
        27,
        26,
        25,
        25,
        25,
        25,
        24,
        24,
        24,
        24,
        23,
        23,
        23,
        23,
        24,
        26,
        28,
        29
      ]
    },
    "HAN": {
      "icao": "VVNB",
      "issued": "2026-07-20T23:00:00.000Z",
      "raw": "TAF VVNB 202300Z 2100/2124 05005KT 6000 FEW030 PROB40 TEMPO 2103/2106 4000 TSRA SCT015 FEW027CB",
      "groups": [
        {
          "text": "TAF VVNB 202300Z 2100/2124 05005KT 6000 FEW030",
          "offset_h": -4,
          "wdir": 50,
          "wspd": 5
        },
        {
          "text": "PROB40",
          "offset_h": 0,
          "wdir": null,
          "wspd": null
        },
        {
          "text": "TEMPO 2103/2106 4000 TSRA SCT015 FEW027CB",
          "offset_h": -1,
          "wdir": null,
          "wspd": null
        }
      ],
      "metar_raw": "METAR VVNB 210430Z VRB03KT 9000 FEW020 SCT023 32/26 Q1004 NOSIG",
      "metar_wdir": "VRB",
      "metar_wspd": 3,
      "metar_oat": 32,
      "metar_qnh": 1004,
      "hourly_oat": [
        31,
        31,
        32,
        32,
        32,
        32,
        31,
        30,
        29,
        28,
        28,
        27,
        27,
        27,
        27,
        26,
        26,
        26,
        26,
        26,
        28,
        29,
        30,
        31,
        32
      ]
    },
    "SGN": {
      "icao": "VVTS",
      "issued": "2026-07-20T23:00:00.000Z",
      "raw": "TAF VVTS 202300Z 2100/2206 26010KT 9999 SCT017",
      "groups": [
        {
          "text": "TAF VVTS 202300Z 2100/2206 26010KT 9999 SCT017",
          "offset_h": -4,
          "wdir": 260,
          "wspd": 10
        }
      ],
      "metar_raw": "METAR VVTS 210430Z 24012KT 200V280 9999 FEW030 34/23 Q1010 NOSIG",
      "metar_wdir": 240,
      "metar_wspd": 12,
      "metar_oat": 34,
      "metar_qnh": 1010,
      "hourly_oat": [
        32,
        33,
        34,
        34,
        34,
        34,
        33,
        31,
        29,
        28,
        28,
        27,
        27,
        26,
        26,
        26,
        26,
        25,
        25,
        25,
        27,
        28,
        30,
        31,
        33
      ]
    },
    "SIN": {
      "icao": "WSSS",
      "issued": "2026-07-20T23:00:00.000Z",
      "raw": "TAF WSSS 202300Z 2100/2206 15007KT 9999 FEW015 SCT020 TEMPO 2104/2107 3000 TSRA FEW012CB BKN015",
      "groups": [
        {
          "text": "TAF WSSS 202300Z 2100/2206 15007KT 9999 FEW015 SCT020",
          "offset_h": -4,
          "wdir": 150,
          "wspd": 7
        },
        {
          "text": "TEMPO 2104/2107 3000 TSRA FEW012CB BKN015",
          "offset_h": 0,
          "wdir": null,
          "wspd": null
        }
      ],
      "metar_raw": "SPECI WSSS 210450Z 15008KT 8000 3000N -SHRA FEW012 FEW017TCU FEW018CB SCT030 29/24 Q1012 NOSIG",
      "metar_wdir": 150,
      "metar_wspd": 8,
      "metar_oat": 29,
      "metar_qnh": 1012,
      "hourly_oat": [
        29,
        29,
        30,
        31,
        31,
        31,
        30,
        29,
        29,
        28,
        28,
        28,
        28,
        28,
        27,
        27,
        25,
        24,
        24,
        24,
        25,
        27,
        29,
        30,
        28
      ]
    }
  }
}