{
  "updated": "2026-07-12T15:48:46Z",
  "tafs": {
    "LAX": {
      "icao": "KLAX",
      "issued": "2026-07-12T15:02:00.000Z",
      "raw": "TAF KLAX 121502Z 1215/1318 10006KT P6SM FEW010 BKN160 BKN250 FM121700 26007KT P6SM BKN160 BKN250 FM121900 26012KT P6SM BKN160 BKN250 FM130400 26008KT P6SM FEW015 BKN250 FM130800 VRB03KT P6SM OVC015 FM131700 26008KT P6SM SCT150",
      "groups": [
        {
          "text": "TAF KLAX 121502Z 1215/1318 10006KT P6SM FEW010 BKN160 BKN250",
          "offset_h": 0,
          "wdir": 100,
          "wspd": 6
        },
        {
          "text": "FM121700 26007KT P6SM BKN160 BKN250",
          "offset_h": 2,
          "wdir": 260,
          "wspd": 7
        },
        {
          "text": "FM121900 26012KT P6SM BKN160 BKN250",
          "offset_h": 4,
          "wdir": 260,
          "wspd": 12
        },
        {
          "text": "FM130400 26008KT P6SM FEW015 BKN250",
          "offset_h": 13,
          "wdir": 260,
          "wspd": 8
        },
        {
          "text": "FM130800 VRB03KT P6SM OVC015",
          "offset_h": 17,
          "wdir": "VRB",
          "wspd": 3
        },
        {
          "text": "FM131700 26008KT P6SM SCT150",
          "offset_h": 26,
          "wdir": 260,
          "wspd": 8
        }
      ],
      "metar_raw": "METAR KLAX 121453Z 10006KT 10SM FEW010 SCT120 BKN160 BKN250 21/17 A2997 RMK AO2 SLP146 T02110167 51014 $",
      "metar_wdir": 100,
      "metar_wspd": 6,
      "metar_oat": 21,
      "metar_qnh": 1015,
      "hourly_oat": [
        22,
        24,
        27,
        26,
        26,
        22,
        22,
        21,
        21,
        21,
        20,
        21,
        20,
        19,
        19,
        19,
        18,
        19,
        19,
        18,
        19,
        18,
        18,
        19,
        20
      ]
    },
    "HNL": {
      "icao": "PHNL",
      "issued": "2026-07-12T14:56:00.000Z",
      "raw": "TAF PHNL 121456Z 1215/1318 05008KT P6SM VCSH SCT025 BKN040 FM121900 06015G25KT P6SM SCT025 BKN040 FM130700 05010KT P6SM SCT025 SCT040",
      "groups": [
        {
          "text": "TAF PHNL 121456Z 1215/1318 05008KT P6SM VCSH SCT025 BKN040",
          "offset_h": 0,
          "wdir": 50,
          "wspd": 8
        },
        {
          "text": "FM121900 06015G25KT P6SM SCT025 BKN040",
          "offset_h": 4,
          "wdir": 60,
          "wspd": 15
        },
        {
          "text": "FM130700 05010KT P6SM SCT025 SCT040",
          "offset_h": 16,
          "wdir": 50,
          "wspd": 10
        }
      ],
      "metar_raw": "METAR PHNL 121453Z 03006KT 10SM FEW023 SCT035 25/21 A3002 RMK AO2 RAE24 SLP165 VCSH E P0000 60000 T02500206 56002 $",
      "metar_wdir": 30,
      "metar_wspd": 6,
      "metar_oat": 25,
      "metar_qnh": 1017,
      "hourly_oat": [
        23,
        23,
        24,
        25,
        26,
        27,
        28,
        28,
        28,
        28,
        28,
        28,
        26,
        26,
        24,
        24,
        24,
        23,
        23,
        23,
        23,
        23,
        22,
        22,
        22
      ]
    },
    "SAN": {
      "icao": "KSAN",
      "issued": "2026-07-12T14:32:00.000Z",
      "raw": "TAF KSAN 121432Z 1215/1318 VRB03KT P6SM BKN012 FM121600 VRB04KT P6SM SCT015 FM121900 28009KT P6SM SCT150 FM130300 VRB04KT P6SM SCT012 SCT200 FM130700 VRB03KT P6SM BKN012 FM131600 VRB04KT P6SM SCT015",
      "groups": [
        {
          "text": "TAF KSAN 121432Z 1215/1318 VRB03KT P6SM BKN012",
          "offset_h": 0,
          "wdir": "VRB",
          "wspd": 3
        },
        {
          "text": "FM121600 VRB04KT P6SM SCT015",
          "offset_h": 1,
          "wdir": "VRB",
          "wspd": 4
        },
        {
          "text": "FM121900 28009KT P6SM SCT150",
          "offset_h": 4,
          "wdir": 280,
          "wspd": 9
        },
        {
          "text": "FM130300 VRB04KT P6SM SCT012 SCT200",
          "offset_h": 12,
          "wdir": "VRB",
          "wspd": 4
        },
        {
          "text": "FM130700 VRB03KT P6SM BKN012",
          "offset_h": 16,
          "wdir": "VRB",
          "wspd": 3
        },
        {
          "text": "FM131600 VRB04KT P6SM SCT015",
          "offset_h": 25,
          "wdir": "VRB",
          "wspd": 4
        }
      ],
      "metar_raw": "SPECI KSAN 121514Z VRB03KT 10SM SCT015 BKN120 21/17 A3001 RMK AO2 T02060172 $",
      "metar_wdir": "VRB",
      "metar_wspd": 3,
      "metar_oat": 21,
      "metar_qnh": 1016,
      "hourly_oat": [
        21,
        22,
        23,
        23,
        25,
        26,
        25,
        26,
        25,
        24,
        23,
        21,
        20,
        20,
        20,
        20,
        20,
        19,
        19,
        19,
        19,
        19,
        19,
        19,
        20
      ]
    },
    "HKG": {
      "icao": "VHHH",
      "issued": "2026-07-12T14:00:00.000Z",
      "raw": "TAF VHHH 121400Z 1215/1321 16010KT 9999 FEW010 TX33/1306Z TN28/1222Z TEMPO 1215/1218 22010KT TEMPO 1218/1224 VRB05KT TEMPO 1303/1308 4000 SHRA FEW010CB SCT020 TEMPO 1318/1321 4000 SHRA FEW010CB SCT020",
      "groups": [
        {
          "text": "TAF VHHH 121400Z 1215/1321 16010KT 9999 FEW010 TX33/1306Z TN28/1222Z",
          "offset_h": 0,
          "wdir": 160,
          "wspd": 10
        },
        {
          "text": "TEMPO 1215/1218 22010KT",
          "offset_h": 0,
          "wdir": 220,
          "wspd": 10
        },
        {
          "text": "TEMPO 1218/1224 VRB05KT",
          "offset_h": 3,
          "wdir": "VRB",
          "wspd": 5
        },
        {
          "text": "TEMPO 1303/1308 4000 SHRA FEW010CB SCT020",
          "offset_h": 12,
          "wdir": null,
          "wspd": null
        },
        {
          "text": "TEMPO 1318/1321 4000 SHRA FEW010CB SCT020",
          "offset_h": 27,
          "wdir": null,
          "wspd": null
        }
      ],
      "metar_raw": "METAR VHHH 121530Z 20011KT 9999 FEW012 31/26 Q1002 NOSIG",
      "metar_wdir": 200,
      "metar_wspd": 11,
      "metar_oat": 31,
      "metar_qnh": 1002,
      "hourly_oat": [
        29,
        29,
        29,
        29,
        29,
        28,
        28,
        29,
        29,
        29,
        30,
        31,
        31,
        30,
        30,
        30,
        29,
        29,
        29,
        29,
        29,
        29,
        29,
        28,
        28
      ]
    },
    "HND": {
      "icao": "RJTT",
      "issued": "2026-07-12T11:05:00.000Z",
      "raw": "TAF RJTT 121105Z 1212/1318 20010KT 9999 FEW020 SCT060",
      "groups": [
        {
          "text": "TAF RJTT 121105Z 1212/1318 20010KT 9999 FEW020 SCT060",
          "offset_h": -3,
          "wdir": 200,
          "wspd": 10
        }
      ],
      "metar_raw": "METAR RJTT 121530Z 21009KT 9999 -SHRA FEW010 BKN150 26/24 Q1007 NOSIG",
      "metar_wdir": 210,
      "metar_wspd": 9,
      "metar_oat": 26,
      "metar_qnh": 1007,
      "hourly_oat": [
        25,
        25,
        25,
        24,
        24,
        25,
        25,
        25,
        25,
        25,
        25,
        25,
        25,
        26,
        26,
        26,
        26,
        26,
        26,
        25,
        25,
        25,
        25,
        25,
        25
      ]
    },
    "ITM": {
      "icao": "RJOO",
      "issued": "2026-07-12T11:05:00.000Z",
      "raw": "TAF RJOO 121105Z 1212/1318 32004KT 9999 FEW025 BECMG 1300/1303 22006KT TEMPO 1303/1309 TS FEW020 FEW025CB SCT035 BECMG 1309/1312 32006KT",
      "groups": [
        {
          "text": "TAF RJOO 121105Z 1212/1318 32004KT 9999 FEW025",
          "offset_h": -3,
          "wdir": 320,
          "wspd": 4
        },
        {
          "text": "BECMG 1300/1303 22006KT",
          "offset_h": 9,
          "wdir": 220,
          "wspd": 6
        },
        {
          "text": "TEMPO 1303/1309 TS FEW020 FEW025CB SCT035",
          "offset_h": 12,
          "wdir": null,
          "wspd": null
        },
        {
          "text": "BECMG 1309/1312 32006KT",
          "offset_h": 18,
          "wdir": 320,
          "wspd": 6
        }
      ],
      "metar_raw": "METAR RJOO 121500Z AUTO 24003KT 210V280 9999 BKN042 BKN240 OVC250 28/24 Q1012",
      "metar_wdir": 240,
      "metar_wspd": 3,
      "metar_oat": 28,
      "metar_qnh": 1012,
      "hourly_oat": [
        26,
        26,
        25,
        25,
        25,
        25,
        25,
        26,
        27,
        28,
        29,
        29,
        30,
        30,
        31,
        31,
        31,
        31,
        31,
        30,
        30,
        29,
        28,
        27,
        27
      ]
    },
    "OKA": {
      "icao": "ROAH",
      "issued": "2026-07-12T11:05:00.000Z",
      "raw": "TAF ROAH 121105Z 1212/1318 17018KT 9999 FEW008 BKN012 TEMPO 1215/1300 FEW005 BKN008",
      "groups": [
        {
          "text": "TAF ROAH 121105Z 1212/1318 17018KT 9999 FEW008 BKN012",
          "offset_h": -3,
          "wdir": 170,
          "wspd": 18
        },
        {
          "text": "TEMPO 1215/1300 FEW005 BKN008",
          "offset_h": 0,
          "wdir": null,
          "wspd": null
        }
      ],
      "metar_raw": "METAR ROAH 121530Z AUTO 15020KT 9999 FEW008 BKN010 OVC013 27/26 Q1012",
      "metar_wdir": 150,
      "metar_wspd": 20,
      "metar_oat": 27,
      "metar_qnh": 1012,
      "hourly_oat": [
        27,
        27,
        27,
        26,
        26,
        26,
        26,
        27,
        28,
        28,
        28,
        29,
        29,
        29,
        29,
        29,
        29,
        28,
        28,
        27,
        27,
        27,
        27,
        26,
        26
      ]
    },
    "NGO": {
      "icao": "RJGG",
      "issued": "2026-07-12T11:05:00.000Z",
      "raw": "TAF RJGG 121105Z 1212/1318 30006KT 9999 FEW030",
      "groups": [
        {
          "text": "TAF RJGG 121105Z 1212/1318 30006KT 9999 FEW030",
          "offset_h": -3,
          "wdir": 300,
          "wspd": 6
        }
      ],
      "metar_raw": "METAR RJGG 121530Z AUTO 29009KT 9999 NSC 28/25 Q1010 NOSIG",
      "metar_wdir": 290,
      "metar_wspd": 9,
      "metar_oat": 28,
      "metar_qnh": 1010,
      "hourly_oat": [
        27,
        27,
        26,
        26,
        26,
        26,
        26,
        26,
        26,
        27,
        28,
        28,
        28,
        28,
        28,
        28,
        28,
        28,
        28,
        28,
        27,
        27,
        27,
        27,
        27
      ]
    },
    "FUK": {
      "icao": "RJFF",
      "issued": "2026-07-12T11:05:00.000Z",
      "raw": "TAF RJFF 121105Z 1212/1318 30005KT 9999 FEW035 BECMG 1212/1214 14004KT BECMG 1300/1303 28008KT BECMG 1312/1315 15008KT",
      "groups": [
        {
          "text": "TAF RJFF 121105Z 1212/1318 30005KT 9999 FEW035",
          "offset_h": -3,
          "wdir": 300,
          "wspd": 5
        },
        {
          "text": "BECMG 1212/1214 14004KT",
          "offset_h": -3,
          "wdir": 140,
          "wspd": 4
        },
        {
          "text": "BECMG 1300/1303 28008KT",
          "offset_h": 9,
          "wdir": 280,
          "wspd": 8
        },
        {
          "text": "BECMG 1312/1315 15008KT",
          "offset_h": 21,
          "wdir": 150,
          "wspd": 8
        }
      ],
      "metar_raw": "METAR RJFF 121530Z AUTO 11003KT 080V150 9999 NCD 29/24 Q1012 NOSIG",
      "metar_wdir": 110,
      "metar_wspd": 3,
      "metar_oat": 29,
      "metar_qnh": 1012,
      "hourly_oat": [
        27,
        27,
        27,
        26,
        26,
        26,
        26,
        27,
        28,
        30,
        32,
        32,
        32,
        31,
        30,
        30,
        30,
        30,
        30,
        29,
        29,
        28,
        28,
        28,
        27
      ]
    },
    "CTS": {
      "icao": "RJCC",
      "issued": "2026-07-12T11:05:00.000Z",
      "raw": "TAF RJCC 121105Z 1212/1318 19006KT 6000 FEW005 BKN012 TEMPO 1212/1218 0700 FG VV001 BECMG 1216/1218 34004KT TEMPO 1218/1222 1500 BR FEW001 BKN003 TEMPO 1222/1300 3000 BR FEW002 BKN004 TEMPO 1309/1312 FEW005 BKN008 TEMPO 1312/1318 3000 BR FEW002 BKN004",
      "groups": [
        {
          "text": "TAF RJCC 121105Z 1212/1318 19006KT 6000 FEW005 BKN012",
          "offset_h": -3,
          "wdir": 190,
          "wspd": 6
        },
        {
          "text": "TEMPO 1212/1218 0700 FG VV001",
          "offset_h": -3,
          "wdir": null,
          "wspd": null
        },
        {
          "text": "BECMG 1216/1218 34004KT",
          "offset_h": 1,
          "wdir": 340,
          "wspd": 4
        },
        {
          "text": "TEMPO 1218/1222 1500 BR FEW001 BKN003",
          "offset_h": 3,
          "wdir": null,
          "wspd": null
        },
        {
          "text": "TEMPO 1222/1300 3000 BR FEW002 BKN004",
          "offset_h": 7,
          "wdir": null,
          "wspd": null
        },
        {
          "text": "TEMPO 1309/1312 FEW005 BKN008",
          "offset_h": 18,
          "wdir": null,
          "wspd": null
        },
        {
          "text": "TEMPO 1312/1318 3000 BR FEW002 BKN004",
          "offset_h": 21,
          "wdir": null,
          "wspd": null
        }
      ],
      "metar_raw": "METAR RJCC 121530Z 31004KT 0400 R19R/0450V0800U R19L/0550N FG VV001 20/20 Q1005",
      "metar_wdir": 310,
      "metar_wspd": 4,
      "metar_oat": 20,
      "metar_qnh": 1005,
      "hourly_oat": [
        20,
        20,
        20,
        20,
        20,
        21,
        21,
        22,
        23,
        24,
        26,
        27,
        27,
        26,
        26,
        25,
        24,
        23,
        23,
        22,
        22,
        21,
        21,
        21,
        21
      ]
    },
    "NRT": {
      "icao": "RJAA",
      "issued": "2026-07-12T11:05:00.000Z",
      "raw": "TAF RJAA 121105Z 1212/1318 22006KT 8000 -RA FEW005 BKN012 TEMPO 1214/1223 4000 -RA BR FEW001 BKN003 BECMG 1222/1300 29008KT BECMG 1315/1318 22004KT",
      "groups": [
        {
          "text": "TAF RJAA 121105Z 1212/1318 22006KT 8000 -RA FEW005 BKN012",
          "offset_h": -3,
          "wdir": 220,
          "wspd": 6
        },
        {
          "text": "TEMPO 1214/1223 4000 -RA BR FEW001 BKN003",
          "offset_h": -1,
          "wdir": null,
          "wspd": null
        },
        {
          "text": "BECMG 1222/1300 29008KT",
          "offset_h": 7,
          "wdir": 290,
          "wspd": 8
        },
        {
          "text": "BECMG 1315/1318 22004KT",
          "offset_h": 24,
          "wdir": 220,
          "wspd": 4
        }
      ],
      "metar_raw": "METAR RJAA 121530Z AUTO 22006KT 180V240 9999 NSC 25/23 Q1007 NOSIG",
      "metar_wdir": 220,
      "metar_wspd": 6,
      "metar_oat": 25,
      "metar_qnh": 1007,
      "hourly_oat": [
        24,
        24,
        24,
        24,
        24,
        24,
        24,
        25,
        25,
        27,
        28,
        29,
        29,
        29,
        29,
        29,
        28,
        28,
        28,
        27,
        26,
        26,
        25,
        25,
        25
      ]
    },
    "KIX": {
      "icao": "RJBB",
      "issued": "2026-07-12T11:05:00.000Z",
      "raw": "TAF RJBB 121105Z 1212/1318 22008KT 9999 FEW025",
      "groups": [
        {
          "text": "TAF RJBB 121105Z 1212/1318 22008KT 9999 FEW025",
          "offset_h": -3,
          "wdir": 220,
          "wspd": 8
        }
      ],
      "metar_raw": "METAR RJBB 121530Z AUTO 23006KT 9999 NSC 26/24 Q1012 NOSIG",
      "metar_wdir": 230,
      "metar_wspd": 6,
      "metar_oat": 26,
      "metar_qnh": 1012,
      "hourly_oat": [
        26,
        26,
        26,
        26,
        26,
        26,
        26,
        26,
        26,
        26,
        26,
        26,
        26,
        27,
        28,
        28,
        28,
        28,
        29,
        28,
        27,
        27,
        27,
        27,
        27
      ]
    },
    "KUL": {
      "icao": "WMKK",
      "issued": "2026-07-12T11:00:00.000Z",
      "raw": "TAF WMKK 121100Z 1212/1318 VRB03KT 9999 FEW030",
      "groups": [
        {
          "text": "TAF WMKK 121100Z 1212/1318 VRB03KT 9999 FEW030",
          "offset_h": -3,
          "wdir": "VRB",
          "wspd": 3
        }
      ],
      "metar_raw": "METAR WMKK 121530Z 14003KT 080V200 9999 FEW030 28/25 Q1009 NOSIG",
      "metar_wdir": 140,
      "metar_wspd": 3,
      "metar_oat": 28,
      "metar_qnh": 1009,
      "hourly_oat": [
        27,
        26,
        26,
        26,
        26,
        26,
        26,
        25,
        25,
        25,
        26,
        28,
        29,
        30,
        31,
        31,
        31,
        31,
        30,
        30,
        29,
        28,
        28,
        27,
        27
      ]
    },
    "HAN": {
      "icao": "VVNB",
      "issued": "2026-07-12T11:00:00.000Z",
      "raw": "TAF VVNB 121100Z 1212/1312 07008KT 9999 FEW030 TEMPO 1212/1214 3500 TSRA SCT010 FEW027CB TEMPO 1308/1312 3500 TSRA SCT010 FEW027CB",
      "groups": [
        {
          "text": "TAF VVNB 121100Z 1212/1312 07008KT 9999 FEW030",
          "offset_h": -3,
          "wdir": 70,
          "wspd": 8
        },
        {
          "text": "TEMPO 1212/1214 3500 TSRA SCT010 FEW027CB",
          "offset_h": -3,
          "wdir": null,
          "wspd": null
        },
        {
          "text": "TEMPO 1308/1312 3500 TSRA SCT010 FEW027CB",
          "offset_h": 17,
          "wdir": null,
          "wspd": null
        }
      ],
      "metar_raw": "METAR VVNB 121530Z 34004KT 9999 BKN023 29/27 Q1002 NOSIG",
      "metar_wdir": 340,
      "metar_wspd": 4,
      "metar_oat": 29,
      "metar_qnh": 1002,
      "hourly_oat": [
        27,
        27,
        27,
        27,
        27,
        27,
        27,
        26,
        26,
        27,
        28,
        30,
        31,
        32,
        33,
        33,
        34,
        34,
        33,
        32,
        31,
        30,
        29,
        29,
        28
      ]
    },
    "SGN": {
      "icao": "VVTS",
      "issued": "2026-07-12T11:00:00.000Z",
      "raw": "TAF VVTS 121100Z 1212/1318 25012KT 9999 SCT017 TEMPO 1212/1215 25015G25KT 5000 TSRA BKN015 FEW017CB TEMPO 1218/1222 5000 SHRA BKN015 FEW017CB TEMPO 1307/1312 24016G28KT 3000 TSRA BKN015 SCT017CB",
      "groups": [
        {
          "text": "TAF VVTS 121100Z 1212/1318 25012KT 9999 SCT017",
          "offset_h": -3,
          "wdir": 250,
          "wspd": 12
        },
        {
          "text": "TEMPO 1212/1215 25015G25KT 5000 TSRA BKN015 FEW017CB",
          "offset_h": -3,
          "wdir": 250,
          "wspd": 15
        },
        {
          "text": "TEMPO 1218/1222 5000 SHRA BKN015 FEW017CB",
          "offset_h": 3,
          "wdir": null,
          "wspd": null
        },
        {
          "text": "TEMPO 1307/1312 24016G28KT 3000 TSRA BKN015 SCT017CB",
          "offset_h": 16,
          "wdir": 240,
          "wspd": 16
        }
      ],
      "metar_raw": "METAR VVTS 121530Z 25009KT CAVOK 26/24 Q1008 NOSIG",
      "metar_wdir": 250,
      "metar_wspd": 9,
      "metar_oat": 26,
      "metar_qnh": 1008,
      "hourly_oat": [
        26,
        26,
        26,
        26,
        26,
        26,
        25,
        26,
        26,
        26,
        27,
        29,
        30,
        31,
        29,
        28,
        28,
        27,
        27,
        26,
        26,
        26,
        26,
        26,
        25
      ]
    },
    "TPE": {
      "icao": "RCTP",
      "issued": "2026-07-12T11:00:00.000Z",
      "raw": "TAF RCTP 121100Z 1212/1318 07005KT 9999 FEW020 BKN032 TEMPO 1218/1224 19007KT BECMG 1303/1304 01010KT TEMPO 1306/1310 27007KT 4000 SHRA FEW010 FEW012CB BKN017 BECMG 1310/1312 20005KT",
      "groups": [
        {
          "text": "TAF RCTP 121100Z 1212/1318 07005KT 9999 FEW020 BKN032",
          "offset_h": -3,
          "wdir": 70,
          "wspd": 5
        },
        {
          "text": "TEMPO 1218/1224 19007KT",
          "offset_h": 3,
          "wdir": 190,
          "wspd": 7
        },
        {
          "text": "BECMG 1303/1304 01010KT",
          "offset_h": 12,
          "wdir": 10,
          "wspd": 10
        },
        {
          "text": "TEMPO 1306/1310 27007KT 4000 SHRA FEW010 FEW012CB BKN017",
          "offset_h": 15,
          "wdir": 270,
          "wspd": 7
        },
        {
          "text": "BECMG 1310/1312 20005KT",
          "offset_h": 19,
          "wdir": 200,
          "wspd": 5
        }
      ],
      "metar_raw": "METAR RCTP 121530Z 32003KT 290V020 9999 FEW020 BKN035 29/27 Q1004 NOSIG RMK A2967",
      "metar_wdir": 320,
      "metar_wspd": 3,
      "metar_oat": 29,
      "metar_qnh": 1004,
      "hourly_oat": [
        28,
        28,
        28,
        27,
        27,
        27,
        27,
        27,
        28,
        29,
        29,
        29,
        29,
        29,
        30,
        28,
        29,
        29,
        28,
        28,
        28,
        27,
        27,
        27,
        27
      ]
    },
    "GMP": {
      "icao": "RKSS",
      "issued": "2026-07-12T11:00:00.000Z",
      "raw": "TAF RKSS 121100Z 1212/1318 24006KT 9999 SCT045 TN26/1219Z TX35/1305Z BECMG 1213/1215 18005KT BECMG 1301/1303 24007KT BECMG 1312/1314 18005KT",
      "groups": [
        {
          "text": "TAF RKSS 121100Z 1212/1318 24006KT 9999 SCT045 TN26/1219Z TX35/1305Z",
          "offset_h": -3,
          "wdir": 240,
          "wspd": 6
        },
        {
          "text": "BECMG 1213/1215 18005KT",
          "offset_h": -2,
          "wdir": 180,
          "wspd": 5
        },
        {
          "text": "BECMG 1301/1303 24007KT",
          "offset_h": 10,
          "wdir": 240,
          "wspd": 7
        },
        {
          "text": "BECMG 1312/1314 18005KT",
          "offset_h": 21,
          "wdir": 180,
          "wspd": 5
        }
      ],
      "metar_raw": "METAR RKSS 121500Z 30002KT CAVOK 27/27 Q1010 NOSIG",
      "metar_wdir": 300,
      "metar_wspd": 2,
      "metar_oat": 27,
      "metar_qnh": 1010,
      "hourly_oat": [
        27,
        26,
        26,
        25,
        25,
        25,
        25,
        26,
        27,
        29,
        30,
        30,
        31,
        31,
        32,
        32,
        31,
        31,
        30,
        29,
        28,
        28,
        27,
        27,
        26
      ]
    },
    "CGK": {
      "icao": "WIII",
      "issued": "2026-07-12T11:00:00.000Z",
      "raw": "TAF WIII 121100Z 1212/1318 04010KT 7000 SCT020 BECMG 1213/1215 17005KT 4000 HZ BECMG 1301/1303 05013KT 8000 NSW",
      "groups": [
        {
          "text": "TAF WIII 121100Z 1212/1318 04010KT 7000 SCT020",
          "offset_h": -3,
          "wdir": 40,
          "wspd": 10
        },
        {
          "text": "BECMG 1213/1215 17005KT 4000 HZ",
          "offset_h": -2,
          "wdir": 170,
          "wspd": 5
        },
        {
          "text": "BECMG 1301/1303 05013KT 8000 NSW",
          "offset_h": 10,
          "wdir": 50,
          "wspd": 13
        }
      ],
      "metar_raw": "METAR WIII 121530Z 10003KT 7000 FEW020 27/23 Q1011 NOSIG",
      "metar_wdir": 100,
      "metar_wspd": 3,
      "metar_oat": 27,
      "metar_qnh": 1011,
      "hourly_oat": [
        27,
        27,
        26,
        25,
        25,
        24,
        24,
        24,
        24,
        25,
        27,
        29,
        31,
        32,
        33,
        34,
        33,
        32,
        32,
        30,
        29,
        28,
        28,
        28,
        28
      ]
    },
    "SIN": {
      "icao": "WSSS",
      "issued": "2026-07-12T11:00:00.000Z",
      "raw": "TAF WSSS 121100Z 1212/1318 15005KT 9999 FEW015 SCT020",
      "groups": [
        {
          "text": "TAF WSSS 121100Z 1212/1318 15005KT 9999 FEW015 SCT020",
          "offset_h": -3,
          "wdir": 150,
          "wspd": 5
        }
      ],
      "metar_raw": "METAR WSSS 121530Z 13005KT 9999 FEW018 BKN300 29/24 Q1010 NOSIG",
      "metar_wdir": 130,
      "metar_wspd": 5,
      "metar_oat": 29,
      "metar_qnh": 1010,
      "hourly_oat": [
        28,
        28,
        28,
        28,
        28,
        28,
        28,
        28,
        28,
        28,
        29,
        30,
        30,
        30,
        30,
        31,
        31,
        31,
        31,
        30,
        29,
        29,
        29,
        29,
        29
      ]
    },
    "BKK": {
      "icao": "VTBS",
      "issued": "2026-07-12T11:00:00.000Z",
      "raw": "TAF VTBS 121100Z 1212/1318 23008KT 9999 FEW020 TEMPO 1308/1312 VRB15KT 4000 TSRA FEW018CB SCT030 BKN080",
      "groups": [
        {
          "text": "TAF VTBS 121100Z 1212/1318 23008KT 9999 FEW020",
          "offset_h": -3,
          "wdir": 230,
          "wspd": 8
        },
        {
          "text": "TEMPO 1308/1312 VRB15KT 4000 TSRA FEW018CB SCT030 BKN080",
          "offset_h": 17,
          "wdir": "VRB",
          "wspd": 15
        }
      ],
      "metar_raw": "METAR VTBS 121530Z 22007KT 9999 FEW020 29/23 Q1006 NOSIG",
      "metar_wdir": 220,
      "metar_wspd": 7,
      "metar_oat": 29,
      "metar_qnh": 1006,
      "hourly_oat": [
        27,
        27,
        27,
        27,
        27,
        27,
        26,
        26,
        26,
        27,
        28,
        30,
        29,
        29,
        30,
        31,
        31,
        30,
        30,
        29,
        29,
        29,
        28,
        28,
        28
      ]
    },
    "TSA": {
      "icao": "RCSS",
      "issued": "2026-07-12T11:00:00.000Z",
      "raw": "TAF RCSS 121100Z 1212/1312 10005KT 9999 FEW020 BKN032 TEMPO 1302/1306 11010KT TEMPO 1306/1312 4000 SHRA FEW010 FEW012CB BKN017",
      "groups": [
        {
          "text": "TAF RCSS 121100Z 1212/1312 10005KT 9999 FEW020 BKN032",
          "offset_h": -3,
          "wdir": 100,
          "wspd": 5
        },
        {
          "text": "TEMPO 1302/1306 11010KT",
          "offset_h": 11,
          "wdir": 110,
          "wspd": 10
        },
        {
          "text": "TEMPO 1306/1312 4000 SHRA FEW010 FEW012CB BKN017",
          "offset_h": 15,
          "wdir": null,
          "wspd": null
        }
      ],
      "metar_raw": "METAR RCSS 121530Z 10003KT 9999 FEW020 SCT035 29/27 Q1004 NOSIG RMK A2967",
      "metar_wdir": 100,
      "metar_wspd": 3,
      "metar_oat": 29,
      "metar_qnh": 1004,
      "hourly_oat": [
        27,
        27,
        27,
        26,
        26,
        26,
        26,
        26,
        27,
        29,
        30,
        30,
        31,
        32,
        31,
        32,
        31,
        31,
        30,
        29,
        28,
        27,
        27,
        27,
        27
      ]
    },
    "SHA": {
      "icao": "ZSSS",
      "issued": "2026-07-12T09:10:00.000Z",
      "raw": "TAF ZSSS 120910Z 1212/1318 15010G15MPS 6000 BKN015 TX29/1212Z TX33/1306Z TN28/1221Z BECMG 1306/1307 17005MPS",
      "groups": [
        {
          "text": "TAF ZSSS 120910Z 1212/1318 15010G15MPS 6000 BKN015 TX29/1212Z TX33/1306Z TN28/1221Z",
          "offset_h": -3,
          "wdir": null,
          "wspd": null
        },
        {
          "text": "BECMG 1306/1307 17005MPS",
          "offset_h": 15,
          "wdir": null,
          "wspd": null
        }
      ],
      "metar_raw": "METAR ZSSS 121530Z 16009MPS CAVOK 29/25 Q0999 NOSIG",
      "metar_wdir": null,
      "metar_wspd": null,
      "metar_oat": 29,
      "metar_qnh": 999,
      "hourly_oat": [
        28,
        28,
        28,
        28,
        28,
        28,
        28,
        28,
        29,
        29,
        30,
        31,
        32,
        32,
        32,
        33,
        33,
        32,
        32,
        31,
        30,
        30,
        29,
        29,
        28
      ]
    },
    "PVG": {
      "icao": "ZSPD",
      "issued": "2026-07-12T09:10:00.000Z",
      "raw": "TAF ZSPD 120910Z 1212/1318 15015G20MPS 6000 BKN020 TX29/1212Z TX32/1306Z TN26/1221Z BECMG 1219/1220 16010G16MPS BECMG 1309/1310 16008MPS",
      "groups": [
        {
          "text": "TAF ZSPD 120910Z 1212/1318 15015G20MPS 6000 BKN020 TX29/1212Z TX32/1306Z TN26/1221Z",
          "offset_h": -3,
          "wdir": null,
          "wspd": null
        },
        {
          "text": "BECMG 1219/1220 16010G16MPS",
          "offset_h": 4,
          "wdir": null,
          "wspd": null
        },
        {
          "text": "BECMG 1309/1310 16008MPS",
          "offset_h": 18,
          "wdir": null,
          "wspd": null
        }
      ],
      "metar_raw": "METAR ZSPD 121530Z 16013MPS CAVOK 29/26 Q1000 NOSIG",
      "metar_wdir": null,
      "metar_wspd": null,
      "metar_oat": 29,
      "metar_qnh": 1000,
      "hourly_oat": [
        28,
        28,
        28,
        28,
        28,
        28,
        28,
        28,
        29,
        30,
        30,
        31,
        32,
        32,
        32,
        32,
        31,
        31,
        31,
        30,
        29,
        29,
        29,
        29,
        28
      ]
    },
    "CAN": {
      "icao": "ZGGG",
      "issued": "2026-07-12T09:03:00.000Z",
      "raw": "TAF ZGGG 120903Z 1212/1318 17003MPS 8000 SCT040 TX35/1212Z TX39/1307Z TN30/1222Z TEMPO 1307/1311 TSRA FEW026CB BKN033",
      "groups": [
        {
          "text": "TAF ZGGG 120903Z 1212/1318 17003MPS 8000 SCT040 TX35/1212Z TX39/1307Z TN30/1222Z",
          "offset_h": -3,
          "wdir": null,
          "wspd": null
        },
        {
          "text": "TEMPO 1307/1311 TSRA FEW026CB BKN033",
          "offset_h": 16,
          "wdir": null,
          "wspd": null
        }
      ],
      "metar_raw": "METAR ZGGG 121530Z 14004MPS 9999 SCT050 32/25 Q1001 NOSIG",
      "metar_wdir": null,
      "metar_wspd": null,
      "metar_oat": 32,
      "metar_qnh": 1001,
      "hourly_oat": [
        30,
        30,
        29,
        28,
        28,
        28,
        28,
        28,
        28,
        30,
        31,
        32,
        33,
        34,
        35,
        35,
        35,
        34,
        33,
        30,
        29,
        28,
        28,
        28,
        28
      ]
    },
    "DLC": {
      "icao": "ZYTL",
      "issued": "2026-07-12T09:03:00.000Z",
      "raw": "TAF ZYTL 120903Z 1212/1312 14004G10MPS 5000 BR SCT026 TX28/1306Z TN23/1220Z BECMG 1306/1307 2000 -SHRA BR BKN010 BKN026",
      "groups": [
        {
          "text": "TAF ZYTL 120903Z 1212/1312 14004G10MPS 5000 BR SCT026 TX28/1306Z TN23/1220Z",
          "offset_h": -3,
          "wdir": null,
          "wspd": null
        },
        {
          "text": "BECMG 1306/1307 2000 -SHRA BR BKN010 BKN026",
          "offset_h": 15,
          "wdir": null,
          "wspd": null
        }
      ],
      "metar_raw": "METAR ZYTL 121530Z 16005MPS 140V200 9999 SCT008 SCT010 BKN020 26/24 Q1006 NOSIG",
      "metar_wdir": null,
      "metar_wspd": null,
      "metar_oat": 26,
      "metar_qnh": 1006,
      "hourly_oat": [
        25,
        25,
        25,
        25,
        25,
        25,
        25,
        25,
        25,
        25,
        25,
        26,
        26,
        26,
        26,
        26,
        26,
        25,
        24,
        24,
        24,
        24,
        24,
        24,
        24
      ]
    },
    "PEK": {
      "icao": "ZBAA",
      "issued": "2026-07-12T09:01:00.000Z",
      "raw": "TAF ZBAA 120901Z 1212/1318 10004MPS 6000 NSC TX33/1307Z TN24/1221Z TN25/1318Z TEMPO 1215/1219 2800 -SHRA BR",
      "groups": [
        {
          "text": "TAF ZBAA 120901Z 1212/1318 10004MPS 6000 NSC TX33/1307Z TN24/1221Z TN25/1318Z",
          "offset_h": -3,
          "wdir": null,
          "wspd": null
        },
        {
          "text": "TEMPO 1215/1219 2800 -SHRA BR",
          "offset_h": 0,
          "wdir": null,
          "wspd": null
        }
      ],
      "metar_raw": "METAR ZBAA 121530Z 36002MPS 9999 SCT033 26/25 Q1004 NOSIG",
      "metar_wdir": null,
      "metar_wspd": null,
      "metar_oat": 26,
      "metar_qnh": 1004,
      "hourly_oat": [
        25,
        25,
        25,
        24,
        24,
        24,
        24,
        25,
        26,
        27,
        28,
        29,
        30,
        31,
        32,
        32,
        33,
        33,
        32,
        31,
        30,
        28,
        27,
        26,
        26
      ]
    }
  }
}