{
  "updated": "2026-06-25T19:00:28Z",
  "tafs": {
    "LAX": {
      "icao": "KLAX",
      "issued": "2026-06-25T18:57:00.000Z",
      "raw": "TAF KLAX 251857Z 2519/2624 26007KT P6SM BKN025 FM251930 26014KT P6SM SCT025 FM260200 26010KT P6SM OVC012 FM260500 26008KT P6SM OVC008 FM261000 VRB03KT P6SM OVC010 FM261700 26006KT P6SM OVC015 FM262100 26012KT P6SM SCT015",
      "groups": [
        {
          "text": "TAF KLAX 251857Z 2519/2624 26007KT P6SM BKN025",
          "offset_h": 0,
          "wdir": 260,
          "wspd": 7
        },
        {
          "text": "FM251930 26014KT P6SM SCT025",
          "offset_h": 0,
          "wdir": 260,
          "wspd": 14
        },
        {
          "text": "FM260200 26010KT P6SM OVC012",
          "offset_h": 7,
          "wdir": 260,
          "wspd": 10
        },
        {
          "text": "FM260500 26008KT P6SM OVC008",
          "offset_h": 10,
          "wdir": 260,
          "wspd": 8
        },
        {
          "text": "FM261000 VRB03KT P6SM OVC010",
          "offset_h": 15,
          "wdir": "VRB",
          "wspd": 3
        },
        {
          "text": "FM261700 26006KT P6SM OVC015",
          "offset_h": 22,
          "wdir": 260,
          "wspd": 6
        },
        {
          "text": "FM262100 26012KT P6SM SCT015",
          "offset_h": 26,
          "wdir": 260,
          "wspd": 12
        }
      ],
      "metar_raw": "METAR KLAX 251853Z 27007KT 10SM FEW009 BKN025 21/14 A2996 RMK AO2 SLP143 T02110139",
      "metar_wdir": 270,
      "metar_wspd": 7,
      "metar_oat": 21,
      "metar_qnh": 1015,
      "hourly_oat": [
        21,
        21,
        21,
        21,
        20,
        19,
        19,
        18,
        17,
        17,
        16,
        16,
        16,
        16,
        16,
        16,
        16,
        16,
        16,
        16,
        16,
        17,
        18,
        20,
        19
      ]
    },
    "HNL": {
      "icao": "PHNL",
      "issued": "2026-06-25T17:45:00.000Z",
      "raw": "TAF PHNL 251745Z 2518/2624 06011KT P6SM VCSH SCT025 SCT045 FM252000 06016G26KT P6SM SCT025 SCT045 FM260700 06008G16KT P6SM SCT025 SCT040",
      "groups": [
        {
          "text": "TAF PHNL 251745Z 2518/2624 06011KT P6SM VCSH SCT025 SCT045",
          "offset_h": -1,
          "wdir": 60,
          "wspd": 11
        },
        {
          "text": "FM252000 06016G26KT P6SM SCT025 SCT045",
          "offset_h": 1,
          "wdir": 60,
          "wspd": 16
        },
        {
          "text": "FM260700 06008G16KT P6SM SCT025 SCT040",
          "offset_h": 12,
          "wdir": 60,
          "wspd": 8
        }
      ],
      "metar_raw": "METAR PHNL 251853Z 07014G22KT 10SM FEW025 SCT050 27/19 A2999 RMK AO2 SLP155 T02720189 $",
      "metar_wdir": 70,
      "metar_wspd": 14,
      "metar_oat": 27,
      "metar_qnh": 1016,
      "hourly_oat": [
        27,
        27,
        28,
        28,
        29,
        30,
        29,
        28,
        27,
        26,
        25,
        25,
        24,
        24,
        24,
        24,
        24,
        24,
        23,
        23,
        23,
        23,
        24,
        26,
        27
      ]
    },
    "SAN": {
      "icao": "KSAN",
      "issued": "2026-06-25T17:20:00.000Z",
      "raw": "TAF KSAN 251720Z 2518/2624 29010KT P6SM SKC FM260300 VRB04KT P6SM OVC022 FM261700 28010KT P6SM SCT025",
      "groups": [
        {
          "text": "TAF KSAN 251720Z 2518/2624 29010KT P6SM SKC",
          "offset_h": -1,
          "wdir": 290,
          "wspd": 10
        },
        {
          "text": "FM260300 VRB04KT P6SM OVC022",
          "offset_h": 8,
          "wdir": "VRB",
          "wspd": 4
        },
        {
          "text": "FM261700 28010KT P6SM SCT025",
          "offset_h": 22,
          "wdir": 280,
          "wspd": 10
        }
      ],
      "metar_raw": "METAR KSAN 251851Z 28008KT 10SM FEW022 21/14 A2996 RMK AO2 SLP146 T02110139 $",
      "metar_wdir": 280,
      "metar_wspd": 8,
      "metar_oat": 21,
      "metar_qnh": 1015,
      "hourly_oat": [
        22,
        23,
        22,
        22,
        22,
        21,
        19,
        18,
        18,
        17,
        17,
        17,
        17,
        17,
        17,
        17,
        17,
        17,
        16,
        16,
        17,
        17,
        18,
        20,
        22
      ]
    },
    "ITM": {
      "icao": "RJOO",
      "issued": "2026-06-25T17:07:00.000Z",
      "raw": "TAF RJOO 251707Z 2518/2700 20008KT 6000 -SHRA FEW008 SCT014 BKN015 TEMPO 2518/2522 1500 TSRA BR FEW006 BKN008 FEW015CB TEMPO 2522/2600 3000 TSRA BR BKN008 BKN010 FEW020CB TEMPO 2606/2621 2000 SHRA BR BKN008 BKN020 BECMG 2615/2618 01008KT",
      "groups": [
        {
          "text": "TAF RJOO 251707Z 2518/2700 20008KT 6000 -SHRA FEW008 SCT014 BKN015",
          "offset_h": -1,
          "wdir": 200,
          "wspd": 8
        },
        {
          "text": "TEMPO 2518/2522 1500 TSRA BR FEW006 BKN008 FEW015CB",
          "offset_h": -1,
          "wdir": null,
          "wspd": null
        },
        {
          "text": "TEMPO 2522/2600 3000 TSRA BR BKN008 BKN010 FEW020CB",
          "offset_h": 3,
          "wdir": null,
          "wspd": null
        },
        {
          "text": "TEMPO 2606/2621 2000 SHRA BR BKN008 BKN020",
          "offset_h": 11,
          "wdir": null,
          "wspd": null
        },
        {
          "text": "BECMG 2615/2618 01008KT",
          "offset_h": 20,
          "wdir": 10,
          "wspd": 8
        }
      ],
      "metar_raw": "METAR RJOO 251800Z AUTO VRB04KT 9999 -RA FEW006 SCT009 BKN011 //////TCU 24/24 Q1004",
      "metar_wdir": "VRB",
      "metar_wspd": 4,
      "metar_oat": 24,
      "metar_qnh": 1004,
      "hourly_oat": [
        25,
        25,
        25,
        24,
        24,
        24,
        23,
        23,
        24,
        24,
        24,
        24,
        24,
        24,
        23,
        23,
        23,
        23,
        23,
        23,
        23,
        23,
        23,
        23,
        23
      ]
    },
    "KIX": {
      "icao": "RJBB",
      "issued": "2026-06-25T17:07:00.000Z",
      "raw": "TAF RJBB 251707Z 2518/2700 21018KT 6000 -SHRA FEW007 SCT009 BKN015 TEMPO 2518/2520 21022G32KT 3000 TSRA BR BKN008 BKN009 FEW015CB TEMPO 2520/2600 3000 TSRA BR BKN008 BKN010 FEW015CB BECMG 2522/2600 19005KT BECMG 2603/2605 02006KT TEMPO 2606/2618 3000 SHRA BR BKN008 BKN010 BECMG 2609/2612 18010KT BECMG 2615/2618 04016KT",
      "groups": [
        {
          "text": "TAF RJBB 251707Z 2518/2700 21018KT 6000 -SHRA FEW007 SCT009 BKN015",
          "offset_h": -1,
          "wdir": 210,
          "wspd": 18
        },
        {
          "text": "TEMPO 2518/2520 21022G32KT 3000 TSRA BR BKN008 BKN009 FEW015CB",
          "offset_h": -1,
          "wdir": 210,
          "wspd": 22
        },
        {
          "text": "TEMPO 2520/2600 3000 TSRA BR BKN008 BKN010 FEW015CB",
          "offset_h": 1,
          "wdir": null,
          "wspd": null
        },
        {
          "text": "BECMG 2522/2600 19005KT",
          "offset_h": 3,
          "wdir": 190,
          "wspd": 5
        },
        {
          "text": "BECMG 2603/2605 02006KT",
          "offset_h": 8,
          "wdir": 20,
          "wspd": 6
        },
        {
          "text": "TEMPO 2606/2618 3000 SHRA BR BKN008 BKN010",
          "offset_h": 11,
          "wdir": null,
          "wspd": null
        },
        {
          "text": "BECMG 2609/2612 18010KT",
          "offset_h": 14,
          "wdir": 180,
          "wspd": 10
        },
        {
          "text": "BECMG 2615/2618 04016KT",
          "offset_h": 20,
          "wdir": 40,
          "wspd": 16
        }
      ],
      "metar_raw": "METAR RJBB 251830Z AUTO 20022KT 9999 SCT012 BKN049 BKN060 //////CB 25/24 Q1003 TEMPO 20022G32KT 3000 TSRA BR FEW003 SCT005 BKN008 FEW015CB",
      "metar_wdir": 200,
      "metar_wspd": 22,
      "metar_oat": 25,
      "metar_qnh": 1003,
      "hourly_oat": [
        26,
        25,
        24,
        24,
        23,
        23,
        23,
        24,
        24,
        24,
        24,
        24,
        24,
        23,
        23,
        24,
        24,
        24,
        24,
        24,
        24,
        23,
        23,
        23,
        23
      ]
    },
    "OKA": {
      "icao": "ROAH",
      "issued": "2026-06-25T17:05:00.000Z",
      "raw": "TAF ROAH 251705Z 2518/2700 19035KT 6000 -SHRA FEW005 BKN010 TEMPO 2518/2600 17045G60KT 1500 +SHRA BR FEW003 BKN005 SCT015CB TEMPO 2600/2603 22035G50KT 2000 +SHRA BR FEW003 BKN005 SCT015CB TEMPO 2603/2606 24030G40KT 4000 SHRA BR FEW005 BKN008 FEW015CB BECMG 2606/2609 25022KT BECMG 2615/2618 30014KT",
      "groups": [
        {
          "text": "TAF ROAH 251705Z 2518/2700 19035KT 6000 -SHRA FEW005 BKN010",
          "offset_h": -1,
          "wdir": 190,
          "wspd": 35
        },
        {
          "text": "TEMPO 2518/2600 17045G60KT 1500 +SHRA BR FEW003 BKN005 SCT015CB",
          "offset_h": -1,
          "wdir": 170,
          "wspd": 45
        },
        {
          "text": "TEMPO 2600/2603 22035G50KT 2000 +SHRA BR FEW003 BKN005 SCT015CB",
          "offset_h": 5,
          "wdir": 220,
          "wspd": 35
        },
        {
          "text": "TEMPO 2603/2606 24030G40KT 4000 SHRA BR FEW005 BKN008 FEW015CB",
          "offset_h": 8,
          "wdir": 240,
          "wspd": 30
        },
        {
          "text": "BECMG 2606/2609 25022KT",
          "offset_h": 11,
          "wdir": 250,
          "wspd": 22
        },
        {
          "text": "BECMG 2615/2618 30014KT",
          "offset_h": 20,
          "wdir": 300,
          "wspd": 14
        }
      ],
      "metar_raw": "METAR ROAH 251830Z AUTO 17042G52KT 2000 -RA BR FEW005 SCT012 OVC019 //////TCU 26/25 Q0996",
      "metar_wdir": 170,
      "metar_wspd": 42,
      "metar_oat": 26,
      "metar_qnh": 996,
      "hourly_oat": [
        27,
        26,
        26,
        26,
        27,
        27,
        28,
        28,
        28,
        28,
        28,
        29,
        28,
        28,
        27,
        26,
        26,
        26,
        26,
        26,
        26,
        26,
        26,
        26,
        26
      ]
    },
    "NRT": {
      "icao": "RJAA",
      "issued": "2026-06-25T17:05:00.000Z",
      "raw": "TAF RJAA 251705Z 2518/2700 22008KT 8000 -SHRA FEW005 BKN012 TEMPO 2518/2521 3000 -SHRA BR FEW001 BKN003 TEMPO 2521/2600 FEW005 BKN008 TEMPO 2600/2609 22018G30KT TEMPO 2609/2615 4000 -SHRA BR FEW003 BKN005 TEMPO 2615/2621 FEW005 BKN008 TEMPO 2621/2700 3000 TSRA BR FEW003 BKN005 FEW015CB",
      "groups": [
        {
          "text": "TAF RJAA 251705Z 2518/2700 22008KT 8000 -SHRA FEW005 BKN012",
          "offset_h": -1,
          "wdir": 220,
          "wspd": 8
        },
        {
          "text": "TEMPO 2518/2521 3000 -SHRA BR FEW001 BKN003",
          "offset_h": -1,
          "wdir": null,
          "wspd": null
        },
        {
          "text": "TEMPO 2521/2600 FEW005 BKN008",
          "offset_h": 2,
          "wdir": null,
          "wspd": null
        },
        {
          "text": "TEMPO 2600/2609 22018G30KT",
          "offset_h": 5,
          "wdir": 220,
          "wspd": 18
        },
        {
          "text": "TEMPO 2609/2615 4000 -SHRA BR FEW003 BKN005",
          "offset_h": 14,
          "wdir": null,
          "wspd": null
        },
        {
          "text": "TEMPO 2615/2621 FEW005 BKN008",
          "offset_h": 20,
          "wdir": null,
          "wspd": null
        },
        {
          "text": "TEMPO 2621/2700 3000 TSRA BR FEW003 BKN005 FEW015CB",
          "offset_h": 26,
          "wdir": null,
          "wspd": null
        }
      ],
      "metar_raw": "METAR RJAA 251830Z AUTO 17004KT 7000 -RA OVC001 20/20 Q1007 BECMG FEW001 BKN003 TEMPO 3000 -SHRA BR",
      "metar_wdir": 170,
      "metar_wspd": 4,
      "metar_oat": 20,
      "metar_qnh": 1007,
      "hourly_oat": [
        20,
        20,
        20,
        21,
        22,
        25,
        27,
        27,
        27,
        28,
        28,
        28,
        27,
        26,
        25,
        25,
        25,
        25,
        24,
        24,
        24,
        24,
        24,
        24,
        24
      ]
    },
    "CTS": {
      "icao": "RJCC",
      "issued": "2026-06-25T17:05:00.000Z",
      "raw": "TAF RJCC 251705Z 2518/2700 16016KT 6000 -SHRA FEW005 BKN012 TEMPO 2518/2523 3000 -SHRA BR FEW003 BKN005 TEMPO 2523/2605 FEW005 BKN008 TEMPO 2605/2609 4000 -SHRA BR FEW003 BKN005 BECMG 2609/2612 33012KT TEMPO 2609/2621 2000 -SHRA BR FEW001 BKN003 TEMPO 2621/2700 FEW003 BKN005",
      "groups": [
        {
          "text": "TAF RJCC 251705Z 2518/2700 16016KT 6000 -SHRA FEW005 BKN012",
          "offset_h": -1,
          "wdir": 160,
          "wspd": 16
        },
        {
          "text": "TEMPO 2518/2523 3000 -SHRA BR FEW003 BKN005",
          "offset_h": -1,
          "wdir": null,
          "wspd": null
        },
        {
          "text": "TEMPO 2523/2605 FEW005 BKN008",
          "offset_h": 4,
          "wdir": null,
          "wspd": null
        },
        {
          "text": "TEMPO 2605/2609 4000 -SHRA BR FEW003 BKN005",
          "offset_h": 10,
          "wdir": null,
          "wspd": null
        },
        {
          "text": "BECMG 2609/2612 33012KT",
          "offset_h": 14,
          "wdir": 330,
          "wspd": 12
        },
        {
          "text": "TEMPO 2609/2621 2000 -SHRA BR FEW001 BKN003",
          "offset_h": 14,
          "wdir": null,
          "wspd": null
        },
        {
          "text": "TEMPO 2621/2700 FEW003 BKN005",
          "offset_h": 26,
          "wdir": null,
          "wspd": null
        }
      ],
      "metar_raw": "METAR RJCC 251830Z 16013KT 3000 -RA BR FEW003 SCT005 BKN007 18/17 Q1009",
      "metar_wdir": 160,
      "metar_wspd": 13,
      "metar_oat": 18,
      "metar_qnh": 1009,
      "hourly_oat": [
        17,
        17,
        18,
        18,
        18,
        19,
        20,
        21,
        21,
        22,
        21,
        19,
        18,
        18,
        18,
        18,
        17,
        17,
        17,
        16,
        16,
        16,
        16,
        16,
        16
      ]
    },
    "HND": {
      "icao": "RJTT",
      "issued": "2026-06-25T17:05:00.000Z",
      "raw": "TAF RJTT 251705Z 2518/2700 30006KT 9999 FEW005 BKN012 TEMPO 2518/2522 4000 -SHRA BR FEW005 BKN008 BECMG 2521/2523 20020KT TEMPO 2609/2612 3000 TSRA BR FEW005 BKN008 FEW015CB TEMPO 2615/2618 FEW005 BKN008 TEMPO 2618/2700 2000 SHRA BR FEW003 BKN005 BECMG 2621/2700 09012KT",
      "groups": [
        {
          "text": "TAF RJTT 251705Z 2518/2700 30006KT 9999 FEW005 BKN012",
          "offset_h": -1,
          "wdir": 300,
          "wspd": 6
        },
        {
          "text": "TEMPO 2518/2522 4000 -SHRA BR FEW005 BKN008",
          "offset_h": -1,
          "wdir": null,
          "wspd": null
        },
        {
          "text": "BECMG 2521/2523 20020KT",
          "offset_h": 2,
          "wdir": 200,
          "wspd": 20
        },
        {
          "text": "TEMPO 2609/2612 3000 TSRA BR FEW005 BKN008 FEW015CB",
          "offset_h": 14,
          "wdir": null,
          "wspd": null
        },
        {
          "text": "TEMPO 2615/2618 FEW005 BKN008",
          "offset_h": 20,
          "wdir": null,
          "wspd": null
        },
        {
          "text": "TEMPO 2618/2700 2000 SHRA BR FEW003 BKN005",
          "offset_h": 23,
          "wdir": null,
          "wspd": null
        },
        {
          "text": "BECMG 2621/2700 09012KT",
          "offset_h": 26,
          "wdir": 90,
          "wspd": 12
        }
      ],
      "metar_raw": "METAR RJTT 251830Z 21003KT 7000 -SHRA FEW006 SCT010 BKN020 21/20 Q1007 TEMPO FEW005 BKN008",
      "metar_wdir": 210,
      "metar_wspd": 3,
      "metar_oat": 21,
      "metar_qnh": 1007,
      "hourly_oat": [
        21,
        21,
        21,
        22,
        24,
        25,
        25,
        25,
        25,
        26,
        27,
        26,
        26,
        25,
        24,
        24,
        24,
        24,
        24,
        23,
        23,
        24,
        23,
        23,
        23
      ]
    },
    "FUK": {
      "icao": "RJFF",
      "issued": "2026-06-25T17:05:00.000Z",
      "raw": "TAF RJFF 251705Z 2518/2700 01005KT 8000 -SHRA FEW007 BKN020 TEMPO 2518/2520 4000 -TSRA BR BKN005 BKN010 FEW020CB BECMG 2519/2521 08006KT TEMPO 2520/2602 4000 -TSRA BR FEW007 SCT010 BKN015 FEW020CB BECMG 2602/2604 01006KT TEMPO 2602/2609 3000 SHRA BR BKN005 BKN025",
      "groups": [
        {
          "text": "TAF RJFF 251705Z 2518/2700 01005KT 8000 -SHRA FEW007 BKN020",
          "offset_h": -1,
          "wdir": 10,
          "wspd": 5
        },
        {
          "text": "TEMPO 2518/2520 4000 -TSRA BR BKN005 BKN010 FEW020CB",
          "offset_h": -1,
          "wdir": null,
          "wspd": null
        },
        {
          "text": "BECMG 2519/2521 08006KT",
          "offset_h": 0,
          "wdir": 80,
          "wspd": 6
        },
        {
          "text": "TEMPO 2520/2602 4000 -TSRA BR FEW007 SCT010 BKN015 FEW020CB",
          "offset_h": 1,
          "wdir": null,
          "wspd": null
        },
        {
          "text": "BECMG 2602/2604 01006KT",
          "offset_h": 7,
          "wdir": 10,
          "wspd": 6
        },
        {
          "text": "TEMPO 2602/2609 3000 SHRA BR BKN005 BKN025",
          "offset_h": 7,
          "wdir": null,
          "wspd": null
        }
      ],
      "metar_raw": "METAR RJFF 251830Z AUTO 30004KT 260V340 9999 -RA FEW005 SCT080 BKN090 //////TCU 23/22 Q1005 TEMPO 4000 -TSRA BR BKN005 BKN010 FEW020CB",
      "metar_wdir": 300,
      "metar_wspd": 4,
      "metar_oat": 23,
      "metar_qnh": 1005,
      "hourly_oat": [
        23,
        22,
        22,
        22,
        23,
        23,
        24,
        23,
        23,
        24,
        23,
        22,
        22,
        23,
        23,
        23,
        23,
        22,
        22,
        22,
        22,
        22,
        22,
        22,
        22
      ]
    },
    "NGO": {
      "icao": "RJGG",
      "issued": "2026-06-25T17:05:00.000Z",
      "raw": "TAF RJGG 251705Z 2518/2700 14010KT 9999 FEW005 BKN015 TEMPO 2518/2520 FEW002 BKN005 TEMPO 2520/2522 4000 -TSRA BR FEW002 BKN005 FEW020CB BECMG 2522/2600 22008KT TEMPO 2600/2606 4000 TSRA BR FEW005 BKN015 FEW020CB TEMPO 2606/2700 4000 SHRA BR FEW003 BKN008 BECMG 2615/2618 04012KT",
      "groups": [
        {
          "text": "TAF RJGG 251705Z 2518/2700 14010KT 9999 FEW005 BKN015",
          "offset_h": -1,
          "wdir": 140,
          "wspd": 10
        },
        {
          "text": "TEMPO 2518/2520 FEW002 BKN005",
          "offset_h": -1,
          "wdir": null,
          "wspd": null
        },
        {
          "text": "TEMPO 2520/2522 4000 -TSRA BR FEW002 BKN005 FEW020CB",
          "offset_h": 1,
          "wdir": null,
          "wspd": null
        },
        {
          "text": "BECMG 2522/2600 22008KT",
          "offset_h": 3,
          "wdir": 220,
          "wspd": 8
        },
        {
          "text": "TEMPO 2600/2606 4000 TSRA BR FEW005 BKN015 FEW020CB",
          "offset_h": 5,
          "wdir": null,
          "wspd": null
        },
        {
          "text": "TEMPO 2606/2700 4000 SHRA BR FEW003 BKN008",
          "offset_h": 11,
          "wdir": null,
          "wspd": null
        },
        {
          "text": "BECMG 2615/2618 04012KT",
          "offset_h": 20,
          "wdir": 40,
          "wspd": 12
        }
      ],
      "metar_raw": "METAR RJGG 251830Z AUTO 13010KT 9999 FEW005 BKN230 OVC250 23/23 Q1004 NOSIG",
      "metar_wdir": 130,
      "metar_wspd": 10,
      "metar_oat": 23,
      "metar_qnh": 1004,
      "hourly_oat": [
        24,
        24,
        24,
        25,
        25,
        24,
        24,
        24,
        24,
        24,
        24,
        24,
        24,
        24,
        24,
        24,
        23,
        23,
        22,
        23,
        23,
        23,
        23,
        23,
        23
      ]
    },
    "HKG": {
      "icao": "VHHH",
      "issued": "2026-06-25T17:00:00.000Z",
      "raw": "TAF VHHH 251700Z 2518/2624 18010KT 9999 FEW010 SCT025 TX33/2606Z TN27/2522Z TN27/2622Z TEMPO 2518/2521 VRB15G25KT 3000 TSRA SHRA FEW010CB SCT020 TEMPO 2521/2602 VRB20G30KT 1500 TSRA +SHRA FEW008CB SCT015 TEMPO 2602/2604 3500 SHRA FEW010CB SCT020 TEMPO 2604/2607 VRB20G30KT 1500 TSRA +SHRA FEW008CB SCT015 TEMPO 2618/2624 VRB15G25KT 3000 TSRA SHRA FEW010CB SCT020",
      "groups": [
        {
          "text": "TAF VHHH 251700Z 2518/2624 18010KT 9999 FEW010 SCT025 TX33/2606Z TN27/2522Z TN27/2622Z",
          "offset_h": -1,
          "wdir": 180,
          "wspd": 10
        },
        {
          "text": "TEMPO 2518/2521 VRB15G25KT 3000 TSRA SHRA FEW010CB SCT020",
          "offset_h": -1,
          "wdir": "VRB",
          "wspd": 15
        },
        {
          "text": "TEMPO 2521/2602 VRB20G30KT 1500 TSRA +SHRA FEW008CB SCT015",
          "offset_h": 2,
          "wdir": "VRB",
          "wspd": 20
        },
        {
          "text": "TEMPO 2602/2604 3500 SHRA FEW010CB SCT020",
          "offset_h": 7,
          "wdir": null,
          "wspd": null
        },
        {
          "text": "TEMPO 2604/2607 VRB20G30KT 1500 TSRA +SHRA FEW008CB SCT015",
          "offset_h": 9,
          "wdir": "VRB",
          "wspd": 20
        },
        {
          "text": "TEMPO 2618/2624 VRB15G25KT 3000 TSRA SHRA FEW010CB SCT020",
          "offset_h": 23,
          "wdir": "VRB",
          "wspd": 15
        }
      ],
      "metar_raw": "METAR VHHH 251830Z 16003KT 9999 FEW010 FEW015CB SCT025 29/24 Q1004 NOSIG",
      "metar_wdir": 160,
      "metar_wspd": 3,
      "metar_oat": 29,
      "metar_qnh": 1004,
      "hourly_oat": [
        28,
        28,
        28,
        28,
        28,
        28,
        28,
        30,
        30,
        29,
        29,
        28,
        29,
        29,
        29,
        29,
        28,
        28,
        28,
        29,
        28,
        28,
        27,
        28,
        27
      ]
    },
    "TPE": {
      "icao": "RCTP",
      "issued": "2026-06-25T17:00:00.000Z",
      "raw": "TAF RCTP 251700Z 2518/2624 34005KT 6000 FEW010 BKN020 TEMPO 2518/2522 25005KT 2800 TSRA SCT008 BKN011 FEW020CB TEMPO 2522/2604 02010KT 3500 SHRA SCT008 BKN013 FEW020CB BECMG 2604/2606 03005KT FEW010 BKN032 TEMPO 2606/2612 04012KT 4000 SHRA FEW010 BKN017 TEMPO 2612/2618 15005KT FEW010 BKN020 TEMPO 2618/2624 09005KT",
      "groups": [
        {
          "text": "TAF RCTP 251700Z 2518/2624 34005KT 6000 FEW010 BKN020",
          "offset_h": -1,
          "wdir": 340,
          "wspd": 5
        },
        {
          "text": "TEMPO 2518/2522 25005KT 2800 TSRA SCT008 BKN011 FEW020CB",
          "offset_h": -1,
          "wdir": 250,
          "wspd": 5
        },
        {
          "text": "TEMPO 2522/2604 02010KT 3500 SHRA SCT008 BKN013 FEW020CB",
          "offset_h": 3,
          "wdir": 20,
          "wspd": 10
        },
        {
          "text": "BECMG 2604/2606 03005KT FEW010 BKN032",
          "offset_h": 9,
          "wdir": 30,
          "wspd": 5
        },
        {
          "text": "TEMPO 2606/2612 04012KT 4000 SHRA FEW010 BKN017",
          "offset_h": 11,
          "wdir": 40,
          "wspd": 12
        },
        {
          "text": "TEMPO 2612/2618 15005KT FEW010 BKN020",
          "offset_h": 17,
          "wdir": 150,
          "wspd": 5
        },
        {
          "text": "TEMPO 2618/2624 09005KT",
          "offset_h": 23,
          "wdir": 90,
          "wspd": 5
        }
      ],
      "metar_raw": "SPECI RCTP 251848Z 28008KT 3000 SHRA SCT004 BKN012 FEW015CB BKN025 26/26 Q1002 NOSIG RMK CB NW A2961",
      "metar_wdir": 280,
      "metar_wspd": 8,
      "metar_oat": 26,
      "metar_qnh": 1002,
      "hourly_oat": [
        25,
        25,
        25,
        24,
        25,
        25,
        25,
        25,
        25,
        25,
        26,
        27,
        27,
        26,
        26,
        25,
        25,
        25,
        24,
        24,
        24,
        24,
        24,
        24,
        24
      ]
    },
    "GMP": {
      "icao": "RKSS",
      "issued": "2026-06-25T17:00:00.000Z",
      "raw": "TAF RKSS 251700Z 2518/2624 34006KT CAVOK TN18/2519Z TX30/2606Z TN19/2620Z BECMG 2605/2607 28010KT BECMG 2610/2612 06005KT",
      "groups": [
        {
          "text": "TAF RKSS 251700Z 2518/2624 34006KT CAVOK TN18/2519Z TX30/2606Z TN19/2620Z",
          "offset_h": -1,
          "wdir": 340,
          "wspd": 6
        },
        {
          "text": "BECMG 2605/2607 28010KT",
          "offset_h": 10,
          "wdir": 280,
          "wspd": 10
        },
        {
          "text": "BECMG 2610/2612 06005KT",
          "offset_h": 15,
          "wdir": 60,
          "wspd": 5
        }
      ],
      "metar_raw": "METAR RKSS 251800Z 33005KT CAVOK 18/18 Q1006 NOSIG",
      "metar_wdir": 330,
      "metar_wspd": 5,
      "metar_oat": 18,
      "metar_qnh": 1006,
      "hourly_oat": [
        18,
        17,
        17,
        18,
        19,
        21,
        22,
        24,
        26,
        27,
        28,
        28,
        28,
        27,
        25,
        24,
        22,
        22,
        21,
        20,
        20,
        20,
        19,
        19,
        18
      ]
    },
    "BKK": {
      "icao": "VTBS",
      "issued": "2026-06-25T17:00:00.000Z",
      "raw": "TAF VTBS 251700Z 2518/2624 16005KT 9999 FEW020 BECMG 2601/2603 22008KT TEMPO 2608/2614 VRB12G30KT 3000 TSRA FEW018CB SCT030 BKN100",
      "groups": [
        {
          "text": "TAF VTBS 251700Z 2518/2624 16005KT 9999 FEW020",
          "offset_h": -1,
          "wdir": 160,
          "wspd": 5
        },
        {
          "text": "BECMG 2601/2603 22008KT",
          "offset_h": 6,
          "wdir": 220,
          "wspd": 8
        },
        {
          "text": "TEMPO 2608/2614 VRB12G30KT 3000 TSRA FEW018CB SCT030 BKN100",
          "offset_h": 13,
          "wdir": "VRB",
          "wspd": 12
        }
      ],
      "metar_raw": "METAR VTBS 251830Z 14004KT 120V180 9999 FEW020 27/23 Q1008 NOSIG",
      "metar_wdir": 140,
      "metar_wspd": 4,
      "metar_oat": 27,
      "metar_qnh": 1008,
      "hourly_oat": [
        26,
        26,
        26,
        26,
        26,
        27,
        29,
        31,
        32,
        33,
        31,
        32,
        32,
        32,
        32,
        31,
        30,
        27,
        27,
        27,
        26,
        26,
        27,
        27,
        26
      ]
    },
    "HAN": {
      "icao": "VVNB",
      "issued": "2026-06-25T17:00:00.000Z",
      "raw": "TAF VVNB 251700Z 2518/2618 05007KT 9999 FEW030 TEMPO 2520/2601 32015G25KT 2000 +TSRA BKN010 FEW027CB",
      "groups": [
        {
          "text": "TAF VVNB 251700Z 2518/2618 05007KT 9999 FEW030",
          "offset_h": -1,
          "wdir": 50,
          "wspd": 7
        },
        {
          "text": "TEMPO 2520/2601 32015G25KT 2000 +TSRA BKN010 FEW027CB",
          "offset_h": 1,
          "wdir": 320,
          "wspd": 15
        }
      ],
      "metar_raw": "METAR VVNB 251830Z 07005KT CAVOK 31/28 Q1002 NOSIG",
      "metar_wdir": 70,
      "metar_wspd": 5,
      "metar_oat": 31,
      "metar_qnh": 1002,
      "hourly_oat": [
        25,
        26,
        26,
        26,
        26,
        26,
        27,
        29,
        29,
        29,
        29,
        30,
        30,
        30,
        30,
        30,
        30,
        29,
        29,
        28,
        28,
        28,
        26,
        26,
        25
      ]
    },
    "SGN": {
      "icao": "VVTS",
      "issued": "2026-06-25T17:00:00.000Z",
      "raw": "TAF VVTS 251700Z 2518/2624 26010KT 9999 SCT017 TEMPO 2608/2611 26015G28KT 3500 TSRA BKN015 SCT017CB",
      "groups": [
        {
          "text": "TAF VVTS 251700Z 2518/2624 26010KT 9999 SCT017",
          "offset_h": -1,
          "wdir": 260,
          "wspd": 10
        },
        {
          "text": "TEMPO 2608/2611 26015G28KT 3500 TSRA BKN015 SCT017CB",
          "offset_h": 13,
          "wdir": 260,
          "wspd": 15
        }
      ],
      "metar_raw": "METAR VVTS 251830Z 21006KT 170V240 9999 FEW015 28/26 Q1009 NOSIG",
      "metar_wdir": 210,
      "metar_wspd": 6,
      "metar_oat": 28,
      "metar_qnh": 1009,
      "hourly_oat": [
        27,
        26,
        26,
        26,
        26,
        27,
        30,
        31,
        33,
        34,
        35,
        36,
        36,
        36,
        30,
        28,
        27,
        27,
        27,
        27,
        27,
        26,
        26,
        26,
        26
      ]
    },
    "SIN": {
      "icao": "WSSS",
      "issued": "2026-06-25T17:00:00.000Z",
      "raw": "TAF WSSS 251700Z 2518/2700 20008KT 9999 FEW015 SCT020",
      "groups": [
        {
          "text": "TAF WSSS 251700Z 2518/2700 20008KT 9999 FEW015 SCT020",
          "offset_h": -1,
          "wdir": 200,
          "wspd": 8
        }
      ],
      "metar_raw": "METAR WSSS 251830Z 20002KT 9999 FEW018 BKN300 27/25 Q1010 NOSIG",
      "metar_wdir": 200,
      "metar_wspd": 2,
      "metar_oat": 27,
      "metar_qnh": 1010,
      "hourly_oat": [
        28,
        28,
        28,
        27,
        27,
        27,
        28,
        27,
        28,
        28,
        28,
        29,
        29,
        29,
        30,
        30,
        29,
        28,
        28,
        28,
        28,
        28,
        27,
        27,
        27
      ]
    },
    "CGK": {
      "icao": "WIII",
      "issued": "2026-06-25T17:00:00.000Z",
      "raw": "TAF WIII 251700Z 2518/2700 16005KT 4000 HZ SCT020 BECMG 2601/2604 06010KT 8000 NSW BECMG 2613/2615 15005KT 5000 HZ",
      "groups": [
        {
          "text": "TAF WIII 251700Z 2518/2700 16005KT 4000 HZ SCT020",
          "offset_h": -1,
          "wdir": 160,
          "wspd": 5
        },
        {
          "text": "BECMG 2601/2604 06010KT 8000 NSW",
          "offset_h": 6,
          "wdir": 60,
          "wspd": 10
        },
        {
          "text": "BECMG 2613/2615 15005KT 5000 HZ",
          "offset_h": 18,
          "wdir": 150,
          "wspd": 5
        }
      ],
      "metar_raw": "METAR WIII 251830Z COR VRB01KT 3500 BR FEW020 26/24 Q1010 NOSIG",
      "metar_wdir": "VRB",
      "metar_wspd": 1,
      "metar_oat": 26,
      "metar_qnh": 1010,
      "hourly_oat": [
        25,
        24,
        24,
        24,
        23,
        24,
        27,
        29,
        30,
        32,
        32,
        33,
        32,
        31,
        31,
        30,
        29,
        28,
        28,
        28,
        27,
        26,
        26,
        25,
        25
      ]
    },
    "KUL": {
      "icao": "WMKK",
      "issued": "2026-06-25T17:00:00.000Z",
      "raw": "TAF WMKK 251700Z 2518/2700 VRB02KT 9000 FEW030 PROB30 TEMPO 2522/2602 6000 -TSRA FEW017CB SCT030",
      "groups": [
        {
          "text": "TAF WMKK 251700Z 2518/2700 VRB02KT 9000 FEW030",
          "offset_h": -1,
          "wdir": "VRB",
          "wspd": 2
        },
        {
          "text": "PROB30",
          "offset_h": 0,
          "wdir": null,
          "wspd": null
        },
        {
          "text": "TEMPO 2522/2602 6000 -TSRA FEW017CB SCT030",
          "offset_h": 3,
          "wdir": null,
          "wspd": null
        }
      ],
      "metar_raw": "METAR WMKK 251830Z 00000KT 7000 FEW030 25/24 Q1010 NOSIG",
      "metar_wdir": 0,
      "metar_wspd": 0,
      "metar_oat": 25,
      "metar_qnh": 1010,
      "hourly_oat": [
        24,
        24,
        24,
        24,
        24,
        24,
        23,
        25,
        27,
        28,
        29,
        30,
        30,
        30,
        30,
        29,
        28,
        27,
        27,
        26,
        26,
        26,
        26,
        25,
        25
      ]
    },
    "TSA": {
      "icao": "RCSS",
      "issued": "2026-06-25T17:00:00.000Z",
      "raw": "TAF RCSS 251700Z 2518/2618 29005KT 6000 FEW010 BKN032 TEMPO 2518/2524 VRB05KT 3200 SHRA FEW008 BKN015 FEW020CB TEMPO 2600/2606 4000 SHRA FEW005 BKN017 FEW020CB TEMPO 2606/2612 09005KT BECMG 2612/2614 10005KT",
      "groups": [
        {
          "text": "TAF RCSS 251700Z 2518/2618 29005KT 6000 FEW010 BKN032",
          "offset_h": -1,
          "wdir": 290,
          "wspd": 5
        },
        {
          "text": "TEMPO 2518/2524 VRB05KT 3200 SHRA FEW008 BKN015 FEW020CB",
          "offset_h": -1,
          "wdir": "VRB",
          "wspd": 5
        },
        {
          "text": "TEMPO 2600/2606 4000 SHRA FEW005 BKN017 FEW020CB",
          "offset_h": 5,
          "wdir": null,
          "wspd": null
        },
        {
          "text": "TEMPO 2606/2612 09005KT",
          "offset_h": 11,
          "wdir": 90,
          "wspd": 5
        },
        {
          "text": "BECMG 2612/2614 10005KT",
          "offset_h": 17,
          "wdir": 100,
          "wspd": 5
        }
      ],
      "metar_raw": "SPECI RCSS 251838Z VRB02KT 6000 -SHRA FEW006 BKN015 BKN030 26/24 Q1002 NOSIG RMK A2961",
      "metar_wdir": "VRB",
      "metar_wspd": 2,
      "metar_oat": 26,
      "metar_qnh": 1002,
      "hourly_oat": [
        25,
        25,
        25,
        25,
        25,
        25,
        25,
        26,
        25,
        26,
        26,
        26,
        27,
        27,
        27,
        26,
        26,
        25,
        25,
        25,
        25,
        24,
        24,
        24,
        24
      ]
    },
    "DLC": {
      "icao": "ZYTL",
      "issued": "2026-06-25T15:05:00.000Z",
      "raw": "TAF ZYTL 251505Z 2518/2618 31004MPS 6000 FEW033 TX27/2606Z TN19/2521Z",
      "groups": [
        {
          "text": "TAF ZYTL 251505Z 2518/2618 31004MPS 6000 FEW033 TX27/2606Z TN19/2521Z",
          "offset_h": -1,
          "wdir": null,
          "wspd": null
        }
      ],
      "metar_raw": "METAR ZYTL 251830Z 26003MPS CAVOK 19/17 Q1008 NOSIG",
      "metar_wdir": null,
      "metar_wspd": null,
      "metar_oat": 19,
      "metar_qnh": 1008,
      "hourly_oat": [
        20,
        20,
        20,
        21,
        23,
        24,
        25,
        26,
        28,
        29,
        30,
        29,
        28,
        28,
        27,
        27,
        26,
        24,
        23,
        23,
        23,
        22,
        22,
        22,
        21
      ]
    },
    "CAN": {
      "icao": "ZGGG",
      "issued": "2026-06-25T15:03:00.000Z",
      "raw": "TAF ZGGG 251503Z 2518/2624 08003MPS 8000 SCT040 TX33/2607Z TN26/2522Z TN25/2622Z TEMPO 2519/2523 SHRA FEW026CB BKN033 TEMPO 2607/2611 3500 +TSRA SCT026CB BKN033 TEMPO 2616/2620 +TSRA SCT026CB BKN033",
      "groups": [
        {
          "text": "TAF ZGGG 251503Z 2518/2624 08003MPS 8000 SCT040 TX33/2607Z TN26/2522Z TN25/2622Z",
          "offset_h": -1,
          "wdir": null,
          "wspd": null
        },
        {
          "text": "TEMPO 2519/2523 SHRA FEW026CB BKN033",
          "offset_h": 0,
          "wdir": null,
          "wspd": null
        },
        {
          "text": "TEMPO 2607/2611 3500 +TSRA SCT026CB BKN033",
          "offset_h": 12,
          "wdir": null,
          "wspd": null
        },
        {
          "text": "TEMPO 2616/2620 +TSRA SCT026CB BKN033",
          "offset_h": 21,
          "wdir": null,
          "wspd": null
        }
      ],
      "metar_raw": "METAR ZGGG 251830Z 15002MPS 120V190 9999 SCT010 BKN030 27/25 Q1004 NOSIG",
      "metar_wdir": null,
      "metar_wspd": null,
      "metar_oat": 27,
      "metar_qnh": 1004,
      "hourly_oat": [
        26,
        26,
        26,
        26,
        26,
        27,
        29,
        30,
        31,
        32,
        32,
        32,
        29,
        28,
        28,
        28,
        28,
        27,
        27,
        27,
        26,
        26,
        26,
        26,
        25
      ]
    },
    "PVG": {
      "icao": "ZSPD",
      "issued": "2026-06-25T15:03:00.000Z",
      "raw": "TAF ZSPD 251503Z 2518/2624 03004MPS 8000 BKN020 TX29/2606Z TN20/2521Z TN21/2621Z",
      "groups": [
        {
          "text": "TAF ZSPD 251503Z 2518/2624 03004MPS 8000 BKN020 TX29/2606Z TN20/2521Z TN21/2621Z",
          "offset_h": -1,
          "wdir": null,
          "wspd": null
        }
      ],
      "metar_raw": "METAR ZSPD 251830Z 34002MPS CAVOK 21/21 Q1006 NOSIG",
      "metar_wdir": null,
      "metar_wspd": null,
      "metar_oat": 21,
      "metar_qnh": 1006,
      "hourly_oat": [
        21,
        21,
        21,
        21,
        22,
        23,
        24,
        26,
        27,
        27,
        27,
        27,
        27,
        26,
        25,
        24,
        23,
        22,
        22,
        21,
        21,
        21,
        20,
        20,
        20
      ]
    },
    "SHA": {
      "icao": "ZSSS",
      "issued": "2026-06-25T15:02:00.000Z",
      "raw": "TAF ZSSS 251502Z 2518/2624 04004MPS 8000 BKN020 TX30/2606Z TN21/2521Z TN22/2621Z",
      "groups": [
        {
          "text": "TAF ZSSS 251502Z 2518/2624 04004MPS 8000 BKN020 TX30/2606Z TN21/2521Z TN22/2621Z",
          "offset_h": -1,
          "wdir": null,
          "wspd": null
        }
      ],
      "metar_raw": "METAR ZSSS 251830Z 36002MPS CAVOK 22/20 Q1006 NOSIG",
      "metar_wdir": null,
      "metar_wspd": null,
      "metar_oat": 22,
      "metar_qnh": 1006,
      "hourly_oat": [
        20,
        20,
        20,
        20,
        20,
        23,
        25,
        26,
        27,
        28,
        29,
        28,
        29,
        28,
        28,
        26,
        24,
        23,
        23,
        22,
        22,
        21,
        21,
        20,
        20
      ]
    },
    "PEK": {
      "icao": "ZBAA",
      "issued": "2026-06-25T15:00:00.000Z",
      "raw": "TAF ZBAA 251500Z 2518/2624 15004MPS CAVOK TX33/2607Z TN19/2521Z TN21/2620Z",
      "groups": [
        {
          "text": "TAF ZBAA 251500Z 2518/2624 15004MPS CAVOK TX33/2607Z TN19/2521Z TN21/2620Z",
          "offset_h": -1,
          "wdir": null,
          "wspd": null
        }
      ],
      "metar_raw": "METAR ZBAA 251830Z VRB01MPS CAVOK 18/16 Q1008 NOSIG",
      "metar_wdir": null,
      "metar_wspd": null,
      "metar_oat": 18,
      "metar_qnh": 1008,
      "hourly_oat": [
        19,
        18,
        18,
        20,
        22,
        24,
        26,
        27,
        29,
        30,
        30,
        31,
        32,
        31,
        30,
        29,
        27,
        26,
        25,
        24,
        23,
        22,
        22,
        21,
        20
      ]
    }
  }
}