{
  "updated": "2026-06-17T10:58:27Z",
  "tafs": {
    "CAN": {
      "icao": "ZGGG",
      "issued": "2026-06-17T09:09:00.000Z",
      "raw": "TAF ZGGG 170909Z 1712/1818 16004MPS 8000 BKN040 TX25/1712Z TX30/1807Z TN23/1722Z TEMPO 1721/1801 SHRA FEW026CB BKN033 TEMPO 1803/1807 2000 +TSRA SCT015 SCT026CB BKN033",
      "groups": [
        {
          "text": "TAF ZGGG 170909Z 1712/1818 16004MPS 8000 BKN040 TX25/1712Z TX30/1807Z TN23/1722Z",
          "offset_h": 2,
          "wdir": null,
          "wspd": null
        },
        {
          "text": "TEMPO 1721/1801 SHRA FEW026CB BKN033",
          "offset_h": 11,
          "wdir": null,
          "wspd": null
        },
        {
          "text": "TEMPO 1803/1807 2000 +TSRA SCT015 SCT026CB BKN033",
          "offset_h": 17,
          "wdir": null,
          "wspd": null
        }
      ],
      "metar_raw": "METAR ZGGG 171030Z 16005MPS 8000 -SHRA FEW012 OVC033 26/25 Q1007 NOSIG",
      "metar_wdir": null,
      "metar_wspd": null,
      "metar_oat": 26,
      "metar_qnh": 1007,
      "hourly_oat": [
        27,
        27,
        26,
        26,
        25,
        26,
        26,
        25,
        25,
        25,
        24,
        24,
        24,
        24,
        24,
        25,
        25,
        24,
        25,
        26,
        26,
        27,
        28,
        27,
        27
      ]
    },
    "PVG": {
      "icao": "ZSPD",
      "issued": "2026-06-17T09:07:00.000Z",
      "raw": "TAF ZSPD 170907Z 1712/1818 08004MPS 6000 BKN030 TX26/1712Z TX30/1806Z TN23/1721Z",
      "groups": [
        {
          "text": "TAF ZSPD 170907Z 1712/1818 08004MPS 6000 BKN030 TX26/1712Z TX30/1806Z TN23/1721Z",
          "offset_h": 2,
          "wdir": null,
          "wspd": null
        }
      ],
      "metar_raw": "METAR ZSPD 171030Z 11003MPS 6000 BKN030 26/23 Q1007 NOSIG",
      "metar_wdir": null,
      "metar_wspd": null,
      "metar_oat": 26,
      "metar_qnh": 1007,
      "hourly_oat": [
        25,
        25,
        24,
        24,
        24,
        24,
        24,
        24,
        24,
        24,
        24,
        24,
        24,
        25,
        26,
        26,
        26,
        27,
        27,
        27,
        26,
        26,
        26,
        25,
        25
      ]
    },
    "SHA": {
      "icao": "ZSSS",
      "issued": "2026-06-17T09:07:00.000Z",
      "raw": "TAF ZSSS 170907Z 1712/1818 08004MPS 6000 BKN030 TX24/1712Z TX31/1806Z TN23/1721Z",
      "groups": [
        {
          "text": "TAF ZSSS 170907Z 1712/1818 08004MPS 6000 BKN030 TX24/1712Z TX31/1806Z TN23/1721Z",
          "offset_h": 2,
          "wdir": null,
          "wspd": null
        }
      ],
      "metar_raw": "METAR ZSSS 171030Z 05004MPS 020V110 CAVOK 29/21 Q1007 NOSIG",
      "metar_wdir": null,
      "metar_wspd": null,
      "metar_oat": 29,
      "metar_qnh": 1007,
      "hourly_oat": [
        28,
        26,
        26,
        25,
        25,
        24,
        24,
        24,
        24,
        23,
        23,
        23,
        24,
        25,
        26,
        27,
        28,
        29,
        30,
        30,
        30,
        30,
        29,
        29,
        28
      ]
    },
    "DLC": {
      "icao": "ZYTL",
      "issued": "2026-06-17T09:04:00.000Z",
      "raw": "TAF ZYTL 170904Z 1712/1812 13004MPS 5000 BR SCT030 TX27/1806Z TN18/1721Z TEMPO 1718/1724 2000 SCT006 BKN010",
      "groups": [
        {
          "text": "TAF ZYTL 170904Z 1712/1812 13004MPS 5000 BR SCT030 TX27/1806Z TN18/1721Z",
          "offset_h": 2,
          "wdir": null,
          "wspd": null
        },
        {
          "text": "TEMPO 1718/1724 2000 SCT006 BKN010",
          "offset_h": 8,
          "wdir": null,
          "wspd": null
        }
      ],
      "metar_raw": "METAR ZYTL 171030Z 16003MPS 130V200 CAVOK 24/19 Q1008 NOSIG",
      "metar_wdir": null,
      "metar_wspd": null,
      "metar_oat": 24,
      "metar_qnh": 1008,
      "hourly_oat": [
        26,
        25,
        24,
        23,
        22,
        22,
        21,
        21,
        20,
        20,
        19,
        19,
        20,
        23,
        26,
        27,
        27,
        28,
        29,
        28,
        28,
        27,
        26,
        24,
        23
      ]
    },
    "PEK": {
      "icao": "ZBAA",
      "issued": "2026-06-17T09:03:00.000Z",
      "raw": "TAF ZBAA 170903Z 1712/1818 16004MPS 5000 BR NSC TX27/1712Z TX31/1807Z TN20/1721Z",
      "groups": [
        {
          "text": "TAF ZBAA 170903Z 1712/1818 16004MPS 5000 BR NSC TX27/1712Z TX31/1807Z TN20/1721Z",
          "offset_h": 2,
          "wdir": null,
          "wspd": null
        }
      ],
      "metar_raw": "METAR ZBAA 171030Z 16003MPS CAVOK 30/19 Q1006 NOSIG",
      "metar_wdir": null,
      "metar_wspd": null,
      "metar_oat": 30,
      "metar_qnh": 1006,
      "hourly_oat": [
        28,
        27,
        25,
        25,
        23,
        22,
        21,
        21,
        21,
        20,
        20,
        19,
        20,
        22,
        24,
        26,
        27,
        28,
        29,
        30,
        30,
        30,
        31,
        30,
        28
      ]
    },
    "HNL": {
      "icao": "PHNL",
      "issued": "2026-06-17T08:57:00.000Z",
      "raw": "TAF PHNL 170857Z 1709/1812 07008KT P6SM FEW020 FEW035 FM171100 34005KT P6SM FEW020 SCT035 FM172000 10011KT P6SM SCT025 BKN040 FM180800 34005KT P6SM FEW025 SCT040",
      "groups": [
        {
          "text": "TAF PHNL 170857Z 1709/1812 07008KT P6SM FEW020 FEW035",
          "offset_h": -1,
          "wdir": 70,
          "wspd": 8
        },
        {
          "text": "FM171100 34005KT P6SM FEW020 SCT035",
          "offset_h": 1,
          "wdir": 340,
          "wspd": 5
        },
        {
          "text": "FM172000 10011KT P6SM SCT025 BKN040",
          "offset_h": 10,
          "wdir": 100,
          "wspd": 11
        },
        {
          "text": "FM180800 34005KT P6SM FEW025 SCT040",
          "offset_h": 22,
          "wdir": 340,
          "wspd": 5
        }
      ],
      "metar_raw": "METAR PHNL 171053Z 00000KT 10SM FEW024 24/19 A2998 RMK AO2 SLP151 T02440194 $",
      "metar_wdir": 0,
      "metar_wspd": 0,
      "metar_oat": 24,
      "metar_qnh": 1015,
      "hourly_oat": [
        23,
        23,
        23,
        23,
        23,
        23,
        23,
        24,
        26,
        27,
        28,
        29,
        30,
        31,
        31,
        30,
        30,
        28,
        27,
        26,
        25,
        24,
        24,
        24,
        24
      ]
    },
    "OKA": {
      "icao": "ROAH",
      "issued": "2026-06-17T08:35:00.000Z",
      "raw": "TAF AMD ROAH 170835Z 1708/1812 18012KT 9999 FEW005 BKN010 TEMPO 1708/1712 SCT003 BKN005 TEMPO 1712/1800 4000 BR FEW001 BKN003",
      "groups": [
        {
          "text": "TAF AMD ROAH 170835Z 1708/1812 18012KT 9999 FEW005 BKN010",
          "offset_h": -2,
          "wdir": 180,
          "wspd": 12
        },
        {
          "text": "TEMPO 1708/1712 SCT003 BKN005",
          "offset_h": -2,
          "wdir": null,
          "wspd": null
        },
        {
          "text": "TEMPO 1712/1800 4000 BR FEW001 BKN003",
          "offset_h": 2,
          "wdir": null,
          "wspd": null
        }
      ],
      "metar_raw": "METAR ROAH 171030Z 17012KT 9999 SCT002 BKN005 BKN220 26/26 Q1012",
      "metar_wdir": 170,
      "metar_wspd": 12,
      "metar_oat": 26,
      "metar_qnh": 1012,
      "hourly_oat": [
        26,
        26,
        26,
        26,
        26,
        26,
        26,
        26,
        26,
        26,
        26,
        26,
        26,
        27,
        28,
        28,
        28,
        29,
        29,
        29,
        28,
        28,
        28,
        27,
        27
      ]
    },
    "LAX": {
      "icao": "KLAX",
      "issued": "2026-06-17T08:35:00.000Z",
      "raw": "TAF KLAX 170835Z 1709/1812 VRB03KT P6SM OVC006 FM171300 VRB03KT P6SM OVC012 FM171800 25008KT P6SM SCT015 FM172100 25012KT P6SM SKC FM180400 25006KT P6SM BKN008",
      "groups": [
        {
          "text": "TAF KLAX 170835Z 1709/1812 VRB03KT P6SM OVC006",
          "offset_h": -1,
          "wdir": "VRB",
          "wspd": 3
        },
        {
          "text": "FM171300 VRB03KT P6SM OVC012",
          "offset_h": 3,
          "wdir": "VRB",
          "wspd": 3
        },
        {
          "text": "FM171800 25008KT P6SM SCT015",
          "offset_h": 8,
          "wdir": 250,
          "wspd": 8
        },
        {
          "text": "FM172100 25012KT P6SM SKC",
          "offset_h": 11,
          "wdir": 250,
          "wspd": 12
        },
        {
          "text": "FM180400 25006KT P6SM BKN008",
          "offset_h": 18,
          "wdir": 250,
          "wspd": 6
        }
      ],
      "metar_raw": "METAR KLAX 171053Z 16004KT 9SM OVC006 17/15 A2991 RMK AO2 SLP127 T01670150 $",
      "metar_wdir": 160,
      "metar_wspd": 4,
      "metar_oat": 17,
      "metar_qnh": 1013,
      "hourly_oat": [
        16,
        16,
        16,
        16,
        16,
        16,
        17,
        18,
        18,
        19,
        21,
        20,
        19,
        20,
        19,
        19,
        18,
        17,
        17,
        17,
        17,
        17,
        17,
        17,
        17
      ]
    },
    "SAN": {
      "icao": "KSAN",
      "issued": "2026-06-17T08:31:00.000Z",
      "raw": "TAF KSAN 170831Z 1709/1812 VRB05KT P6SM OVC013 FM171800 29010KT P6SM FEW015 FM180100 30008KT P6SM BKN015 FM180500 VRB04KT P6SM OVC018",
      "groups": [
        {
          "text": "TAF KSAN 170831Z 1709/1812 VRB05KT P6SM OVC013",
          "offset_h": -1,
          "wdir": "VRB",
          "wspd": 5
        },
        {
          "text": "FM171800 29010KT P6SM FEW015",
          "offset_h": 8,
          "wdir": 290,
          "wspd": 10
        },
        {
          "text": "FM180100 30008KT P6SM BKN015",
          "offset_h": 15,
          "wdir": 300,
          "wspd": 8
        },
        {
          "text": "FM180500 VRB04KT P6SM OVC018",
          "offset_h": 19,
          "wdir": "VRB",
          "wspd": 4
        }
      ],
      "metar_raw": "METAR KSAN 171051Z 02005KT 10SM OVC013 19/15 A2993 RMK AO2 SLP133 T01890150 $",
      "metar_wdir": 20,
      "metar_wspd": 5,
      "metar_oat": 19,
      "metar_qnh": 1014,
      "hourly_oat": [
        18,
        18,
        18,
        18,
        18,
        18,
        19,
        20,
        22,
        22,
        22,
        21,
        22,
        21,
        20,
        20,
        19,
        19,
        18,
        18,
        18,
        18,
        18,
        18,
        17
      ]
    },
    "HKG": {
      "icao": "VHHH",
      "issued": "2026-06-17T08:00:00.000Z",
      "raw": "TAF VHHH 170800Z 1709/1815 18010KT 9999 FEW010 SCT025 TX30/1806Z TN25/1722Z TEMPO 1709/1713 18022G32KT 3000 SHRA FEW010CB SCT020 TEMPO 1718/1722 3500 SHRA FEW010CB SCT020 TEMPO 1722/1803 24020G30KT 2000 TSRA SHRA FEW008CB SCT015",
      "groups": [
        {
          "text": "TAF VHHH 170800Z 1709/1815 18010KT 9999 FEW010 SCT025 TX30/1806Z TN25/1722Z",
          "offset_h": -1,
          "wdir": 180,
          "wspd": 10
        },
        {
          "text": "TEMPO 1709/1713 18022G32KT 3000 SHRA FEW010CB SCT020",
          "offset_h": -1,
          "wdir": 180,
          "wspd": 22
        },
        {
          "text": "TEMPO 1718/1722 3500 SHRA FEW010CB SCT020",
          "offset_h": 8,
          "wdir": null,
          "wspd": null
        },
        {
          "text": "TEMPO 1722/1803 24020G30KT 2000 TSRA SHRA FEW008CB SCT015",
          "offset_h": 12,
          "wdir": 240,
          "wspd": 20
        }
      ],
      "metar_raw": "METAR VHHH 171030Z 20011KT 150V220 9999 FEW008 SCT020 27/24 Q1008 NOSIG",
      "metar_wdir": 200,
      "metar_wspd": 11,
      "metar_oat": 27,
      "metar_qnh": 1008,
      "hourly_oat": [
        26,
        27,
        27,
        28,
        28,
        28,
        28,
        27,
        26,
        26,
        26,
        26,
        26,
        26,
        26,
        26,
        27,
        26,
        27,
        27,
        27,
        27,
        28,
        27,
        28
      ]
    },
    "KIX": {
      "icao": "RJBB",
      "issued": "2026-06-17T05:05:00.000Z",
      "raw": "TAF RJBB 170505Z 1706/1812 23010KT 9999 FEW020 SCT040 BECMG 1709/1711 05012KT BECMG 1800/1803 25006KT",
      "groups": [
        {
          "text": "TAF RJBB 170505Z 1706/1812 23010KT 9999 FEW020 SCT040",
          "offset_h": -4,
          "wdir": 230,
          "wspd": 10
        },
        {
          "text": "BECMG 1709/1711 05012KT",
          "offset_h": -1,
          "wdir": 50,
          "wspd": 12
        },
        {
          "text": "BECMG 1800/1803 25006KT",
          "offset_h": 14,
          "wdir": 250,
          "wspd": 6
        }
      ],
      "metar_raw": "METAR RJBB 171030Z 28004KT 9999 FEW025 BKN050 23/19 Q1013 NOSIG",
      "metar_wdir": 280,
      "metar_wspd": 4,
      "metar_oat": 23,
      "metar_qnh": 1013,
      "hourly_oat": [
        23,
        23,
        23,
        22,
        22,
        22,
        22,
        22,
        22,
        22,
        22,
        21,
        21,
        21,
        21,
        21,
        22,
        22,
        22,
        23,
        24,
        24,
        24,
        24,
        24
      ]
    },
    "NRT": {
      "icao": "RJAA",
      "issued": "2026-06-17T05:05:00.000Z",
      "raw": "TAF RJAA 170505Z 1706/1812 14006KT 9999 FEW030 TEMPO 1715/1800 2000 SHRA BR FEW001 BKN003 BECMG 1718/1721 02014KT TEMPO 1800/1806 FEW001 BKN003 TEMPO 1809/1812 FEW003 BKN005",
      "groups": [
        {
          "text": "TAF RJAA 170505Z 1706/1812 14006KT 9999 FEW030",
          "offset_h": -4,
          "wdir": 140,
          "wspd": 6
        },
        {
          "text": "TEMPO 1715/1800 2000 SHRA BR FEW001 BKN003",
          "offset_h": 5,
          "wdir": null,
          "wspd": null
        },
        {
          "text": "BECMG 1718/1721 02014KT",
          "offset_h": 8,
          "wdir": 20,
          "wspd": 14
        },
        {
          "text": "TEMPO 1800/1806 FEW001 BKN003",
          "offset_h": 14,
          "wdir": null,
          "wspd": null
        },
        {
          "text": "TEMPO 1809/1812 FEW003 BKN005",
          "offset_h": 23,
          "wdir": null,
          "wspd": null
        }
      ],
      "metar_raw": "METAR RJAA 171030Z 15007KT 9999 FEW020 BKN/// 20/18 Q1016 NOSIG",
      "metar_wdir": 150,
      "metar_wspd": 7,
      "metar_oat": 20,
      "metar_qnh": 1016,
      "hourly_oat": [
        21,
        21,
        21,
        21,
        21,
        20,
        19,
        19,
        19,
        19,
        19,
        19,
        19,
        19,
        19,
        19,
        19,
        21,
        23,
        23,
        23,
        23,
        22,
        21,
        20
      ]
    },
    "CTS": {
      "icao": "RJCC",
      "issued": "2026-06-17T05:05:00.000Z",
      "raw": "TAF RJCC 170505Z 1706/1812 17012KT 9999 FEW005 BKN012 TEMPO 1708/1710 3000 BR FEW003 BKN005 TEMPO 1710/1712 1500 BR FEW001 BKN003 TEMPO 1712/1721 0700 FG VV001 TEMPO 1721/1800 2000 BR FEW001 BKN003",
      "groups": [
        {
          "text": "TAF RJCC 170505Z 1706/1812 17012KT 9999 FEW005 BKN012",
          "offset_h": -4,
          "wdir": 170,
          "wspd": 12
        },
        {
          "text": "TEMPO 1708/1710 3000 BR FEW003 BKN005",
          "offset_h": -2,
          "wdir": null,
          "wspd": null
        },
        {
          "text": "TEMPO 1710/1712 1500 BR FEW001 BKN003",
          "offset_h": 0,
          "wdir": null,
          "wspd": null
        },
        {
          "text": "TEMPO 1712/1721 0700 FG VV001",
          "offset_h": 2,
          "wdir": null,
          "wspd": null
        },
        {
          "text": "TEMPO 1721/1800 2000 BR FEW001 BKN003",
          "offset_h": 11,
          "wdir": null,
          "wspd": null
        }
      ],
      "metar_raw": "METAR RJCC 171030Z 14008KT 5000 BR FEW001 SCT002 BKN003 14/13 Q1016",
      "metar_wdir": 140,
      "metar_wspd": 8,
      "metar_oat": 14,
      "metar_qnh": 1016,
      "hourly_oat": [
        14,
        13,
        13,
        13,
        13,
        13,
        13,
        13,
        13,
        13,
        14,
        14,
        16,
        18,
        19,
        19,
        20,
        20,
        20,
        21,
        20,
        20,
        19,
        19,
        18
      ]
    },
    "FUK": {
      "icao": "RJFF",
      "issued": "2026-06-17T05:05:00.000Z",
      "raw": "TAF RJFF 170505Z 1706/1812 15008KT 9999 FEW025 BKN040 BECMG 1707/1709 32004KT BECMG 1718/1721 20006KT BECMG 1803/1806 31006KT",
      "groups": [
        {
          "text": "TAF RJFF 170505Z 1706/1812 15008KT 9999 FEW025 BKN040",
          "offset_h": -4,
          "wdir": 150,
          "wspd": 8
        },
        {
          "text": "BECMG 1707/1709 32004KT",
          "offset_h": -3,
          "wdir": 320,
          "wspd": 4
        },
        {
          "text": "BECMG 1718/1721 20006KT",
          "offset_h": 8,
          "wdir": 200,
          "wspd": 6
        },
        {
          "text": "BECMG 1803/1806 31006KT",
          "offset_h": 17,
          "wdir": 310,
          "wspd": 6
        }
      ],
      "metar_raw": "METAR RJFF 171030Z 30004KT 250V330 9999 FEW025 BKN060 BKN/// 26/20 Q1010 NOSIG",
      "metar_wdir": 300,
      "metar_wspd": 4,
      "metar_oat": 26,
      "metar_qnh": 1010,
      "hourly_oat": [
        24,
        24,
        24,
        23,
        23,
        23,
        23,
        22,
        22,
        22,
        22,
        23,
        23,
        24,
        26,
        27,
        27,
        26,
        27,
        27,
        27,
        27,
        26,
        26,
        25
      ]
    },
    "NGO": {
      "icao": "RJGG",
      "issued": "2026-06-17T05:05:00.000Z",
      "raw": "TAF RJGG 170505Z 1706/1812 14014KT 9999 FEW020 BKN040 TEMPO 1713/1715 4000 SHRA BR BECMG 1715/1717 02008KT BECMG 1800/1803 18012KT",
      "groups": [
        {
          "text": "TAF RJGG 170505Z 1706/1812 14014KT 9999 FEW020 BKN040",
          "offset_h": -4,
          "wdir": 140,
          "wspd": 14
        },
        {
          "text": "TEMPO 1713/1715 4000 SHRA BR",
          "offset_h": 3,
          "wdir": null,
          "wspd": null
        },
        {
          "text": "BECMG 1715/1717 02008KT",
          "offset_h": 5,
          "wdir": 20,
          "wspd": 8
        },
        {
          "text": "BECMG 1800/1803 18012KT",
          "offset_h": 14,
          "wdir": 180,
          "wspd": 12
        }
      ],
      "metar_raw": "METAR RJGG 171030Z 13014KT 9999 FEW020 BKN045 23/19 Q1013 NOSIG",
      "metar_wdir": 130,
      "metar_wspd": 14,
      "metar_oat": 23,
      "metar_qnh": 1013,
      "hourly_oat": [
        22,
        22,
        22,
        21,
        21,
        20,
        20,
        20,
        20,
        21,
        21,
        21,
        21,
        21,
        22,
        22,
        22,
        23,
        24,
        24,
        24,
        24,
        24,
        24,
        24
      ]
    },
    "ITM": {
      "icao": "RJOO",
      "issued": "2026-06-17T05:05:00.000Z",
      "raw": "TAF RJOO 170505Z 1706/1812 08012KT 9999 FEW020 SCT040 BECMG 1718/1721 03006KT BECMG 1800/1803 20006KT BECMG 1806/1809 25006KT",
      "groups": [
        {
          "text": "TAF RJOO 170505Z 1706/1812 08012KT 9999 FEW020 SCT040",
          "offset_h": -4,
          "wdir": 80,
          "wspd": 12
        },
        {
          "text": "BECMG 1718/1721 03006KT",
          "offset_h": 8,
          "wdir": 30,
          "wspd": 6
        },
        {
          "text": "BECMG 1800/1803 20006KT",
          "offset_h": 14,
          "wdir": 200,
          "wspd": 6
        },
        {
          "text": "BECMG 1806/1809 25006KT",
          "offset_h": 20,
          "wdir": 250,
          "wspd": 6
        }
      ],
      "metar_raw": "METAR RJOO 171000Z 08012KT 030V110 9999 FEW035 SCT060 BKN080 24/17 Q1013",
      "metar_wdir": 80,
      "metar_wspd": 12,
      "metar_oat": 24,
      "metar_qnh": 1013,
      "hourly_oat": [
        22,
        22,
        22,
        21,
        21,
        21,
        22,
        21,
        21,
        21,
        20,
        21,
        22,
        23,
        24,
        25,
        26,
        27,
        27,
        28,
        28,
        27,
        26,
        26,
        25
      ]
    },
    "HND": {
      "icao": "RJTT",
      "issued": "2026-06-17T05:05:00.000Z",
      "raw": "TAF RJTT 170505Z 1706/1812 17010KT 9999 FEW020 SCT040 BECMG 1713/1715 08006KT TEMPO 1715/1718 3000 SHRA BR FEW005 BKN008 BECMG 1716/1718 03010KT TEMPO 1718/1800 FEW005 BKN008 BECMG 1806/1809 12006KT",
      "groups": [
        {
          "text": "TAF RJTT 170505Z 1706/1812 17010KT 9999 FEW020 SCT040",
          "offset_h": -4,
          "wdir": 170,
          "wspd": 10
        },
        {
          "text": "BECMG 1713/1715 08006KT",
          "offset_h": 3,
          "wdir": 80,
          "wspd": 6
        },
        {
          "text": "TEMPO 1715/1718 3000 SHRA BR FEW005 BKN008",
          "offset_h": 5,
          "wdir": null,
          "wspd": null
        },
        {
          "text": "BECMG 1716/1718 03010KT",
          "offset_h": 6,
          "wdir": 30,
          "wspd": 10
        },
        {
          "text": "TEMPO 1718/1800 FEW005 BKN008",
          "offset_h": 8,
          "wdir": null,
          "wspd": null
        },
        {
          "text": "BECMG 1806/1809 12006KT",
          "offset_h": 20,
          "wdir": 120,
          "wspd": 6
        }
      ],
      "metar_raw": "METAR RJTT 171030Z 18012KT 9999 FEW010 BKN/// 23/17 Q1016 NOSIG",
      "metar_wdir": 180,
      "metar_wspd": 12,
      "metar_oat": 23,
      "metar_qnh": 1016,
      "hourly_oat": [
        22,
        22,
        22,
        21,
        20,
        20,
        20,
        20,
        20,
        20,
        20,
        20,
        20,
        20,
        20,
        21,
        22,
        24,
        26,
        26,
        27,
        27,
        26,
        24,
        23
      ]
    },
    "CGK": {
      "icao": "WIII",
      "issued": "2026-06-17T05:00:00.000Z",
      "raw": "TAF WIII 170500Z 1706/1812 06013KT 5000 HZ SCT020 BECMG 1706/1708 7000 NSW BECMG 1714/1716 15006KT 5000 HZ BECMG 1800/1802 06011KT 7000 NSW",
      "groups": [
        {
          "text": "TAF WIII 170500Z 1706/1812 06013KT 5000 HZ SCT020",
          "offset_h": -4,
          "wdir": 60,
          "wspd": 13
        },
        {
          "text": "BECMG 1706/1708 7000 NSW",
          "offset_h": -4,
          "wdir": null,
          "wspd": null
        },
        {
          "text": "BECMG 1714/1716 15006KT 5000 HZ",
          "offset_h": 4,
          "wdir": 150,
          "wspd": 6
        },
        {
          "text": "BECMG 1800/1802 06011KT 7000 NSW",
          "offset_h": 14,
          "wdir": 60,
          "wspd": 11
        }
      ],
      "metar_raw": "METAR WIII 171030Z 05012KT 5000 HZ FEW020 30/24 Q1010 NOSIG",
      "metar_wdir": 50,
      "metar_wspd": 12,
      "metar_oat": 30,
      "metar_qnh": 1010,
      "hourly_oat": [
        29,
        28,
        28,
        27,
        23,
        23,
        24,
        23,
        24,
        24,
        23,
        23,
        23,
        23,
        24,
        27,
        28,
        30,
        31,
        32,
        32,
        31,
        31,
        30,
        29
      ]
    },
    "KUL": {
      "icao": "WMKK",
      "issued": "2026-06-17T05:00:00.000Z",
      "raw": "TAF WMKK 170500Z 1706/1812 VRB03KT 9999 FEW018 TEMPO 1706/1709 6000 -TSRA FEW017CB SCT020",
      "groups": [
        {
          "text": "TAF WMKK 170500Z 1706/1812 VRB03KT 9999 FEW018",
          "offset_h": -4,
          "wdir": "VRB",
          "wspd": 3
        },
        {
          "text": "TEMPO 1706/1709 6000 -TSRA FEW017CB SCT020",
          "offset_h": -4,
          "wdir": null,
          "wspd": null
        }
      ],
      "metar_raw": "METAR WMKK 171030Z VRB02KT 9999 FEW020 29/24 Q1010 NOSIG",
      "metar_wdir": "VRB",
      "metar_wspd": 2,
      "metar_oat": 29,
      "metar_qnh": 1010,
      "hourly_oat": [
        28,
        27,
        26,
        26,
        26,
        25,
        25,
        25,
        25,
        24,
        24,
        24,
        24,
        24,
        25,
        27,
        28,
        29,
        28,
        27,
        29,
        30,
        30,
        30,
        29
      ]
    },
    "BKK": {
      "icao": "VTBS",
      "issued": "2026-06-17T05:00:00.000Z",
      "raw": "TAF VTBS 170500Z 1706/1812 22008KT 9999 FEW020 TEMPO 1710/1714 VRB15KT 4000 TSRA FEW018CB SCT020 BKN080",
      "groups": [
        {
          "text": "TAF VTBS 170500Z 1706/1812 22008KT 9999 FEW020",
          "offset_h": -4,
          "wdir": 220,
          "wspd": 8
        },
        {
          "text": "TEMPO 1710/1714 VRB15KT 4000 TSRA FEW018CB SCT020 BKN080",
          "offset_h": 0,
          "wdir": "VRB",
          "wspd": 15
        }
      ],
      "metar_raw": "METAR VTBS 171030Z 30008KT 270V330 9999 FEW020 35/21 Q1007 NOSIG",
      "metar_wdir": 300,
      "metar_wspd": 8,
      "metar_oat": 35,
      "metar_qnh": 1007,
      "hourly_oat": [
        32,
        30,
        29,
        29,
        29,
        29,
        29,
        29,
        28,
        28,
        28,
        28,
        27,
        27,
        28,
        29,
        31,
        32,
        33,
        33,
        34,
        32,
        32,
        32,
        32
      ]
    },
    "SIN": {
      "icao": "WSSS",
      "issued": "2026-06-17T05:00:00.000Z",
      "raw": "TAF WSSS 170500Z 1706/1812 15007KT 9999 FEW015 SCT020 TEMPO 1706/1709 3000 TSRA FEW012CB BKN015",
      "groups": [
        {
          "text": "TAF WSSS 170500Z 1706/1812 15007KT 9999 FEW015 SCT020",
          "offset_h": -4,
          "wdir": 150,
          "wspd": 7
        },
        {
          "text": "TEMPO 1706/1709 3000 TSRA FEW012CB BKN015",
          "offset_h": -4,
          "wdir": null,
          "wspd": null
        }
      ],
      "metar_raw": "METAR WSSS 171030Z VRB01KT 9999 FEW016 FEW018TCU BKN300 26/25 Q1011 NOSIG",
      "metar_wdir": "VRB",
      "metar_wspd": 1,
      "metar_oat": 26,
      "metar_qnh": 1011,
      "hourly_oat": [
        28,
        27,
        27,
        26,
        26,
        26,
        26,
        26,
        26,
        26,
        26,
        26,
        25,
        25,
        26,
        28,
        29,
        30,
        31,
        31,
        30,
        30,
        29,
        28,
        28
      ]
    },
    "HAN": {
      "icao": "VVNB",
      "issued": "2026-06-17T05:00:00.000Z",
      "raw": "TAF VVNB 170500Z 1706/1806 09005KT 9999 SCT017 PROB30 TEMPO 1709/1713 3500 TSRA SCT010 FEW027CB TEMPO 1718/1723 4000 SHRA SCT010 FEW027CB",
      "groups": [
        {
          "text": "TAF VVNB 170500Z 1706/1806 09005KT 9999 SCT017",
          "offset_h": -4,
          "wdir": 90,
          "wspd": 5
        },
        {
          "text": "PROB30",
          "offset_h": 0,
          "wdir": null,
          "wspd": null
        },
        {
          "text": "TEMPO 1709/1713 3500 TSRA SCT010 FEW027CB",
          "offset_h": -1,
          "wdir": null,
          "wspd": null
        },
        {
          "text": "TEMPO 1718/1723 4000 SHRA SCT010 FEW027CB",
          "offset_h": 8,
          "wdir": null,
          "wspd": null
        }
      ],
      "metar_raw": "METAR VVNB 171030Z 24003KT 200V270 CAVOK 34/25 Q1002 NOSIG",
      "metar_wdir": 240,
      "metar_wspd": 3,
      "metar_oat": 34,
      "metar_qnh": 1002,
      "hourly_oat": [
        32,
        27,
        28,
        28,
        28,
        28,
        28,
        28,
        27,
        26,
        26,
        27,
        26,
        27,
        28,
        30,
        31,
        32,
        33,
        34,
        35,
        34,
        34,
        34,
        33
      ]
    },
    "SGN": {
      "icao": "VVTS",
      "issued": "2026-06-17T05:00:00.000Z",
      "raw": "TAF VVTS 170500Z 1706/1812 29008KT 9999 SCT017 TEMPO 1706/1708 TS SCT015 FEW017CB TEMPO 1708/1712 29015G26KT 3000 TSRA SCT013 SCT015CB TEMPO 1712/1716 5000 SHRA SCT015 FEW017CB BKN040 TEMPO 1808/1812 29015G26KT 3000 TSRA SCT013 SCT015CB",
      "groups": [
        {
          "text": "TAF VVTS 170500Z 1706/1812 29008KT 9999 SCT017",
          "offset_h": -4,
          "wdir": 290,
          "wspd": 8
        },
        {
          "text": "TEMPO 1706/1708 TS SCT015 FEW017CB",
          "offset_h": -4,
          "wdir": null,
          "wspd": null
        },
        {
          "text": "TEMPO 1708/1712 29015G26KT 3000 TSRA SCT013 SCT015CB",
          "offset_h": -2,
          "wdir": 290,
          "wspd": 15
        },
        {
          "text": "TEMPO 1712/1716 5000 SHRA SCT015 FEW017CB BKN040",
          "offset_h": 2,
          "wdir": null,
          "wspd": null
        },
        {
          "text": "TEMPO 1808/1812 29015G26KT 3000 TSRA SCT013 SCT015CB",
          "offset_h": 22,
          "wdir": 290,
          "wspd": 15
        }
      ],
      "metar_raw": "METAR VVTS 171030Z 23007KT 9999 SCT023 FEW025TCU SCT047 33/24 Q1007 NOSIG",
      "metar_wdir": 230,
      "metar_wspd": 7,
      "metar_oat": 33,
      "metar_qnh": 1007,
      "hourly_oat": [
        26,
        27,
        26,
        26,
        25,
        25,
        25,
        25,
        25,
        25,
        25,
        25,
        25,
        25,
        26,
        28,
        29,
        30,
        31,
        30,
        28,
        27,
        27,
        27,
        27
      ]
    },
    "TSA": {
      "icao": "RCSS",
      "issued": "2026-06-17T05:00:00.000Z",
      "raw": "TAF RCSS 170500Z 1706/1806 30005KT 9999 FEW010 BKN032 TEMPO 1706/1710 07008KT 4000 TSRA SCT010 BKN018 FEW022CB TEMPO 1710/1714 12005KT BECMG 1800/1806 30005KT",
      "groups": [
        {
          "text": "TAF RCSS 170500Z 1706/1806 30005KT 9999 FEW010 BKN032",
          "offset_h": -4,
          "wdir": 300,
          "wspd": 5
        },
        {
          "text": "TEMPO 1706/1710 07008KT 4000 TSRA SCT010 BKN018 FEW022CB",
          "offset_h": -4,
          "wdir": 70,
          "wspd": 8
        },
        {
          "text": "TEMPO 1710/1714 12005KT",
          "offset_h": 0,
          "wdir": 120,
          "wspd": 5
        },
        {
          "text": "BECMG 1800/1806 30005KT",
          "offset_h": 14,
          "wdir": 300,
          "wspd": 5
        }
      ],
      "metar_raw": "METAR RCSS 171030Z VRB02KT 9999 FEW008 BKN025 BKN050 26/25 Q1011 NOSIG RMK A2986",
      "metar_wdir": "VRB",
      "metar_wspd": 2,
      "metar_oat": 26,
      "metar_qnh": 1011,
      "hourly_oat": [
        28,
        27,
        26,
        26,
        26,
        25,
        25,
        25,
        25,
        24,
        24,
        24,
        24,
        26,
        28,
        30,
        31,
        32,
        31,
        29,
        30,
        31,
        30,
        30,
        28
      ]
    },
    "TPE": {
      "icao": "RCTP",
      "issued": "2026-06-17T05:00:00.000Z",
      "raw": "TAF RCTP 170500Z 1706/1812 20005KT 9999 FEW010 BKN032 TEMPO 1706/1711 24010KT FEW010 BKN020 FEW025TCU TEMPO 1718/1724 23008KT TEMPO 1806/1812 24010KT FEW010 BKN020",
      "groups": [
        {
          "text": "TAF RCTP 170500Z 1706/1812 20005KT 9999 FEW010 BKN032",
          "offset_h": -4,
          "wdir": 200,
          "wspd": 5
        },
        {
          "text": "TEMPO 1706/1711 24010KT FEW010 BKN020 FEW025TCU",
          "offset_h": -4,
          "wdir": 240,
          "wspd": 10
        },
        {
          "text": "TEMPO 1718/1724 23008KT",
          "offset_h": 8,
          "wdir": 230,
          "wspd": 8
        },
        {
          "text": "TEMPO 1806/1812 24010KT FEW010 BKN020",
          "offset_h": 20,
          "wdir": 240,
          "wspd": 10
        }
      ],
      "metar_raw": "METAR RCTP 171030Z 26008KT 9999 FEW012 BKN016 BKN030 28/25 Q1011 NOSIG RMK A2986",
      "metar_wdir": 260,
      "metar_wspd": 8,
      "metar_oat": 28,
      "metar_qnh": 1011,
      "hourly_oat": [
        27,
        26,
        26,
        26,
        26,
        25,
        25,
        25,
        25,
        25,
        24,
        24,
        25,
        26,
        28,
        29,
        29,
        30,
        30,
        30,
        30,
        30,
        28,
        28,
        28
      ]
    },
    "GMP": {
      "icao": "RKSS",
      "issued": "2026-06-17T05:00:00.000Z",
      "raw": "TAF RKSS 170500Z 1706/1812 27005KT 9999 SCT040 TN21/1720Z TX32/1805Z TEMPO 1708/1710 21007KT 6000 -SHRA FEW010CB BKN025 OVC080 BECMG 1717/1719 17005KT BKN035 BECMG 1720/1722 SCT040 BECMG 1801/1803 28007KT",
      "groups": [
        {
          "text": "TAF RKSS 170500Z 1706/1812 27005KT 9999 SCT040 TN21/1720Z TX32/1805Z",
          "offset_h": -4,
          "wdir": 270,
          "wspd": 5
        },
        {
          "text": "TEMPO 1708/1710 21007KT 6000 -SHRA FEW010CB BKN025 OVC080",
          "offset_h": -2,
          "wdir": 210,
          "wspd": 7
        },
        {
          "text": "BECMG 1717/1719 17005KT BKN035",
          "offset_h": 7,
          "wdir": 170,
          "wspd": 5
        },
        {
          "text": "BECMG 1720/1722 SCT040",
          "offset_h": 10,
          "wdir": null,
          "wspd": null
        },
        {
          "text": "BECMG 1801/1803 28007KT",
          "offset_h": 15,
          "wdir": 280,
          "wspd": 7
        }
      ],
      "metar_raw": "METAR RKSS 171000Z 25005KT 210V270 CAVOK 29/19 Q1008 NOSIG",
      "metar_wdir": 250,
      "metar_wspd": 5,
      "metar_oat": 29,
      "metar_qnh": 1008,
      "hourly_oat": [
        26,
        24,
        24,
        23,
        22,
        22,
        22,
        21,
        21,
        21,
        20,
        20,
        21,
        22,
        24,
        25,
        27,
        28,
        29,
        30,
        29,
        28,
        27,
        26,
        24
      ]
    }
  }
}