{
  "updated": "2026-06-28T11:40:40Z",
  "tafs": {
    "LAX": {
      "icao": "KLAX",
      "issued": "2026-06-28T11:32:00.000Z",
      "raw": "TAF KLAX 281132Z 2812/2918 VRB03KT P6SM OVC025 FM281400 12007KT P6SM OVC035 FM281700 22006KT P6SM SCT030 FM282000 26012KT P6SM SKC FM290400 VRB03KT P6SM SKC FM290800 VRB03KT P6SM OVC025 FM291700 22006KT P6SM SCT030",
      "groups": [
        {
          "text": "TAF KLAX 281132Z 2812/2918 VRB03KT P6SM OVC025",
          "offset_h": 1,
          "wdir": "VRB",
          "wspd": 3
        },
        {
          "text": "FM281400 12007KT P6SM OVC035",
          "offset_h": 3,
          "wdir": 120,
          "wspd": 7
        },
        {
          "text": "FM281700 22006KT P6SM SCT030",
          "offset_h": 6,
          "wdir": 220,
          "wspd": 6
        },
        {
          "text": "FM282000 26012KT P6SM SKC",
          "offset_h": 9,
          "wdir": 260,
          "wspd": 12
        },
        {
          "text": "FM290400 VRB03KT P6SM SKC",
          "offset_h": 17,
          "wdir": "VRB",
          "wspd": 3
        },
        {
          "text": "FM290800 VRB03KT P6SM OVC025",
          "offset_h": 21,
          "wdir": "VRB",
          "wspd": 3
        },
        {
          "text": "FM291700 22006KT P6SM SCT030",
          "offset_h": 30,
          "wdir": 220,
          "wspd": 6
        }
      ],
      "metar_raw": "METAR KLAX 281053Z 20003KT 10SM BKN022 OVC034 18/14 A2991 RMK AO2 SLP125 T01780139",
      "metar_wdir": 200,
      "metar_wspd": 3,
      "metar_oat": 18,
      "metar_qnh": 1013,
      "hourly_oat": [
        17,
        17,
        17,
        17,
        18,
        19,
        20,
        21,
        20,
        21,
        21,
        21,
        21,
        20,
        19,
        18,
        17,
        17,
        16,
        16,
        15,
        15,
        14,
        14,
        15
      ]
    },
    "SAN": {
      "icao": "KSAN",
      "issued": "2026-06-28T11:20:00.000Z",
      "raw": "TAF KSAN 281120Z 2812/2918 27006KT P6SM FEW015 OVC025 TEMPO 2812/2816 6SM BR BKN018 OVC025 FM281900 22010KT P6SM SCT030 TEMPO 2823/2903 BKN025 FM290300 VRB04KT P6SM FEW015 OVC022 FM291700 22008KT P6SM BKN030",
      "groups": [
        {
          "text": "TAF KSAN 281120Z 2812/2918 27006KT P6SM FEW015 OVC025",
          "offset_h": 1,
          "wdir": 270,
          "wspd": 6
        },
        {
          "text": "TEMPO 2812/2816 6SM BR BKN018 OVC025",
          "offset_h": 1,
          "wdir": null,
          "wspd": null
        },
        {
          "text": "FM281900 22010KT P6SM SCT030",
          "offset_h": 8,
          "wdir": 220,
          "wspd": 10
        },
        {
          "text": "TEMPO 2823/2903 BKN025",
          "offset_h": 12,
          "wdir": null,
          "wspd": null
        },
        {
          "text": "FM290300 VRB04KT P6SM FEW015 OVC022",
          "offset_h": 16,
          "wdir": "VRB",
          "wspd": 4
        },
        {
          "text": "FM291700 22008KT P6SM BKN030",
          "offset_h": 30,
          "wdir": 220,
          "wspd": 8
        }
      ],
      "metar_raw": "SPECI KSAN 281124Z 27007KT 10SM FEW016 BKN029 18/14 A2995 RMK AO2 T01830139 $",
      "metar_wdir": 270,
      "metar_wspd": 7,
      "metar_oat": 18,
      "metar_qnh": 1014,
      "hourly_oat": [
        18,
        17,
        17,
        17,
        18,
        18,
        18,
        18,
        20,
        20,
        20,
        20,
        21,
        20,
        19,
        18,
        17,
        17,
        17,
        17,
        17,
        16,
        17,
        17,
        16
      ]
    },
    "HNL": {
      "icao": "PHNL",
      "issued": "2026-06-28T11:20:00.000Z",
      "raw": "TAF PHNL 281120Z 2812/2918 05012KT P6SM FEW025 SCT040 FM282000 06015G25KT P6SM FEW025 SCT040 FM290500 05010KT P6SM FEW025 SCT040",
      "groups": [
        {
          "text": "TAF PHNL 281120Z 2812/2918 05012KT P6SM FEW025 SCT040",
          "offset_h": 1,
          "wdir": 50,
          "wspd": 12
        },
        {
          "text": "FM282000 06015G25KT P6SM FEW025 SCT040",
          "offset_h": 9,
          "wdir": 60,
          "wspd": 15
        },
        {
          "text": "FM290500 05010KT P6SM FEW025 SCT040",
          "offset_h": 18,
          "wdir": 50,
          "wspd": 10
        }
      ],
      "metar_raw": "METAR PHNL 281053Z 06012KT 10SM FEW025 FEW040 SCT055 25/19 A2997 RMK AO2 SLP149 T02500189 $",
      "metar_wdir": 60,
      "metar_wspd": 12,
      "metar_oat": 25,
      "metar_qnh": 1015,
      "hourly_oat": [
        23,
        23,
        23,
        23,
        23,
        23,
        24,
        26,
        27,
        28,
        29,
        30,
        30,
        30,
        29,
        28,
        27,
        26,
        24,
        24,
        24,
        24,
        24,
        23,
        23
      ]
    },
    "KIX": {
      "icao": "RJBB",
      "issued": "2026-06-28T11:06:00.000Z",
      "raw": "TAF RJBB 281106Z 2812/2918 19006KT 9999 FEW020 BKN040 BECMG 2818/2820 06006KT BECMG 2900/2903 23012KT BECMG 2912/2915 05008KT",
      "groups": [
        {
          "text": "TAF RJBB 281106Z 2812/2918 19006KT 9999 FEW020 BKN040",
          "offset_h": 1,
          "wdir": 190,
          "wspd": 6
        },
        {
          "text": "BECMG 2818/2820 06006KT",
          "offset_h": 7,
          "wdir": 60,
          "wspd": 6
        },
        {
          "text": "BECMG 2900/2903 23012KT",
          "offset_h": 13,
          "wdir": 230,
          "wspd": 12
        },
        {
          "text": "BECMG 2912/2915 05008KT",
          "offset_h": 25,
          "wdir": 50,
          "wspd": 8
        }
      ],
      "metar_raw": "METAR RJBB 281130Z 21008KT 170V230 9999 -SHRA FEW020 SCT035 BKN070 24/21 Q1010 NOSIG",
      "metar_wdir": 210,
      "metar_wspd": 8,
      "metar_oat": 24,
      "metar_qnh": 1010,
      "hourly_oat": [
        24,
        24,
        24,
        24,
        24,
        24,
        23,
        23,
        23,
        23,
        23,
        23,
        23,
        23,
        23,
        23,
        23,
        23,
        23,
        23,
        25,
        25,
        25,
        25,
        24
      ]
    },
    "ITM": {
      "icao": "RJOO",
      "issued": "2026-06-28T11:06:00.000Z",
      "raw": "TAF RJOO 281106Z 2812/2918 32005KT 9999 FEW020 SCT030 BKN040 BECMG 2822/2900 21006KT BECMG 2906/2909 32006KT",
      "groups": [
        {
          "text": "TAF RJOO 281106Z 2812/2918 32005KT 9999 FEW020 SCT030 BKN040",
          "offset_h": 1,
          "wdir": 320,
          "wspd": 5
        },
        {
          "text": "BECMG 2822/2900 21006KT",
          "offset_h": 11,
          "wdir": 210,
          "wspd": 6
        },
        {
          "text": "BECMG 2906/2909 32006KT",
          "offset_h": 19,
          "wdir": 320,
          "wspd": 6
        }
      ],
      "metar_raw": "METAR RJOO 281100Z 16005KT 9999 FEW020 SCT045 BKN090 26/20 Q1009",
      "metar_wdir": 160,
      "metar_wspd": 5,
      "metar_oat": 26,
      "metar_qnh": 1009,
      "hourly_oat": [
        25,
        24,
        24,
        23,
        23,
        22,
        22,
        22,
        22,
        21,
        22,
        22,
        24,
        25,
        26,
        28,
        29,
        30,
        30,
        30,
        29,
        28,
        27,
        26,
        25
      ]
    },
    "FUK": {
      "icao": "RJFF",
      "issued": "2026-06-28T11:05:00.000Z",
      "raw": "TAF RJFF 281105Z 2812/2918 13004KT 9999 FEW030 BECMG 2900/2903 32012KT BECMG 2912/2915 17004KT",
      "groups": [
        {
          "text": "TAF RJFF 281105Z 2812/2918 13004KT 9999 FEW030",
          "offset_h": 1,
          "wdir": 130,
          "wspd": 4
        },
        {
          "text": "BECMG 2900/2903 32012KT",
          "offset_h": 13,
          "wdir": 320,
          "wspd": 12
        },
        {
          "text": "BECMG 2912/2915 17004KT",
          "offset_h": 25,
          "wdir": 170,
          "wspd": 4
        }
      ],
      "metar_raw": "METAR RJFF 281130Z 32004KT 270V350 9999 FEW025 SCT035 BKN040 23/18 Q1011 NOSIG",
      "metar_wdir": 320,
      "metar_wspd": 4,
      "metar_oat": 23,
      "metar_qnh": 1011,
      "hourly_oat": [
        22,
        22,
        21,
        21,
        21,
        20,
        20,
        20,
        19,
        19,
        19,
        20,
        22,
        23,
        24,
        25,
        25,
        25,
        25,
        25,
        25,
        24,
        24,
        23,
        23
      ]
    },
    "NGO": {
      "icao": "RJGG",
      "issued": "2026-06-28T11:05:00.000Z",
      "raw": "TAF RJGG 281105Z 2812/2918 13006KT 9999 FEW030 BECMG 2814/2816 33006KT BECMG 2900/2903 16014KT",
      "groups": [
        {
          "text": "TAF RJGG 281105Z 2812/2918 13006KT 9999 FEW030",
          "offset_h": 1,
          "wdir": 130,
          "wspd": 6
        },
        {
          "text": "BECMG 2814/2816 33006KT",
          "offset_h": 3,
          "wdir": 330,
          "wspd": 6
        },
        {
          "text": "BECMG 2900/2903 16014KT",
          "offset_h": 13,
          "wdir": 160,
          "wspd": 14
        }
      ],
      "metar_raw": "METAR RJGG 281130Z 17004KT 9999 FEW015 SCT040 BKN090 23/21 Q1010 NOSIG",
      "metar_wdir": 170,
      "metar_wspd": 4,
      "metar_oat": 23,
      "metar_qnh": 1010,
      "hourly_oat": [
        23,
        23,
        23,
        23,
        23,
        22,
        22,
        22,
        22,
        22,
        23,
        23,
        23,
        23,
        23,
        23,
        23,
        24,
        25,
        25,
        25,
        24,
        24,
        24,
        23
      ]
    },
    "OKA": {
      "icao": "ROAH",
      "issued": "2026-06-28T11:05:00.000Z",
      "raw": "TAF ROAH 281105Z 2812/2918 18010KT 9999 FEW005 BKN010 TEMPO 2812/2815 FEW005 BKN008 TEMPO 2815/2821 FEW003 BKN005 TEMPO 2821/2900 FEW005 BKN008",
      "groups": [
        {
          "text": "TAF ROAH 281105Z 2812/2918 18010KT 9999 FEW005 BKN010",
          "offset_h": 1,
          "wdir": 180,
          "wspd": 10
        },
        {
          "text": "TEMPO 2812/2815 FEW005 BKN008",
          "offset_h": 1,
          "wdir": null,
          "wspd": null
        },
        {
          "text": "TEMPO 2815/2821 FEW003 BKN005",
          "offset_h": 4,
          "wdir": null,
          "wspd": null
        },
        {
          "text": "TEMPO 2821/2900 FEW005 BKN008",
          "offset_h": 10,
          "wdir": null,
          "wspd": null
        }
      ],
      "metar_raw": "METAR ROAH 281130Z 17009KT 9999 FEW006 BKN220 27/27 Q1010",
      "metar_wdir": 170,
      "metar_wspd": 9,
      "metar_oat": 27,
      "metar_qnh": 1010,
      "hourly_oat": [
        27,
        27,
        27,
        27,
        27,
        27,
        27,
        27,
        27,
        27,
        26,
        27,
        28,
        29,
        29,
        29,
        29,
        30,
        30,
        30,
        29,
        29,
        28,
        28,
        27
      ]
    },
    "HND": {
      "icao": "RJTT",
      "issued": "2026-06-28T11:05:00.000Z",
      "raw": "TAF RJTT 281105Z 2812/2918 08008KT 9999 FEW008 BKN015 TEMPO 2812/2815 3000 -SHRA BR FEW003 BKN005 BECMG 2814/2816 03010KT TEMPO 2815/2821 FEW005 BKN008 TEMPO 2821/2900 4000 -SHRA BR FEW005 BKN008 BECMG 2906/2909 14006KT",
      "groups": [
        {
          "text": "TAF RJTT 281105Z 2812/2918 08008KT 9999 FEW008 BKN015",
          "offset_h": 1,
          "wdir": 80,
          "wspd": 8
        },
        {
          "text": "TEMPO 2812/2815 3000 -SHRA BR FEW003 BKN005",
          "offset_h": 1,
          "wdir": null,
          "wspd": null
        },
        {
          "text": "BECMG 2814/2816 03010KT",
          "offset_h": 3,
          "wdir": 30,
          "wspd": 10
        },
        {
          "text": "TEMPO 2815/2821 FEW005 BKN008",
          "offset_h": 4,
          "wdir": null,
          "wspd": null
        },
        {
          "text": "TEMPO 2821/2900 4000 -SHRA BR FEW005 BKN008",
          "offset_h": 10,
          "wdir": null,
          "wspd": null
        },
        {
          "text": "BECMG 2906/2909 14006KT",
          "offset_h": 19,
          "wdir": 140,
          "wspd": 6
        }
      ],
      "metar_raw": "METAR RJTT 281130Z 08007KT 9999 -RA FEW004 BKN009 BKN012 21/20 Q1011 TEMPO FEW003 BKN005",
      "metar_wdir": 80,
      "metar_wspd": 7,
      "metar_oat": 21,
      "metar_qnh": 1011,
      "hourly_oat": [
        21,
        21,
        21,
        21,
        21,
        21,
        21,
        21,
        21,
        21,
        21,
        21,
        21,
        21,
        23,
        24,
        25,
        25,
        25,
        25,
        25,
        25,
        25,
        24,
        23
      ]
    },
    "CTS": {
      "icao": "RJCC",
      "issued": "2026-06-28T11:05:00.000Z",
      "raw": "TAF RJCC 281105Z 2812/2918 35010KT 9999 FEW005 BKN015 TEMPO 2815/2822 FEW005 BKN008 TEMPO 2915/2918 FEW005 BKN008",
      "groups": [
        {
          "text": "TAF RJCC 281105Z 2812/2918 35010KT 9999 FEW005 BKN015",
          "offset_h": 1,
          "wdir": 350,
          "wspd": 10
        },
        {
          "text": "TEMPO 2815/2822 FEW005 BKN008",
          "offset_h": 4,
          "wdir": null,
          "wspd": null
        },
        {
          "text": "TEMPO 2915/2918 FEW005 BKN008",
          "offset_h": 28,
          "wdir": null,
          "wspd": null
        }
      ],
      "metar_raw": "METAR RJCC 281130Z 36010KT 9999 FEW020 BKN050 16/14 Q1011",
      "metar_wdir": 360,
      "metar_wspd": 10,
      "metar_oat": 16,
      "metar_qnh": 1011,
      "hourly_oat": [
        16,
        16,
        15,
        15,
        15,
        14,
        14,
        14,
        14,
        14,
        16,
        17,
        18,
        19,
        19,
        21,
        21,
        22,
        22,
        22,
        20,
        18,
        17,
        16,
        16
      ]
    },
    "NRT": {
      "icao": "RJAA",
      "issued": "2026-06-28T11:05:00.000Z",
      "raw": "TAF RJAA 281105Z 2812/2918 09004KT 7000 -SHRA FEW005 BKN012 TEMPO 2812/2822 2000 -SHRA BR FEW001 BKN003 BECMG 2814/2816 03006KT BECMG 2822/2900 09008KT BECMG 2912/2915 04004KT TEMPO 2912/2918 FEW001 BKN003",
      "groups": [
        {
          "text": "TAF RJAA 281105Z 2812/2918 09004KT 7000 -SHRA FEW005 BKN012",
          "offset_h": 1,
          "wdir": 90,
          "wspd": 4
        },
        {
          "text": "TEMPO 2812/2822 2000 -SHRA BR FEW001 BKN003",
          "offset_h": 1,
          "wdir": null,
          "wspd": null
        },
        {
          "text": "BECMG 2814/2816 03006KT",
          "offset_h": 3,
          "wdir": 30,
          "wspd": 6
        },
        {
          "text": "BECMG 2822/2900 09008KT",
          "offset_h": 11,
          "wdir": 90,
          "wspd": 8
        },
        {
          "text": "BECMG 2912/2915 04004KT",
          "offset_h": 25,
          "wdir": 40,
          "wspd": 4
        },
        {
          "text": "TEMPO 2912/2918 FEW001 BKN003",
          "offset_h": 25,
          "wdir": null,
          "wspd": null
        }
      ],
      "metar_raw": "METAR RJAA 281130Z 07005KT 010V090 8000 -SHRA FEW015 BKN020 21/19 Q1011 TEMPO FEW005 BKN008",
      "metar_wdir": 70,
      "metar_wspd": 5,
      "metar_oat": 21,
      "metar_qnh": 1011,
      "hourly_oat": [
        20,
        20,
        20,
        20,
        20,
        20,
        20,
        20,
        20,
        20,
        20,
        20,
        22,
        24,
        25,
        25,
        25,
        25,
        25,
        25,
        25,
        24,
        23,
        23,
        22
      ]
    },
    "SGN": {
      "icao": "VVTS",
      "issued": "2026-06-28T11:00:00.000Z",
      "raw": "TAF VVTS 281100Z 2812/2918 25008KT 9999 SCT017 TEMPO 2812/2815 25015G26KT 4000 TSRA SCT015 FEW017CB TEMPO 2905/2908 26015G28KT 4000 SHRA SCT015 FEW017CB",
      "groups": [
        {
          "text": "TAF VVTS 281100Z 2812/2918 25008KT 9999 SCT017",
          "offset_h": 1,
          "wdir": 250,
          "wspd": 8
        },
        {
          "text": "TEMPO 2812/2815 25015G26KT 4000 TSRA SCT015 FEW017CB",
          "offset_h": 1,
          "wdir": 250,
          "wspd": 15
        },
        {
          "text": "TEMPO 2905/2908 26015G28KT 4000 SHRA SCT015 FEW017CB",
          "offset_h": 18,
          "wdir": 260,
          "wspd": 15
        }
      ],
      "metar_raw": "METAR VVTS 281130Z 27010KT 9999 SCT020 FEW025CB 32/25 Q1006 NOSIG",
      "metar_wdir": 270,
      "metar_wspd": 10,
      "metar_oat": 32,
      "metar_qnh": 1006,
      "hourly_oat": [
        26,
        26,
        26,
        26,
        26,
        26,
        26,
        26,
        26,
        26,
        26,
        25,
        26,
        27,
        28,
        30,
        31,
        28,
        28,
        30,
        31,
        29,
        28,
        28,
        25
      ]
    },
    "TSA": {
      "icao": "RCSS",
      "issued": "2026-06-28T11:00:00.000Z",
      "raw": "TAF RCSS 281100Z 2812/2912 09005KT 9999 FEW015 BKN032 BECMG 2900/2902 31005KT TEMPO 2906/2910 08013KT 2000 TSRA SCT006 BKN012 FEW020CB",
      "groups": [
        {
          "text": "TAF RCSS 281100Z 2812/2912 09005KT 9999 FEW015 BKN032",
          "offset_h": 1,
          "wdir": 90,
          "wspd": 5
        },
        {
          "text": "BECMG 2900/2902 31005KT",
          "offset_h": 13,
          "wdir": 310,
          "wspd": 5
        },
        {
          "text": "TEMPO 2906/2910 08013KT 2000 TSRA SCT006 BKN012 FEW020CB",
          "offset_h": 19,
          "wdir": 80,
          "wspd": 13
        }
      ],
      "metar_raw": "METAR RCSS 281130Z 10002KT 9999 -RA FEW012 SCT050 BKN100 26/26 Q1008 NOSIG RMK A2979",
      "metar_wdir": 100,
      "metar_wspd": 2,
      "metar_oat": 26,
      "metar_qnh": 1008,
      "hourly_oat": [
        26,
        26,
        26,
        26,
        26,
        25,
        25,
        25,
        25,
        25,
        25,
        26,
        27,
        29,
        31,
        32,
        32,
        32,
        32,
        32,
        29,
        29,
        29,
        28,
        27
      ]
    },
    "TPE": {
      "icao": "RCTP",
      "issued": "2026-06-28T11:00:00.000Z",
      "raw": "TAF RCTP 281100Z 2812/2918 14005KT 9999 FEW015 BKN032 TEMPO 2814/2820 19005KT BECMG 2900/2902 30007KT TEMPO 2908/2912 24008KT 4000 SHRA FEW010 FEW015CB BKN017 BECMG 2912/2914 17005KT",
      "groups": [
        {
          "text": "TAF RCTP 281100Z 2812/2918 14005KT 9999 FEW015 BKN032",
          "offset_h": 1,
          "wdir": 140,
          "wspd": 5
        },
        {
          "text": "TEMPO 2814/2820 19005KT",
          "offset_h": 3,
          "wdir": 190,
          "wspd": 5
        },
        {
          "text": "BECMG 2900/2902 30007KT",
          "offset_h": 13,
          "wdir": 300,
          "wspd": 7
        },
        {
          "text": "TEMPO 2908/2912 24008KT 4000 SHRA FEW010 FEW015CB BKN017",
          "offset_h": 21,
          "wdir": 240,
          "wspd": 8
        },
        {
          "text": "BECMG 2912/2914 17005KT",
          "offset_h": 25,
          "wdir": 170,
          "wspd": 5
        }
      ],
      "metar_raw": "METAR RCTP 281130Z 11004KT 060V150 9999 FEW015 SCT025 BKN035 28/25 Q1009 NOSIG RMK A2980",
      "metar_wdir": 110,
      "metar_wspd": 4,
      "metar_oat": 28,
      "metar_qnh": 1009,
      "hourly_oat": [
        27,
        26,
        26,
        26,
        26,
        26,
        25,
        25,
        25,
        25,
        25,
        25,
        27,
        29,
        30,
        30,
        29,
        29,
        29,
        30,
        29,
        28,
        29,
        28,
        27
      ]
    },
    "HKG": {
      "icao": "VHHH",
      "issued": "2026-06-28T11:00:00.000Z",
      "raw": "TAF VHHH 281100Z 2812/2918 18010KT 9999 FEW010 SCT025 TX31/2906Z TN26/2822Z TEMPO 2812/2815 10010KT TEMPO 2818/2824 VRB15G25KT 2500 TSRA SHRA FEW008CB SCT015 TEMPO 2900/2906 4000 SHRA FEW010CB SCT020",
      "groups": [
        {
          "text": "TAF VHHH 281100Z 2812/2918 18010KT 9999 FEW010 SCT025 TX31/2906Z TN26/2822Z",
          "offset_h": 1,
          "wdir": 180,
          "wspd": 10
        },
        {
          "text": "TEMPO 2812/2815 10010KT",
          "offset_h": 1,
          "wdir": 100,
          "wspd": 10
        },
        {
          "text": "TEMPO 2818/2824 VRB15G25KT 2500 TSRA SHRA FEW008CB SCT015",
          "offset_h": 7,
          "wdir": "VRB",
          "wspd": 15
        },
        {
          "text": "TEMPO 2900/2906 4000 SHRA FEW010CB SCT020",
          "offset_h": 13,
          "wdir": null,
          "wspd": null
        }
      ],
      "metar_raw": "METAR VHHH 281130Z 08007KT 9999 -SHRA FEW008 27/25 Q1004 NOSIG",
      "metar_wdir": 80,
      "metar_wspd": 7,
      "metar_oat": 27,
      "metar_qnh": 1004,
      "hourly_oat": [
        28,
        28,
        28,
        28,
        28,
        28,
        28,
        28,
        27,
        26,
        26,
        26,
        26,
        27,
        28,
        29,
        28,
        28,
        29,
        30,
        30,
        30,
        30,
        29,
        29
      ]
    },
    "GMP": {
      "icao": "RKSS",
      "issued": "2026-06-28T11:00:00.000Z",
      "raw": "TAF RKSS 281100Z 2812/2918 27006KT CAVOK TN20/2820Z TX32/2906Z BECMG 2814/2816 21005KT 6000 NSC BECMG 2818/2820 4000 BR FEW010 BECMG 2821/2823 6000 NSW NSC BECMG 2900/2902 27007KT 9999 SCT040 BECMG 2913/2915 21005KT 6000 NSC",
      "groups": [
        {
          "text": "TAF RKSS 281100Z 2812/2918 27006KT CAVOK TN20/2820Z TX32/2906Z",
          "offset_h": 1,
          "wdir": 270,
          "wspd": 6
        },
        {
          "text": "BECMG 2814/2816 21005KT 6000 NSC",
          "offset_h": 3,
          "wdir": 210,
          "wspd": 5
        },
        {
          "text": "BECMG 2818/2820 4000 BR FEW010",
          "offset_h": 7,
          "wdir": null,
          "wspd": null
        },
        {
          "text": "BECMG 2821/2823 6000 NSW NSC",
          "offset_h": 10,
          "wdir": null,
          "wspd": null
        },
        {
          "text": "BECMG 2900/2902 27007KT 9999 SCT040",
          "offset_h": 13,
          "wdir": 270,
          "wspd": 7
        },
        {
          "text": "BECMG 2913/2915 21005KT 6000 NSC",
          "offset_h": 26,
          "wdir": 210,
          "wspd": 5
        }
      ],
      "metar_raw": "METAR RKSS 281100Z 28006KT CAVOK 24/18 Q1010 NOSIG",
      "metar_wdir": 280,
      "metar_wspd": 6,
      "metar_oat": 24,
      "metar_qnh": 1010,
      "hourly_oat": [
        23,
        22,
        22,
        21,
        21,
        21,
        20,
        20,
        20,
        20,
        20,
        20,
        20,
        22,
        25,
        27,
        28,
        29,
        28,
        27,
        27,
        27,
        25,
        24,
        23
      ]
    },
    "BKK": {
      "icao": "VTBS",
      "issued": "2026-06-28T11:00:00.000Z",
      "raw": "TAF VTBS 281100Z 2812/2918 24008KT 9999 FEW020 TEMPO 2908/2912 VRB15KT 4000 TSRA FEW018CB SCT030 BKN080",
      "groups": [
        {
          "text": "TAF VTBS 281100Z 2812/2918 24008KT 9999 FEW020",
          "offset_h": 1,
          "wdir": 240,
          "wspd": 8
        },
        {
          "text": "TEMPO 2908/2912 VRB15KT 4000 TSRA FEW018CB SCT030 BKN080",
          "offset_h": 21,
          "wdir": "VRB",
          "wspd": 15
        }
      ],
      "metar_raw": "METAR VTBS 281130Z 22006KT 9999 -RA FEW020CB SCT040 27/25 Q1005 NOSIG",
      "metar_wdir": 220,
      "metar_wspd": 6,
      "metar_oat": 27,
      "metar_qnh": 1005,
      "hourly_oat": [
        27,
        26,
        27,
        27,
        27,
        27,
        27,
        27,
        26,
        26,
        26,
        26,
        26,
        27,
        28,
        30,
        30,
        31,
        32,
        32,
        28,
        28,
        30,
        29,
        29
      ]
    },
    "SIN": {
      "icao": "WSSS",
      "issued": "2026-06-28T11:00:00.000Z",
      "raw": "TAF WSSS 281100Z 2812/2918 15008KT 9999 FEW015 SCT020 TEMPO 2906/2909 3000 TSRA FEW012CB BKN015",
      "groups": [
        {
          "text": "TAF WSSS 281100Z 2812/2918 15008KT 9999 FEW015 SCT020",
          "offset_h": 1,
          "wdir": 150,
          "wspd": 8
        },
        {
          "text": "TEMPO 2906/2909 3000 TSRA FEW012CB BKN015",
          "offset_h": 19,
          "wdir": null,
          "wspd": null
        }
      ],
      "metar_raw": "METAR WSSS 281130Z 18006KT 9999 FEW018 BKN160 29/24 Q1008 NOSIG",
      "metar_wdir": 180,
      "metar_wspd": 6,
      "metar_oat": 29,
      "metar_qnh": 1008,
      "hourly_oat": [
        29,
        28,
        28,
        28,
        28,
        28,
        28,
        27,
        27,
        26,
        25,
        25,
        25,
        25,
        25,
        26,
        27,
        28,
        29,
        28,
        29,
        30,
        29,
        29,
        28
      ]
    },
    "KUL": {
      "icao": "WMKK",
      "issued": "2026-06-28T11:00:00.000Z",
      "raw": "TAF WMKK 281100Z 2812/2918 VRB03KT 9999 FEW018 PROB30 TEMPO 2819/2823 5000 TSRA FEW010 FEW017CB",
      "groups": [
        {
          "text": "TAF WMKK 281100Z 2812/2918 VRB03KT 9999 FEW018",
          "offset_h": 1,
          "wdir": "VRB",
          "wspd": 3
        },
        {
          "text": "PROB30",
          "offset_h": 0,
          "wdir": null,
          "wspd": null
        },
        {
          "text": "TEMPO 2819/2823 5000 TSRA FEW010 FEW017CB",
          "offset_h": 8,
          "wdir": null,
          "wspd": null
        }
      ],
      "metar_raw": "METAR WMKK 281130Z 00000KT 9999 FEW030 29/25 Q1007 NOSIG",
      "metar_wdir": 0,
      "metar_wspd": 0,
      "metar_oat": 29,
      "metar_qnh": 1007,
      "hourly_oat": [
        27,
        26,
        26,
        26,
        24,
        24,
        24,
        23,
        23,
        23,
        23,
        23,
        23,
        23,
        24,
        26,
        28,
        29,
        30,
        30,
        29,
        30,
        29,
        28,
        28
      ]
    },
    "HAN": {
      "icao": "VVNB",
      "issued": "2026-06-28T11:00:00.000Z",
      "raw": "TAF VVNB 281100Z 2812/2912 13008KT 6000 SCT020 TEMPO 2813/2817 3000 +TSRA BKN010 FEW027CB",
      "groups": [
        {
          "text": "TAF VVNB 281100Z 2812/2912 13008KT 6000 SCT020",
          "offset_h": 1,
          "wdir": 130,
          "wspd": 8
        },
        {
          "text": "TEMPO 2813/2817 3000 +TSRA BKN010 FEW027CB",
          "offset_h": 2,
          "wdir": null,
          "wspd": null
        }
      ],
      "metar_raw": "METAR VVNB 281130Z 12008KT 070V160 9999 -RA VCTS FEW021 FEW030CB SCT036 OVC042 27/25 Q1002 TEMPO FM1300 3000 +TSRA",
      "metar_wdir": 120,
      "metar_wspd": 8,
      "metar_oat": 27,
      "metar_qnh": 1002,
      "hourly_oat": [
        29,
        28,
        28,
        28,
        27,
        27,
        26,
        26,
        26,
        26,
        26,
        25,
        26,
        26,
        27,
        28,
        29,
        30,
        30,
        29,
        28,
        29,
        30,
        30,
        27
      ]
    },
    "CGK": {
      "icao": "WIII",
      "issued": "2026-06-28T11:00:00.000Z",
      "raw": "TAF WIII 281100Z 2812/2918 07010KT 8000 SCT020 BECMG 2814/2816 15005KT 4000 HZ BECMG 2902/2904 05011KT 8000 NSW",
      "groups": [
        {
          "text": "TAF WIII 281100Z 2812/2918 07010KT 8000 SCT020",
          "offset_h": 1,
          "wdir": 70,
          "wspd": 10
        },
        {
          "text": "BECMG 2814/2816 15005KT 4000 HZ",
          "offset_h": 3,
          "wdir": 150,
          "wspd": 5
        },
        {
          "text": "BECMG 2902/2904 05011KT 8000 NSW",
          "offset_h": 15,
          "wdir": 50,
          "wspd": 11
        }
      ],
      "metar_raw": "METAR WIII 281130Z 07011KT 9999 SCT020 29/25 Q1008 NOSIG",
      "metar_wdir": 70,
      "metar_wspd": 11,
      "metar_oat": 29,
      "metar_qnh": 1008,
      "hourly_oat": [
        28,
        27,
        27,
        26,
        26,
        25,
        25,
        25,
        24,
        24,
        24,
        24,
        24,
        25,
        27,
        29,
        30,
        32,
        32,
        33,
        32,
        31,
        30,
        29,
        28
      ]
    },
    "DLC": {
      "icao": "ZYTL",
      "issued": "2026-06-28T09:09:00.000Z",
      "raw": "TAF ZYTL 280909Z 2812/2912 12004MPS 5000 BR FEW040 TX29/2906Z TN21/2821Z",
      "groups": [
        {
          "text": "TAF ZYTL 280909Z 2812/2912 12004MPS 5000 BR FEW040 TX29/2906Z TN21/2821Z",
          "offset_h": 1,
          "wdir": null,
          "wspd": null
        }
      ],
      "metar_raw": "METAR ZYTL 281130Z 09004MPS CAVOK 23/21 Q1008 NOSIG",
      "metar_wdir": null,
      "metar_wspd": null,
      "metar_oat": 23,
      "metar_qnh": 1008,
      "hourly_oat": [
        26,
        25,
        24,
        24,
        23,
        23,
        22,
        22,
        21,
        21,
        21,
        22,
        23,
        24,
        25,
        26,
        27,
        26,
        25,
        25,
        25,
        24,
        25,
        24,
        23
      ]
    },
    "PVG": {
      "icao": "ZSPD",
      "issued": "2026-06-28T09:03:00.000Z",
      "raw": "TAF ZSPD 280903Z 2812/2918 13004MPS 8000 BKN020 TX25/2812Z TX28/2906Z TN23/2821Z",
      "groups": [
        {
          "text": "TAF ZSPD 280903Z 2812/2918 13004MPS 8000 BKN020 TX25/2812Z TX28/2906Z TN23/2821Z",
          "offset_h": 1,
          "wdir": null,
          "wspd": null
        }
      ],
      "metar_raw": "METAR ZSPD 281130Z 15006MPS CAVOK 26/22 Q1008 NOSIG",
      "metar_wdir": null,
      "metar_wspd": null,
      "metar_oat": 26,
      "metar_qnh": 1008,
      "hourly_oat": [
        25,
        24,
        24,
        24,
        24,
        24,
        24,
        24,
        24,
        24,
        24,
        24,
        25,
        26,
        27,
        27,
        27,
        26,
        26,
        26,
        26,
        26,
        25,
        25,
        25
      ]
    },
    "CAN": {
      "icao": "ZGGG",
      "issued": "2026-06-28T09:03:00.000Z",
      "raw": "TAF ZGGG 280903Z 2812/2918 15003MPS 8000 BKN033 TX28/2812Z TX31/2907Z TN26/2822Z TEMPO 2821/2901 SHRA FEW026CB BKN033 TEMPO 2906/2910 TSRA SCT026CB BKN033",
      "groups": [
        {
          "text": "TAF ZGGG 280903Z 2812/2918 15003MPS 8000 BKN033 TX28/2812Z TX31/2907Z TN26/2822Z",
          "offset_h": 1,
          "wdir": null,
          "wspd": null
        },
        {
          "text": "TEMPO 2821/2901 SHRA FEW026CB BKN033",
          "offset_h": 10,
          "wdir": null,
          "wspd": null
        },
        {
          "text": "TEMPO 2906/2910 TSRA SCT026CB BKN033",
          "offset_h": 19,
          "wdir": null,
          "wspd": null
        }
      ],
      "metar_raw": "METAR ZGGG 281130Z 11003MPS 9999 -SHRA FEW010 OVC040 27/26 Q1005 RETS NOSIG",
      "metar_wdir": null,
      "metar_wspd": null,
      "metar_oat": 27,
      "metar_qnh": 1005,
      "hourly_oat": [
        27,
        26,
        26,
        26,
        27,
        26,
        26,
        26,
        26,
        25,
        25,
        24,
        25,
        26,
        28,
        29,
        30,
        30,
        31,
        28,
        30,
        31,
        31,
        28,
        27
      ]
    },
    "SHA": {
      "icao": "ZSSS",
      "issued": "2026-06-28T09:02:00.000Z",
      "raw": "TAF ZSSS 280902Z 2812/2918 13004MPS 8000 BKN020 TX25/2812Z TX29/2906Z TN23/2821Z",
      "groups": [
        {
          "text": "TAF ZSSS 280902Z 2812/2918 13004MPS 8000 BKN020 TX25/2812Z TX29/2906Z TN23/2821Z",
          "offset_h": 1,
          "wdir": null,
          "wspd": null
        }
      ],
      "metar_raw": "METAR ZSSS 281130Z 15005MPS 9999 FEW023 27/22 Q1007 NOSIG",
      "metar_wdir": null,
      "metar_wspd": null,
      "metar_oat": 27,
      "metar_qnh": 1007,
      "hourly_oat": [
        26,
        25,
        24,
        24,
        24,
        24,
        24,
        24,
        23,
        23,
        23,
        24,
        25,
        26,
        27,
        27,
        28,
        28,
        27,
        27,
        27,
        26,
        26,
        26,
        25
      ]
    },
    "PEK": {
      "icao": "ZBAA",
      "issued": "2026-06-28T09:00:00.000Z",
      "raw": "TAF ZBAA 280900Z 2812/2918 15004MPS 6000 NSC TX29/2907Z TN21/2821Z TN22/2918Z TEMPO 2818/2822 -TSRA FEW030CB BKN040 TEMPO 2908/2914 TS FEW050CB",
      "groups": [
        {
          "text": "TAF ZBAA 280900Z 2812/2918 15004MPS 6000 NSC TX29/2907Z TN21/2821Z TN22/2918Z",
          "offset_h": 1,
          "wdir": null,
          "wspd": null
        },
        {
          "text": "TEMPO 2818/2822 -TSRA FEW030CB BKN040",
          "offset_h": 7,
          "wdir": null,
          "wspd": null
        },
        {
          "text": "TEMPO 2908/2914 TS FEW050CB",
          "offset_h": 21,
          "wdir": null,
          "wspd": null
        }
      ],
      "metar_raw": "METAR ZBAA 281130Z 11003MPS 070V150 9999 FEW026 30/21 Q1004 NOSIG",
      "metar_wdir": null,
      "metar_wspd": null,
      "metar_oat": 30,
      "metar_qnh": 1004,
      "hourly_oat": [
        25,
        24,
        24,
        23,
        23,
        23,
        23,
        22,
        22,
        22,
        21,
        21,
        21,
        22,
        24,
        25,
        27,
        27,
        28,
        29,
        29,
        25,
        24,
        25,
        24
      ]
    }
  }
}