{
  "updated": "2026-07-15T20:01:03Z",
  "tafs": {
    "CTS": {
      "icao": "RJCC",
      "issued": "2026-07-15T19:46:00.000Z",
      "raw": "TAF AMD RJCC 151946Z 1519/1700 16012KT 9999 FEW015 SCT030 TEMPO 1519/1523 0700 FG VV001 BECMG 1522/1600 02010KT BECMG 1603/1605 17010KT TEMPO 1612/1618 FEW003 BKN005 TEMPO 1618/1700 1500 BR FEW001 BKN003",
      "groups": [
        {
          "text": "TAF AMD RJCC 151946Z 1519/1700 16012KT 9999 FEW015 SCT030",
          "offset_h": -1,
          "wdir": 160,
          "wspd": 12
        },
        {
          "text": "TEMPO 1519/1523 0700 FG VV001",
          "offset_h": -1,
          "wdir": null,
          "wspd": null
        },
        {
          "text": "BECMG 1522/1600 02010KT",
          "offset_h": 2,
          "wdir": 20,
          "wspd": 10
        },
        {
          "text": "BECMG 1603/1605 17010KT",
          "offset_h": 7,
          "wdir": 170,
          "wspd": 10
        },
        {
          "text": "TEMPO 1612/1618 FEW003 BKN005",
          "offset_h": 16,
          "wdir": null,
          "wspd": null
        },
        {
          "text": "TEMPO 1618/1700 1500 BR FEW001 BKN003",
          "offset_h": 22,
          "wdir": null,
          "wspd": null
        }
      ],
      "metar_raw": "METAR RJCC 151930Z 18016KT 1000 R19R/P2000N R19L/P2000N -SHRA BR FEW001 BKN002 BKN003 21/20 Q0994",
      "metar_wdir": 180,
      "metar_wspd": 16,
      "metar_oat": 21,
      "metar_qnh": 994,
      "hourly_oat": [
        21,
        22,
        23,
        25,
        28,
        28,
        30,
        29,
        30,
        30,
        29,
        28,
        26,
        23,
        22,
        21,
        21,
        20,
        20,
        20,
        20,
        20,
        20,
        20,
        20
      ]
    },
    "HND": {
      "icao": "RJTT",
      "issued": "2026-07-15T19:44:00.000Z",
      "raw": "TAF AMD RJTT 151944Z 1519/1700 20010KT 9999 FEW008 SCT012 BECMG 1520/1522 11006KT BECMG 1604/1606 18012KT TEMPO 1606/1612 TS FEW025CB FEW030 BKN050 TEMPO 1615/1700 FEW005 BKN008",
      "groups": [
        {
          "text": "TAF AMD RJTT 151944Z 1519/1700 20010KT 9999 FEW008 SCT012",
          "offset_h": -1,
          "wdir": 200,
          "wspd": 10
        },
        {
          "text": "BECMG 1520/1522 11006KT",
          "offset_h": 0,
          "wdir": 110,
          "wspd": 6
        },
        {
          "text": "BECMG 1604/1606 18012KT",
          "offset_h": 8,
          "wdir": 180,
          "wspd": 12
        },
        {
          "text": "TEMPO 1606/1612 TS FEW025CB FEW030 BKN050",
          "offset_h": 10,
          "wdir": null,
          "wspd": null
        },
        {
          "text": "TEMPO 1615/1700 FEW005 BKN008",
          "offset_h": 19,
          "wdir": null,
          "wspd": null
        }
      ],
      "metar_raw": "METAR RJTT 151930Z 20010KT 9999 FEW010 BKN/// 27/25 Q1000 TEMPO FEW006 BKN012",
      "metar_wdir": 200,
      "metar_wspd": 10,
      "metar_oat": 27,
      "metar_qnh": 1000,
      "hourly_oat": [
        26,
        26,
        27,
        28,
        28,
        29,
        29,
        30,
        31,
        31,
        31,
        30,
        29,
        28,
        27,
        27,
        26,
        26,
        26,
        26,
        26,
        26,
        26,
        26,
        26
      ]
    },
    "HNL": {
      "icao": "PHNL",
      "issued": "2026-07-15T17:34:00.000Z",
      "raw": "TAF PHNL 151734Z 1518/1624 VRB05KT P6SM VCSH FEW025 FEW040 FM152000 08011KT P6SM FEW025 SCT045 FM160600 VRB06KT P6SM FEW025 FEW040 FM162000 07014G22KT P6SM FEW025 SCT040",
      "groups": [
        {
          "text": "TAF PHNL 151734Z 1518/1624 VRB05KT P6SM VCSH FEW025 FEW040",
          "offset_h": -2,
          "wdir": "VRB",
          "wspd": 5
        },
        {
          "text": "FM152000 08011KT P6SM FEW025 SCT045",
          "offset_h": 0,
          "wdir": 80,
          "wspd": 11
        },
        {
          "text": "FM160600 VRB06KT P6SM FEW025 FEW040",
          "offset_h": 10,
          "wdir": "VRB",
          "wspd": 6
        },
        {
          "text": "FM162000 07014G22KT P6SM FEW025 SCT040",
          "offset_h": 24,
          "wdir": 70,
          "wspd": 14
        }
      ],
      "metar_raw": "METAR PHNL 151953Z 16010KT 10SM FEW025 SCT043 28/21 A2995 RMK AO2 SLP141 T02830211 $",
      "metar_wdir": 160,
      "metar_wspd": 10,
      "metar_oat": 28,
      "metar_qnh": 1014,
      "hourly_oat": [
        28,
        29,
        29,
        29,
        29,
        29,
        29,
        28,
        26,
        25,
        24,
        24,
        24,
        24,
        24,
        23,
        23,
        23,
        23,
        23,
        23,
        24,
        26,
        27,
        28
      ]
    },
    "LAX": {
      "icao": "KLAX",
      "issued": "2026-07-15T17:30:00.000Z",
      "raw": "TAF KLAX 151730Z 1518/1624 26012KT P6SM SKC FM160300 26006KT P6SM SKC FM160900 11006KT P6SM SCT008 FM161800 24006KT P6SM FEW010 FM162000 26012KT P6SM SKC",
      "groups": [
        {
          "text": "TAF KLAX 151730Z 1518/1624 26012KT P6SM SKC",
          "offset_h": -2,
          "wdir": 260,
          "wspd": 12
        },
        {
          "text": "FM160300 26006KT P6SM SKC",
          "offset_h": 7,
          "wdir": 260,
          "wspd": 6
        },
        {
          "text": "FM160900 11006KT P6SM SCT008",
          "offset_h": 13,
          "wdir": 110,
          "wspd": 6
        },
        {
          "text": "FM161800 24006KT P6SM FEW010",
          "offset_h": 22,
          "wdir": 240,
          "wspd": 6
        },
        {
          "text": "FM162000 26012KT P6SM SKC",
          "offset_h": 24,
          "wdir": 260,
          "wspd": 12
        }
      ],
      "metar_raw": "METAR KLAX 151953Z 26010KT 10SM FEW012 FEW025 27/18 A2986 RMK AO2 SLP109 T02670183 $",
      "metar_wdir": 260,
      "metar_wspd": 10,
      "metar_oat": 27,
      "metar_qnh": 1011,
      "hourly_oat": [
        25,
        25,
        26,
        26,
        25,
        23,
        22,
        21,
        20,
        20,
        19,
        19,
        19,
        18,
        18,
        18,
        18,
        18,
        19,
        22,
        25,
        28,
        30,
        30,
        30
      ]
    },
    "SAN": {
      "icao": "KSAN",
      "issued": "2026-07-15T17:20:00.000Z",
      "raw": "TAF KSAN 151720Z 1518/1624 27009KT P6SM FEW009 FEW200 FM160200 19005KT P6SM FEW007 SCT120 FM160800 VRB04KT P6SM BKN007 FM161600 20011G20KT P6SM FEW010 FEW150",
      "groups": [
        {
          "text": "TAF KSAN 151720Z 1518/1624 27009KT P6SM FEW009 FEW200",
          "offset_h": -2,
          "wdir": 270,
          "wspd": 9
        },
        {
          "text": "FM160200 19005KT P6SM FEW007 SCT120",
          "offset_h": 6,
          "wdir": 190,
          "wspd": 5
        },
        {
          "text": "FM160800 VRB04KT P6SM BKN007",
          "offset_h": 12,
          "wdir": "VRB",
          "wspd": 4
        },
        {
          "text": "FM161600 20011G20KT P6SM FEW010 FEW150",
          "offset_h": 20,
          "wdir": 200,
          "wspd": 11
        }
      ],
      "metar_raw": "METAR KSAN 151951Z 29006KT 10SM FEW040 26/18 A2987 RMK AO2 SLP114 T02610183 $",
      "metar_wdir": 290,
      "metar_wspd": 6,
      "metar_oat": 26,
      "metar_qnh": 1012,
      "hourly_oat": [
        30,
        29,
        28,
        27,
        26,
        25,
        24,
        23,
        21,
        21,
        20,
        20,
        20,
        20,
        19,
        19,
        18,
        18,
        18,
        20,
        21,
        22,
        23,
        24,
        24
      ]
    },
    "KIX": {
      "icao": "RJBB",
      "issued": "2026-07-15T17:05:00.000Z",
      "raw": "TAF RJBB 151705Z 1518/1700 24006KT 9999 FEW030 SCT040 BECMG 1612/1615 05010KT",
      "groups": [
        {
          "text": "TAF RJBB 151705Z 1518/1700 24006KT 9999 FEW030 SCT040",
          "offset_h": -2,
          "wdir": 240,
          "wspd": 6
        },
        {
          "text": "BECMG 1612/1615 05010KT",
          "offset_h": 16,
          "wdir": 50,
          "wspd": 10
        }
      ],
      "metar_raw": "METAR RJBB 151930Z AUTO 22006KT 9999 SCT045 BKN050 27/24 Q1002 NOSIG",
      "metar_wdir": 220,
      "metar_wspd": 6,
      "metar_oat": 27,
      "metar_qnh": 1002,
      "hourly_oat": [
        27,
        27,
        27,
        27,
        27,
        27,
        27,
        28,
        28,
        28,
        28,
        28,
        28,
        28,
        28,
        28,
        28,
        28,
        28,
        28,
        27,
        27,
        26,
        26,
        26
      ]
    },
    "NRT": {
      "icao": "RJAA",
      "issued": "2026-07-15T17:05:00.000Z",
      "raw": "TAF RJAA 151705Z 1518/1700 17005KT 9999 FEW012 BKN020 TEMPO 1518/1520 4000 BR FEW005 BKN008 TEMPO 1615/1621 3000 BR FEW005 BKN008",
      "groups": [
        {
          "text": "TAF RJAA 151705Z 1518/1700 17005KT 9999 FEW012 BKN020",
          "offset_h": -2,
          "wdir": 170,
          "wspd": 5
        },
        {
          "text": "TEMPO 1518/1520 4000 BR FEW005 BKN008",
          "offset_h": -2,
          "wdir": null,
          "wspd": null
        },
        {
          "text": "TEMPO 1615/1621 3000 BR FEW005 BKN008",
          "offset_h": 19,
          "wdir": null,
          "wspd": null
        }
      ],
      "metar_raw": "METAR RJAA 151930Z AUTO 16004KT 4300 BR FEW019 SCT022 BKN023 26/25 Q1000 BECMG TL2100 6000 NSW",
      "metar_wdir": 160,
      "metar_wspd": 4,
      "metar_oat": 26,
      "metar_qnh": 1000,
      "hourly_oat": [
        25,
        26,
        27,
        28,
        29,
        30,
        31,
        32,
        32,
        31,
        31,
        31,
        30,
        29,
        28,
        28,
        27,
        27,
        26,
        26,
        26,
        26,
        25,
        25,
        26
      ]
    },
    "ITM": {
      "icao": "RJOO",
      "issued": "2026-07-15T17:05:00.000Z",
      "raw": "TAF RJOO 151705Z 1518/1700 20006KT 9999 FEW020 SCT030 BECMG 1604/1606 32006KT",
      "groups": [
        {
          "text": "TAF RJOO 151705Z 1518/1700 20006KT 9999 FEW020 SCT030",
          "offset_h": -2,
          "wdir": 200,
          "wspd": 6
        },
        {
          "text": "BECMG 1604/1606 32006KT",
          "offset_h": 8,
          "wdir": 320,
          "wspd": 6
        }
      ],
      "metar_raw": "METAR RJOO 151900Z AUTO 31004KT 9999 FEW040 27/23 Q1002",
      "metar_wdir": 310,
      "metar_wspd": 4,
      "metar_oat": 27,
      "metar_qnh": 1002,
      "hourly_oat": [
        25,
        26,
        27,
        28,
        30,
        30,
        31,
        32,
        32,
        32,
        32,
        32,
        32,
        32,
        31,
        29,
        28,
        27,
        26,
        26,
        25,
        25,
        24,
        24,
        24
      ]
    },
    "OKA": {
      "icao": "ROAH",
      "issued": "2026-07-15T17:05:00.000Z",
      "raw": "TAF ROAH 151705Z 1518/1700 23010KT 9999 FEW006 BKN010 TEMPO 1518/1521 4000 BR FEW003 BKN005 TEMPO 1521/1600 FEW003 BKN005 TEMPO 1600/1603 FEW005 BKN008 TEMPO 1612/1615 FEW005 BKN008 TEMPO 1615/1700 FEW003 BKN005",
      "groups": [
        {
          "text": "TAF ROAH 151705Z 1518/1700 23010KT 9999 FEW006 BKN010",
          "offset_h": -2,
          "wdir": 230,
          "wspd": 10
        },
        {
          "text": "TEMPO 1518/1521 4000 BR FEW003 BKN005",
          "offset_h": -2,
          "wdir": null,
          "wspd": null
        },
        {
          "text": "TEMPO 1521/1600 FEW003 BKN005",
          "offset_h": 1,
          "wdir": null,
          "wspd": null
        },
        {
          "text": "TEMPO 1600/1603 FEW005 BKN008",
          "offset_h": 4,
          "wdir": null,
          "wspd": null
        },
        {
          "text": "TEMPO 1612/1615 FEW005 BKN008",
          "offset_h": 16,
          "wdir": null,
          "wspd": null
        },
        {
          "text": "TEMPO 1615/1700 FEW003 BKN005",
          "offset_h": 19,
          "wdir": null,
          "wspd": null
        }
      ],
      "metar_raw": "METAR ROAH 151930Z AUTO 24013KT 9999 FEW005 SCT010 27/26 Q1009",
      "metar_wdir": 240,
      "metar_wspd": 13,
      "metar_oat": 27,
      "metar_qnh": 1009,
      "hourly_oat": [
        27,
        27,
        28,
        28,
        29,
        29,
        30,
        30,
        30,
        30,
        30,
        30,
        29,
        29,
        28,
        28,
        28,
        28,
        28,
        28,
        28,
        27,
        27,
        27,
        27
      ]
    },
    "NGO": {
      "icao": "RJGG",
      "issued": "2026-07-15T17:05:00.000Z",
      "raw": "TAF RJGG 151705Z 1518/1700 23006KT 9999 FEW020 BECMG 1518/1520 29004KT BECMG 1600/1602 21006KT BECMG 1609/1612 32008KT BECMG 1621/1700 18004KT",
      "groups": [
        {
          "text": "TAF RJGG 151705Z 1518/1700 23006KT 9999 FEW020",
          "offset_h": -2,
          "wdir": 230,
          "wspd": 6
        },
        {
          "text": "BECMG 1518/1520 29004KT",
          "offset_h": -2,
          "wdir": 290,
          "wspd": 4
        },
        {
          "text": "BECMG 1600/1602 21006KT",
          "offset_h": 4,
          "wdir": 210,
          "wspd": 6
        },
        {
          "text": "BECMG 1609/1612 32008KT",
          "offset_h": 13,
          "wdir": 320,
          "wspd": 8
        },
        {
          "text": "BECMG 1621/1700 18004KT",
          "offset_h": 25,
          "wdir": 180,
          "wspd": 4
        }
      ],
      "metar_raw": "METAR RJGG 151930Z AUTO 28007KT 9999 NCD 29/25 Q1001 NOSIG",
      "metar_wdir": 280,
      "metar_wspd": 7,
      "metar_oat": 29,
      "metar_qnh": 1001,
      "hourly_oat": [
        28,
        27,
        27,
        27,
        27,
        27,
        28,
        28,
        29,
        30,
        30,
        29,
        28,
        28,
        28,
        28,
        28,
        28,
        27,
        27,
        27,
        27,
        27,
        27,
        26
      ]
    },
    "FUK": {
      "icao": "RJFF",
      "issued": "2026-07-15T17:05:00.000Z",
      "raw": "TAF RJFF 151705Z 1518/1700 16006KT 9999 FEW035 BECMG 1521/1523 31011KT BECMG 1612/1615 13006KT",
      "groups": [
        {
          "text": "TAF RJFF 151705Z 1518/1700 16006KT 9999 FEW035",
          "offset_h": -2,
          "wdir": 160,
          "wspd": 6
        },
        {
          "text": "BECMG 1521/1523 31011KT",
          "offset_h": 1,
          "wdir": 310,
          "wspd": 11
        },
        {
          "text": "BECMG 1612/1615 13006KT",
          "offset_h": 16,
          "wdir": 130,
          "wspd": 6
        }
      ],
      "metar_raw": "METAR RJFF 151930Z AUTO 15009KT 9999 SCT020 OVC022 29/25 Q1003 NOSIG",
      "metar_wdir": 150,
      "metar_wspd": 9,
      "metar_oat": 29,
      "metar_qnh": 1003,
      "hourly_oat": [
        26,
        26,
        27,
        28,
        29,
        29,
        29,
        30,
        29,
        29,
        29,
        29,
        28,
        28,
        28,
        27,
        27,
        27,
        26,
        26,
        26,
        26,
        26,
        26,
        26
      ]
    },
    "GMP": {
      "icao": "RKSS",
      "issued": "2026-07-15T17:00:00.000Z",
      "raw": "TAF RKSS 151700Z 1518/1624 17005KT 6000 NSC TN22/1518Z TX32/1606Z TN23/1619Z BECMG 1601/1603 28007KT 9999 BECMG 1612/1614 06005KT 6000",
      "groups": [
        {
          "text": "TAF RKSS 151700Z 1518/1624 17005KT 6000 NSC TN22/1518Z TX32/1606Z TN23/1619Z",
          "offset_h": -2,
          "wdir": 170,
          "wspd": 5
        },
        {
          "text": "BECMG 1601/1603 28007KT 9999",
          "offset_h": 5,
          "wdir": 280,
          "wspd": 7
        },
        {
          "text": "BECMG 1612/1614 06005KT 6000",
          "offset_h": 16,
          "wdir": 60,
          "wspd": 5
        }
      ],
      "metar_raw": "METAR RKSS 151900Z 12006KT 6000 NSC 23/23 Q1004 NOSIG",
      "metar_wdir": 120,
      "metar_wspd": 6,
      "metar_oat": 23,
      "metar_qnh": 1004,
      "hourly_oat": [
        22,
        22,
        23,
        23,
        24,
        26,
        28,
        30,
        30,
        30,
        29,
        27,
        26,
        26,
        25,
        24,
        24,
        23,
        23,
        23,
        23,
        22,
        22,
        22,
        21
      ]
    },
    "BKK": {
      "icao": "VTBS",
      "issued": "2026-07-15T17:00:00.000Z",
      "raw": "TAF VTBS 151700Z 1518/1624 22008KT 9999 FEW020 TEMPO 1610/1615 VRB15KT 4000 TSRA FEW018CB SCT020 BKN080",
      "groups": [
        {
          "text": "TAF VTBS 151700Z 1518/1624 22008KT 9999 FEW020",
          "offset_h": -2,
          "wdir": 220,
          "wspd": 8
        },
        {
          "text": "TEMPO 1610/1615 VRB15KT 4000 TSRA FEW018CB SCT020 BKN080",
          "offset_h": 14,
          "wdir": "VRB",
          "wspd": 15
        }
      ],
      "metar_raw": "METAR VTBS 151930Z 21005KT 9999 FEW020 29/23 Q1009 NOSIG",
      "metar_wdir": 210,
      "metar_wspd": 5,
      "metar_oat": 29,
      "metar_qnh": 1009,
      "hourly_oat": [
        27,
        27,
        27,
        27,
        28,
        29,
        30,
        31,
        31,
        31,
        30,
        30,
        30,
        29,
        29,
        28,
        28,
        27,
        28,
        28,
        28,
        28,
        28,
        27,
        27
      ]
    },
    "SIN": {
      "icao": "WSSS",
      "issued": "2026-07-15T17:00:00.000Z",
      "raw": "TAF WSSS 151700Z 1518/1700 14008KT 9999 FEW015 SCT020",
      "groups": [
        {
          "text": "TAF WSSS 151700Z 1518/1700 14008KT 9999 FEW015 SCT020",
          "offset_h": -2,
          "wdir": 140,
          "wspd": 8
        }
      ],
      "metar_raw": "METAR WSSS 152000Z 13005KT 9999 FEW018 BKN300 28/25 Q1011 NOSIG",
      "metar_wdir": 130,
      "metar_wspd": 5,
      "metar_oat": 28,
      "metar_qnh": 1011,
      "hourly_oat": [
        28,
        28,
        28,
        28,
        29,
        29,
        30,
        30,
        30,
        28,
        29,
        29,
        29,
        29,
        29,
        29,
        28,
        28,
        28,
        28,
        28,
        27,
        27,
        26,
        26
      ]
    },
    "CGK": {
      "icao": "WIII",
      "issued": "2026-07-15T17:00:00.000Z",
      "raw": "TAF WIII 151700Z 1518/1700 15005KT 8000 FEW020 BECMG 1519/1521 4000 HZ BECMG 1601/1603 06012KT 8000 NSW",
      "groups": [
        {
          "text": "TAF WIII 151700Z 1518/1700 15005KT 8000 FEW020",
          "offset_h": -2,
          "wdir": 150,
          "wspd": 5
        },
        {
          "text": "BECMG 1519/1521 4000 HZ",
          "offset_h": -1,
          "wdir": null,
          "wspd": null
        },
        {
          "text": "BECMG 1601/1603 06012KT 8000 NSW",
          "offset_h": 5,
          "wdir": 60,
          "wspd": 12
        }
      ],
      "metar_raw": "METAR WIII 151930Z 11004KT 7000 FEW020 26/23 Q1012 NOSIG",
      "metar_wdir": 110,
      "metar_wspd": 4,
      "metar_oat": 26,
      "metar_qnh": 1012,
      "hourly_oat": [
        25,
        25,
        24,
        24,
        25,
        28,
        30,
        32,
        33,
        34,
        34,
        33,
        32,
        32,
        31,
        30,
        29,
        29,
        28,
        28,
        27,
        27,
        26,
        26,
        26
      ]
    },
    "KUL": {
      "icao": "WMKK",
      "issued": "2026-07-15T17:00:00.000Z",
      "raw": "TAF WMKK 151700Z 1518/1700 13005KT 9999 FEW030",
      "groups": [
        {
          "text": "TAF WMKK 151700Z 1518/1700 13005KT 9999 FEW030",
          "offset_h": -2,
          "wdir": 130,
          "wspd": 5
        }
      ],
      "metar_raw": "METAR WMKK 151930Z VRB02KT 9999 FEW017CB 29/25 Q1011 NOSIG",
      "metar_wdir": "VRB",
      "metar_wspd": 2,
      "metar_oat": 29,
      "metar_qnh": 1011,
      "hourly_oat": [
        26,
        26,
        26,
        26,
        26,
        28,
        29,
        30,
        31,
        32,
        32,
        32,
        30,
        28,
        28,
        27,
        26,
        26,
        26,
        25,
        25,
        25,
        25,
        25,
        24
      ]
    },
    "HAN": {
      "icao": "VVNB",
      "issued": "2026-07-15T17:00:00.000Z",
      "raw": "TAF VVNB 151700Z 1518/1618 08005KT 9999 FEW025 TEMPO 1610/1613 4000 TSRA SCT015 FEW027CB",
      "groups": [
        {
          "text": "TAF VVNB 151700Z 1518/1618 08005KT 9999 FEW025",
          "offset_h": -2,
          "wdir": 80,
          "wspd": 5
        },
        {
          "text": "TEMPO 1610/1613 4000 TSRA SCT015 FEW027CB",
          "offset_h": 14,
          "wdir": null,
          "wspd": null
        }
      ],
      "metar_raw": "METAR VVNB 151930Z 08005KT CAVOK 29/27 Q1001 NOSIG",
      "metar_wdir": 80,
      "metar_wspd": 5,
      "metar_oat": 29,
      "metar_qnh": 1001,
      "hourly_oat": [
        27,
        27,
        27,
        27,
        28,
        30,
        31,
        33,
        33,
        34,
        34,
        34,
        34,
        33,
        32,
        32,
        31,
        31,
        30,
        30,
        29,
        29,
        29,
        29,
        29
      ]
    },
    "SGN": {
      "icao": "VVTS",
      "issued": "2026-07-15T17:00:00.000Z",
      "raw": "TAF VVTS 151700Z 1518/1624 23008KT 9999 SCT017 SCT040 TEMPO 1606/1609 23015G26KT 2000 +TSRA SCT013 SCT015CB BKN040 TEMPO 1609/1612 5000 SHRA SCT015 FEW017CB BKN040",
      "groups": [
        {
          "text": "TAF VVTS 151700Z 1518/1624 23008KT 9999 SCT017 SCT040",
          "offset_h": -2,
          "wdir": 230,
          "wspd": 8
        },
        {
          "text": "TEMPO 1606/1609 23015G26KT 2000 +TSRA SCT013 SCT015CB BKN040",
          "offset_h": 10,
          "wdir": 230,
          "wspd": 15
        },
        {
          "text": "TEMPO 1609/1612 5000 SHRA SCT015 FEW017CB BKN040",
          "offset_h": 13,
          "wdir": null,
          "wspd": null
        }
      ],
      "metar_raw": "METAR VVTS 151930Z 29003KT CAVOK 25/24 Q1011 NOSIG",
      "metar_wdir": 290,
      "metar_wspd": 3,
      "metar_oat": 25,
      "metar_qnh": 1011,
      "hourly_oat": [
        24,
        24,
        24,
        24,
        25,
        26,
        28,
        29,
        30,
        31,
        32,
        29,
        26,
        26,
        26,
        26,
        26,
        26,
        25,
        25,
        25,
        25,
        25,
        25,
        25
      ]
    },
    "TSA": {
      "icao": "RCSS",
      "issued": "2026-07-15T17:00:00.000Z",
      "raw": "TAF RCSS 151700Z 1518/1618 09005KT 9999 FEW015 BKN032 TEMPO 1518/1524 10005KT 4000 RA FEW010 BKN020 TEMPO 1600/1605 30008KT TEMPO 1606/1612 10012KT 4000 SHRA FEW006 FEW010CB BKN018",
      "groups": [
        {
          "text": "TAF RCSS 151700Z 1518/1618 09005KT 9999 FEW015 BKN032",
          "offset_h": -2,
          "wdir": 90,
          "wspd": 5
        },
        {
          "text": "TEMPO 1518/1524 10005KT 4000 RA FEW010 BKN020",
          "offset_h": -2,
          "wdir": 100,
          "wspd": 5
        },
        {
          "text": "TEMPO 1600/1605 30008KT",
          "offset_h": 4,
          "wdir": 300,
          "wspd": 8
        },
        {
          "text": "TEMPO 1606/1612 10012KT 4000 SHRA FEW006 FEW010CB BKN018",
          "offset_h": 10,
          "wdir": 100,
          "wspd": 12
        }
      ],
      "metar_raw": "METAR RCSS 151900Z 32002KT 9999 FEW018 SCT100 28/27 Q1008 NOSIG RMK A2979",
      "metar_wdir": 320,
      "metar_wspd": 2,
      "metar_oat": 28,
      "metar_qnh": 1008,
      "hourly_oat": [
        26,
        26,
        26,
        27,
        28,
        30,
        32,
        33,
        33,
        32,
        30,
        31,
        31,
        30,
        30,
        29,
        28,
        28,
        28,
        27,
        27,
        27,
        26,
        26,
        26
      ]
    },
    "TPE": {
      "icao": "RCTP",
      "issued": "2026-07-15T17:00:00.000Z",
      "raw": "TAF RCTP 151700Z 1518/1624 24013KT 9999 FEW015 BKN032 TEMPO 1518/1524 18005KT FEW010 BKN020 TEMPO 1603/1609 27015G25KT FEW010 BKN020 TEMPO 1612/1618 22005KT",
      "groups": [
        {
          "text": "TAF RCTP 151700Z 1518/1624 24013KT 9999 FEW015 BKN032",
          "offset_h": -2,
          "wdir": 240,
          "wspd": 13
        },
        {
          "text": "TEMPO 1518/1524 18005KT FEW010 BKN020",
          "offset_h": -2,
          "wdir": 180,
          "wspd": 5
        },
        {
          "text": "TEMPO 1603/1609 27015G25KT FEW010 BKN020",
          "offset_h": 7,
          "wdir": 270,
          "wspd": 15
        },
        {
          "text": "TEMPO 1612/1618 22005KT",
          "offset_h": 16,
          "wdir": 220,
          "wspd": 5
        }
      ],
      "metar_raw": "METAR RCTP 151930Z 21006KT 170V240 9999 FEW015 27/25 Q1008 NOSIG RMK A2978",
      "metar_wdir": 210,
      "metar_wspd": 6,
      "metar_oat": 27,
      "metar_qnh": 1008,
      "hourly_oat": [
        26,
        26,
        27,
        28,
        29,
        30,
        30,
        30,
        30,
        30,
        30,
        30,
        30,
        29,
        29,
        28,
        28,
        28,
        28,
        27,
        27,
        27,
        27,
        27,
        27
      ]
    },
    "HKG": {
      "icao": "VHHH",
      "issued": "2026-07-15T17:00:00.000Z",
      "raw": "TAF VHHH 151700Z 1518/1624 18010KT 9999 FEW010 SCT030 TX31/1606Z TN27/1522Z TN27/1622Z TEMPO 1518/1521 08010KT 3000 SHRA FEW010CB SCT020 TEMPO 1521/1603 24015G25KT 2000 TSRA +SHRA FEW008CB SCT015 TEMPO 1603/1606 3000 SHRA FEW010CB SCT020 PROB30 TEMPO 1621/1624 24015G25KT 2500 TSRA SHRA FEW008CB SCT015",
      "groups": [
        {
          "text": "TAF VHHH 151700Z 1518/1624 18010KT 9999 FEW010 SCT030 TX31/1606Z TN27/1522Z TN27/1622Z",
          "offset_h": -2,
          "wdir": 180,
          "wspd": 10
        },
        {
          "text": "TEMPO 1518/1521 08010KT 3000 SHRA FEW010CB SCT020",
          "offset_h": -2,
          "wdir": 80,
          "wspd": 10
        },
        {
          "text": "TEMPO 1521/1603 24015G25KT 2000 TSRA +SHRA FEW008CB SCT015",
          "offset_h": 1,
          "wdir": 240,
          "wspd": 15
        },
        {
          "text": "TEMPO 1603/1606 3000 SHRA FEW010CB SCT020",
          "offset_h": 7,
          "wdir": null,
          "wspd": null
        },
        {
          "text": "PROB30",
          "offset_h": 0,
          "wdir": null,
          "wspd": null
        },
        {
          "text": "TEMPO 1621/1624 24015G25KT 2500 TSRA SHRA FEW008CB SCT015",
          "offset_h": 25,
          "wdir": 240,
          "wspd": 15
        }
      ],
      "metar_raw": "METAR VHHH 151930Z 19011KT 160V220 9999 -SHRA FEW010 SCT025 29/25 Q1005 TEMPO 3000 SHRA FEW010CB SCT020",
      "metar_wdir": 190,
      "metar_wspd": 11,
      "metar_oat": 29,
      "metar_qnh": 1005,
      "hourly_oat": [
        27,
        26,
        26,
        27,
        26,
        27,
        27,
        27,
        27,
        28,
        29,
        29,
        29,
        29,
        28,
        28,
        28,
        28,
        28,
        28,
        27,
        26,
        26,
        26,
        25
      ]
    },
    "CAN": {
      "icao": "ZGGG",
      "issued": "2026-07-15T15:08:00.000Z",
      "raw": "TAF ZGGG 151508Z 1518/1624 18003MPS 8000 BKN030 TX34/1607Z TN25/1522Z TN26/1622Z TEMPO 1520/1524 +SHRA FEW026CB BKN030 TEMPO 1606/1610 TSRA SCT026CB BKN030",
      "groups": [
        {
          "text": "TAF ZGGG 151508Z 1518/1624 18003MPS 8000 BKN030 TX34/1607Z TN25/1522Z TN26/1622Z",
          "offset_h": -2,
          "wdir": null,
          "wspd": null
        },
        {
          "text": "TEMPO 1520/1524 +SHRA FEW026CB BKN030",
          "offset_h": 0,
          "wdir": null,
          "wspd": null
        },
        {
          "text": "TEMPO 1606/1610 TSRA SCT026CB BKN030",
          "offset_h": 10,
          "wdir": null,
          "wspd": null
        }
      ],
      "metar_raw": "METAR ZGGG 151930Z VRB01MPS 9999 BKN053 26/24 Q1005 NOSIG",
      "metar_wdir": null,
      "metar_wspd": null,
      "metar_oat": 26,
      "metar_qnh": 1005,
      "hourly_oat": [
        25,
        25,
        25,
        25,
        26,
        27,
        29,
        30,
        29,
        28,
        30,
        28,
        30,
        30,
        28,
        28,
        28,
        27,
        27,
        27,
        27,
        26,
        26,
        24,
        24
      ]
    },
    "DLC": {
      "icao": "ZYTL",
      "issued": "2026-07-15T15:07:00.000Z",
      "raw": "TAF ZYTL 151507Z 1518/1618 26004MPS 5000 BR FEW040 TX31/1606Z TN24/1520Z",
      "groups": [
        {
          "text": "TAF ZYTL 151507Z 1518/1618 26004MPS 5000 BR FEW040 TX31/1606Z TN24/1520Z",
          "offset_h": -2,
          "wdir": null,
          "wspd": null
        }
      ],
      "metar_raw": "METAR ZYTL 151930Z 22004MPS CAVOK 26/22 Q1001 NOSIG",
      "metar_wdir": null,
      "metar_wspd": null,
      "metar_oat": 26,
      "metar_qnh": 1001,
      "hourly_oat": [
        24,
        24,
        25,
        26,
        28,
        29,
        30,
        30,
        30,
        30,
        30,
        29,
        28,
        28,
        28,
        27,
        26,
        25,
        25,
        24,
        24,
        24,
        24,
        24,
        24
      ]
    },
    "SHA": {
      "icao": "ZSSS",
      "issued": "2026-07-15T15:02:00.000Z",
      "raw": "TAF ZSSS 151502Z 1518/1624 18004MPS 8000 SCT030 TX38/1606Z TN29/1521Z TN28/1621Z TEMPO 1606/1610 TSRA BKN011 SCT030CB",
      "groups": [
        {
          "text": "TAF ZSSS 151502Z 1518/1624 18004MPS 8000 SCT030 TX38/1606Z TN29/1521Z TN28/1621Z",
          "offset_h": -2,
          "wdir": null,
          "wspd": null
        },
        {
          "text": "TEMPO 1606/1610 TSRA BKN011 SCT030CB",
          "offset_h": 10,
          "wdir": null,
          "wspd": null
        }
      ],
      "metar_raw": "METAR ZSSS 151930Z 20002MPS CAVOK 31/27 Q1003 NOSIG",
      "metar_wdir": null,
      "metar_wspd": null,
      "metar_oat": 31,
      "metar_qnh": 1003,
      "hourly_oat": [
        31,
        30,
        31,
        32,
        34,
        36,
        37,
        38,
        38,
        38,
        38,
        37,
        37,
        36,
        35,
        35,
        35,
        34,
        33,
        32,
        32,
        32,
        31,
        31,
        31
      ]
    },
    "PVG": {
      "icao": "ZSPD",
      "issued": "2026-07-15T15:02:00.000Z",
      "raw": "TAF ZSPD 151502Z 1518/1624 18004MPS 8000 SCT030 TX38/1606Z TN29/1521Z TN28/1621Z TEMPO 1606/1610 TSRA BKN008 SCT030CB",
      "groups": [
        {
          "text": "TAF ZSPD 151502Z 1518/1624 18004MPS 8000 SCT030 TX38/1606Z TN29/1521Z TN28/1621Z",
          "offset_h": -2,
          "wdir": null,
          "wspd": null
        },
        {
          "text": "TEMPO 1606/1610 TSRA BKN008 SCT030CB",
          "offset_h": 10,
          "wdir": null,
          "wspd": null
        }
      ],
      "metar_raw": "METAR ZSPD 151930Z 25002MPS 220V290 CAVOK 30/27 Q1003 NOSIG",
      "metar_wdir": null,
      "metar_wspd": null,
      "metar_oat": 30,
      "metar_qnh": 1003,
      "hourly_oat": [
        30,
        29,
        30,
        32,
        34,
        36,
        37,
        38,
        38,
        37,
        35,
        35,
        34,
        34,
        33,
        32,
        32,
        31,
        30,
        30,
        30,
        30,
        30,
        29,
        29
      ]
    },
    "PEK": {
      "icao": "ZBAA",
      "issued": "2026-07-15T15:01:00.000Z",
      "raw": "TAF ZBAA 151501Z 1518/1624 18004MPS CAVOK TX33/1606Z TN24/1521Z TN23/1621Z",
      "groups": [
        {
          "text": "TAF ZBAA 151501Z 1518/1624 18004MPS CAVOK TX33/1606Z TN24/1521Z TN23/1621Z",
          "offset_h": -2,
          "wdir": null,
          "wspd": null
        }
      ],
      "metar_raw": "METAR ZBAA 151930Z 36002MPS CAVOK 25/23 Q1001 NOSIG",
      "metar_wdir": null,
      "metar_wspd": null,
      "metar_oat": 25,
      "metar_qnh": 1001,
      "hourly_oat": [
        25,
        24,
        24,
        25,
        26,
        27,
        29,
        29,
        30,
        31,
        32,
        33,
        32,
        31,
        30,
        29,
        28,
        28,
        27,
        27,
        26,
        26,
        25,
        25,
        24
      ]
    }
  }
}