{
  "updated": "2026-05-31T08:25:11Z",
  "tafs": {
    "HKG": {
      "icao": "VHHH",
      "issued": "2026-05-31T08:00:00.000Z",
      "raw": "TAF VHHH 310800Z 3109/0115 08010KT 9999 FEW015 SCT025 TX33/0106Z TN27/3122Z BECMG 3114/3116 14010KT TEMPO 3116/3121 VRB05KT TEMPO 3121/0102 VRB15G25KT 2500 TSRA SHRA FEW008CB SCT015 TEMPO 0104/0109 27010KT",
      "groups": [
        {
          "text": "TAF VHHH 310800Z 3109/0115 08010KT 9999 FEW015 SCT025 TX33/0106Z TN27/3122Z",
          "offset_h": 1,
          "wdir": 80,
          "wspd": 10
        },
        {
          "text": "BECMG 3114/3116 14010KT",
          "offset_h": 6,
          "wdir": 140,
          "wspd": 10
        },
        {
          "text": "TEMPO 3116/3121 VRB05KT",
          "offset_h": 8,
          "wdir": "VRB",
          "wspd": 5
        },
        {
          "text": "TEMPO 3121/0102 VRB15G25KT 2500 TSRA SHRA FEW008CB SCT015",
          "offset_h": 13,
          "wdir": "VRB",
          "wspd": 15
        },
        {
          "text": "TEMPO 0104/0109 27010KT",
          "offset_h": -4,
          "wdir": 270,
          "wspd": 10
        }
      ],
      "metar_raw": "SPECI VHHH 310802Z 19010KT 9999 FEW015 SCT025 31/24 Q1007 NOSIG",
      "metar_wdir": 190,
      "metar_wspd": 10,
      "metar_oat": 31,
      "metar_qnh": 1007,
      "hourly_oat": [
        29,
        29,
        28,
        28,
        28,
        28,
        28,
        28,
        28,
        28,
        28,
        28,
        27,
        28,
        27,
        27,
        27,
        28,
        28,
        29,
        30,
        30,
        30,
        30,
        29
      ]
    },
    "SAN": {
      "icao": "KSAN",
      "issued": "2026-05-31T07:56:00.000Z",
      "raw": "TAF KSAN 310756Z 3108/0112 VRB04KT P6SM FEW015 FM310900 VRB04KT P6SM OVC012 FM311600 VRB04KT P6SM SCT018 FM311900 27008KT P6SM SKC FM010500 VRB04KT P6SM BKN010",
      "groups": [
        {
          "text": "TAF KSAN 310756Z 3108/0112 VRB04KT P6SM FEW015",
          "offset_h": 0,
          "wdir": "VRB",
          "wspd": 4
        },
        {
          "text": "FM310900 VRB04KT P6SM OVC012",
          "offset_h": 1,
          "wdir": "VRB",
          "wspd": 4
        },
        {
          "text": "FM311600 VRB04KT P6SM SCT018",
          "offset_h": 8,
          "wdir": "VRB",
          "wspd": 4
        },
        {
          "text": "FM311900 27008KT P6SM SKC",
          "offset_h": 11,
          "wdir": 270,
          "wspd": 8
        },
        {
          "text": "FM010500 VRB04KT P6SM BKN010",
          "offset_h": -3,
          "wdir": "VRB",
          "wspd": 4
        }
      ],
      "metar_raw": "SPECI KSAN 310815Z 31003KT 10SM BKN012 17/14 A2995 RMK AO2 T01670139 $",
      "metar_wdir": 310,
      "metar_wspd": 3,
      "metar_oat": 17,
      "metar_qnh": 1014,
      "hourly_oat": [
        16,
        16,
        16,
        15,
        14,
        14,
        16,
        17,
        19,
        22,
        24,
        24,
        24,
        24,
        24,
        24,
        22,
        21,
        20,
        19,
        18,
        17,
        17,
        17,
        16
      ]
    },
    "LAX": {
      "icao": "KLAX",
      "issued": "2026-05-31T05:29:00.000Z",
      "raw": "TAF KLAX 310529Z 3106/0112 VRB03KT P6SM SKC FM311100 12005KT P6SM BKN015 FM311700 26005KT P6SM SCT015 FM312100 26015KT P6SM SKC FM010300 26008KT P6SM SKC FM011100 12005KT P6SM BKN010",
      "groups": [
        {
          "text": "TAF KLAX 310529Z 3106/0112 VRB03KT P6SM SKC",
          "offset_h": -2,
          "wdir": "VRB",
          "wspd": 3
        },
        {
          "text": "FM311100 12005KT P6SM BKN015",
          "offset_h": 3,
          "wdir": 120,
          "wspd": 5
        },
        {
          "text": "FM311700 26005KT P6SM SCT015",
          "offset_h": 9,
          "wdir": 260,
          "wspd": 5
        },
        {
          "text": "FM312100 26015KT P6SM SKC",
          "offset_h": 13,
          "wdir": 260,
          "wspd": 15
        },
        {
          "text": "FM010300 26008KT P6SM SKC",
          "offset_h": -5,
          "wdir": 260,
          "wspd": 8
        },
        {
          "text": "FM011100 12005KT P6SM BKN010",
          "offset_h": 3,
          "wdir": 120,
          "wspd": 5
        }
      ],
      "metar_raw": "METAR KLAX 310753Z 26004KT 10SM SCT015 17/14 A2993 RMK AO2 SLP132 T01670144 402170156 $",
      "metar_wdir": 260,
      "metar_wspd": 4,
      "metar_oat": 17,
      "metar_qnh": 1014,
      "hourly_oat": [
        14,
        14,
        13,
        13,
        12,
        12,
        14,
        17,
        20,
        23,
        22,
        22,
        22,
        22,
        22,
        22,
        21,
        21,
        19,
        17,
        16,
        15,
        14,
        14,
        13
      ]
    },
    "HNL": {
      "icao": "PHNL",
      "issued": "2026-05-31T05:20:00.000Z",
      "raw": "TAF PHNL 310520Z 3106/0112 VRB06KT P6SM FEW025 FEW040 FM312000 08010KT P6SM VCSH SCT025 BKN040 PROB30 3122/0102 P6SM -SHRA BKN035 FM010600 VRB06KT P6SM FEW025 FEW040",
      "groups": [
        {
          "text": "TAF PHNL 310520Z 3106/0112 VRB06KT P6SM FEW025 FEW040",
          "offset_h": -2,
          "wdir": "VRB",
          "wspd": 6
        },
        {
          "text": "FM312000 08010KT P6SM VCSH SCT025 BKN040",
          "offset_h": 12,
          "wdir": 80,
          "wspd": 10
        },
        {
          "text": "PROB30 3122/0102 P6SM -SHRA BKN035",
          "offset_h": 0,
          "wdir": null,
          "wspd": null
        },
        {
          "text": "FM010600 VRB06KT P6SM FEW025 FEW040",
          "offset_h": -2,
          "wdir": "VRB",
          "wspd": 6
        }
      ],
      "metar_raw": "METAR PHNL 310753Z 06006KT 10SM FEW025 FEW045 FEW070 BKN220 24/19 A3003 RMK AO2 SLP167 T02440189 $",
      "metar_wdir": 60,
      "metar_wspd": 6,
      "metar_oat": 24,
      "metar_qnh": 1017,
      "hourly_oat": [
        22,
        22,
        22,
        22,
        22,
        22,
        21,
        21,
        20,
        22,
        24,
        26,
        27,
        28,
        28,
        28,
        28,
        27,
        26,
        26,
        25,
        24,
        22,
        22,
        22
      ]
    },
    "ITM": {
      "icao": "RJOO",
      "issued": "2026-05-31T05:05:00.000Z",
      "raw": "TAF RJOO 310505Z 3106/0112 24008KT 9999 FEW030",
      "groups": [
        {
          "text": "TAF RJOO 310505Z 3106/0112 24008KT 9999 FEW030",
          "offset_h": -2,
          "wdir": 240,
          "wspd": 8
        }
      ],
      "metar_raw": "METAR RJOO 310800Z 21006KT 180V270 9999 FEW030 30/12 Q1014",
      "metar_wdir": 210,
      "metar_wspd": 6,
      "metar_oat": 30,
      "metar_qnh": 1014,
      "hourly_oat": [
        26,
        25,
        24,
        23,
        22,
        21,
        21,
        20,
        20,
        20,
        19,
        19,
        18,
        19,
        20,
        22,
        23,
        25,
        27,
        28,
        28,
        28,
        27,
        26,
        25
      ]
    },
    "OKA": {
      "icao": "ROAH",
      "issued": "2026-05-31T05:05:00.000Z",
      "raw": "TAF ROAH 310505Z 3106/0112 07018KT 9999 FEW010 BKN015 TEMPO 3110/3118 08024G34KT TEMPO 3118/0100 08030G40KT 3000 +SHRA BR FEW006 BKN008 SCT015CB BECMG 0100/0103 08035G45KT 3000 SHRA BR TEMPO 0100/0106 08040G55KT 1500 +SHRA BR FEW006 BKN008 SCT015CB BECMG 0106/0109 20040G50KT TEMPO 0106/0112 20045G60KT 1500 +SHRA BR FEW006 BKN008 SCT015CB",
      "groups": [
        {
          "text": "TAF ROAH 310505Z 3106/0112 07018KT 9999 FEW010 BKN015",
          "offset_h": -2,
          "wdir": 70,
          "wspd": 18
        },
        {
          "text": "TEMPO 3110/3118 08024G34KT",
          "offset_h": 2,
          "wdir": 80,
          "wspd": 24
        },
        {
          "text": "TEMPO 3118/0100 08030G40KT 3000 +SHRA BR FEW006 BKN008 SCT015CB",
          "offset_h": 10,
          "wdir": 80,
          "wspd": 30
        },
        {
          "text": "BECMG 0100/0103 08035G45KT 3000 SHRA BR",
          "offset_h": -8,
          "wdir": 80,
          "wspd": 35
        },
        {
          "text": "TEMPO 0100/0106 08040G55KT 1500 +SHRA BR FEW006 BKN008 SCT015CB",
          "offset_h": -8,
          "wdir": 80,
          "wspd": 40
        },
        {
          "text": "BECMG 0106/0109 20040G50KT",
          "offset_h": -2,
          "wdir": 200,
          "wspd": 40
        },
        {
          "text": "TEMPO 0106/0112 20045G60KT 1500 +SHRA BR FEW006 BKN008 SCT015CB",
          "offset_h": -2,
          "wdir": 200,
          "wspd": 45
        }
      ],
      "metar_raw": "METAR ROAH 310800Z 07022KT 9999 BKN010 BKN/// 28/26 Q1005",
      "metar_wdir": 70,
      "metar_wspd": 22,
      "metar_oat": 28,
      "metar_qnh": 1005,
      "hourly_oat": [
        27,
        26,
        26,
        26,
        26,
        26,
        26,
        25,
        25,
        25,
        26,
        26,
        26,
        25,
        25,
        25,
        25,
        26,
        25,
        25,
        25,
        25,
        25,
        25,
        25
      ]
    },
    "NGO": {
      "icao": "RJGG",
      "issued": "2026-05-31T05:05:00.000Z",
      "raw": "TAF RJGG 310505Z 3106/0112 16014KT 9999 FEW030 BECMG 3114/3116 06006KT BECMG 0100/0103 16016KT",
      "groups": [
        {
          "text": "TAF RJGG 310505Z 3106/0112 16014KT 9999 FEW030",
          "offset_h": -2,
          "wdir": 160,
          "wspd": 14
        },
        {
          "text": "BECMG 3114/3116 06006KT",
          "offset_h": 6,
          "wdir": 60,
          "wspd": 6
        },
        {
          "text": "BECMG 0100/0103 16016KT",
          "offset_h": -8,
          "wdir": 160,
          "wspd": 16
        }
      ],
      "metar_raw": "METAR RJGG 310800Z 16011KT 9999 FEW030 26/14 Q1014 NOSIG",
      "metar_wdir": 160,
      "metar_wspd": 11,
      "metar_oat": 26,
      "metar_qnh": 1014,
      "hourly_oat": [
        24,
        24,
        24,
        23,
        22,
        22,
        22,
        22,
        21,
        20,
        20,
        20,
        20,
        20,
        20,
        20,
        20,
        21,
        21,
        21,
        23,
        24,
        24,
        24,
        23
      ]
    },
    "CTS": {
      "icao": "RJCC",
      "issued": "2026-05-31T05:05:00.000Z",
      "raw": "TAF RJCC 310505Z 3106/0112 33012KT 9999 FEW030 BECMG 3109/3111 15006KT BECMG 0100/0103 17018KT",
      "groups": [
        {
          "text": "TAF RJCC 310505Z 3106/0112 33012KT 9999 FEW030",
          "offset_h": -2,
          "wdir": 330,
          "wspd": 12
        },
        {
          "text": "BECMG 3109/3111 15006KT",
          "offset_h": 1,
          "wdir": 150,
          "wspd": 6
        },
        {
          "text": "BECMG 0100/0103 17018KT",
          "offset_h": -8,
          "wdir": 170,
          "wspd": 18
        }
      ],
      "metar_raw": "METAR RJCC 310800Z 32010KT 280V350 CAVOK 24/05 Q1011",
      "metar_wdir": 320,
      "metar_wspd": 10,
      "metar_oat": 24,
      "metar_qnh": 1011,
      "hourly_oat": [
        22,
        20,
        17,
        15,
        14,
        14,
        13,
        12,
        11,
        10,
        10,
        10,
        11,
        13,
        16,
        19,
        21,
        22,
        22,
        23,
        23,
        23,
        22,
        21,
        20
      ]
    },
    "FUK": {
      "icao": "RJFF",
      "issued": "2026-05-31T05:05:00.000Z",
      "raw": "TAF RJFF 310505Z 3106/0112 32011KT 9999 FEW035 BECMG 3110/3112 13004KT BECMG 0103/0106 28008KT TEMPO 0106/0109 4000 RA BR BECMG 0109/0112 12004KT",
      "groups": [
        {
          "text": "TAF RJFF 310505Z 3106/0112 32011KT 9999 FEW035",
          "offset_h": -2,
          "wdir": 320,
          "wspd": 11
        },
        {
          "text": "BECMG 3110/3112 13004KT",
          "offset_h": 2,
          "wdir": 130,
          "wspd": 4
        },
        {
          "text": "BECMG 0103/0106 28008KT",
          "offset_h": -5,
          "wdir": 280,
          "wspd": 8
        },
        {
          "text": "TEMPO 0106/0109 4000 RA BR",
          "offset_h": -2,
          "wdir": null,
          "wspd": null
        },
        {
          "text": "BECMG 0109/0112 12004KT",
          "offset_h": 1,
          "wdir": 120,
          "wspd": 4
        }
      ],
      "metar_raw": "METAR RJFF 310800Z 32008KT 270V340 9999 FEW040 28/15 Q1013 NOSIG",
      "metar_wdir": 320,
      "metar_wspd": 8,
      "metar_oat": 28,
      "metar_qnh": 1013,
      "hourly_oat": [
        25,
        24,
        24,
        23,
        22,
        22,
        21,
        21,
        20,
        20,
        20,
        20,
        20,
        20,
        21,
        23,
        25,
        27,
        28,
        28,
        27,
        24,
        25,
        25,
        24
      ]
    },
    "NRT": {
      "icao": "RJAA",
      "issued": "2026-05-31T05:05:00.000Z",
      "raw": "TAF RJAA 310505Z 3106/0112 14008KT 9999 FEW030 TEMPO 3116/3118 4000 BR TEMPO 3118/3121 3000 BR BECMG 3118/3121 27004KT BECMG 0100/0103 14010KT",
      "groups": [
        {
          "text": "TAF RJAA 310505Z 3106/0112 14008KT 9999 FEW030",
          "offset_h": -2,
          "wdir": 140,
          "wspd": 8
        },
        {
          "text": "TEMPO 3116/3118 4000 BR",
          "offset_h": 8,
          "wdir": null,
          "wspd": null
        },
        {
          "text": "TEMPO 3118/3121 3000 BR",
          "offset_h": 10,
          "wdir": null,
          "wspd": null
        },
        {
          "text": "BECMG 3118/3121 27004KT",
          "offset_h": 10,
          "wdir": 270,
          "wspd": 4
        },
        {
          "text": "BECMG 0100/0103 14010KT",
          "offset_h": -8,
          "wdir": 140,
          "wspd": 10
        }
      ],
      "metar_raw": "METAR RJAA 310800Z 14011KT 9999 FEW030 BKN170 BKN/// 24/18 Q1014 NOSIG",
      "metar_wdir": 140,
      "metar_wspd": 11,
      "metar_oat": 24,
      "metar_qnh": 1014,
      "hourly_oat": [
        24,
        23,
        22,
        20,
        20,
        19,
        19,
        18,
        17,
        17,
        16,
        15,
        15,
        16,
        16,
        19,
        23,
        26,
        28,
        29,
        29,
        29,
        27,
        26,
        24
      ]
    },
    "KIX": {
      "icao": "RJBB",
      "issued": "2026-05-31T05:05:00.000Z",
      "raw": "TAF RJBB 310505Z 3106/0112 20014KT 9999 FEW030",
      "groups": [
        {
          "text": "TAF RJBB 310505Z 3106/0112 20014KT 9999 FEW030",
          "offset_h": -2,
          "wdir": 200,
          "wspd": 14
        }
      ],
      "metar_raw": "METAR RJBB 310800Z 26008KT 9999 FEW040 24/20 Q1014 NOSIG",
      "metar_wdir": 260,
      "metar_wspd": 8,
      "metar_oat": 24,
      "metar_qnh": 1014,
      "hourly_oat": [
        24,
        24,
        24,
        23,
        23,
        22,
        22,
        22,
        22,
        22,
        21,
        21,
        21,
        21,
        21,
        22,
        21,
        22,
        22,
        22,
        23,
        23,
        23,
        24,
        24
      ]
    },
    "HND": {
      "icao": "RJTT",
      "issued": "2026-05-31T05:05:00.000Z",
      "raw": "TAF RJTT 310505Z 3106/0112 19010KT 9999 FEW030 BECMG 3115/3117 34005KT BECMG 0100/0103 12006KT BECMG 0103/0106 19016KT",
      "groups": [
        {
          "text": "TAF RJTT 310505Z 3106/0112 19010KT 9999 FEW030",
          "offset_h": -2,
          "wdir": 190,
          "wspd": 10
        },
        {
          "text": "BECMG 3115/3117 34005KT",
          "offset_h": 7,
          "wdir": 340,
          "wspd": 5
        },
        {
          "text": "BECMG 0100/0103 12006KT",
          "offset_h": -8,
          "wdir": 120,
          "wspd": 6
        },
        {
          "text": "BECMG 0103/0106 19016KT",
          "offset_h": -5,
          "wdir": 190,
          "wspd": 16
        }
      ],
      "metar_raw": "METAR RJTT 310800Z 18006KT 9999 FEW030 BKN/// 26/19 Q1014 NOSIG",
      "metar_wdir": 180,
      "metar_wspd": 6,
      "metar_oat": 26,
      "metar_qnh": 1014,
      "hourly_oat": [
        25,
        24,
        23,
        22,
        22,
        21,
        21,
        20,
        20,
        19,
        18,
        18,
        18,
        18,
        19,
        21,
        23,
        23,
        24,
        26,
        27,
        27,
        27,
        26,
        24
      ]
    },
    "GMP": {
      "icao": "RKSS",
      "issued": "2026-05-31T05:00:00.000Z",
      "raw": "TAF RKSS 310500Z 3106/0112 28007KT CAVOK TN17/3120Z TX29/0106Z BECMG 3113/3115 18005KT 6000 NSC TEMPO 0101/0105 24007KT BECMG 0105/0107 28006KT CAVOK",
      "groups": [
        {
          "text": "TAF RKSS 310500Z 3106/0112 28007KT CAVOK TN17/3120Z TX29/0106Z",
          "offset_h": -2,
          "wdir": 280,
          "wspd": 7
        },
        {
          "text": "BECMG 3113/3115 18005KT 6000 NSC",
          "offset_h": 5,
          "wdir": 180,
          "wspd": 5
        },
        {
          "text": "TEMPO 0101/0105 24007KT",
          "offset_h": -7,
          "wdir": 240,
          "wspd": 7
        },
        {
          "text": "BECMG 0105/0107 28006KT CAVOK",
          "offset_h": -3,
          "wdir": 280,
          "wspd": 6
        }
      ],
      "metar_raw": "METAR RKSS 310800Z 28006KT 250V310 CAVOK 29/06 Q1012 NOSIG",
      "metar_wdir": 280,
      "metar_wspd": 6,
      "metar_oat": 29,
      "metar_qnh": 1012,
      "hourly_oat": [
        26,
        25,
        24,
        21,
        20,
        18,
        18,
        18,
        18,
        16,
        16,
        16,
        16,
        16,
        17,
        19,
        22,
        24,
        25,
        25,
        26,
        25,
        24,
        23,
        22
      ]
    },
    "BKK": {
      "icao": "VTBS",
      "issued": "2026-05-31T05:00:00.000Z",
      "raw": "TAF VTBS 310500Z 3106/0112 19008KT 9999 FEW020 TEMPO 3109/3115 VRB10G25KT 4000 TSRA FEW018CB SCT030 BKN100 BECMG 3118/3120 13005KT BECMG 0104/0106 19008KT TEMPO 0106/0112 VRB10G25KT 4000 TSRA FEW018CB SCT030 BKN100",
      "groups": [
        {
          "text": "TAF VTBS 310500Z 3106/0112 19008KT 9999 FEW020",
          "offset_h": -2,
          "wdir": 190,
          "wspd": 8
        },
        {
          "text": "TEMPO 3109/3115 VRB10G25KT 4000 TSRA FEW018CB SCT030 BKN100",
          "offset_h": 1,
          "wdir": "VRB",
          "wspd": 10
        },
        {
          "text": "BECMG 3118/3120 13005KT",
          "offset_h": 10,
          "wdir": 130,
          "wspd": 5
        },
        {
          "text": "BECMG 0104/0106 19008KT",
          "offset_h": -4,
          "wdir": 190,
          "wspd": 8
        },
        {
          "text": "TEMPO 0106/0112 VRB10G25KT 4000 TSRA FEW018CB SCT030 BKN100",
          "offset_h": -2,
          "wdir": "VRB",
          "wspd": 10
        }
      ],
      "metar_raw": "METAR VTBS 310800Z 31012KT 9999 TS FEW020CB SCT040 29/24 Q1006 TEMPO FM0810 TL0840 33015G25KT 4000 TSRA",
      "metar_wdir": 310,
      "metar_wspd": 12,
      "metar_oat": 29,
      "metar_qnh": 1006,
      "hourly_oat": [
        33,
        31,
        30,
        28,
        28,
        26,
        26,
        26,
        26,
        26,
        26,
        26,
        26,
        26,
        25,
        25,
        26,
        28,
        30,
        32,
        32,
        32,
        33,
        33,
        30
      ]
    },
    "KUL": {
      "icao": "WMKK",
      "issued": "2026-05-31T05:00:00.000Z",
      "raw": "TAF WMKK 310500Z 3106/0112 VRB03KT 9999 FEW018",
      "groups": [
        {
          "text": "TAF WMKK 310500Z 3106/0112 VRB03KT 9999 FEW018",
          "offset_h": -2,
          "wdir": "VRB",
          "wspd": 3
        }
      ],
      "metar_raw": "METAR WMKK 310800Z VRB03KT 9999 FEW018 33/24 Q1007 NOSIG",
      "metar_wdir": "VRB",
      "metar_wspd": 3,
      "metar_oat": 33,
      "metar_qnh": 1007,
      "hourly_oat": [
        32,
        31,
        31,
        29,
        28,
        28,
        27,
        27,
        27,
        26,
        24,
        24,
        24,
        24,
        23,
        24,
        24,
        25,
        26,
        28,
        29,
        30,
        31,
        31,
        31
      ]
    },
    "SIN": {
      "icao": "WSSS",
      "issued": "2026-05-31T05:00:00.000Z",
      "raw": "TAF WSSS 310500Z 3106/0112 17008KT 9999 FEW015 SCT020",
      "groups": [
        {
          "text": "TAF WSSS 310500Z 3106/0112 17008KT 9999 FEW015 SCT020",
          "offset_h": -2,
          "wdir": 170,
          "wspd": 8
        }
      ],
      "metar_raw": "METAR WSSS 310800Z 34005KT 300V010 9999 FEW017TCU FEW018CB SCT150 28/25 Q1008 NOSIG",
      "metar_wdir": 340,
      "metar_wspd": 5,
      "metar_oat": 28,
      "metar_qnh": 1008,
      "hourly_oat": [
        31,
        31,
        31,
        29,
        29,
        29,
        28,
        28,
        28,
        28,
        28,
        28,
        27,
        27,
        27,
        26,
        27,
        28,
        29,
        30,
        30,
        30,
        30,
        30,
        31
      ]
    },
    "HAN": {
      "icao": "VVNB",
      "issued": "2026-05-31T05:00:00.000Z",
      "raw": "TAF VVNB 310500Z 3106/0106 34005KT 9999 SCT025 PROB40 TEMPO 3108/3112 4000 TSRA SCT010 FEW027CB",
      "groups": [
        {
          "text": "TAF VVNB 310500Z 3106/0106 34005KT 9999 SCT025",
          "offset_h": -2,
          "wdir": 340,
          "wspd": 5
        },
        {
          "text": "PROB40",
          "offset_h": 0,
          "wdir": null,
          "wspd": null
        },
        {
          "text": "TEMPO 3108/3112 4000 TSRA SCT010 FEW027CB",
          "offset_h": 0,
          "wdir": null,
          "wspd": null
        }
      ],
      "metar_raw": "METAR VVNB 310800Z VRB07KT 9999 FEW047 35/26 Q1006 NOSIG",
      "metar_wdir": "VRB",
      "metar_wspd": 7,
      "metar_oat": 35,
      "metar_qnh": 1006,
      "hourly_oat": [
        33,
        33,
        32,
        31,
        30,
        29,
        29,
        28,
        28,
        27,
        27,
        26,
        26,
        26,
        26,
        27,
        28,
        30,
        31,
        32,
        32,
        33,
        34,
        34,
        34
      ]
    },
    "SGN": {
      "icao": "VVTS",
      "issued": "2026-05-31T05:00:00.000Z",
      "raw": "TAF VVTS 310500Z 3106/0112 VRB03KT 9999 SCT017 SCT040 TEMPO 3106/3112 5000 SHRA SCT015 FEW017CB BKN040 TEMPO 3112/3115 35015G26KT 3000 TSRA SCT013 SCT015CB TEMPO 3115/3119 5000 SHRA SCT015 FEW017CB BKN040",
      "groups": [
        {
          "text": "TAF VVTS 310500Z 3106/0112 VRB03KT 9999 SCT017 SCT040",
          "offset_h": -2,
          "wdir": "VRB",
          "wspd": 3
        },
        {
          "text": "TEMPO 3106/3112 5000 SHRA SCT015 FEW017CB BKN040",
          "offset_h": -2,
          "wdir": null,
          "wspd": null
        },
        {
          "text": "TEMPO 3112/3115 35015G26KT 3000 TSRA SCT013 SCT015CB",
          "offset_h": 4,
          "wdir": 350,
          "wspd": 15
        },
        {
          "text": "TEMPO 3115/3119 5000 SHRA SCT015 FEW017CB BKN040",
          "offset_h": 7,
          "wdir": null,
          "wspd": null
        }
      ],
      "metar_raw": "METAR VVTS 310800Z 03003KT 330V080 9999 SCT024 30/26 Q1007 NOSIG",
      "metar_wdir": 30,
      "metar_wspd": 3,
      "metar_oat": 30,
      "metar_qnh": 1007,
      "hourly_oat": [
        29,
        29,
        28,
        26,
        26,
        26,
        26,
        26,
        25,
        25,
        25,
        25,
        25,
        25,
        25,
        25,
        26,
        26,
        26,
        27,
        30,
        31,
        32,
        32,
        31
      ]
    },
    "TSA": {
      "icao": "RCSS",
      "issued": "2026-05-31T05:00:00.000Z",
      "raw": "TAF RCSS 310500Z 3106/0106 09010KT 9999 FEW015 TEMPO 3106/3110 10015KT BECMG 3118/3120 30005KT FEW015 BKN032 TEMPO 3120/0102 7000 -RA FEW010 BKN020 BKN040 TEMPO 0102/0106 27010KT 5000 SHRA FEW010 FEW015CB BKN017",
      "groups": [
        {
          "text": "TAF RCSS 310500Z 3106/0106 09010KT 9999 FEW015",
          "offset_h": -2,
          "wdir": 90,
          "wspd": 10
        },
        {
          "text": "TEMPO 3106/3110 10015KT",
          "offset_h": -2,
          "wdir": 100,
          "wspd": 15
        },
        {
          "text": "BECMG 3118/3120 30005KT FEW015 BKN032",
          "offset_h": 10,
          "wdir": 300,
          "wspd": 5
        },
        {
          "text": "TEMPO 3120/0102 7000 -RA FEW010 BKN020 BKN040",
          "offset_h": 12,
          "wdir": null,
          "wspd": null
        },
        {
          "text": "TEMPO 0102/0106 27010KT 5000 SHRA FEW010 FEW015CB BKN017",
          "offset_h": -6,
          "wdir": 270,
          "wspd": 10
        }
      ],
      "metar_raw": "METAR RCSS 310800Z 07009KT 040V100 9999 FEW028 SCT055 29/20 Q1008 NOSIG RMK A2978",
      "metar_wdir": 70,
      "metar_wspd": 9,
      "metar_oat": 29,
      "metar_qnh": 1008,
      "hourly_oat": [
        27,
        26,
        25,
        24,
        23,
        23,
        23,
        23,
        22,
        23,
        22,
        22,
        23,
        23,
        23,
        24,
        25,
        26,
        27,
        28,
        28,
        29,
        29,
        28,
        28
      ]
    },
    "TPE": {
      "icao": "RCTP",
      "issued": "2026-05-31T05:00:00.000Z",
      "raw": "TAF RCTP 310500Z 3106/0112 05015KT 9999 FEW015 TEMPO 3106/3110 03018G28KT BECMG 3116/3118 01010KT FEW015 BKN032 TEMPO 3118/3124 03015KT 7000 -RA SCT008 BKN014 TEMPO 0100/0106 5000 SHRA SCT006 BKN012 FEW015CB",
      "groups": [
        {
          "text": "TAF RCTP 310500Z 3106/0112 05015KT 9999 FEW015",
          "offset_h": -2,
          "wdir": 50,
          "wspd": 15
        },
        {
          "text": "TEMPO 3106/3110 03018G28KT",
          "offset_h": -2,
          "wdir": 30,
          "wspd": 18
        },
        {
          "text": "BECMG 3116/3118 01010KT FEW015 BKN032",
          "offset_h": 8,
          "wdir": 10,
          "wspd": 10
        },
        {
          "text": "TEMPO 3118/3124 03015KT 7000 -RA SCT008 BKN014",
          "offset_h": 10,
          "wdir": 30,
          "wspd": 15
        },
        {
          "text": "TEMPO 0100/0106 5000 SHRA SCT006 BKN012 FEW015CB",
          "offset_h": -8,
          "wdir": null,
          "wspd": null
        }
      ],
      "metar_raw": "METAR RCTP 310800Z 03018KT 9999 FEW020 28/21 Q1008 NOSIG RMK A2978",
      "metar_wdir": 30,
      "metar_wspd": 18,
      "metar_oat": 28,
      "metar_qnh": 1008,
      "hourly_oat": [
        26,
        26,
        25,
        25,
        24,
        24,
        24,
        23,
        23,
        23,
        23,
        23,
        23,
        24,
        24,
        24,
        24,
        26,
        26,
        26,
        26,
        27,
        27,
        27,
        26
      ]
    },
    "CGK": {
      "icao": "WIII",
      "issued": "2026-05-31T05:00:00.000Z",
      "raw": "TAF WIII 310500Z 3106/0112 33010KT 7000 SCT020 BECMG 3110/3112 17005KT 5000 HZ BECMG 3116/3118 4000 TSRA FEW018CB BKN020 BECMG 0101/0103 35010KT 7000 NSW",
      "groups": [
        {
          "text": "TAF WIII 310500Z 3106/0112 33010KT 7000 SCT020",
          "offset_h": -2,
          "wdir": 330,
          "wspd": 10
        },
        {
          "text": "BECMG 3110/3112 17005KT 5000 HZ",
          "offset_h": 2,
          "wdir": 170,
          "wspd": 5
        },
        {
          "text": "BECMG 3116/3118 4000 TSRA FEW018CB BKN020",
          "offset_h": 8,
          "wdir": null,
          "wspd": null
        },
        {
          "text": "BECMG 0101/0103 35010KT 7000 NSW",
          "offset_h": -7,
          "wdir": 350,
          "wspd": 10
        }
      ],
      "metar_raw": "METAR WIII 310800Z 36006KT 330V100 8000 FEW020 29/23 Q1008 NOSIG",
      "metar_wdir": 360,
      "metar_wspd": 6,
      "metar_oat": 29,
      "metar_qnh": 1008,
      "hourly_oat": [
        30,
        29,
        28,
        28,
        27,
        26,
        26,
        25,
        25,
        25,
        25,
        24,
        24,
        24,
        24,
        24,
        25,
        27,
        29,
        30,
        30,
        32,
        32,
        32,
        28
      ]
    },
    "DLC": {
      "icao": "ZYTL",
      "issued": "2026-05-31T03:10:00.000Z",
      "raw": "TAF ZYTL 310310Z 3106/0106 22004G10MPS 5000 BR FEW040 TX30/3106Z TN21/3120Z",
      "groups": [
        {
          "text": "TAF ZYTL 310310Z 3106/0106 22004G10MPS 5000 BR FEW040 TX30/3106Z TN21/3120Z",
          "offset_h": -2,
          "wdir": null,
          "wspd": null
        }
      ],
      "metar_raw": "METAR ZYTL 310800Z 16007MPS 140V200 CAVOK 29/13 Q1007 NOSIG",
      "metar_wdir": null,
      "metar_wspd": null,
      "metar_oat": 29,
      "metar_qnh": 1007,
      "hourly_oat": [
        28,
        26,
        24,
        22,
        22,
        22,
        21,
        21,
        21,
        21,
        20,
        21,
        21,
        21,
        22,
        22,
        24,
        26,
        27,
        28,
        28,
        28,
        29,
        29,
        28
      ]
    },
    "CAN": {
      "icao": "ZGGG",
      "issued": "2026-05-31T03:07:00.000Z",
      "raw": "TAF ZGGG 310307Z 3106/0112 13003MPS 8000 BKN033 TX34/3107Z TX34/0107Z TN26/3122Z TEMPO 3108/3112 TSRA SCT026CB BKN030 TEMPO 3119/3123 TSRA SCT026CB BKN030",
      "groups": [
        {
          "text": "TAF ZGGG 310307Z 3106/0112 13003MPS 8000 BKN033 TX34/3107Z TX34/0107Z TN26/3122Z",
          "offset_h": -2,
          "wdir": null,
          "wspd": null
        },
        {
          "text": "TEMPO 3108/3112 TSRA SCT026CB BKN030",
          "offset_h": 0,
          "wdir": null,
          "wspd": null
        },
        {
          "text": "TEMPO 3119/3123 TSRA SCT026CB BKN030",
          "offset_h": 11,
          "wdir": null,
          "wspd": null
        }
      ],
      "metar_raw": "METAR ZGGG 310800Z 17002MPS 120V210 9999 BKN033 33/25 Q1006 NOSIG",
      "metar_wdir": null,
      "metar_wspd": null,
      "metar_oat": 33,
      "metar_qnh": 1006,
      "hourly_oat": [
        32,
        30,
        28,
        28,
        28,
        27,
        27,
        27,
        27,
        26,
        26,
        26,
        25,
        24,
        25,
        25,
        26,
        27,
        28,
        30,
        30,
        31,
        32,
        32,
        32
      ]
    },
    "SHA": {
      "icao": "ZSSS",
      "issued": "2026-05-31T03:03:00.000Z",
      "raw": "TAF ZSSS 310303Z 3106/0112 12004MPS 8000 SCT030 TX33/3106Z TX31/0106Z TN21/3121Z",
      "groups": [
        {
          "text": "TAF ZSSS 310303Z 3106/0112 12004MPS 8000 SCT030 TX33/3106Z TX31/0106Z TN21/3121Z",
          "offset_h": -2,
          "wdir": null,
          "wspd": null
        }
      ],
      "metar_raw": "METAR ZSSS 310800Z 12006MPS CAVOK 30/10 Q1011 NOSIG",
      "metar_wdir": null,
      "metar_wspd": null,
      "metar_oat": 30,
      "metar_qnh": 1011,
      "hourly_oat": [
        29,
        28,
        27,
        26,
        24,
        23,
        22,
        22,
        21,
        20,
        20,
        20,
        19,
        20,
        20,
        22,
        24,
        26,
        28,
        30,
        32,
        33,
        34,
        33,
        33
      ]
    },
    "PVG": {
      "icao": "ZSPD",
      "issued": "2026-05-31T03:03:00.000Z",
      "raw": "TAF ZSPD 310303Z 3106/0112 11004MPS 8000 SCT030 TX30/3106Z TX29/0106Z TN20/3121Z",
      "groups": [
        {
          "text": "TAF ZSPD 310303Z 3106/0112 11004MPS 8000 SCT030 TX30/3106Z TX29/0106Z TN20/3121Z",
          "offset_h": -2,
          "wdir": null,
          "wspd": null
        }
      ],
      "metar_raw": "METAR ZSPD 310800Z 10006MPS 070V130 CAVOK 27/13 Q1011 NOSIG",
      "metar_wdir": null,
      "metar_wspd": null,
      "metar_oat": 27,
      "metar_qnh": 1011,
      "hourly_oat": [
        26,
        25,
        23,
        22,
        22,
        21,
        21,
        21,
        20,
        20,
        20,
        20,
        20,
        20,
        22,
        23,
        24,
        25,
        26,
        27,
        27,
        27,
        26,
        26,
        26
      ]
    },
    "PEK": {
      "icao": "ZBAA",
      "issued": "2026-05-31T03:03:00.000Z",
      "raw": "TAF ZBAA 310303Z 3106/0112 19005MPS CAVOK TX34/3106Z TX35/0106Z TN19/3121Z TEMPO 3109/3113 FEW030CB BKN040 BECMG 3113/3114 35003MPS",
      "groups": [
        {
          "text": "TAF ZBAA 310303Z 3106/0112 19005MPS CAVOK TX34/3106Z TX35/0106Z TN19/3121Z",
          "offset_h": -2,
          "wdir": null,
          "wspd": null
        },
        {
          "text": "TEMPO 3109/3113 FEW030CB BKN040",
          "offset_h": 1,
          "wdir": null,
          "wspd": null
        },
        {
          "text": "BECMG 3113/3114 35003MPS",
          "offset_h": 5,
          "wdir": null,
          "wspd": null
        }
      ],
      "metar_raw": "METAR ZBAA 310800Z 16004MPS 120V200 CAVOK 33/17 Q1001 NOSIG",
      "metar_wdir": null,
      "metar_wspd": null,
      "metar_oat": 33,
      "metar_qnh": 1001,
      "hourly_oat": [
        35,
        35,
        33,
        32,
        30,
        28,
        26,
        27,
        25,
        24,
        22,
        20,
        20,
        20,
        19,
        21,
        24,
        27,
        28,
        30,
        32,
        34,
        36,
        36,
        36
      ]
    }
  }
}