{
  "updated": "2026-05-26T23:49:37Z",
  "tafs": {
    "LAX": {
      "icao": "KLAX",
      "issued": "2026-05-26T23:47:00.000Z",
      "raw": "TAF KLAX 262347Z 2700/2806 25015G25KT P6SM BKN050 FM270600 25012KT P6SM BKN050 FM270900 20006KT P6SM BKN050 FM271500 22012KT P6SM BKN050 FM271800 23012G20KT P6SM BKN050 FM280100 25014KT P6SM OVC050",
      "groups": [
        {
          "text": "TAF KLAX 262347Z 2700/2806 25015G25KT P6SM BKN050",
          "offset_h": 1,
          "wdir": 250,
          "wspd": 15
        },
        {
          "text": "FM270600 25012KT P6SM BKN050",
          "offset_h": 7,
          "wdir": 250,
          "wspd": 12
        },
        {
          "text": "FM270900 20006KT P6SM BKN050",
          "offset_h": 10,
          "wdir": 200,
          "wspd": 6
        },
        {
          "text": "FM271500 22012KT P6SM BKN050",
          "offset_h": 16,
          "wdir": 220,
          "wspd": 12
        },
        {
          "text": "FM271800 23012G20KT P6SM BKN050",
          "offset_h": 19,
          "wdir": 230,
          "wspd": 12
        },
        {
          "text": "FM280100 25014KT P6SM OVC050",
          "offset_h": 26,
          "wdir": 250,
          "wspd": 14
        }
      ],
      "metar_raw": "METAR KLAX 262253Z 27016KT 10SM FEW033 SCT044 19/12 A2981 RMK AO2 SLP094 T01890117 $",
      "metar_wdir": 270,
      "metar_wspd": 16,
      "metar_oat": 19,
      "metar_qnh": 1009,
      "hourly_oat": [
        18,
        17,
        17,
        16,
        15,
        15,
        14,
        13,
        13,
        13,
        12,
        11,
        11,
        10,
        10,
        13,
        16,
        17,
        17,
        17,
        18,
        18,
        18,
        18,
        18
      ]
    },
    "SAN": {
      "icao": "KSAN",
      "issued": "2026-05-26T23:38:00.000Z",
      "raw": "TAF KSAN 262338Z 2700/2806 29012G18KT P6SM BKN035 TEMPO 2703/2706 28010KT BKN028 FM271300 26009KT P6SM OVC040 FM271800 25010KT P6SM BKN045 FM272100 26011KT P6SM BKN050",
      "groups": [
        {
          "text": "TAF KSAN 262338Z 2700/2806 29012G18KT P6SM BKN035",
          "offset_h": 1,
          "wdir": 290,
          "wspd": 12
        },
        {
          "text": "TEMPO 2703/2706 28010KT BKN028",
          "offset_h": 4,
          "wdir": 280,
          "wspd": 10
        },
        {
          "text": "FM271300 26009KT P6SM OVC040",
          "offset_h": 14,
          "wdir": 260,
          "wspd": 9
        },
        {
          "text": "FM271800 25010KT P6SM BKN045",
          "offset_h": 19,
          "wdir": 250,
          "wspd": 10
        },
        {
          "text": "FM272100 26011KT P6SM BKN050",
          "offset_h": 22,
          "wdir": 260,
          "wspd": 11
        }
      ],
      "metar_raw": "METAR KSAN 262251Z 30010G17KT 10SM BKN030 BKN047 19/11 A2986 RMK AO2 SLP112 T01890106",
      "metar_wdir": 300,
      "metar_wspd": 10,
      "metar_oat": 19,
      "metar_qnh": 1011,
      "hourly_oat": [
        18,
        18,
        18,
        17,
        17,
        16,
        17,
        16,
        16,
        16,
        16,
        14,
        15,
        15,
        15,
        15,
        14,
        15,
        17,
        15,
        16,
        17,
        16,
        16,
        16
      ]
    },
    "TPE": {
      "icao": "RCTP",
      "issued": "2026-05-26T23:20:00.000Z",
      "raw": "TAF COR RCTP 262320Z 2700/2806 24015KT 9999 FEW015 TEMPO 2700/2706 25017G27KT BECMG 2712/2714 20010KT FEW015 BKN032 TEMPO 2800/2806 25015KT",
      "groups": [
        {
          "text": "TAF COR RCTP 262320Z 2700/2806 24015KT 9999 FEW015",
          "offset_h": 1,
          "wdir": 240,
          "wspd": 15
        },
        {
          "text": "TEMPO 2700/2706 25017G27KT",
          "offset_h": 1,
          "wdir": 250,
          "wspd": 17
        },
        {
          "text": "BECMG 2712/2714 20010KT FEW015 BKN032",
          "offset_h": 13,
          "wdir": 200,
          "wspd": 10
        },
        {
          "text": "TEMPO 2800/2806 25015KT",
          "offset_h": 25,
          "wdir": 250,
          "wspd": 15
        }
      ],
      "metar_raw": "METAR RCTP 262330Z 24021KT 9999 FEW015 BKN180 30/25 Q1007 WS R23R NOSIG RMK A2974",
      "metar_wdir": 240,
      "metar_wspd": 21,
      "metar_oat": 30,
      "metar_qnh": 1007,
      "hourly_oat": [
        29,
        30,
        31,
        32,
        33,
        33,
        33,
        33,
        32,
        32,
        30,
        29,
        28,
        28,
        28,
        28,
        28,
        27,
        27,
        27,
        27,
        27,
        27,
        27,
        28
      ]
    },
    "HNL": {
      "icao": "PHNL",
      "issued": "2026-05-26T23:20:00.000Z",
      "raw": "TAF PHNL 262320Z 2700/2806 06015G25KT P6SM VCSH SCT030 BKN050 FM270600 06012G18KT P6SM SCT030 SCT040 FM272000 05018G28KT P6SM SCT030 SCT040 FM280500 05012G18KT P6SM VCSH SCT030 BKN040",
      "groups": [
        {
          "text": "TAF PHNL 262320Z 2700/2806 06015G25KT P6SM VCSH SCT030 BKN050",
          "offset_h": 1,
          "wdir": 60,
          "wspd": 15
        },
        {
          "text": "FM270600 06012G18KT P6SM SCT030 SCT040",
          "offset_h": 7,
          "wdir": 60,
          "wspd": 12
        },
        {
          "text": "FM272000 05018G28KT P6SM SCT030 SCT040",
          "offset_h": 21,
          "wdir": 50,
          "wspd": 18
        },
        {
          "text": "FM280500 05012G18KT P6SM VCSH SCT030 BKN040",
          "offset_h": 30,
          "wdir": 50,
          "wspd": 12
        }
      ],
      "metar_raw": "METAR PHNL 262253Z 06015G24KT 10SM FEW025 SCT045 BKN065 28/17 A3007 RMK AO2 PK WND 08026/2219 SLP183 T02830172",
      "metar_wdir": 60,
      "metar_wspd": 15,
      "metar_oat": 28,
      "metar_qnh": 1018,
      "hourly_oat": [
        26,
        25,
        26,
        25,
        25,
        24,
        23,
        22,
        22,
        22,
        22,
        22,
        22,
        20,
        20,
        20,
        20,
        20,
        22,
        23,
        24,
        25,
        26,
        27,
        26
      ]
    },
    "OKA": {
      "icao": "ROAH",
      "issued": "2026-05-26T23:06:00.000Z",
      "raw": "TAF ROAH 262306Z 2700/2806 21014KT 9999 FEW008 BKN015 TEMPO 2712/2715 FEW005 BKN008 TEMPO 2715/2800 FEW003 BKN005 TEMPO 2800/2806 4000 SHRA BR FEW005 BKN008 FEW015CB BECMG 2803/2806 29008KT",
      "groups": [
        {
          "text": "TAF ROAH 262306Z 2700/2806 21014KT 9999 FEW008 BKN015",
          "offset_h": 1,
          "wdir": 210,
          "wspd": 14
        },
        {
          "text": "TEMPO 2712/2715 FEW005 BKN008",
          "offset_h": 13,
          "wdir": null,
          "wspd": null
        },
        {
          "text": "TEMPO 2715/2800 FEW003 BKN005",
          "offset_h": 16,
          "wdir": null,
          "wspd": null
        },
        {
          "text": "TEMPO 2800/2806 4000 SHRA BR FEW005 BKN008 FEW015CB",
          "offset_h": 25,
          "wdir": null,
          "wspd": null
        },
        {
          "text": "BECMG 2803/2806 29008KT",
          "offset_h": 28,
          "wdir": 290,
          "wspd": 8
        }
      ],
      "metar_raw": "METAR ROAH 262330Z 18011KT 9999 VCSH FEW003 BKN220 27/27 Q1008",
      "metar_wdir": 180,
      "metar_wspd": 11,
      "metar_oat": 27,
      "metar_qnh": 1008,
      "hourly_oat": [
        27,
        27,
        28,
        28,
        28,
        28,
        28,
        28,
        28,
        28,
        27,
        27,
        27,
        27,
        27,
        26,
        27,
        27,
        26,
        26,
        26,
        26,
        26,
        26,
        26
      ]
    },
    "ITM": {
      "icao": "RJOO",
      "issued": "2026-05-26T23:06:00.000Z",
      "raw": "TAF RJOO 262306Z 2700/2806 07010KT 8000 -RA FEW008 BKN030 TEMPO 2702/2706 4000 -RA BR",
      "groups": [
        {
          "text": "TAF RJOO 262306Z 2700/2806 07010KT 8000 -RA FEW008 BKN030",
          "offset_h": 1,
          "wdir": 70,
          "wspd": 10
        },
        {
          "text": "TEMPO 2702/2706 4000 -RA BR",
          "offset_h": 3,
          "wdir": null,
          "wspd": null
        }
      ],
      "metar_raw": "METAR RJOO 262300Z 07008KT 020V100 9999 FEW025 SCT080 BKN130 24/18 Q1010",
      "metar_wdir": 70,
      "metar_wspd": 8,
      "metar_oat": 24,
      "metar_qnh": 1010,
      "hourly_oat": [
        21,
        21,
        21,
        21,
        21,
        21,
        22,
        22,
        21,
        21,
        20,
        20,
        21,
        21,
        21,
        21,
        21,
        21,
        21,
        21,
        21,
        21,
        21,
        22,
        22
      ]
    },
    "KIX": {
      "icao": "RJBB",
      "issued": "2026-05-26T23:06:00.000Z",
      "raw": "TAF RJBB 262306Z 2700/2806 36006KT 8000 -RA FEW008 SCT025 BKN030 TEMPO 2701/2707 4000 -RA BR BECMG 2709/2711 06010KT BECMG 2803/2806 35008KT",
      "groups": [
        {
          "text": "TAF RJBB 262306Z 2700/2806 36006KT 8000 -RA FEW008 SCT025 BKN030",
          "offset_h": 1,
          "wdir": 360,
          "wspd": 6
        },
        {
          "text": "TEMPO 2701/2707 4000 -RA BR",
          "offset_h": 2,
          "wdir": null,
          "wspd": null
        },
        {
          "text": "BECMG 2709/2711 06010KT",
          "offset_h": 10,
          "wdir": 60,
          "wspd": 10
        },
        {
          "text": "BECMG 2803/2806 35008KT",
          "offset_h": 28,
          "wdir": 350,
          "wspd": 8
        }
      ],
      "metar_raw": "METAR RJBB 262330Z 02002KT 9999 -RA FEW025 SCT080 OVC130 21/19 Q1010 NOSIG",
      "metar_wdir": 20,
      "metar_wspd": 2,
      "metar_oat": 21,
      "metar_qnh": 1010,
      "hourly_oat": [
        21,
        20,
        20,
        20,
        21,
        21,
        21,
        21,
        21,
        21,
        21,
        21,
        21,
        21,
        21,
        21,
        21,
        21,
        21,
        21,
        21,
        21,
        21,
        21,
        22
      ]
    },
    "CTS": {
      "icao": "RJCC",
      "issued": "2026-05-26T23:05:00.000Z",
      "raw": "TAF RJCC 262305Z 2700/2806 17012KT 9999 FEW003 BKN005 BECMG 2700/2702 FEW005 BKN020 TEMPO 2710/2712 2000 BR FEW001 BKN005 TEMPO 2712/2721 0700 FG VV001 TEMPO 2721/2800 4000 BR FEW003 BKN008 TEMPO 2803/2806 FEW003 BKN008",
      "groups": [
        {
          "text": "TAF RJCC 262305Z 2700/2806 17012KT 9999 FEW003 BKN005",
          "offset_h": 1,
          "wdir": 170,
          "wspd": 12
        },
        {
          "text": "BECMG 2700/2702 FEW005 BKN020",
          "offset_h": 1,
          "wdir": null,
          "wspd": null
        },
        {
          "text": "TEMPO 2710/2712 2000 BR FEW001 BKN005",
          "offset_h": 11,
          "wdir": null,
          "wspd": null
        },
        {
          "text": "TEMPO 2712/2721 0700 FG VV001",
          "offset_h": 13,
          "wdir": null,
          "wspd": null
        },
        {
          "text": "TEMPO 2721/2800 4000 BR FEW003 BKN008",
          "offset_h": 22,
          "wdir": null,
          "wspd": null
        },
        {
          "text": "TEMPO 2803/2806 FEW003 BKN008",
          "offset_h": 28,
          "wdir": null,
          "wspd": null
        }
      ],
      "metar_raw": "METAR RJCC 262330Z 19009KT 8000 FEW004 SCT005 BKN006 15/13 Q1013",
      "metar_wdir": 190,
      "metar_wspd": 9,
      "metar_oat": 15,
      "metar_qnh": 1013,
      "hourly_oat": [
        16,
        18,
        19,
        20,
        20,
        20,
        19,
        19,
        17,
        15,
        14,
        14,
        13,
        12,
        13,
        13,
        13,
        13,
        14,
        14,
        14,
        15,
        15,
        17,
        17
      ]
    },
    "HND": {
      "icao": "RJTT",
      "issued": "2026-05-26T23:05:00.000Z",
      "raw": "TAF RJTT 262305Z 2700/2806 04004KT 9999 FEW015 BKN030 BECMG 2703/2705 18008KT",
      "groups": [
        {
          "text": "TAF RJTT 262305Z 2700/2806 04004KT 9999 FEW015 BKN030",
          "offset_h": 1,
          "wdir": 40,
          "wspd": 4
        },
        {
          "text": "BECMG 2703/2705 18008KT",
          "offset_h": 4,
          "wdir": 180,
          "wspd": 8
        }
      ],
      "metar_raw": "METAR RJTT 262330Z 02008KT 9999 FEW010 SCT015 BKN/// 23/19 Q1012 NOSIG",
      "metar_wdir": 20,
      "metar_wspd": 8,
      "metar_oat": 23,
      "metar_qnh": 1012,
      "hourly_oat": [
        20,
        22,
        22,
        24,
        25,
        26,
        26,
        26,
        25,
        24,
        23,
        22,
        22,
        21,
        21,
        21,
        20,
        20,
        20,
        20,
        20,
        20,
        20,
        21,
        21
      ]
    },
    "NGO": {
      "icao": "RJGG",
      "issued": "2026-05-26T23:05:00.000Z",
      "raw": "TAF RJGG 262305Z 2700/2806 16010KT 9999 FEW020 BKN040 TEMPO 2706/2709 4000 -RA BR BECMG 2715/2718 10010KT BECMG 2721/2800 30008KT",
      "groups": [
        {
          "text": "TAF RJGG 262305Z 2700/2806 16010KT 9999 FEW020 BKN040",
          "offset_h": 1,
          "wdir": 160,
          "wspd": 10
        },
        {
          "text": "TEMPO 2706/2709 4000 -RA BR",
          "offset_h": 7,
          "wdir": null,
          "wspd": null
        },
        {
          "text": "BECMG 2715/2718 10010KT",
          "offset_h": 16,
          "wdir": 100,
          "wspd": 10
        },
        {
          "text": "BECMG 2721/2800 30008KT",
          "offset_h": 22,
          "wdir": 300,
          "wspd": 8
        }
      ],
      "metar_raw": "METAR RJGG 262330Z 13006KT 110V180 9999 FEW020 SCT050 BKN/// 24/17 Q1012 NOSIG",
      "metar_wdir": 130,
      "metar_wspd": 6,
      "metar_oat": 24,
      "metar_qnh": 1012,
      "hourly_oat": [
        21,
        22,
        22,
        22,
        22,
        22,
        21,
        21,
        21,
        21,
        21,
        21,
        21,
        21,
        21,
        21,
        21,
        21,
        21,
        21,
        21,
        21,
        21,
        22,
        22
      ]
    },
    "FUK": {
      "icao": "RJFF",
      "issued": "2026-05-26T23:05:00.000Z",
      "raw": "TAF RJFF 262305Z 2700/2806 10009KT 9999 FEW010 SCT025 BKN030 BECMG 2715/2718 29004KT TEMPO 2715/2800 BKN005 BKN015 TEMPO 2800/2803 4000 BR BKN005 BKN020 TEMPO 2803/2806 BKN005 BKN020",
      "groups": [
        {
          "text": "TAF RJFF 262305Z 2700/2806 10009KT 9999 FEW010 SCT025 BKN030",
          "offset_h": 1,
          "wdir": 100,
          "wspd": 9
        },
        {
          "text": "BECMG 2715/2718 29004KT",
          "offset_h": 16,
          "wdir": 290,
          "wspd": 4
        },
        {
          "text": "TEMPO 2715/2800 BKN005 BKN015",
          "offset_h": 16,
          "wdir": null,
          "wspd": null
        },
        {
          "text": "TEMPO 2800/2803 4000 BR BKN005 BKN020",
          "offset_h": 25,
          "wdir": null,
          "wspd": null
        },
        {
          "text": "TEMPO 2803/2806 BKN005 BKN020",
          "offset_h": 28,
          "wdir": null,
          "wspd": null
        }
      ],
      "metar_raw": "METAR RJFF 262330Z 17011KT 9999 -RA FEW002 SCT050 BKN060 22/21 Q1003 NOSIG",
      "metar_wdir": 170,
      "metar_wspd": 11,
      "metar_oat": 22,
      "metar_qnh": 1003,
      "hourly_oat": [
        22,
        22,
        23,
        23,
        24,
        25,
        25,
        25,
        25,
        24,
        24,
        23,
        23,
        23,
        22,
        22,
        22,
        22,
        22,
        21,
        21,
        21,
        21,
        21,
        21
      ]
    },
    "NRT": {
      "icao": "RJAA",
      "issued": "2026-05-26T23:05:00.000Z",
      "raw": "TAF RJAA 262305Z 2700/2806 03010KT 9999 FEW012 BKN020 BECMG 2704/2706 12006KT TEMPO 2710/2712 4000 BR TEMPO 2712/2715 2000 BR FEW003 BKN008 TEMPO 2715/2721 0900 FG FEW001 BKN005",
      "groups": [
        {
          "text": "TAF RJAA 262305Z 2700/2806 03010KT 9999 FEW012 BKN020",
          "offset_h": 1,
          "wdir": 30,
          "wspd": 10
        },
        {
          "text": "BECMG 2704/2706 12006KT",
          "offset_h": 5,
          "wdir": 120,
          "wspd": 6
        },
        {
          "text": "TEMPO 2710/2712 4000 BR",
          "offset_h": 11,
          "wdir": null,
          "wspd": null
        },
        {
          "text": "TEMPO 2712/2715 2000 BR FEW003 BKN008",
          "offset_h": 13,
          "wdir": null,
          "wspd": null
        },
        {
          "text": "TEMPO 2715/2721 0900 FG FEW001 BKN005",
          "offset_h": 16,
          "wdir": null,
          "wspd": null
        }
      ],
      "metar_raw": "METAR RJAA 262330Z 03006KT 9999 FEW003 SCT008 BKN010 22/19 Q1012 BECMG FEW008 BKN015",
      "metar_wdir": 30,
      "metar_wspd": 6,
      "metar_oat": 22,
      "metar_qnh": 1012,
      "hourly_oat": [
        20,
        22,
        24,
        24,
        25,
        25,
        25,
        25,
        24,
        24,
        23,
        22,
        21,
        21,
        21,
        20,
        20,
        20,
        20,
        20,
        20,
        20,
        20,
        21,
        23
      ]
    },
    "SIN": {
      "icao": "WSSS",
      "issued": "2026-05-26T23:00:00.000Z",
      "raw": "TAF WSSS 262300Z 2700/2806 21007KT 9999 FEW015 SCT020 TEMPO 2703/2706 3000 TSRA FEW012CB BKN015",
      "groups": [
        {
          "text": "TAF WSSS 262300Z 2700/2806 21007KT 9999 FEW015 SCT020",
          "offset_h": 1,
          "wdir": 210,
          "wspd": 7
        },
        {
          "text": "TEMPO 2703/2706 3000 TSRA FEW012CB BKN015",
          "offset_h": 4,
          "wdir": null,
          "wspd": null
        }
      ],
      "metar_raw": "METAR WSSS 262330Z 35003KT 4000 HZ FEW018 FEW020TCU SCT150 BKN300 26/25 Q1012 BECMG FM0000 TL0015 6000 NSW",
      "metar_wdir": 350,
      "metar_wspd": 3,
      "metar_oat": 26,
      "metar_qnh": 1012,
      "hourly_oat": [
        26,
        27,
        28,
        30,
        31,
        32,
        32,
        32,
        30,
        31,
        30,
        30,
        30,
        29,
        28,
        28,
        28,
        28,
        28,
        28,
        28,
        28,
        28,
        27,
        27
      ]
    },
    "HAN": {
      "icao": "VVNB",
      "issued": "2026-05-26T23:00:00.000Z",
      "raw": "TAF VVNB 262300Z 2700/2724 12008KT 9999 FEW035 TEMPO 2712/2718 24015G25KT 2500 +TSRA BKN010 FEW027CB TEMPO 2719/2722 3000 +TSRA BKN010 FEW027CB",
      "groups": [
        {
          "text": "TAF VVNB 262300Z 2700/2724 12008KT 9999 FEW035",
          "offset_h": 1,
          "wdir": 120,
          "wspd": 8
        },
        {
          "text": "TEMPO 2712/2718 24015G25KT 2500 +TSRA BKN010 FEW027CB",
          "offset_h": 13,
          "wdir": 240,
          "wspd": 15
        },
        {
          "text": "TEMPO 2719/2722 3000 +TSRA BKN010 FEW027CB",
          "offset_h": 20,
          "wdir": null,
          "wspd": null
        }
      ],
      "metar_raw": "METAR VVNB 262330Z 06006KT 010V080 CAVOK 30/28 Q1004 NOSIG",
      "metar_wdir": 60,
      "metar_wspd": 6,
      "metar_oat": 30,
      "metar_qnh": 1004,
      "hourly_oat": [
        29,
        31,
        32,
        34,
        36,
        36,
        36,
        37,
        37,
        37,
        36,
        35,
        34,
        32,
        31,
        30,
        30,
        30,
        29,
        29,
        28,
        28,
        28,
        28,
        28
      ]
    },
    "SGN": {
      "icao": "VVTS",
      "issued": "2026-05-26T23:00:00.000Z",
      "raw": "TAF VVTS 262300Z 2700/2806 24010KT 9999 SCT017 SCT040 TEMPO 2705/2707 5000 TSRA SCT015 FEW017CB BKN040 TEMPO 2707/2710 24018G28KT 2000 +TSRA SCT013 SCT015CB BKN040",
      "groups": [
        {
          "text": "TAF VVTS 262300Z 2700/2806 24010KT 9999 SCT017 SCT040",
          "offset_h": 1,
          "wdir": 240,
          "wspd": 10
        },
        {
          "text": "TEMPO 2705/2707 5000 TSRA SCT015 FEW017CB BKN040",
          "offset_h": 6,
          "wdir": null,
          "wspd": null
        },
        {
          "text": "TEMPO 2707/2710 24018G28KT 2000 +TSRA SCT013 SCT015CB BKN040",
          "offset_h": 8,
          "wdir": 240,
          "wspd": 18
        }
      ],
      "metar_raw": "METAR VVTS 262330Z 25006KT 210V270 CAVOK 29/27 Q1010 NOSIG",
      "metar_wdir": 250,
      "metar_wspd": 6,
      "metar_oat": 29,
      "metar_qnh": 1010,
      "hourly_oat": [
        27,
        29,
        30,
        32,
        33,
        30,
        32,
        31,
        28,
        28,
        28,
        28,
        28,
        28,
        28,
        27,
        27,
        27,
        27,
        27,
        27,
        27,
        26,
        26,
        25
      ]
    },
    "HKG": {
      "icao": "VHHH",
      "issued": "2026-05-26T23:00:00.000Z",
      "raw": "TAF VHHH 262300Z 2700/2806 22010KT 9999 FEW015 SCT030 TX33/2706Z TX34/2806Z TN29/2722Z",
      "groups": [
        {
          "text": "TAF VHHH 262300Z 2700/2806 22010KT 9999 FEW015 SCT030 TX33/2706Z TX34/2806Z TN29/2722Z",
          "offset_h": 1,
          "wdir": 220,
          "wspd": 10
        }
      ],
      "metar_raw": "METAR VHHH 262330Z 22008KT 9999 FEW010 SCT025 30/25 Q1009 NOSIG",
      "metar_wdir": 220,
      "metar_wspd": 8,
      "metar_oat": 30,
      "metar_qnh": 1009,
      "hourly_oat": [
        28,
        29,
        29,
        30,
        30,
        30,
        30,
        30,
        30,
        30,
        29,
        29,
        28,
        28,
        28,
        28,
        28,
        28,
        28,
        28,
        28,
        28,
        28,
        28,
        28
      ]
    },
    "TSA": {
      "icao": "RCSS",
      "issued": "2026-05-26T23:00:00.000Z",
      "raw": "TAF RCSS 262300Z 2700/2724 29010KT 9999 FEW015 TEMPO 2702/2708 26015KT TEMPO 2713/2719 VRB05KT FEW015 BKN032 BECMG 2719/2721 26005KT FEW015 BKN032",
      "groups": [
        {
          "text": "TAF RCSS 262300Z 2700/2724 29010KT 9999 FEW015",
          "offset_h": 1,
          "wdir": 290,
          "wspd": 10
        },
        {
          "text": "TEMPO 2702/2708 26015KT",
          "offset_h": 3,
          "wdir": 260,
          "wspd": 15
        },
        {
          "text": "TEMPO 2713/2719 VRB05KT FEW015 BKN032",
          "offset_h": 14,
          "wdir": "VRB",
          "wspd": 5
        },
        {
          "text": "BECMG 2719/2721 26005KT FEW015 BKN032",
          "offset_h": 20,
          "wdir": 260,
          "wspd": 5
        }
      ],
      "metar_raw": "METAR RCSS 262330Z 25011KT 9999 FEW025 SCT180 BKN250 31/24 Q1007 NOSIG RMK 26007KT/R10 A2974",
      "metar_wdir": 250,
      "metar_wspd": 11,
      "metar_oat": 31,
      "metar_qnh": 1007,
      "hourly_oat": [
        28,
        30,
        32,
        34,
        35,
        36,
        36,
        36,
        35,
        34,
        33,
        32,
        30,
        29,
        29,
        28,
        28,
        27,
        26,
        26,
        26,
        26,
        25,
        26,
        28
      ]
    },
    "CGK": {
      "icao": "WIII",
      "issued": "2026-05-26T23:00:00.000Z",
      "raw": "TAF WIII 262300Z 2700/2806 VRB02KT 3000 BR FEW020 BECMG 2701/2703 30012KT 9000 NSW BECMG 2712/2714 20005KT",
      "groups": [
        {
          "text": "TAF WIII 262300Z 2700/2806 VRB02KT 3000 BR FEW020",
          "offset_h": 1,
          "wdir": "VRB",
          "wspd": 2
        },
        {
          "text": "BECMG 2701/2703 30012KT 9000 NSW",
          "offset_h": 2,
          "wdir": 300,
          "wspd": 12
        },
        {
          "text": "BECMG 2712/2714 20005KT",
          "offset_h": 13,
          "wdir": 200,
          "wspd": 5
        }
      ],
      "metar_raw": "METAR WIII 262330Z 20002KT 5000 HZ FEW020 26/24 Q1012 NOSIG",
      "metar_wdir": 200,
      "metar_wspd": 2,
      "metar_oat": 26,
      "metar_qnh": 1012,
      "hourly_oat": [
        23,
        23,
        25,
        28,
        29,
        30,
        31,
        31,
        31,
        30,
        30,
        29,
        27,
        27,
        26,
        25,
        24,
        23,
        23,
        22,
        22,
        22,
        22,
        22,
        22
      ]
    },
    "GMP": {
      "icao": "RKSS",
      "issued": "2026-05-26T23:00:00.000Z",
      "raw": "TAF RKSS 262300Z 2700/2806 09005KT 9999 BKN045 BKN080 TX26/2705Z TN18/2720Z TX28/2805Z TEMPO 2700/2702 6000 -RA BECMG 2708/2710 28007KT TEMPO 2716/2720 18005KT 4000 -RA FEW010 BKN030 OVC070",
      "groups": [
        {
          "text": "TAF RKSS 262300Z 2700/2806 09005KT 9999 BKN045 BKN080 TX26/2705Z TN18/2720Z TX28/2805Z",
          "offset_h": 1,
          "wdir": 90,
          "wspd": 5
        },
        {
          "text": "TEMPO 2700/2702 6000 -RA",
          "offset_h": 1,
          "wdir": null,
          "wspd": null
        },
        {
          "text": "BECMG 2708/2710 28007KT",
          "offset_h": 9,
          "wdir": 280,
          "wspd": 7
        },
        {
          "text": "TEMPO 2716/2720 18005KT 4000 -RA FEW010 BKN030 OVC070",
          "offset_h": 17,
          "wdir": 180,
          "wspd": 5
        }
      ],
      "metar_raw": "METAR RKSS 262300Z 02005KT 9999 -RA FEW020 BKN040 OVC080 20/20 Q1006 NOSIG",
      "metar_wdir": 20,
      "metar_wspd": 5,
      "metar_oat": 20,
      "metar_qnh": 1006,
      "hourly_oat": [
        20,
        20,
        20,
        21,
        21,
        21,
        21,
        21,
        20,
        19,
        19,
        19,
        18,
        18,
        18,
        18,
        18,
        18,
        17,
        17,
        17,
        17,
        17,
        17,
        18
      ]
    },
    "KUL": {
      "icao": "WMKK",
      "issued": "2026-05-26T23:00:00.000Z",
      "raw": "TAF WMKK 262300Z 2700/2806 VRB03KT 9999 FEW018 PROB30 TEMPO 2705/2709 6000 -TSRA FEW017CB",
      "groups": [
        {
          "text": "TAF WMKK 262300Z 2700/2806 VRB03KT 9999 FEW018",
          "offset_h": 1,
          "wdir": "VRB",
          "wspd": 3
        },
        {
          "text": "PROB30",
          "offset_h": 0,
          "wdir": null,
          "wspd": null
        },
        {
          "text": "TEMPO 2705/2709 6000 -TSRA FEW017CB",
          "offset_h": 6,
          "wdir": null,
          "wspd": null
        }
      ],
      "metar_raw": "METAR WMKK 262330Z 00000KT 9999 FEW028 26/25 Q1010 NOSIG",
      "metar_wdir": 0,
      "metar_wspd": 0,
      "metar_oat": 26,
      "metar_qnh": 1010,
      "hourly_oat": [
        25,
        26,
        27,
        29,
        30,
        30,
        31,
        32,
        32,
        32,
        32,
        31,
        29,
        28,
        28,
        27,
        27,
        26,
        26,
        26,
        26,
        26,
        25,
        25,
        25
      ]
    },
    "BKK": {
      "icao": "VTBS",
      "issued": "2026-05-26T23:00:00.000Z",
      "raw": "TAF VTBS 262300Z 2700/2806 22008KT 9999 FEW020 TEMPO 2710/2714 VRB15KT 4000 TSRA FEW018CB SCT020 BKN080",
      "groups": [
        {
          "text": "TAF VTBS 262300Z 2700/2806 22008KT 9999 FEW020",
          "offset_h": 1,
          "wdir": 220,
          "wspd": 8
        },
        {
          "text": "TEMPO 2710/2714 VRB15KT 4000 TSRA FEW018CB SCT020 BKN080",
          "offset_h": 11,
          "wdir": "VRB",
          "wspd": 15
        }
      ],
      "metar_raw": "METAR VTBS 262330Z 00000KT 9999 FEW020 28/26 Q1009 NOSIG",
      "metar_wdir": 0,
      "metar_wspd": 0,
      "metar_oat": 28,
      "metar_qnh": 1009,
      "hourly_oat": [
        28,
        29,
        30,
        31,
        32,
        33,
        33,
        33,
        33,
        33,
        33,
        32,
        31,
        30,
        30,
        30,
        29,
        29,
        29,
        28,
        28,
        28,
        28,
        28,
        28
      ]
    },
    "DLC": {
      "icao": "ZYTL",
      "issued": "2026-05-26T21:08:00.000Z",
      "raw": "TAF ZYTL 262108Z 2700/2724 36004MPS 5000 BR SCT005 OVC026 TX23/2706Z TN17/2721Z TEMPO 2700/2703 2800 FEW004 BKN006 BKN033",
      "groups": [
        {
          "text": "TAF ZYTL 262108Z 2700/2724 36004MPS 5000 BR SCT005 OVC026 TX23/2706Z TN17/2721Z",
          "offset_h": 1,
          "wdir": null,
          "wspd": null
        },
        {
          "text": "TEMPO 2700/2703 2800 FEW004 BKN006 BKN033",
          "offset_h": 1,
          "wdir": null,
          "wspd": null
        }
      ],
      "metar_raw": "METAR ZYTL 262330Z VRB01MPS 3000 -RA BR SCT004 SCT006 OVC023 19/19 Q1006 NOSIG",
      "metar_wdir": null,
      "metar_wspd": null,
      "metar_oat": 19,
      "metar_qnh": 1006,
      "hourly_oat": [
        19,
        19,
        19,
        19,
        21,
        22,
        22,
        22,
        22,
        22,
        22,
        20,
        18,
        17,
        17,
        17,
        17,
        17,
        17,
        18,
        18,
        18,
        18,
        18,
        19
      ]
    },
    "PEK": {
      "icao": "ZBAA",
      "issued": "2026-05-26T21:03:00.000Z",
      "raw": "TAF ZBAA 262103Z 2700/2806 19004MPS CAVOK TX27/2706Z TX28/2806Z TN17/2721Z TEMPO 2709/2713 FEW040CB",
      "groups": [
        {
          "text": "TAF ZBAA 262103Z 2700/2806 19004MPS CAVOK TX27/2706Z TX28/2806Z TN17/2721Z",
          "offset_h": 1,
          "wdir": null,
          "wspd": null
        },
        {
          "text": "TEMPO 2709/2713 FEW040CB",
          "offset_h": 10,
          "wdir": null,
          "wspd": null
        }
      ],
      "metar_raw": "METAR ZBAA 262330Z 02002MPS 330V060 CAVOK 22/18 Q1008 NOSIG",
      "metar_wdir": null,
      "metar_wspd": null,
      "metar_oat": 22,
      "metar_qnh": 1008,
      "hourly_oat": [
        20,
        22,
        23,
        24,
        26,
        26,
        27,
        27,
        27,
        27,
        26,
        25,
        24,
        22,
        22,
        21,
        20,
        20,
        20,
        20,
        19,
        18,
        18,
        19,
        20
      ]
    },
    "PVG": {
      "icao": "ZSPD",
      "issued": "2026-05-26T21:02:00.000Z",
      "raw": "TAF ZSPD 262102Z 2700/2806 31004MPS 6000 BKN015 TX26/2706Z TX28/2806Z TN22/2721Z",
      "groups": [
        {
          "text": "TAF ZSPD 262102Z 2700/2806 31004MPS 6000 BKN015 TX26/2706Z TX28/2806Z TN22/2721Z",
          "offset_h": 1,
          "wdir": null,
          "wspd": null
        }
      ],
      "metar_raw": "METAR ZSPD 262330Z 27004MPS 9999 BKN016 25/22 Q1005 NOSIG",
      "metar_wdir": null,
      "metar_wspd": null,
      "metar_oat": 25,
      "metar_qnh": 1005,
      "hourly_oat": [
        24,
        25,
        26,
        27,
        28,
        28,
        28,
        28,
        28,
        28,
        28,
        26,
        24,
        23,
        23,
        23,
        22,
        22,
        22,
        22,
        22,
        22,
        22,
        23,
        24
      ]
    },
    "SHA": {
      "icao": "ZSSS",
      "issued": "2026-05-26T21:02:00.000Z",
      "raw": "TAF ZSSS 262102Z 2700/2806 32004MPS 6000 BKN020 TX28/2706Z TX30/2806Z TN23/2721Z",
      "groups": [
        {
          "text": "TAF ZSSS 262102Z 2700/2806 32004MPS 6000 BKN020 TX28/2706Z TX30/2806Z TN23/2721Z",
          "offset_h": 1,
          "wdir": null,
          "wspd": null
        }
      ],
      "metar_raw": "METAR ZSSS 262330Z 32004MPS 290V350 9999 BKN015 OVC033 25/21 Q1005 NOSIG",
      "metar_wdir": null,
      "metar_wspd": null,
      "metar_oat": 25,
      "metar_qnh": 1005,
      "hourly_oat": [
        24,
        24,
        25,
        26,
        27,
        28,
        28,
        28,
        28,
        28,
        28,
        27,
        26,
        26,
        25,
        24,
        24,
        23,
        23,
        23,
        23,
        23,
        22,
        23,
        24
      ]
    },
    "CAN": {
      "icao": "ZGGG",
      "issued": "2026-05-26T21:01:00.000Z",
      "raw": "TAF ZGGG 262101Z 2700/2806 18004MPS 8000 SCT040 TX37/2707Z TX37/2806Z TN27/2722Z",
      "groups": [
        {
          "text": "TAF ZGGG 262101Z 2700/2806 18004MPS 8000 SCT040 TX37/2707Z TX37/2806Z TN27/2722Z",
          "offset_h": 1,
          "wdir": null,
          "wspd": null
        }
      ],
      "metar_raw": "METAR ZGGG 262330Z 12002MPS 9999 SCT023 31/26 Q1008 NOSIG",
      "metar_wdir": null,
      "metar_wspd": null,
      "metar_oat": 31,
      "metar_qnh": 1008,
      "hourly_oat": [
        28,
        29,
        30,
        32,
        32,
        34,
        34,
        34,
        35,
        35,
        34,
        33,
        31,
        30,
        30,
        29,
        29,
        28,
        28,
        27,
        27,
        27,
        27,
        27,
        28
      ]
    }
  }
}