{
  "updated": "2026-06-27T11:19:20Z",
  "tafs": {
    "CGK": {
      "icao": "WIII",
      "issued": "2026-06-27T11:00:00.000Z",
      "raw": "TAF WIII 271100Z 2712/2818 08010KT 7000 SCT020 BECMG 2712/2714 17005KT 5000 HZ BECMG 2802/2804 06011KT",
      "groups": [
        {
          "text": "TAF WIII 271100Z 2712/2818 08010KT 7000 SCT020",
          "offset_h": 1,
          "wdir": 80,
          "wspd": 10
        },
        {
          "text": "BECMG 2712/2714 17005KT 5000 HZ",
          "offset_h": 1,
          "wdir": 170,
          "wspd": 5
        },
        {
          "text": "BECMG 2802/2804 06011KT",
          "offset_h": 15,
          "wdir": 60,
          "wspd": 11
        }
      ],
      "metar_raw": "METAR WIII 271100Z 04009KT 6000 FEW020 29/26 Q1008 NOSIG",
      "metar_wdir": 40,
      "metar_wspd": 9,
      "metar_oat": 29,
      "metar_qnh": 1008,
      "hourly_oat": [
        28,
        27,
        26,
        26,
        26,
        25,
        25,
        25,
        25,
        24,
        24,
        24,
        24,
        25,
        27,
        29,
        30,
        32,
        33,
        33,
        33,
        32,
        30,
        29,
        28
      ]
    },
    "TPE": {
      "icao": "RCTP",
      "issued": "2026-06-27T11:00:00.000Z",
      "raw": "TAF RCTP 271100Z 2712/2818 07005KT 7000 FEW015 BKN032 TEMPO 2712/2716 5000 -RA BR SCT008 BKN014 TEMPO 2716/2722 14005KT BECMG 2722/2724 22005KT 9999 TEMPO 2803/2809 29008KT 6000 -SHRA FEW010 BKN017 BECMG 2810/2812 09005KT",
      "groups": [
        {
          "text": "TAF RCTP 271100Z 2712/2818 07005KT 7000 FEW015 BKN032",
          "offset_h": 1,
          "wdir": 70,
          "wspd": 5
        },
        {
          "text": "TEMPO 2712/2716 5000 -RA BR SCT008 BKN014",
          "offset_h": 1,
          "wdir": null,
          "wspd": null
        },
        {
          "text": "TEMPO 2716/2722 14005KT",
          "offset_h": 5,
          "wdir": 140,
          "wspd": 5
        },
        {
          "text": "BECMG 2722/2724 22005KT 9999",
          "offset_h": 11,
          "wdir": 220,
          "wspd": 5
        },
        {
          "text": "TEMPO 2803/2809 29008KT 6000 -SHRA FEW010 BKN017",
          "offset_h": 16,
          "wdir": 290,
          "wspd": 8
        },
        {
          "text": "BECMG 2810/2812 09005KT",
          "offset_h": 23,
          "wdir": 90,
          "wspd": 5
        }
      ],
      "metar_raw": "METAR RCTP 271100Z 02003KT 330V050 9999 FEW010 BKN035 BKN120 27/25 Q1006 NOSIG RMK A2971",
      "metar_wdir": 20,
      "metar_wspd": 3,
      "metar_oat": 27,
      "metar_qnh": 1006,
      "hourly_oat": [
        26,
        26,
        25,
        24,
        24,
        24,
        24,
        24,
        24,
        24,
        24,
        24,
        26,
        27,
        28,
        28,
        27,
        27,
        27,
        28,
        28,
        28,
        28,
        27,
        26
      ]
    },
    "TSA": {
      "icao": "RCSS",
      "issued": "2026-06-27T11:00:00.000Z",
      "raw": "TAF RCSS 271100Z 2712/2812 09005KT 7000 FEW015 BKN032 TEMPO 2712/2716 5000 -RA BR FEW010 BKN020 BKN040 BECMG 2800/2802 29005KT TEMPO 2804/2810 10008KT 3200 SHRA FEW008 FEW012CB BKN014",
      "groups": [
        {
          "text": "TAF RCSS 271100Z 2712/2812 09005KT 7000 FEW015 BKN032",
          "offset_h": 1,
          "wdir": 90,
          "wspd": 5
        },
        {
          "text": "TEMPO 2712/2716 5000 -RA BR FEW010 BKN020 BKN040",
          "offset_h": 1,
          "wdir": null,
          "wspd": null
        },
        {
          "text": "BECMG 2800/2802 29005KT",
          "offset_h": 13,
          "wdir": 290,
          "wspd": 5
        },
        {
          "text": "TEMPO 2804/2810 10008KT 3200 SHRA FEW008 FEW012CB BKN014",
          "offset_h": 17,
          "wdir": 100,
          "wspd": 8
        }
      ],
      "metar_raw": "METAR RCSS 271100Z 11009KT 9999 FEW006 BKN035 BKN050 25/25 Q1006 NOSIG RMK A2971 RA AMT 0.2MM",
      "metar_wdir": 110,
      "metar_wspd": 9,
      "metar_oat": 25,
      "metar_qnh": 1006,
      "hourly_oat": [
        26,
        26,
        26,
        26,
        25,
        25,
        25,
        25,
        25,
        25,
        25,
        25,
        26,
        28,
        29,
        29,
        29,
        28,
        29,
        30,
        30,
        30,
        29,
        28,
        27
      ]
    },
    "HKG": {
      "icao": "VHHH",
      "issued": "2026-06-27T11:00:00.000Z",
      "raw": "TAF VHHH 271100Z 2712/2818 12010KT 9999 FEW010 SCT025 TX32/2806Z TN27/2722Z TEMPO 2712/2715 24015G25KT 3000 TSRA SHRA FEW008CB SCT020 TEMPO 2718/2722 22010KT 4000 SHRA FEW010CB SCT020 TEMPO 2722/2804 22015G25KT 2500 TSRA SHRA FEW008CB SCT015 TEMPO 2804/2810 22010KT PROB30 TEMPO 2816/2818 VRB15G25KT 2500 TSRA SHRA FEW008CB SCT015",
      "groups": [
        {
          "text": "TAF VHHH 271100Z 2712/2818 12010KT 9999 FEW010 SCT025 TX32/2806Z TN27/2722Z",
          "offset_h": 1,
          "wdir": 120,
          "wspd": 10
        },
        {
          "text": "TEMPO 2712/2715 24015G25KT 3000 TSRA SHRA FEW008CB SCT020",
          "offset_h": 1,
          "wdir": 240,
          "wspd": 15
        },
        {
          "text": "TEMPO 2718/2722 22010KT 4000 SHRA FEW010CB SCT020",
          "offset_h": 7,
          "wdir": 220,
          "wspd": 10
        },
        {
          "text": "TEMPO 2722/2804 22015G25KT 2500 TSRA SHRA FEW008CB SCT015",
          "offset_h": 11,
          "wdir": 220,
          "wspd": 15
        },
        {
          "text": "TEMPO 2804/2810 22010KT",
          "offset_h": 17,
          "wdir": 220,
          "wspd": 10
        },
        {
          "text": "PROB30",
          "offset_h": 0,
          "wdir": null,
          "wspd": null
        },
        {
          "text": "TEMPO 2816/2818 VRB15G25KT 2500 TSRA SHRA FEW008CB SCT015",
          "offset_h": 29,
          "wdir": "VRB",
          "wspd": 15
        }
      ],
      "metar_raw": "METAR VHHH 271100Z VRB02KT 9999 FEW010 30/26 Q1003 TEMPO FM1130 24015G25KT 3000 TSRA SHRA FEW008CB SCT020",
      "metar_wdir": "VRB",
      "metar_wspd": 2,
      "metar_oat": 30,
      "metar_qnh": 1003,
      "hourly_oat": [
        28,
        28,
        29,
        29,
        29,
        29,
        28,
        28,
        28,
        27,
        27,
        27,
        28,
        28,
        28,
        29,
        29,
        29,
        28,
        29,
        29,
        29,
        29,
        29,
        28
      ]
    },
    "GMP": {
      "icao": "RKSS",
      "issued": "2026-06-27T11:00:00.000Z",
      "raw": "TAF RKSS 271100Z 2712/2818 19005KT CAVOK TN21/2720Z TX32/2805Z BECMG 2800/2802 27006KT 9999 SCT040 BECMG 2811/2813 19005KT",
      "groups": [
        {
          "text": "TAF RKSS 271100Z 2712/2818 19005KT CAVOK TN21/2720Z TX32/2805Z",
          "offset_h": 1,
          "wdir": 190,
          "wspd": 5
        },
        {
          "text": "BECMG 2800/2802 27006KT 9999 SCT040",
          "offset_h": 13,
          "wdir": 270,
          "wspd": 6
        },
        {
          "text": "BECMG 2811/2813 19005KT",
          "offset_h": 24,
          "wdir": 190,
          "wspd": 5
        }
      ],
      "metar_raw": "METAR RKSS 271100Z 28005KT 250V310 CAVOK 26/20 Q1005 NOSIG",
      "metar_wdir": 280,
      "metar_wspd": 5,
      "metar_oat": 26,
      "metar_qnh": 1005,
      "hourly_oat": [
        23,
        22,
        22,
        22,
        21,
        21,
        20,
        20,
        20,
        19,
        20,
        20,
        22,
        24,
        26,
        28,
        29,
        30,
        30,
        29,
        28,
        27,
        26,
        24,
        23
      ]
    },
    "NGO": {
      "icao": "RJGG",
      "issued": "2026-06-27T09:49:00.000Z",
      "raw": "TAF AMD RJGG 270949Z 2709/2812 23004KT 9999 FEW030 BECMG 2710/2712 32006KT BECMG 2800/2803 14006KT",
      "groups": [
        {
          "text": "TAF AMD RJGG 270949Z 2709/2812 23004KT 9999 FEW030",
          "offset_h": -2,
          "wdir": 230,
          "wspd": 4
        },
        {
          "text": "BECMG 2710/2712 32006KT",
          "offset_h": -1,
          "wdir": 320,
          "wspd": 6
        },
        {
          "text": "BECMG 2800/2803 14006KT",
          "offset_h": 13,
          "wdir": 140,
          "wspd": 6
        }
      ],
      "metar_raw": "METAR RJGG 271100Z 30004KT 9999 FEW020 SCT130 22/21 Q1002 NOSIG",
      "metar_wdir": 300,
      "metar_wspd": 4,
      "metar_oat": 22,
      "metar_qnh": 1002,
      "hourly_oat": [
        25,
        24,
        24,
        24,
        24,
        24,
        24,
        24,
        24,
        23,
        23,
        23,
        23,
        23,
        23,
        24,
        24,
        24,
        24,
        24,
        24,
        24,
        24,
        24,
        24
      ]
    },
    "LAX": {
      "icao": "KLAX",
      "issued": "2026-06-27T09:19:00.000Z",
      "raw": "TAF KLAX 270919Z 2709/2812 VRB03KT P6SM OVC025 FM271800 26010KT P6SM SCT025 FM272100 26015KT P6SM SKC FM280300 25008KT P6SM BKN025 FM280900 VRB03KT P6SM OVC015",
      "groups": [
        {
          "text": "TAF KLAX 270919Z 2709/2812 VRB03KT P6SM OVC025",
          "offset_h": -2,
          "wdir": "VRB",
          "wspd": 3
        },
        {
          "text": "FM271800 26010KT P6SM SCT025",
          "offset_h": 7,
          "wdir": 260,
          "wspd": 10
        },
        {
          "text": "FM272100 26015KT P6SM SKC",
          "offset_h": 10,
          "wdir": 260,
          "wspd": 15
        },
        {
          "text": "FM280300 25008KT P6SM BKN025",
          "offset_h": 16,
          "wdir": 250,
          "wspd": 8
        },
        {
          "text": "FM280900 VRB03KT P6SM OVC015",
          "offset_h": 22,
          "wdir": "VRB",
          "wspd": 3
        }
      ],
      "metar_raw": "METAR KLAX 271053Z 00000KT 10SM BKN024 18/14 A2993 RMK AO2 SLP133 T01780139",
      "metar_wdir": 0,
      "metar_wspd": 0,
      "metar_oat": 18,
      "metar_qnh": 1014,
      "hourly_oat": [
        17,
        17,
        17,
        17,
        18,
        19,
        21,
        21,
        22,
        22,
        21,
        21,
        20,
        19,
        19,
        18,
        17,
        16,
        15,
        15,
        15,
        14,
        13,
        14,
        15
      ]
    },
    "CAN": {
      "icao": "ZGGG",
      "issued": "2026-06-27T09:08:00.000Z",
      "raw": "TAF ZGGG 270908Z 2712/2818 14003MPS 8000 BKN033 TX28/2712Z TX33/2807Z TN25/2722Z TEMPO 2720/2724 SHRA FEW026CB BKN033 TEMPO 2806/2810 2500 +TSRA SCT010 SCT026CB BKN033",
      "groups": [
        {
          "text": "TAF ZGGG 270908Z 2712/2818 14003MPS 8000 BKN033 TX28/2712Z TX33/2807Z TN25/2722Z",
          "offset_h": 1,
          "wdir": null,
          "wspd": null
        },
        {
          "text": "TEMPO 2720/2724 SHRA FEW026CB BKN033",
          "offset_h": 9,
          "wdir": null,
          "wspd": null
        },
        {
          "text": "TEMPO 2806/2810 2500 +TSRA SCT010 SCT026CB BKN033",
          "offset_h": 19,
          "wdir": null,
          "wspd": null
        }
      ],
      "metar_raw": "METAR ZGGG 271100Z 23002MPS 200V260 9999 FEW033 32/25 Q1002 NOSIG",
      "metar_wdir": null,
      "metar_wspd": null,
      "metar_oat": 32,
      "metar_qnh": 1002,
      "hourly_oat": [
        27,
        27,
        26,
        26,
        26,
        26,
        25,
        25,
        25,
        25,
        25,
        25,
        26,
        26,
        27,
        28,
        29,
        31,
        28,
        28,
        29,
        30,
        30,
        29,
        28
      ]
    },
    "DLC": {
      "icao": "ZYTL",
      "issued": "2026-06-27T09:06:00.000Z",
      "raw": "TAF ZYTL 270906Z 2712/2812 16004MPS 6000 FEW030 TX29/2806Z TN20/2721Z",
      "groups": [
        {
          "text": "TAF ZYTL 270906Z 2712/2812 16004MPS 6000 FEW030 TX29/2806Z TN20/2721Z",
          "offset_h": 1,
          "wdir": null,
          "wspd": null
        }
      ],
      "metar_raw": "METAR ZYTL 271100Z 18003MPS 130V200 CAVOK 25/16 Q1004 NOSIG",
      "metar_wdir": null,
      "metar_wspd": null,
      "metar_oat": 25,
      "metar_qnh": 1004,
      "hourly_oat": [
        26,
        24,
        23,
        23,
        23,
        22,
        22,
        22,
        22,
        21,
        21,
        22,
        24,
        25,
        27,
        27,
        28,
        29,
        29,
        29,
        29,
        28,
        27,
        26,
        25
      ]
    },
    "SHA": {
      "icao": "ZSSS",
      "issued": "2026-06-27T09:01:00.000Z",
      "raw": "TAF ZSSS 270901Z 2712/2818 13004MPS 8000 BKN020 TX24/2712Z TX31/2806Z TN22/2721Z",
      "groups": [
        {
          "text": "TAF ZSSS 270901Z 2712/2818 13004MPS 8000 BKN020 TX24/2712Z TX31/2806Z TN22/2721Z",
          "offset_h": 1,
          "wdir": null,
          "wspd": null
        }
      ],
      "metar_raw": "METAR ZSSS 271100Z 15004MPS 9999 SCT030 26/20 Q1006 NOSIG",
      "metar_wdir": null,
      "metar_wspd": null,
      "metar_oat": 26,
      "metar_qnh": 1006,
      "hourly_oat": [
        24,
        24,
        23,
        23,
        23,
        22,
        22,
        22,
        23,
        23,
        23,
        23,
        25,
        26,
        27,
        28,
        29,
        29,
        29,
        29,
        29,
        28,
        27,
        26,
        25
      ]
    },
    "PVG": {
      "icao": "ZSPD",
      "issued": "2026-06-27T09:01:00.000Z",
      "raw": "TAF ZSPD 270901Z 2712/2818 13004MPS 8000 BKN020 TX23/2712Z TX28/2806Z TN21/2721Z",
      "groups": [
        {
          "text": "TAF ZSPD 270901Z 2712/2818 13004MPS 8000 BKN020 TX23/2712Z TX28/2806Z TN21/2721Z",
          "offset_h": 1,
          "wdir": null,
          "wspd": null
        }
      ],
      "metar_raw": "METAR ZSPD 271100Z 14005MPS CAVOK 24/20 Q1007 NOSIG",
      "metar_wdir": null,
      "metar_wspd": null,
      "metar_oat": 24,
      "metar_qnh": 1007,
      "hourly_oat": [
        23,
        23,
        23,
        22,
        22,
        22,
        22,
        22,
        22,
        22,
        23,
        24,
        25,
        26,
        27,
        28,
        28,
        28,
        28,
        28,
        27,
        27,
        26,
        25,
        24
      ]
    },
    "PEK": {
      "icao": "ZBAA",
      "issued": "2026-06-27T09:00:00.000Z",
      "raw": "TAF ZBAA 270900Z 2712/2818 18003MPS CAVOK TX31/2806Z TN20/2721Z TN20/2818Z TEMPO 2712/2714 -TSRA FEW030CB BKN040 TEMPO 2811/2813 -TSRA FEW030CB BKN040",
      "groups": [
        {
          "text": "TAF ZBAA 270900Z 2712/2818 18003MPS CAVOK TX31/2806Z TN20/2721Z TN20/2818Z",
          "offset_h": 1,
          "wdir": null,
          "wspd": null
        },
        {
          "text": "TEMPO 2712/2714 -TSRA FEW030CB BKN040",
          "offset_h": 1,
          "wdir": null,
          "wspd": null
        },
        {
          "text": "TEMPO 2811/2813 -TSRA FEW030CB BKN040",
          "offset_h": 24,
          "wdir": null,
          "wspd": null
        }
      ],
      "metar_raw": "METAR ZBAA 271100Z 16003MPS CAVOK 30/14 Q1001 NOSIG",
      "metar_wdir": null,
      "metar_wspd": null,
      "metar_oat": 30,
      "metar_qnh": 1001,
      "hourly_oat": [
        30,
        28,
        26,
        25,
        25,
        24,
        23,
        22,
        22,
        22,
        22,
        22,
        24,
        25,
        27,
        29,
        30,
        31,
        32,
        31,
        30,
        23,
        23,
        23,
        23
      ]
    },
    "HNL": {
      "icao": "PHNL",
      "issued": "2026-06-27T08:59:00.000Z",
      "raw": "TAF PHNL 270859Z 2709/2812 06012KT P6SM FEW025 BKN040 FM272000 06015G25KT P6SM FEW025 SCT040 FM280800 05010KT P6SM FEW025 SCT040",
      "groups": [
        {
          "text": "TAF PHNL 270859Z 2709/2812 06012KT P6SM FEW025 BKN040",
          "offset_h": -2,
          "wdir": 60,
          "wspd": 12
        },
        {
          "text": "FM272000 06015G25KT P6SM FEW025 SCT040",
          "offset_h": 9,
          "wdir": 60,
          "wspd": 15
        },
        {
          "text": "FM280800 05010KT P6SM FEW025 SCT040",
          "offset_h": 21,
          "wdir": 50,
          "wspd": 10
        }
      ],
      "metar_raw": "METAR PHNL 271053Z 06008KT 10SM -RA FEW025 SCT040 OVC050 24/21 A2999 RMK AO2 RAB48 SLP155 P0000 T02440206 $",
      "metar_wdir": 60,
      "metar_wspd": 8,
      "metar_oat": 24,
      "metar_qnh": 1016,
      "hourly_oat": [
        23,
        23,
        23,
        23,
        23,
        23,
        24,
        25,
        26,
        27,
        28,
        29,
        29,
        30,
        29,
        28,
        27,
        26,
        25,
        24,
        24,
        24,
        24,
        23,
        23
      ]
    },
    "SAN": {
      "icao": "KSAN",
      "issued": "2026-06-27T08:41:00.000Z",
      "raw": "TAF KSAN 270841Z 2709/2812 VRB04KT P6SM BKN025 TEMPO 2713/2716 SCT030 FM271600 20006KT P6SM FEW030 FM271900 25010G18KT P6SM FEW030 FM280000 28008KT P6SM BKN028 FM280800 VRB05KT P6SM BKN030",
      "groups": [
        {
          "text": "TAF KSAN 270841Z 2709/2812 VRB04KT P6SM BKN025",
          "offset_h": -2,
          "wdir": "VRB",
          "wspd": 4
        },
        {
          "text": "TEMPO 2713/2716 SCT030",
          "offset_h": 2,
          "wdir": null,
          "wspd": null
        },
        {
          "text": "FM271600 20006KT P6SM FEW030",
          "offset_h": 5,
          "wdir": 200,
          "wspd": 6
        },
        {
          "text": "FM271900 25010G18KT P6SM FEW030",
          "offset_h": 8,
          "wdir": 250,
          "wspd": 10
        },
        {
          "text": "FM280000 28008KT P6SM BKN028",
          "offset_h": 13,
          "wdir": 280,
          "wspd": 8
        },
        {
          "text": "FM280800 VRB05KT P6SM BKN030",
          "offset_h": 21,
          "wdir": "VRB",
          "wspd": 5
        }
      ],
      "metar_raw": "METAR KSAN 271051Z 28005KT 10SM OVC025 18/12 A2996 RMK AO2 SLP144 T01830122 $",
      "metar_wdir": 280,
      "metar_wspd": 5,
      "metar_oat": 18,
      "metar_qnh": 1015,
      "hourly_oat": [
        17,
        16,
        16,
        18,
        18,
        19,
        19,
        21,
        22,
        23,
        23,
        22,
        22,
        20,
        19,
        18,
        18,
        18,
        18,
        18,
        18,
        17,
        17,
        17,
        16
      ]
    },
    "KUL": {
      "icao": "WMKK",
      "issued": "2026-06-27T07:58:00.000Z",
      "raw": "TAF AMD WMKK 270758Z 2707/2812 VRB03KT 9999 FEW018",
      "groups": [
        {
          "text": "TAF AMD WMKK 270758Z 2707/2812 VRB03KT 9999 FEW018",
          "offset_h": -4,
          "wdir": "VRB",
          "wspd": 3
        }
      ],
      "metar_raw": "METAR WMKK 271100Z 00000KT 9999 FEW020 31/24 Q1006 NOSIG",
      "metar_wdir": 0,
      "metar_wspd": 0,
      "metar_oat": 31,
      "metar_qnh": 1006,
      "hourly_oat": [
        29,
        27,
        27,
        26,
        26,
        25,
        25,
        25,
        25,
        24,
        23,
        24,
        24,
        24,
        25,
        26,
        28,
        30,
        30,
        31,
        31,
        30,
        30,
        29,
        28
      ]
    },
    "KIX": {
      "icao": "RJBB",
      "issued": "2026-06-27T07:41:00.000Z",
      "raw": "TAF AMD RJBB 270741Z 2707/2812 30006KT 9999 FEW030 SCT040 BECMG 2708/2710 03008KT BECMG 2809/2812 23004KT",
      "groups": [
        {
          "text": "TAF AMD RJBB 270741Z 2707/2812 30006KT 9999 FEW030 SCT040",
          "offset_h": -4,
          "wdir": 300,
          "wspd": 6
        },
        {
          "text": "BECMG 2708/2710 03008KT",
          "offset_h": -3,
          "wdir": 30,
          "wspd": 8
        },
        {
          "text": "BECMG 2809/2812 23004KT",
          "offset_h": 22,
          "wdir": 230,
          "wspd": 4
        }
      ],
      "metar_raw": "METAR RJBB 271100Z 02008KT 9999 FEW008 SCT015 BKN025 23/20 Q1004 NOSIG",
      "metar_wdir": 20,
      "metar_wspd": 8,
      "metar_oat": 23,
      "metar_qnh": 1004,
      "hourly_oat": [
        24,
        24,
        23,
        23,
        23,
        23,
        22,
        22,
        22,
        22,
        22,
        22,
        22,
        22,
        22,
        22,
        22,
        23,
        23,
        23,
        23,
        23,
        23,
        23,
        23
      ]
    },
    "OKA": {
      "icao": "ROAH",
      "issued": "2026-06-27T06:41:00.000Z",
      "raw": "TAF AMD ROAH 270641Z 2706/2812 03008KT 9999 FEW008 BKN012 TEMPO 2706/2708 4000 SHRA BR FEW005 BKN008 FEW020CB BECMG 2710/2712 10010KT TEMPO 2712/2718 FEW005 BKN008 BECMG 2713/2715 19010KT TEMPO 2718/2803 4000 SHRA BR FEW005 BKN008 FEW020CB TEMPO 2803/2806 4000 TSRA BR FEW005 BKN008 FEW020CB",
      "groups": [
        {
          "text": "TAF AMD ROAH 270641Z 2706/2812 03008KT 9999 FEW008 BKN012",
          "offset_h": -5,
          "wdir": 30,
          "wspd": 8
        },
        {
          "text": "TEMPO 2706/2708 4000 SHRA BR FEW005 BKN008 FEW020CB",
          "offset_h": -5,
          "wdir": null,
          "wspd": null
        },
        {
          "text": "BECMG 2710/2712 10010KT",
          "offset_h": -1,
          "wdir": 100,
          "wspd": 10
        },
        {
          "text": "TEMPO 2712/2718 FEW005 BKN008",
          "offset_h": 1,
          "wdir": null,
          "wspd": null
        },
        {
          "text": "BECMG 2713/2715 19010KT",
          "offset_h": 2,
          "wdir": 190,
          "wspd": 10
        },
        {
          "text": "TEMPO 2718/2803 4000 SHRA BR FEW005 BKN008 FEW020CB",
          "offset_h": 7,
          "wdir": null,
          "wspd": null
        },
        {
          "text": "TEMPO 2803/2806 4000 TSRA BR FEW005 BKN008 FEW020CB",
          "offset_h": 16,
          "wdir": null,
          "wspd": null
        }
      ],
      "metar_raw": "METAR ROAH 271100Z 07003KT 050V110 9999 -SHRA FEW005 SCT010 BKN025 26/25 Q1006",
      "metar_wdir": 70,
      "metar_wspd": 3,
      "metar_oat": 26,
      "metar_qnh": 1006,
      "hourly_oat": [
        25,
        25,
        25,
        26,
        26,
        26,
        26,
        26,
        26,
        26,
        26,
        27,
        28,
        28,
        28,
        28,
        29,
        28,
        26,
        26,
        26,
        27,
        27,
        27,
        27
      ]
    },
    "FUK": {
      "icao": "RJFF",
      "issued": "2026-06-27T05:05:00.000Z",
      "raw": "TAF RJFF 270505Z 2706/2812 34011KT 9999 FEW015 BKN025",
      "groups": [
        {
          "text": "TAF RJFF 270505Z 2706/2812 34011KT 9999 FEW015 BKN025",
          "offset_h": -5,
          "wdir": 340,
          "wspd": 11
        }
      ],
      "metar_raw": "METAR RJFF 271100Z 36007KT 330V040 9999 VCSH FEW010 SCT015 BKN035 22/19 Q1005 NOSIG",
      "metar_wdir": 360,
      "metar_wspd": 7,
      "metar_oat": 22,
      "metar_qnh": 1005,
      "hourly_oat": [
        22,
        22,
        22,
        22,
        22,
        22,
        21,
        21,
        21,
        21,
        21,
        22,
        22,
        23,
        23,
        23,
        24,
        24,
        24,
        24,
        24,
        23,
        23,
        22,
        22
      ]
    },
    "ITM": {
      "icao": "RJOO",
      "issued": "2026-06-27T05:05:00.000Z",
      "raw": "TAF RJOO 270505Z 2706/2812 34012KT 9999 FEW020 SCT030 BECMG 2800/2803 08006KT BECMG 2806/2809 31006KT",
      "groups": [
        {
          "text": "TAF RJOO 270505Z 2706/2812 34012KT 9999 FEW020 SCT030",
          "offset_h": -5,
          "wdir": 340,
          "wspd": 12
        },
        {
          "text": "BECMG 2800/2803 08006KT",
          "offset_h": 13,
          "wdir": 80,
          "wspd": 6
        },
        {
          "text": "BECMG 2806/2809 31006KT",
          "offset_h": 19,
          "wdir": 310,
          "wspd": 6
        }
      ],
      "metar_raw": "METAR RJOO 271100Z 34009KT 9999 FEW020 BKN040 23/19 Q1004",
      "metar_wdir": 340,
      "metar_wspd": 9,
      "metar_oat": 23,
      "metar_qnh": 1004,
      "hourly_oat": [
        23,
        22,
        22,
        22,
        22,
        21,
        21,
        21,
        21,
        21,
        21,
        22,
        22,
        22,
        24,
        25,
        26,
        26,
        27,
        27,
        27,
        27,
        26,
        25,
        25
      ]
    },
    "HND": {
      "icao": "RJTT",
      "issued": "2026-06-27T05:05:00.000Z",
      "raw": "TAF RJTT 270505Z 2706/2812 02012KT 6000 -SHRA FEW005 BKN012 TEMPO 2706/2710 2000 SHRA BR FEW002 BKN003 TEMPO 2710/2712 4000 -SHRA BR FEW003 BKN005 BECMG 2715/2717 08008KT",
      "groups": [
        {
          "text": "TAF RJTT 270505Z 2706/2812 02012KT 6000 -SHRA FEW005 BKN012",
          "offset_h": -5,
          "wdir": 20,
          "wspd": 12
        },
        {
          "text": "TEMPO 2706/2710 2000 SHRA BR FEW002 BKN003",
          "offset_h": -5,
          "wdir": null,
          "wspd": null
        },
        {
          "text": "TEMPO 2710/2712 4000 -SHRA BR FEW003 BKN005",
          "offset_h": -1,
          "wdir": null,
          "wspd": null
        },
        {
          "text": "BECMG 2715/2717 08008KT",
          "offset_h": 4,
          "wdir": 80,
          "wspd": 8
        }
      ],
      "metar_raw": "METAR RJTT 271100Z 34007KT 9999 FEW005 BKN011 23/22 Q1001 BECMG FEW005 SCT012",
      "metar_wdir": 340,
      "metar_wspd": 7,
      "metar_oat": 23,
      "metar_qnh": 1001,
      "hourly_oat": [
        22,
        22,
        22,
        22,
        22,
        22,
        21,
        21,
        21,
        22,
        22,
        22,
        23,
        23,
        23,
        23,
        23,
        23,
        22,
        22,
        22,
        22,
        22,
        22,
        22
      ]
    },
    "NRT": {
      "icao": "RJAA",
      "issued": "2026-06-27T05:05:00.000Z",
      "raw": "TAF RJAA 270505Z 2706/2812 10010KT 9999 FEW005 BKN012 TEMPO 2706/2709 1200 +SHRA BR FEW001 BKN003 BECMG 2708/2710 34012KT TEMPO 2709/2711 02015G25KT 1200 +SHRA BR FEW001 BKN003 TEMPO 2711/2713 36015G25KT 4000 -SHRA BR FEW001 BKN003 BECMG 2718/2721 09008KT TEMPO 2806/2812 FEW001 BKN005",
      "groups": [
        {
          "text": "TAF RJAA 270505Z 2706/2812 10010KT 9999 FEW005 BKN012",
          "offset_h": -5,
          "wdir": 100,
          "wspd": 10
        },
        {
          "text": "TEMPO 2706/2709 1200 +SHRA BR FEW001 BKN003",
          "offset_h": -5,
          "wdir": null,
          "wspd": null
        },
        {
          "text": "BECMG 2708/2710 34012KT",
          "offset_h": -3,
          "wdir": 340,
          "wspd": 12
        },
        {
          "text": "TEMPO 2709/2711 02015G25KT 1200 +SHRA BR FEW001 BKN003",
          "offset_h": -2,
          "wdir": 20,
          "wspd": 15
        },
        {
          "text": "TEMPO 2711/2713 36015G25KT 4000 -SHRA BR FEW001 BKN003",
          "offset_h": 0,
          "wdir": 360,
          "wspd": 15
        },
        {
          "text": "BECMG 2718/2721 09008KT",
          "offset_h": 7,
          "wdir": 90,
          "wspd": 8
        },
        {
          "text": "TEMPO 2806/2812 FEW001 BKN005",
          "offset_h": 19,
          "wdir": null,
          "wspd": null
        }
      ],
      "metar_raw": "METAR RJAA 271100Z 34015KT 7000 -SHRA FEW002 BKN003 22/21 Q1000 NOSIG",
      "metar_wdir": 340,
      "metar_wspd": 15,
      "metar_oat": 22,
      "metar_qnh": 1000,
      "hourly_oat": [
        21,
        21,
        21,
        21,
        21,
        20,
        20,
        20,
        20,
        20,
        21,
        20,
        21,
        21,
        21,
        21,
        21,
        21,
        21,
        21,
        21,
        21,
        20,
        20,
        20
      ]
    },
    "CTS": {
      "icao": "RJCC",
      "issued": "2026-06-27T05:05:00.000Z",
      "raw": "TAF RJCC 270505Z 2706/2812 35016KT 9999 FEW005 BKN020 TEMPO 2712/2721 FEW003 BKN008",
      "groups": [
        {
          "text": "TAF RJCC 270505Z 2706/2812 35016KT 9999 FEW005 BKN020",
          "offset_h": -5,
          "wdir": 350,
          "wspd": 16
        },
        {
          "text": "TEMPO 2712/2721 FEW003 BKN008",
          "offset_h": 1,
          "wdir": null,
          "wspd": null
        }
      ],
      "metar_raw": "METAR RJCC 271100Z 35014KT 9999 FEW008 BKN013 17/15 Q1003",
      "metar_wdir": 350,
      "metar_wspd": 14,
      "metar_oat": 17,
      "metar_qnh": 1003,
      "hourly_oat": [
        16,
        16,
        16,
        16,
        16,
        16,
        16,
        16,
        16,
        16,
        17,
        18,
        18,
        19,
        21,
        21,
        22,
        22,
        21,
        20,
        19,
        18,
        17,
        16,
        15
      ]
    },
    "SIN": {
      "icao": "WSSS",
      "issued": "2026-06-27T05:00:00.000Z",
      "raw": "TAF WSSS 270500Z 2706/2812 17007KT 9999 FEW015 SCT020",
      "groups": [
        {
          "text": "TAF WSSS 270500Z 2706/2812 17007KT 9999 FEW015 SCT020",
          "offset_h": -5,
          "wdir": 170,
          "wspd": 7
        }
      ],
      "metar_raw": "METAR WSSS 271100Z 17008KT 9999 FEW020 BKN300 30/24 Q1007 NOSIG",
      "metar_wdir": 170,
      "metar_wspd": 8,
      "metar_oat": 30,
      "metar_qnh": 1007,
      "hourly_oat": [
        30,
        29,
        29,
        28,
        28,
        28,
        28,
        28,
        27,
        27,
        27,
        27,
        27,
        28,
        29,
        30,
        30,
        31,
        30,
        31,
        30,
        29,
        29,
        29,
        28
      ]
    },
    "HAN": {
      "icao": "VVNB",
      "issued": "2026-06-27T05:00:00.000Z",
      "raw": "TAF VVNB 270500Z 2706/2806 32006KT 6000 SCT015 BKN030 TEMPO 2706/2710 4000 SHRA SCT010 FEW025TCU BKN030 TEMPO 2712/2717 4000 SHRA SCT010 FEW025TCU BKN030 TEMPO 2718/2723 32015G25KT 2500 +TSRA BKN010 SCT027CB BKN030",
      "groups": [
        {
          "text": "TAF VVNB 270500Z 2706/2806 32006KT 6000 SCT015 BKN030",
          "offset_h": -5,
          "wdir": 320,
          "wspd": 6
        },
        {
          "text": "TEMPO 2706/2710 4000 SHRA SCT010 FEW025TCU BKN030",
          "offset_h": -5,
          "wdir": null,
          "wspd": null
        },
        {
          "text": "TEMPO 2712/2717 4000 SHRA SCT010 FEW025TCU BKN030",
          "offset_h": 1,
          "wdir": null,
          "wspd": null
        },
        {
          "text": "TEMPO 2718/2723 32015G25KT 2500 +TSRA BKN010 SCT027CB BKN030",
          "offset_h": 7,
          "wdir": 320,
          "wspd": 15
        }
      ],
      "metar_raw": "METAR VVNB 271100Z 02004KT 330V050 CAVOK 32/27 Q1002 NOSIG",
      "metar_wdir": 20,
      "metar_wspd": 4,
      "metar_oat": 32,
      "metar_qnh": 1002,
      "hourly_oat": [
        30,
        29,
        29,
        28,
        28,
        28,
        28,
        26,
        26,
        26,
        26,
        26,
        26,
        26,
        26,
        27,
        29,
        30,
        31,
        32,
        32,
        33,
        33,
        32,
        30
      ]
    },
    "SGN": {
      "icao": "VVTS",
      "issued": "2026-06-27T05:00:00.000Z",
      "raw": "TAF VVTS 270500Z 2706/2812 26010KT 9999 SCT017 TEMPO 2707/2710 26015G28KT 3500 TSRA BKN015 SCT017CB TEMPO 2710/2713 5000 TSRA SCT015 FEW017CB",
      "groups": [
        {
          "text": "TAF VVTS 270500Z 2706/2812 26010KT 9999 SCT017",
          "offset_h": -5,
          "wdir": 260,
          "wspd": 10
        },
        {
          "text": "TEMPO 2707/2710 26015G28KT 3500 TSRA BKN015 SCT017CB",
          "offset_h": -4,
          "wdir": 260,
          "wspd": 15
        },
        {
          "text": "TEMPO 2710/2713 5000 TSRA SCT015 FEW017CB",
          "offset_h": -1,
          "wdir": null,
          "wspd": null
        }
      ],
      "metar_raw": "METAR VVTS 271100Z 25005KT 200V290 9999 SCT031 29/26 Q1007 NOSIG",
      "metar_wdir": 250,
      "metar_wspd": 5,
      "metar_oat": 29,
      "metar_qnh": 1007,
      "hourly_oat": [
        28,
        27,
        27,
        27,
        26,
        26,
        26,
        26,
        26,
        26,
        26,
        25,
        26,
        27,
        29,
        30,
        31,
        33,
        32,
        29,
        27,
        28,
        28,
        28,
        27
      ]
    },
    "BKK": {
      "icao": "VTBS",
      "issued": "2026-06-27T05:00:00.000Z",
      "raw": "TAF VTBS 270500Z 2706/2812 22008KT 9999 FEW020 TEMPO 2712/2716 VRB15KT 4000 TSRA FEW018CB SCT030 BKN100",
      "groups": [
        {
          "text": "TAF VTBS 270500Z 2706/2812 22008KT 9999 FEW020",
          "offset_h": -5,
          "wdir": 220,
          "wspd": 8
        },
        {
          "text": "TEMPO 2712/2716 VRB15KT 4000 TSRA FEW018CB SCT030 BKN100",
          "offset_h": 1,
          "wdir": "VRB",
          "wspd": 15
        }
      ],
      "metar_raw": "METAR VTBS 271100Z 30003KT 220V030 9999 FEW030 30/23 Q1006 NOSIG",
      "metar_wdir": 300,
      "metar_wspd": 3,
      "metar_oat": 30,
      "metar_qnh": 1006,
      "hourly_oat": [
        30,
        29,
        29,
        29,
        29,
        28,
        28,
        28,
        28,
        27,
        27,
        26,
        26,
        27,
        29,
        30,
        32,
        33,
        34,
        31,
        31,
        30,
        30,
        30,
        30
      ]
    }
  }
}