{
  "updated": "2026-06-15T22:54:37Z",
  "tafs": {
    "PEK": {
      "icao": "ZBAA",
      "issued": "2026-06-15T21:15:00.000Z",
      "raw": "TAF ZBAA 152115Z 1600/1706 16004MPS 3500 BR NSC TX29/1607Z TX31/1706Z TN18/1621Z TEMPO 1600/1604 2800 -SHRA BR FEW030CB BKN040 TEMPO 1610/1613 31010G17MPS TSRA FEW030CB BKN040",
      "groups": [
        {
          "text": "TAF ZBAA 152115Z 1600/1706 16004MPS 3500 BR NSC TX29/1607Z TX31/1706Z TN18/1621Z",
          "offset_h": 2,
          "wdir": null,
          "wspd": null
        },
        {
          "text": "TEMPO 1600/1604 2800 -SHRA BR FEW030CB BKN040",
          "offset_h": 2,
          "wdir": null,
          "wspd": null
        },
        {
          "text": "TEMPO 1610/1613 31010G17MPS TSRA FEW030CB BKN040",
          "offset_h": 12,
          "wdir": null,
          "wspd": null
        }
      ],
      "metar_raw": "METAR ZBAA 152230Z 08002MPS 040V120 4500 BR NSC 21/21 Q1009 NOSIG",
      "metar_wdir": null,
      "metar_wspd": null,
      "metar_oat": 21,
      "metar_qnh": 1009,
      "hourly_oat": [
        20,
        21,
        22,
        22,
        24,
        25,
        25,
        26,
        27,
        26,
        27,
        26,
        26,
        25,
        24,
        24,
        22,
        21,
        20,
        20,
        19,
        19,
        19,
        19,
        19
      ]
    },
    "DLC": {
      "icao": "ZYTL",
      "issued": "2026-06-15T21:09:00.000Z",
      "raw": "TAF ZYTL 152109Z 1600/1624 16004MPS 4000 BR FEW026 TX27/1606Z TN19/1621Z TEMPO 1600/1602 2500 -SHRA BR BKN010 BKN026",
      "groups": [
        {
          "text": "TAF ZYTL 152109Z 1600/1624 16004MPS 4000 BR FEW026 TX27/1606Z TN19/1621Z",
          "offset_h": 2,
          "wdir": null,
          "wspd": null
        },
        {
          "text": "TEMPO 1600/1602 2500 -SHRA BR BKN010 BKN026",
          "offset_h": 2,
          "wdir": null,
          "wspd": null
        }
      ],
      "metar_raw": "METAR ZYTL 152230Z VRB01MPS CAVOK 22/16 Q1014 NOSIG",
      "metar_wdir": null,
      "metar_wspd": null,
      "metar_oat": 22,
      "metar_qnh": 1014,
      "hourly_oat": [
        20,
        22,
        23,
        24,
        26,
        27,
        28,
        28,
        28,
        27,
        26,
        25,
        24,
        23,
        22,
        22,
        22,
        22,
        21,
        21,
        20,
        20,
        20,
        20,
        21
      ]
    },
    "SHA": {
      "icao": "ZSSS",
      "issued": "2026-06-15T21:05:00.000Z",
      "raw": "TAF ZSSS 152105Z 1600/1706 06004MPS 6000 BKN011 TX27/1606Z TX30/1706Z TN23/1621Z BECMG 1603/1604 BKN015 BECMG 1613/1614 11004MPS",
      "groups": [
        {
          "text": "TAF ZSSS 152105Z 1600/1706 06004MPS 6000 BKN011 TX27/1606Z TX30/1706Z TN23/1621Z",
          "offset_h": 2,
          "wdir": null,
          "wspd": null
        },
        {
          "text": "BECMG 1603/1604 BKN015",
          "offset_h": 5,
          "wdir": null,
          "wspd": null
        },
        {
          "text": "BECMG 1613/1614 11004MPS",
          "offset_h": 15,
          "wdir": null,
          "wspd": null
        }
      ],
      "metar_raw": "METAR ZSSS 152230Z 06002MPS 5000 -RA BR BKN007 23/22 Q1010 NOSIG",
      "metar_wdir": null,
      "metar_wspd": null,
      "metar_oat": 23,
      "metar_qnh": 1010,
      "hourly_oat": [
        22,
        23,
        24,
        24,
        25,
        25,
        26,
        26,
        26,
        26,
        26,
        25,
        25,
        24,
        24,
        23,
        23,
        23,
        23,
        23,
        23,
        22,
        21,
        21,
        22
      ]
    },
    "PVG": {
      "icao": "ZSPD",
      "issued": "2026-06-15T21:05:00.000Z",
      "raw": "TAF ZSPD 152105Z 1600/1706 06004MPS 6000 BKN011 TX25/1606Z TX28/1706Z TN22/1621Z BECMG 1603/1604 BKN015 BECMG 1613/1614 11004MPS",
      "groups": [
        {
          "text": "TAF ZSPD 152105Z 1600/1706 06004MPS 6000 BKN011 TX25/1606Z TX28/1706Z TN22/1621Z",
          "offset_h": 2,
          "wdir": null,
          "wspd": null
        },
        {
          "text": "BECMG 1603/1604 BKN015",
          "offset_h": 5,
          "wdir": null,
          "wspd": null
        },
        {
          "text": "BECMG 1613/1614 11004MPS",
          "offset_h": 15,
          "wdir": null,
          "wspd": null
        }
      ],
      "metar_raw": "METAR ZSPD 152230Z 05006MPS 9999 BKN010 23/23 Q1010 NOSIG",
      "metar_wdir": null,
      "metar_wspd": null,
      "metar_oat": 23,
      "metar_qnh": 1010,
      "hourly_oat": [
        23,
        23,
        24,
        24,
        24,
        24,
        24,
        25,
        25,
        25,
        25,
        24,
        24,
        24,
        24,
        24,
        24,
        23,
        23,
        23,
        23,
        22,
        22,
        21,
        22
      ]
    },
    "CAN": {
      "icao": "ZGGG",
      "issued": "2026-06-15T21:03:00.000Z",
      "raw": "TAF ZGGG 152103Z 1600/1706 16003MPS 8000 BKN033 TX32/1607Z TX32/1706Z TN25/1622Z TEMPO 1606/1610 2500 +TSRA FEW026CB BKN033 TEMPO 1619/1623 SHRA FEW026CB BKN033",
      "groups": [
        {
          "text": "TAF ZGGG 152103Z 1600/1706 16003MPS 8000 BKN033 TX32/1607Z TX32/1706Z TN25/1622Z",
          "offset_h": 2,
          "wdir": null,
          "wspd": null
        },
        {
          "text": "TEMPO 1606/1610 2500 +TSRA FEW026CB BKN033",
          "offset_h": 8,
          "wdir": null,
          "wspd": null
        },
        {
          "text": "TEMPO 1619/1623 SHRA FEW026CB BKN033",
          "offset_h": 21,
          "wdir": null,
          "wspd": null
        }
      ],
      "metar_raw": "METAR ZGGG 152230Z 07002MPS 9999 -SHRA FEW006 BKN026 25/25 Q1006 NOSIG",
      "metar_wdir": null,
      "metar_wspd": null,
      "metar_oat": 25,
      "metar_qnh": 1006,
      "hourly_oat": [
        25,
        25,
        26,
        27,
        27,
        27,
        30,
        30,
        30,
        30,
        27,
        27,
        26,
        26,
        26,
        26,
        26,
        25,
        25,
        24,
        24,
        24,
        25,
        24,
        24
      ]
    },
    "LAX": {
      "icao": "KLAX",
      "issued": "2026-06-15T21:00:00.000Z",
      "raw": "TAF KLAX 152100Z 1521/1624 26014G20KT P6SM SCT010 SCT100 FM160600 VRB04KT P6SM BKN013 FM161200 VRB03KT P6SM BKN009 FM161800 23008KT P6SM SCT022 FM162000 26012KT P6SM SCT250",
      "groups": [
        {
          "text": "TAF KLAX 152100Z 1521/1624 26014G20KT P6SM SCT010 SCT100",
          "offset_h": -1,
          "wdir": 260,
          "wspd": 14
        },
        {
          "text": "FM160600 VRB04KT P6SM BKN013",
          "offset_h": 8,
          "wdir": "VRB",
          "wspd": 4
        },
        {
          "text": "FM161200 VRB03KT P6SM BKN009",
          "offset_h": 14,
          "wdir": "VRB",
          "wspd": 3
        },
        {
          "text": "FM161800 23008KT P6SM SCT022",
          "offset_h": 20,
          "wdir": 230,
          "wspd": 8
        },
        {
          "text": "FM162000 26012KT P6SM SCT250",
          "offset_h": 22,
          "wdir": 260,
          "wspd": 12
        }
      ],
      "metar_raw": "METAR KLAX 152153Z 25014KT 10SM FEW008 FEW110 22/15 A3000 RMK AO2 SLP156 T02170150 $",
      "metar_wdir": 250,
      "metar_wspd": 14,
      "metar_oat": 22,
      "metar_qnh": 1016,
      "hourly_oat": [
        20,
        19,
        19,
        18,
        18,
        17,
        16,
        16,
        16,
        16,
        16,
        16,
        16,
        16,
        16,
        16,
        16,
        16,
        17,
        18,
        19,
        20,
        19,
        20,
        20
      ]
    },
    "HNL": {
      "icao": "PHNL",
      "issued": "2026-06-15T20:56:00.000Z",
      "raw": "TAF PHNL 152056Z 1521/1624 05012G20KT P6SM FEW030 SCT045 FM160500 03010KT P6SM SCT025 BKN040 FM162000 05012G20KT P6SM FEW030 SCT045",
      "groups": [
        {
          "text": "TAF PHNL 152056Z 1521/1624 05012G20KT P6SM FEW030 SCT045",
          "offset_h": -1,
          "wdir": 50,
          "wspd": 12
        },
        {
          "text": "FM160500 03010KT P6SM SCT025 BKN040",
          "offset_h": 7,
          "wdir": 30,
          "wspd": 10
        },
        {
          "text": "FM162000 05012G20KT P6SM FEW030 SCT045",
          "offset_h": 22,
          "wdir": 50,
          "wspd": 12
        }
      ],
      "metar_raw": "METAR PHNL 152153Z 03013G19KT 10SM FEW025 SCT039 29/19 A3001 RMK AO2 SLP162 T02890189 $",
      "metar_wdir": 30,
      "metar_wspd": 13,
      "metar_oat": 29,
      "metar_qnh": 1016,
      "hourly_oat": [
        28,
        28,
        28,
        28,
        27,
        26,
        25,
        24,
        23,
        23,
        23,
        22,
        22,
        22,
        22,
        22,
        22,
        22,
        21,
        23,
        25,
        26,
        27,
        28,
        30
      ]
    },
    "CTS": {
      "icao": "RJCC",
      "issued": "2026-06-15T20:39:00.000Z",
      "raw": "TAF AMD RJCC 152039Z 1520/1700 35012KT 9999 FEW008 SCT020 TEMPO 1520/1523 FEW005 BKN008 TEMPO 1612/1618 3000 BR FEW002 BKN005 BECMG 1615/1618 17010KT TEMPO 1618/1700 0700 FG VV001",
      "groups": [
        {
          "text": "TAF AMD RJCC 152039Z 1520/1700 35012KT 9999 FEW008 SCT020",
          "offset_h": -2,
          "wdir": 350,
          "wspd": 12
        },
        {
          "text": "TEMPO 1520/1523 FEW005 BKN008",
          "offset_h": -2,
          "wdir": null,
          "wspd": null
        },
        {
          "text": "TEMPO 1612/1618 3000 BR FEW002 BKN005",
          "offset_h": 14,
          "wdir": null,
          "wspd": null
        },
        {
          "text": "BECMG 1615/1618 17010KT",
          "offset_h": 17,
          "wdir": 170,
          "wspd": 10
        },
        {
          "text": "TEMPO 1618/1700 0700 FG VV001",
          "offset_h": 20,
          "wdir": null,
          "wspd": null
        }
      ],
      "metar_raw": "METAR RJCC 152230Z 36008KT 9999 FEW003 SCT005 BKN006 17/16 Q1017",
      "metar_wdir": 360,
      "metar_wspd": 8,
      "metar_oat": 17,
      "metar_qnh": 1017,
      "hourly_oat": [
        18,
        20,
        22,
        22,
        24,
        24,
        25,
        25,
        24,
        24,
        22,
        19,
        17,
        16,
        15,
        15,
        15,
        15,
        15,
        14,
        14,
        14,
        14,
        14,
        14
      ]
    },
    "SAN": {
      "icao": "KSAN",
      "issued": "2026-06-15T20:33:00.000Z",
      "raw": "TAF KSAN 152033Z 1521/1624 30011KT P6SM SCT015 FM160300 31005KT P6SM SCT015 TEMPO 1603/1607 BKN012 FM160700 VRB04KT P6SM OVC012 FM161700 30010KT P6SM FEW015",
      "groups": [
        {
          "text": "TAF KSAN 152033Z 1521/1624 30011KT P6SM SCT015",
          "offset_h": -1,
          "wdir": 300,
          "wspd": 11
        },
        {
          "text": "FM160300 31005KT P6SM SCT015",
          "offset_h": 5,
          "wdir": 310,
          "wspd": 5
        },
        {
          "text": "TEMPO 1603/1607 BKN012",
          "offset_h": 5,
          "wdir": null,
          "wspd": null
        },
        {
          "text": "FM160700 VRB04KT P6SM OVC012",
          "offset_h": 9,
          "wdir": "VRB",
          "wspd": 4
        },
        {
          "text": "FM161700 30010KT P6SM FEW015",
          "offset_h": 19,
          "wdir": 300,
          "wspd": 10
        }
      ],
      "metar_raw": "METAR KSAN 152251Z 30008KT 10SM FEW013 FEW060 SCT150 22/16 A3000 RMK AO2 SLP158 CB DSNT NE T02170161",
      "metar_wdir": 300,
      "metar_wspd": 8,
      "metar_oat": 22,
      "metar_qnh": 1016,
      "hourly_oat": [
        22,
        21,
        21,
        20,
        20,
        19,
        19,
        19,
        18,
        17,
        18,
        18,
        18,
        18,
        18,
        18,
        18,
        19,
        20,
        21,
        22,
        22,
        21,
        21,
        21
      ]
    },
    "HKG": {
      "icao": "VHHH",
      "issued": "2026-06-15T20:00:00.000Z",
      "raw": "TAF VHHH 152000Z 1521/1703 22010KT 9999 FEW010 SCT025 TX30/1606Z TN25/1522Z TN26/1622Z TEMPO 1521/1524 24025G35KT 1500 TSRA +SHRA FEW008CB SCT015 TEMPO 1600/1606 24020G30KT 2000 TSRA +SHRA FEW008CB SCT015 TEMPO 1606/1612 3000 SHRA FEW010CB SCT020 PROB30 TEMPO 1612/1618 VRB15G25KT 2500 TSRA SHRA FEW008CB SCT015 TEMPO 1621/1703 VRB15G25KT 2500 TSRA SHRA FEW008CB SCT015",
      "groups": [
        {
          "text": "TAF VHHH 152000Z 1521/1703 22010KT 9999 FEW010 SCT025 TX30/1606Z TN25/1522Z TN26/1622Z",
          "offset_h": -1,
          "wdir": 220,
          "wspd": 10
        },
        {
          "text": "TEMPO 1521/1524 24025G35KT 1500 TSRA +SHRA FEW008CB SCT015",
          "offset_h": -1,
          "wdir": 240,
          "wspd": 25
        },
        {
          "text": "TEMPO 1600/1606 24020G30KT 2000 TSRA +SHRA FEW008CB SCT015",
          "offset_h": 2,
          "wdir": 240,
          "wspd": 20
        },
        {
          "text": "TEMPO 1606/1612 3000 SHRA FEW010CB SCT020",
          "offset_h": 8,
          "wdir": null,
          "wspd": null
        },
        {
          "text": "PROB30",
          "offset_h": 0,
          "wdir": null,
          "wspd": null
        },
        {
          "text": "TEMPO 1612/1618 VRB15G25KT 2500 TSRA SHRA FEW008CB SCT015",
          "offset_h": 14,
          "wdir": "VRB",
          "wspd": 15
        },
        {
          "text": "TEMPO 1621/1703 VRB15G25KT 2500 TSRA SHRA FEW008CB SCT015",
          "offset_h": 23,
          "wdir": "VRB",
          "wspd": 15
        }
      ],
      "metar_raw": "METAR VHHH 152230Z 00000KT 9999 SHRA FEW007 SCT020 26/25 Q1006 NOSIG",
      "metar_wdir": 0,
      "metar_wspd": 0,
      "metar_oat": 26,
      "metar_qnh": 1006,
      "hourly_oat": [
        26,
        26,
        26,
        25,
        25,
        26,
        26,
        27,
        27,
        27,
        27,
        27,
        27,
        27,
        27,
        27,
        28,
        28,
        26,
        26,
        26,
        26,
        26,
        27,
        26
      ]
    },
    "NRT": {
      "icao": "RJAA",
      "issued": "2026-06-15T17:05:00.000Z",
      "raw": "TAF RJAA 151705Z 1518/1700 35006KT 9999 FEW020 BECMG 1601/1603 07006KT BECMG 1604/1606 13010KT",
      "groups": [
        {
          "text": "TAF RJAA 151705Z 1518/1700 35006KT 9999 FEW020",
          "offset_h": -4,
          "wdir": 350,
          "wspd": 6
        },
        {
          "text": "BECMG 1601/1603 07006KT",
          "offset_h": 3,
          "wdir": 70,
          "wspd": 6
        },
        {
          "text": "BECMG 1604/1606 13010KT",
          "offset_h": 6,
          "wdir": 130,
          "wspd": 10
        }
      ],
      "metar_raw": "METAR RJAA 152230Z 34004KT 310V010 9999 FEW020 BKN/// 20/16 Q1018 NOSIG",
      "metar_wdir": 340,
      "metar_wspd": 4,
      "metar_oat": 20,
      "metar_qnh": 1018,
      "hourly_oat": [
        18,
        20,
        22,
        24,
        25,
        26,
        26,
        26,
        25,
        24,
        23,
        21,
        20,
        20,
        19,
        18,
        18,
        17,
        17,
        17,
        16,
        16,
        16,
        17,
        19
      ]
    },
    "KIX": {
      "icao": "RJBB",
      "issued": "2026-06-15T17:05:00.000Z",
      "raw": "TAF RJBB 151705Z 1518/1700 10004KT 9999 FEW030 BECMG 1600/1602 27008KT BECMG 1612/1615 07006KT",
      "groups": [
        {
          "text": "TAF RJBB 151705Z 1518/1700 10004KT 9999 FEW030",
          "offset_h": -4,
          "wdir": 100,
          "wspd": 4
        },
        {
          "text": "BECMG 1600/1602 27008KT",
          "offset_h": 2,
          "wdir": 270,
          "wspd": 8
        },
        {
          "text": "BECMG 1612/1615 07006KT",
          "offset_h": 14,
          "wdir": 70,
          "wspd": 6
        }
      ],
      "metar_raw": "METAR RJBB 152230Z 14002KT 9999 FEW015 BKN/// 23/18 Q1017 NOSIG",
      "metar_wdir": 140,
      "metar_wspd": 2,
      "metar_oat": 23,
      "metar_qnh": 1017,
      "hourly_oat": [
        21,
        21,
        22,
        21,
        22,
        22,
        22,
        22,
        22,
        23,
        23,
        23,
        23,
        23,
        22,
        22,
        22,
        22,
        22,
        22,
        22,
        22,
        22,
        22,
        22
      ]
    },
    "HND": {
      "icao": "RJTT",
      "issued": "2026-06-15T17:05:00.000Z",
      "raw": "TAF RJTT 151705Z 1518/1700 03006KT 9999 FEW030 BECMG 1521/1523 10006KT BECMG 1604/1606 18012KT",
      "groups": [
        {
          "text": "TAF RJTT 151705Z 1518/1700 03006KT 9999 FEW030",
          "offset_h": -4,
          "wdir": 30,
          "wspd": 6
        },
        {
          "text": "BECMG 1521/1523 10006KT",
          "offset_h": -1,
          "wdir": 100,
          "wspd": 6
        },
        {
          "text": "BECMG 1604/1606 18012KT",
          "offset_h": 6,
          "wdir": 180,
          "wspd": 12
        }
      ],
      "metar_raw": "METAR RJTT 152230Z 03003KT 350V080 9999 FEW030 BKN/// 22/16 Q1018 BECMG 08006KT",
      "metar_wdir": 30,
      "metar_wspd": 3,
      "metar_oat": 22,
      "metar_qnh": 1018,
      "hourly_oat": [
        19,
        20,
        21,
        22,
        23,
        24,
        25,
        26,
        26,
        24,
        23,
        22,
        22,
        21,
        21,
        21,
        20,
        20,
        20,
        20,
        20,
        20,
        20,
        20,
        21
      ]
    },
    "ITM": {
      "icao": "RJOO",
      "issued": "2026-06-15T17:05:00.000Z",
      "raw": "TAF RJOO 151705Z 1518/1700 33004KT 9999 FEW030 BECMG 1602/1604 21006KT BECMG 1606/1609 24006KT BECMG 1615/1618 08014KT",
      "groups": [
        {
          "text": "TAF RJOO 151705Z 1518/1700 33004KT 9999 FEW030",
          "offset_h": -4,
          "wdir": 330,
          "wspd": 4
        },
        {
          "text": "BECMG 1602/1604 21006KT",
          "offset_h": 4,
          "wdir": 210,
          "wspd": 6
        },
        {
          "text": "BECMG 1606/1609 24006KT",
          "offset_h": 8,
          "wdir": 240,
          "wspd": 6
        },
        {
          "text": "BECMG 1615/1618 08014KT",
          "offset_h": 17,
          "wdir": 80,
          "wspd": 14
        }
      ],
      "metar_raw": "METAR RJOO 152200Z 31005KT 9999 FEW020 BKN/// 21/16 Q1017",
      "metar_wdir": 310,
      "metar_wspd": 5,
      "metar_oat": 21,
      "metar_qnh": 1017,
      "hourly_oat": [
        20,
        21,
        23,
        24,
        25,
        26,
        26,
        26,
        26,
        26,
        24,
        24,
        23,
        23,
        22,
        22,
        22,
        21,
        21,
        21,
        21,
        21,
        21,
        21,
        21
      ]
    },
    "OKA": {
      "icao": "ROAH",
      "issued": "2026-06-15T17:05:00.000Z",
      "raw": "TAF ROAH 151705Z 1518/1700 19012KT 8000 -SHRA FEW008 BKN012 TEMPO 1518/1600 3000 +TSRA BR FEW005 BKN008 SCT015CB TEMPO 1600/1603 4000 SHRA BR FEW005 BKN008 FEW015CB TEMPO 1612/1700 FEW005 BKN008",
      "groups": [
        {
          "text": "TAF ROAH 151705Z 1518/1700 19012KT 8000 -SHRA FEW008 BKN012",
          "offset_h": -4,
          "wdir": 190,
          "wspd": 12
        },
        {
          "text": "TEMPO 1518/1600 3000 +TSRA BR FEW005 BKN008 SCT015CB",
          "offset_h": -4,
          "wdir": null,
          "wspd": null
        },
        {
          "text": "TEMPO 1600/1603 4000 SHRA BR FEW005 BKN008 FEW015CB",
          "offset_h": 2,
          "wdir": null,
          "wspd": null
        },
        {
          "text": "TEMPO 1612/1700 FEW005 BKN008",
          "offset_h": 14,
          "wdir": null,
          "wspd": null
        }
      ],
      "metar_raw": "METAR ROAH 152230Z 19008KT 5000 RA BR FEW003 SCT007 FEW025CB BKN100 24/24 Q1012",
      "metar_wdir": 190,
      "metar_wspd": 8,
      "metar_oat": 24,
      "metar_qnh": 1012,
      "hourly_oat": [
        26,
        26,
        26,
        27,
        27,
        27,
        26,
        26,
        26,
        26,
        25,
        25,
        25,
        25,
        26,
        25,
        25,
        25,
        26,
        26,
        26,
        26,
        26,
        26,
        26
      ]
    },
    "NGO": {
      "icao": "RJGG",
      "issued": "2026-06-15T17:05:00.000Z",
      "raw": "TAF RJGG 151705Z 1518/1700 04004KT 9999 FEW030 BECMG 1601/1603 18010KT BECMG 1612/1615 12010KT",
      "groups": [
        {
          "text": "TAF RJGG 151705Z 1518/1700 04004KT 9999 FEW030",
          "offset_h": -4,
          "wdir": 40,
          "wspd": 4
        },
        {
          "text": "BECMG 1601/1603 18010KT",
          "offset_h": 3,
          "wdir": 180,
          "wspd": 10
        },
        {
          "text": "BECMG 1612/1615 12010KT",
          "offset_h": 14,
          "wdir": 120,
          "wspd": 10
        }
      ],
      "metar_raw": "METAR RJGG 152230Z 32003KT 9999 FEW010 BKN/// 22/19 Q1017 BECMG 25006KT",
      "metar_wdir": 320,
      "metar_wspd": 3,
      "metar_oat": 22,
      "metar_qnh": 1017,
      "hourly_oat": [
        20,
        20,
        21,
        21,
        21,
        21,
        23,
        23,
        23,
        23,
        23,
        22,
        22,
        22,
        22,
        22,
        22,
        22,
        22,
        22,
        22,
        21,
        21,
        21,
        21
      ]
    },
    "FUK": {
      "icao": "RJFF",
      "issued": "2026-06-15T17:05:00.000Z",
      "raw": "TAF RJFF 151705Z 1518/1700 13006KT 9999 FEW020",
      "groups": [
        {
          "text": "TAF RJFF 151705Z 1518/1700 13006KT 9999 FEW020",
          "offset_h": -4,
          "wdir": 130,
          "wspd": 6
        }
      ],
      "metar_raw": "METAR RJFF 152230Z 12006KT 100V170 9999 VCSH FEW020 BKN150 BKN180 23/19 Q1013 NOSIG",
      "metar_wdir": 120,
      "metar_wspd": 6,
      "metar_oat": 23,
      "metar_qnh": 1013,
      "hourly_oat": [
        22,
        23,
        24,
        25,
        26,
        27,
        28,
        28,
        28,
        28,
        27,
        26,
        25,
        24,
        24,
        24,
        23,
        23,
        22,
        22,
        22,
        22,
        22,
        22,
        23
      ]
    },
    "SGN": {
      "icao": "VVTS",
      "issued": "2026-06-15T17:00:00.000Z",
      "raw": "TAF VVTS 151700Z 1518/1624 VRB03KT 9999 SCT017 SCT040 BECMG 1600/1601 24010KT TEMPO 1605/1608 5000 TSRA BKN015 FEW017CB TEMPO 1608/1612 24018G30KT 2000 +TSRA BKN013 SCT017CB BKN040",
      "groups": [
        {
          "text": "TAF VVTS 151700Z 1518/1624 VRB03KT 9999 SCT017 SCT040",
          "offset_h": -4,
          "wdir": "VRB",
          "wspd": 3
        },
        {
          "text": "BECMG 1600/1601 24010KT",
          "offset_h": 2,
          "wdir": 240,
          "wspd": 10
        },
        {
          "text": "TEMPO 1605/1608 5000 TSRA BKN015 FEW017CB",
          "offset_h": 7,
          "wdir": null,
          "wspd": null
        },
        {
          "text": "TEMPO 1608/1612 24018G30KT 2000 +TSRA BKN013 SCT017CB BKN040",
          "offset_h": 10,
          "wdir": 240,
          "wspd": 18
        }
      ],
      "metar_raw": "METAR VVTS 152230Z 25003KT 220V280 9999 FEW015 SCT044 27/26 Q1010 NOSIG",
      "metar_wdir": 250,
      "metar_wspd": 3,
      "metar_oat": 27,
      "metar_qnh": 1010,
      "hourly_oat": [
        25,
        26,
        27,
        28,
        30,
        31,
        32,
        33,
        33,
        29,
        27,
        27,
        27,
        27,
        26,
        26,
        25,
        25,
        25,
        25,
        25,
        25,
        25,
        25,
        25
      ]
    },
    "HAN": {
      "icao": "VVNB",
      "issued": "2026-06-15T17:00:00.000Z",
      "raw": "TAF VVNB 151700Z 1518/1618 06006KT 6000 SCT025 TEMPO 1518/1521 4000 SHRA BKN015 FEW020TCU TEMPO 1522/1601 3500 TSRA BKN010 FEW027CB TEMPO 1607/1610 4000 SHRA BKN015 FEW020TCU",
      "groups": [
        {
          "text": "TAF VVNB 151700Z 1518/1618 06006KT 6000 SCT025",
          "offset_h": -4,
          "wdir": 60,
          "wspd": 6
        },
        {
          "text": "TEMPO 1518/1521 4000 SHRA BKN015 FEW020TCU",
          "offset_h": -4,
          "wdir": null,
          "wspd": null
        },
        {
          "text": "TEMPO 1522/1601 3500 TSRA BKN010 FEW027CB",
          "offset_h": 0,
          "wdir": null,
          "wspd": null
        },
        {
          "text": "TEMPO 1607/1610 4000 SHRA BKN015 FEW020TCU",
          "offset_h": 9,
          "wdir": null,
          "wspd": null
        }
      ],
      "metar_raw": "METAR VVNB 152230Z VRB02KT 9999 OVC016 27/26 Q1004 NOSIG",
      "metar_wdir": "VRB",
      "metar_wspd": 2,
      "metar_oat": 27,
      "metar_qnh": 1004,
      "hourly_oat": [
        26,
        26,
        26,
        26,
        26,
        27,
        27,
        28,
        28,
        28,
        28,
        29,
        29,
        29,
        28,
        28,
        28,
        28,
        27,
        27,
        27,
        26,
        26,
        26,
        25
      ]
    },
    "KUL": {
      "icao": "WMKK",
      "issued": "2026-06-15T17:00:00.000Z",
      "raw": "TAF WMKK 151700Z 1518/1700 06005KT 9999 FEW030 TEMPO 1522/1601 8000 -RA FEW008 TEMPO 1605/1608 5000 TSRA FEW017CB",
      "groups": [
        {
          "text": "TAF WMKK 151700Z 1518/1700 06005KT 9999 FEW030",
          "offset_h": -4,
          "wdir": 60,
          "wspd": 5
        },
        {
          "text": "TEMPO 1522/1601 8000 -RA FEW008",
          "offset_h": 0,
          "wdir": null,
          "wspd": null
        },
        {
          "text": "TEMPO 1605/1608 5000 TSRA FEW017CB",
          "offset_h": 7,
          "wdir": null,
          "wspd": null
        }
      ],
      "metar_raw": "METAR WMKK 152230Z VRB03KT 9999 FEW017CB 26/24 Q1010 NOSIG",
      "metar_wdir": "VRB",
      "metar_wspd": 3,
      "metar_oat": 26,
      "metar_qnh": 1010,
      "hourly_oat": [
        24,
        24,
        24,
        25,
        27,
        28,
        29,
        30,
        30,
        31,
        31,
        30,
        30,
        28,
        27,
        27,
        27,
        26,
        24,
        24,
        24,
        24,
        24,
        24,
        24
      ]
    },
    "CGK": {
      "icao": "WIII",
      "issued": "2026-06-15T17:00:00.000Z",
      "raw": "TAF WIII 151700Z 1518/1700 18005KT 5000 HZ SCT020 BECMG 1602/1604 04010KT 8000 NSW",
      "groups": [
        {
          "text": "TAF WIII 151700Z 1518/1700 18005KT 5000 HZ SCT020",
          "offset_h": -4,
          "wdir": 180,
          "wspd": 5
        },
        {
          "text": "BECMG 1602/1604 04010KT 8000 NSW",
          "offset_h": 4,
          "wdir": 40,
          "wspd": 10
        }
      ],
      "metar_raw": "METAR WIII 152230Z VRB02KT 3000 BR FEW020 26/24 Q1010 NOSIG",
      "metar_wdir": "VRB",
      "metar_wspd": 2,
      "metar_oat": 26,
      "metar_qnh": 1010,
      "hourly_oat": [
        24,
        23,
        24,
        27,
        29,
        30,
        32,
        32,
        32,
        32,
        31,
        30,
        29,
        28,
        28,
        28,
        27,
        27,
        26,
        26,
        26,
        25,
        25,
        25,
        25
      ]
    },
    "SIN": {
      "icao": "WSSS",
      "issued": "2026-06-15T17:00:00.000Z",
      "raw": "TAF WSSS 151700Z 1518/1700 19008KT 9999 FEW015 SCT020 TEMPO 1601/1604 3000 TSRA FEW012CB BKN015",
      "groups": [
        {
          "text": "TAF WSSS 151700Z 1518/1700 19008KT 9999 FEW015 SCT020",
          "offset_h": -4,
          "wdir": 190,
          "wspd": 8
        },
        {
          "text": "TEMPO 1601/1604 3000 TSRA FEW012CB BKN015",
          "offset_h": 3,
          "wdir": null,
          "wspd": null
        }
      ],
      "metar_raw": "METAR WSSS 152230Z 15004KT 9999 SCT016 FEW020TCU SCT160 27/25 Q1011 NOSIG",
      "metar_wdir": 150,
      "metar_wspd": 4,
      "metar_oat": 27,
      "metar_qnh": 1011,
      "hourly_oat": [
        27,
        27,
        28,
        29,
        29,
        29,
        29,
        30,
        31,
        31,
        31,
        31,
        30,
        29,
        28,
        28,
        28,
        28,
        28,
        28,
        28,
        25,
        24,
        24,
        24
      ]
    },
    "TSA": {
      "icao": "RCSS",
      "issued": "2026-06-15T17:00:00.000Z",
      "raw": "TAF RCSS 151700Z 1518/1618 09005KT 7000 FEW015 BKN032 TEMPO 1600/1606 27008KT 4000 RA FEW010 BKN017 TEMPO 1606/1612 29010KT 3200 SHRA FEW010 FEW015CB BKN016",
      "groups": [
        {
          "text": "TAF RCSS 151700Z 1518/1618 09005KT 7000 FEW015 BKN032",
          "offset_h": -4,
          "wdir": 90,
          "wspd": 5
        },
        {
          "text": "TEMPO 1600/1606 27008KT 4000 RA FEW010 BKN017",
          "offset_h": 2,
          "wdir": 270,
          "wspd": 8
        },
        {
          "text": "TEMPO 1606/1612 29010KT 3200 SHRA FEW010 FEW015CB BKN016",
          "offset_h": 8,
          "wdir": 290,
          "wspd": 10
        }
      ],
      "metar_raw": "METAR RCSS 152230Z 11002KT 9999 FEW018 BKN090 26/24 Q1008 NOSIG RMK A2977",
      "metar_wdir": 110,
      "metar_wspd": 2,
      "metar_oat": 26,
      "metar_qnh": 1008,
      "hourly_oat": [
        24,
        25,
        26,
        27,
        28,
        30,
        30,
        30,
        28,
        27,
        27,
        27,
        27,
        26,
        26,
        26,
        25,
        25,
        25,
        25,
        25,
        25,
        25,
        25,
        25
      ]
    },
    "TPE": {
      "icao": "RCTP",
      "issued": "2026-06-15T17:00:00.000Z",
      "raw": "TAF RCTP 151700Z 1518/1624 22010KT 7000 FEW015 BKN032 TEMPO 1518/1524 16005KT TEMPO 1600/1606 4000 RA FEW010 BKN017 TEMPO 1603/1609 26017KT BECMG 1612/1614 20005KT",
      "groups": [
        {
          "text": "TAF RCTP 151700Z 1518/1624 22010KT 7000 FEW015 BKN032",
          "offset_h": -4,
          "wdir": 220,
          "wspd": 10
        },
        {
          "text": "TEMPO 1518/1524 16005KT",
          "offset_h": -4,
          "wdir": 160,
          "wspd": 5
        },
        {
          "text": "TEMPO 1600/1606 4000 RA FEW010 BKN017",
          "offset_h": 2,
          "wdir": null,
          "wspd": null
        },
        {
          "text": "TEMPO 1603/1609 26017KT",
          "offset_h": 5,
          "wdir": 260,
          "wspd": 17
        },
        {
          "text": "BECMG 1612/1614 20005KT",
          "offset_h": 14,
          "wdir": 200,
          "wspd": 5
        }
      ],
      "metar_raw": "METAR RCTP 152230Z 18007KT 9999 FEW015 SCT060 BKN120 26/24 Q1007 NOSIG RMK A2976",
      "metar_wdir": 180,
      "metar_wspd": 7,
      "metar_oat": 26,
      "metar_qnh": 1007,
      "hourly_oat": [
        24,
        25,
        25,
        27,
        27,
        28,
        28,
        28,
        28,
        28,
        28,
        28,
        27,
        26,
        26,
        26,
        26,
        25,
        25,
        25,
        25,
        25,
        24,
        24,
        25
      ]
    },
    "GMP": {
      "icao": "RKSS",
      "issued": "2026-06-15T17:00:00.000Z",
      "raw": "TAF RKSS 151700Z 1518/1624 17005KT 6000 NSC TN19/1520Z TX33/1606Z TN22/1620Z TEMPO 1603/1611 27006KT CAVOK BECMG 1612/1614 33005KT 9999 SCT045 BECMG 1617/1619 17005KT",
      "groups": [
        {
          "text": "TAF RKSS 151700Z 1518/1624 17005KT 6000 NSC TN19/1520Z TX33/1606Z TN22/1620Z",
          "offset_h": -4,
          "wdir": 170,
          "wspd": 5
        },
        {
          "text": "TEMPO 1603/1611 27006KT CAVOK",
          "offset_h": 5,
          "wdir": 270,
          "wspd": 6
        },
        {
          "text": "BECMG 1612/1614 33005KT 9999 SCT045",
          "offset_h": 14,
          "wdir": 330,
          "wspd": 5
        },
        {
          "text": "BECMG 1617/1619 17005KT",
          "offset_h": 19,
          "wdir": 170,
          "wspd": 5
        }
      ],
      "metar_raw": "METAR RKSS 152200Z 07001KT CAVOK 23/20 Q1015 NOSIG",
      "metar_wdir": 70,
      "metar_wspd": 1,
      "metar_oat": 23,
      "metar_qnh": 1015,
      "hourly_oat": [
        19,
        21,
        24,
        26,
        27,
        28,
        28,
        29,
        29,
        29,
        29,
        28,
        26,
        24,
        23,
        23,
        23,
        22,
        21,
        21,
        21,
        20,
        20,
        20,
        21
      ]
    },
    "BKK": {
      "icao": "VTBS",
      "issued": "2026-06-15T17:00:00.000Z",
      "raw": "TAF VTBS 151700Z 1518/1624 20008KT 9999 FEW020 TEMPO 1611/1615 VRB15KT 4000 TSRA FEW018CB SCT020 BKN080",
      "groups": [
        {
          "text": "TAF VTBS 151700Z 1518/1624 20008KT 9999 FEW020",
          "offset_h": -4,
          "wdir": 200,
          "wspd": 8
        },
        {
          "text": "TEMPO 1611/1615 VRB15KT 4000 TSRA FEW018CB SCT020 BKN080",
          "offset_h": 13,
          "wdir": "VRB",
          "wspd": 15
        }
      ],
      "metar_raw": "METAR VTBS 152230Z 13004KT 100V180 9999 FEW020 26/25 Q1009 NOSIG",
      "metar_wdir": 130,
      "metar_wspd": 4,
      "metar_oat": 26,
      "metar_qnh": 1009,
      "hourly_oat": [
        27,
        26,
        28,
        29,
        31,
        32,
        33,
        33,
        32,
        32,
        32,
        32,
        29,
        28,
        28,
        28,
        28,
        28,
        28,
        28,
        28,
        28,
        27,
        27,
        27
      ]
    }
  }
}