{
  "updated": "2026-05-29T23:58:25Z",
  "tafs": {
    "SAN": {
      "icao": "KSAN",
      "issued": "2026-05-29T23:32:00.000Z",
      "raw": "TAF KSAN 292332Z 3000/3106 30011KT P6SM SCT030 FM300400 VRB05KT P6SM SCT020 TEMPO 3007/3011 BKN020 FM301100 VRB04KT P6SM BKN018 FM301700 VRB04KT P6SM SCT018 FM301900 29010KT P6SM SKC FM310300 VRB04KT P6SM SCT015",
      "groups": [
        {
          "text": "TAF KSAN 292332Z 3000/3106 30011KT P6SM SCT030",
          "offset_h": 1,
          "wdir": 300,
          "wspd": 11
        },
        {
          "text": "FM300400 VRB05KT P6SM SCT020",
          "offset_h": 5,
          "wdir": "VRB",
          "wspd": 5
        },
        {
          "text": "TEMPO 3007/3011 BKN020",
          "offset_h": 8,
          "wdir": null,
          "wspd": null
        },
        {
          "text": "FM301100 VRB04KT P6SM BKN018",
          "offset_h": 12,
          "wdir": "VRB",
          "wspd": 4
        },
        {
          "text": "FM301700 VRB04KT P6SM SCT018",
          "offset_h": 18,
          "wdir": "VRB",
          "wspd": 4
        },
        {
          "text": "FM301900 29010KT P6SM SKC",
          "offset_h": 20,
          "wdir": 290,
          "wspd": 10
        },
        {
          "text": "FM310300 VRB04KT P6SM SCT015",
          "offset_h": 28,
          "wdir": "VRB",
          "wspd": 4
        }
      ],
      "metar_raw": "METAR KSAN 292351Z 32008G17KT 10SM FEW030 20/12 A3002 RMK AO2 SLP164 T02000122 10211 20194 58006",
      "metar_wdir": 320,
      "metar_wspd": 8,
      "metar_oat": 20,
      "metar_qnh": 1017,
      "hourly_oat": [
        20,
        20,
        19,
        18,
        17,
        17,
        16,
        16,
        15,
        15,
        14,
        14,
        13,
        13,
        13,
        15,
        17,
        18,
        19,
        21,
        21,
        22,
        22,
        21,
        21
      ]
    },
    "LAX": {
      "icao": "KLAX",
      "issued": "2026-05-29T23:29:00.000Z",
      "raw": "TAF KLAX 292329Z 3000/3106 26014G22KT P6SM SKC FM300200 26010KT P6SM SKC FM300500 VRB03KT P6SM SKC FM300900 VRB03KT P6SM OVC010 FM301700 24006KT P6SM SCT015 FM301800 26012KT P6SM SKC FM310400 VRB03KT P6SM SKC",
      "groups": [
        {
          "text": "TAF KLAX 292329Z 3000/3106 26014G22KT P6SM SKC",
          "offset_h": 1,
          "wdir": 260,
          "wspd": 14
        },
        {
          "text": "FM300200 26010KT P6SM SKC",
          "offset_h": 3,
          "wdir": 260,
          "wspd": 10
        },
        {
          "text": "FM300500 VRB03KT P6SM SKC",
          "offset_h": 6,
          "wdir": "VRB",
          "wspd": 3
        },
        {
          "text": "FM300900 VRB03KT P6SM OVC010",
          "offset_h": 10,
          "wdir": "VRB",
          "wspd": 3
        },
        {
          "text": "FM301700 24006KT P6SM SCT015",
          "offset_h": 18,
          "wdir": 240,
          "wspd": 6
        },
        {
          "text": "FM301800 26012KT P6SM SKC",
          "offset_h": 19,
          "wdir": 260,
          "wspd": 12
        },
        {
          "text": "FM310400 VRB03KT P6SM SKC",
          "offset_h": 29,
          "wdir": "VRB",
          "wspd": 3
        }
      ],
      "metar_raw": "METAR KLAX 292353Z 25013KT 10SM FEW020 SCT035 SCT060 19/12 A3000 RMK AO2 SLP157 T01890122 10200 20183 58008 $",
      "metar_wdir": 250,
      "metar_wspd": 13,
      "metar_oat": 19,
      "metar_qnh": 1016,
      "hourly_oat": [
        19,
        18,
        17,
        17,
        16,
        15,
        15,
        14,
        14,
        14,
        14,
        14,
        13,
        14,
        14,
        15,
        17,
        19,
        21,
        22,
        21,
        21,
        20,
        20,
        19
      ]
    },
    "HNL": {
      "icao": "PHNL",
      "issued": "2026-05-29T23:20:00.000Z",
      "raw": "TAF PHNL 292320Z 3000/3106 05014G24KT P6SM VCSH FEW025 SCT040 FM300600 06009KT P6SM FEW025 FEW040 FM301900 06013G24KT P6SM FEW025 SCT040",
      "groups": [
        {
          "text": "TAF PHNL 292320Z 3000/3106 05014G24KT P6SM VCSH FEW025 SCT040",
          "offset_h": 1,
          "wdir": 50,
          "wspd": 14
        },
        {
          "text": "FM300600 06009KT P6SM FEW025 FEW040",
          "offset_h": 7,
          "wdir": 60,
          "wspd": 9
        },
        {
          "text": "FM301900 06013G24KT P6SM FEW025 SCT040",
          "offset_h": 20,
          "wdir": 60,
          "wspd": 13
        }
      ],
      "metar_raw": "METAR PHNL 292353Z 07010G18KT 10SM FEW025 SCT043 BKN075 28/16 A3002 RMK AO2 SLP166 60001 T02830156 10289 20233 58006",
      "metar_wdir": 70,
      "metar_wspd": 10,
      "metar_oat": 28,
      "metar_qnh": 1017,
      "hourly_oat": [
        27,
        27,
        27,
        27,
        26,
        24,
        23,
        22,
        22,
        22,
        22,
        22,
        22,
        21,
        21,
        21,
        21,
        21,
        23,
        24,
        26,
        26,
        27,
        27,
        27
      ]
    },
    "KIX": {
      "icao": "RJBB",
      "issued": "2026-05-29T23:06:00.000Z",
      "raw": "TAF RJBB 292306Z 3000/3106 02005KT 9999 FEW030 BECMG 3001/3003 26005KT BECMG 3008/3010 20012KT BECMG 3021/3100 26004KT",
      "groups": [
        {
          "text": "TAF RJBB 292306Z 3000/3106 02005KT 9999 FEW030",
          "offset_h": 1,
          "wdir": 20,
          "wspd": 5
        },
        {
          "text": "BECMG 3001/3003 26005KT",
          "offset_h": 2,
          "wdir": 260,
          "wspd": 5
        },
        {
          "text": "BECMG 3008/3010 20012KT",
          "offset_h": 9,
          "wdir": 200,
          "wspd": 12
        },
        {
          "text": "BECMG 3021/3100 26004KT",
          "offset_h": 22,
          "wdir": 260,
          "wspd": 4
        }
      ],
      "metar_raw": "METAR RJBB 292330Z 03006KT 9999 FEW040 20/12 Q1010 NOSIG",
      "metar_wdir": 30,
      "metar_wspd": 6,
      "metar_oat": 20,
      "metar_qnh": 1010,
      "hourly_oat": [
        19,
        19,
        20,
        20,
        21,
        21,
        22,
        22,
        22,
        23,
        23,
        23,
        23,
        23,
        22,
        22,
        22,
        21,
        21,
        21,
        21,
        21,
        21,
        21,
        22
      ]
    },
    "ITM": {
      "icao": "RJOO",
      "issued": "2026-05-29T23:06:00.000Z",
      "raw": "TAF RJOO 292306Z 3000/3106 10004KT 9999 FEW030 BECMG 3007/3009 24005KT BECMG 3021/3100 11005KT",
      "groups": [
        {
          "text": "TAF RJOO 292306Z 3000/3106 10004KT 9999 FEW030",
          "offset_h": 1,
          "wdir": 100,
          "wspd": 4
        },
        {
          "text": "BECMG 3007/3009 24005KT",
          "offset_h": 8,
          "wdir": 240,
          "wspd": 5
        },
        {
          "text": "BECMG 3021/3100 11005KT",
          "offset_h": 22,
          "wdir": 110,
          "wspd": 5
        }
      ],
      "metar_raw": "METAR RJOO 292300Z 36003KT 300V060 9999 FEW020 21/08 Q1010",
      "metar_wdir": 360,
      "metar_wspd": 3,
      "metar_oat": 21,
      "metar_qnh": 1010,
      "hourly_oat": [
        18,
        21,
        23,
        25,
        26,
        27,
        27,
        28,
        28,
        28,
        27,
        25,
        23,
        21,
        21,
        20,
        20,
        19,
        19,
        19,
        19,
        18,
        18,
        19,
        21
      ]
    },
    "CTS": {
      "icao": "RJCC",
      "issued": "2026-05-29T23:05:00.000Z",
      "raw": "TAF RJCC 292305Z 3000/3106 23014KT 9999 FEW010 BKN025 TEMPO 3000/3004 23018G32KT -TSRA FEW010 BKN025 FEW025CB BECMG 3003/3005 28018KT TEMPO 3004/3007 28022G34KT BECMG 3012/3015 18006KT BECMG 3100/3103 30016KT TEMPO 3100/3106 30018G30KT",
      "groups": [
        {
          "text": "TAF RJCC 292305Z 3000/3106 23014KT 9999 FEW010 BKN025",
          "offset_h": 1,
          "wdir": 230,
          "wspd": 14
        },
        {
          "text": "TEMPO 3000/3004 23018G32KT -TSRA FEW010 BKN025 FEW025CB",
          "offset_h": 1,
          "wdir": 230,
          "wspd": 18
        },
        {
          "text": "BECMG 3003/3005 28018KT",
          "offset_h": 4,
          "wdir": 280,
          "wspd": 18
        },
        {
          "text": "TEMPO 3004/3007 28022G34KT",
          "offset_h": 5,
          "wdir": 280,
          "wspd": 22
        },
        {
          "text": "BECMG 3012/3015 18006KT",
          "offset_h": 13,
          "wdir": 180,
          "wspd": 6
        },
        {
          "text": "BECMG 3100/3103 30016KT",
          "offset_h": 25,
          "wdir": 300,
          "wspd": 16
        },
        {
          "text": "TEMPO 3100/3106 30018G30KT",
          "offset_h": 25,
          "wdir": 300,
          "wspd": 18
        }
      ],
      "metar_raw": "METAR RJCC 292330Z 22014KT 190V260 9999 -SHRA FEW015 FEW025CB BKN040 18/09 Q0995",
      "metar_wdir": 220,
      "metar_wspd": 14,
      "metar_oat": 18,
      "metar_qnh": 995,
      "hourly_oat": [
        16,
        16,
        18,
        16,
        17,
        18,
        18,
        18,
        18,
        17,
        15,
        14,
        12,
        11,
        10,
        10,
        10,
        10,
        10,
        10,
        10,
        12,
        13,
        16,
        19
      ]
    },
    "NRT": {
      "icao": "RJAA",
      "issued": "2026-05-29T23:05:00.000Z",
      "raw": "TAF RJAA 292305Z 3000/3106 18010KT 9999 FEW030 TEMPO 3018/3021 4000 BR FEW003 BKN008",
      "groups": [
        {
          "text": "TAF RJAA 292305Z 3000/3106 18010KT 9999 FEW030",
          "offset_h": 1,
          "wdir": 180,
          "wspd": 10
        },
        {
          "text": "TEMPO 3018/3021 4000 BR FEW003 BKN008",
          "offset_h": 19,
          "wdir": null,
          "wspd": null
        }
      ],
      "metar_raw": "METAR RJAA 292330Z 15007KT 130V210 9999 FEW040 24/12 Q1008 NOSIG",
      "metar_wdir": 150,
      "metar_wspd": 7,
      "metar_oat": 24,
      "metar_qnh": 1008,
      "hourly_oat": [
        22,
        24,
        25,
        26,
        27,
        27,
        27,
        27,
        26,
        25,
        24,
        22,
        21,
        20,
        19,
        19,
        18,
        18,
        18,
        18,
        17,
        18,
        18,
        20,
        23
      ]
    },
    "HND": {
      "icao": "RJTT",
      "issued": "2026-05-29T23:05:00.000Z",
      "raw": "TAF RJTT 292305Z 3000/3106 10008KT 9999 FEW030 BECMG 3001/3003 19016KT BECMG 3015/3018 03006KT BECMG 3100/3103 10006KT BECMG 3103/3106 18010KT",
      "groups": [
        {
          "text": "TAF RJTT 292305Z 3000/3106 10008KT 9999 FEW030",
          "offset_h": 1,
          "wdir": 100,
          "wspd": 8
        },
        {
          "text": "BECMG 3001/3003 19016KT",
          "offset_h": 2,
          "wdir": 190,
          "wspd": 16
        },
        {
          "text": "BECMG 3015/3018 03006KT",
          "offset_h": 16,
          "wdir": 30,
          "wspd": 6
        },
        {
          "text": "BECMG 3100/3103 10006KT",
          "offset_h": 25,
          "wdir": 100,
          "wspd": 6
        },
        {
          "text": "BECMG 3103/3106 18010KT",
          "offset_h": 28,
          "wdir": 180,
          "wspd": 10
        }
      ],
      "metar_raw": "METAR RJTT 292330Z 10006KT 9999 FEW030 23/12 Q1008 NOSIG",
      "metar_wdir": 100,
      "metar_wspd": 6,
      "metar_oat": 23,
      "metar_qnh": 1008,
      "hourly_oat": [
        21,
        22,
        24,
        25,
        26,
        26,
        26,
        25,
        25,
        24,
        23,
        22,
        22,
        22,
        22,
        21,
        20,
        20,
        20,
        20,
        19,
        19,
        19,
        20,
        22
      ]
    },
    "OKA": {
      "icao": "ROAH",
      "issued": "2026-05-29T23:05:00.000Z",
      "raw": "TAF ROAH 292305Z 3000/3106 04012KT 9999 FEW020 SCT030 TEMPO 3021/3100 4000 SHRA BR FEW005 BKN008 FEW015CB TEMPO 3100/3103 FEW005 BKN008",
      "groups": [
        {
          "text": "TAF ROAH 292305Z 3000/3106 04012KT 9999 FEW020 SCT030",
          "offset_h": 1,
          "wdir": 40,
          "wspd": 12
        },
        {
          "text": "TEMPO 3021/3100 4000 SHRA BR FEW005 BKN008 FEW015CB",
          "offset_h": 22,
          "wdir": null,
          "wspd": null
        },
        {
          "text": "TEMPO 3100/3103 FEW005 BKN008",
          "offset_h": 25,
          "wdir": null,
          "wspd": null
        }
      ],
      "metar_raw": "METAR ROAH 292330Z 04008KT 9999 FEW020 26/20 Q1009",
      "metar_wdir": 40,
      "metar_wspd": 8,
      "metar_oat": 26,
      "metar_qnh": 1009,
      "hourly_oat": [
        25,
        26,
        26,
        27,
        27,
        28,
        28,
        27,
        26,
        26,
        25,
        24,
        24,
        24,
        23,
        24,
        25,
        24,
        24,
        24,
        24,
        25,
        25,
        25,
        26
      ]
    },
    "NGO": {
      "icao": "RJGG",
      "issued": "2026-05-29T23:05:00.000Z",
      "raw": "TAF RJGG 292305Z 3000/3106 29006KT 9999 FEW030 BECMG 3003/3005 19010KT BECMG 3012/3015 34006KT BECMG 3103/3106 19008KT",
      "groups": [
        {
          "text": "TAF RJGG 292305Z 3000/3106 29006KT 9999 FEW030",
          "offset_h": 1,
          "wdir": 290,
          "wspd": 6
        },
        {
          "text": "BECMG 3003/3005 19010KT",
          "offset_h": 4,
          "wdir": 190,
          "wspd": 10
        },
        {
          "text": "BECMG 3012/3015 34006KT",
          "offset_h": 13,
          "wdir": 340,
          "wspd": 6
        },
        {
          "text": "BECMG 3103/3106 19008KT",
          "offset_h": 28,
          "wdir": 190,
          "wspd": 8
        }
      ],
      "metar_raw": "METAR RJGG 292330Z 30005KT 9999 FEW020 21/13 Q1009 NOSIG",
      "metar_wdir": 300,
      "metar_wspd": 5,
      "metar_oat": 21,
      "metar_qnh": 1009,
      "hourly_oat": [
        20,
        20,
        20,
        21,
        22,
        24,
        24,
        24,
        24,
        24,
        24,
        23,
        23,
        23,
        23,
        23,
        22,
        22,
        22,
        21,
        21,
        21,
        20,
        20,
        21
      ]
    },
    "FUK": {
      "icao": "RJFF",
      "issued": "2026-05-29T23:05:00.000Z",
      "raw": "TAF RJFF 292305Z 3000/3106 32011KT CAVOK BECMG 3009/3011 14004KT BECMG 3100/3103 31011KT",
      "groups": [
        {
          "text": "TAF RJFF 292305Z 3000/3106 32011KT CAVOK",
          "offset_h": 1,
          "wdir": 320,
          "wspd": 11
        },
        {
          "text": "BECMG 3009/3011 14004KT",
          "offset_h": 10,
          "wdir": 140,
          "wspd": 4
        },
        {
          "text": "BECMG 3100/3103 31011KT",
          "offset_h": 25,
          "wdir": 310,
          "wspd": 11
        }
      ],
      "metar_raw": "METAR RJFF 292330Z VRB02KT 9999 FEW035 23/14 Q1010 NOSIG",
      "metar_wdir": "VRB",
      "metar_wspd": 2,
      "metar_oat": 23,
      "metar_qnh": 1010,
      "hourly_oat": [
        20,
        22,
        24,
        25,
        25,
        25,
        25,
        25,
        25,
        24,
        23,
        22,
        22,
        21,
        21,
        21,
        21,
        20,
        20,
        20,
        19,
        19,
        20,
        20,
        22
      ]
    },
    "SGN": {
      "icao": "VVTS",
      "issued": "2026-05-29T23:00:00.000Z",
      "raw": "TAF VVTS 292300Z 3000/3106 24008KT 9999 SCT017 TEMPO 3001/3003 5000 RA TEMPO 3009/3012 3000 TSRA BKN015 SCT017CB",
      "groups": [
        {
          "text": "TAF VVTS 292300Z 3000/3106 24008KT 9999 SCT017",
          "offset_h": 1,
          "wdir": 240,
          "wspd": 8
        },
        {
          "text": "TEMPO 3001/3003 5000 RA",
          "offset_h": 2,
          "wdir": null,
          "wspd": null
        },
        {
          "text": "TEMPO 3009/3012 3000 TSRA BKN015 SCT017CB",
          "offset_h": 10,
          "wdir": null,
          "wspd": null
        }
      ],
      "metar_raw": "METAR VVTS 292330Z 32005KT 280V350 CAVOK 26/25 Q1009 NOSIG",
      "metar_wdir": 320,
      "metar_wspd": 5,
      "metar_oat": 26,
      "metar_qnh": 1009,
      "hourly_oat": [
        24,
        25,
        25,
        25,
        26,
        27,
        28,
        29,
        30,
        31,
        30,
        28,
        26,
        26,
        26,
        26,
        26,
        25,
        25,
        25,
        25,
        25,
        25,
        25,
        25
      ]
    },
    "GMP": {
      "icao": "RKSS",
      "issued": "2026-05-29T23:00:00.000Z",
      "raw": "TAF RKSS 292300Z 3000/3106 18005KT CAVOK TX29/3006Z TN15/3020Z TX30/3106Z BECMG 3002/3004 24007KT BECMG 3012/3014 18005KT 6000 NSC BECMG 3018/3020 15005KT 4000 BR BECMG 3021/3023 18005KT 6000 NSW BECMG 3102/3104 24006KT CAVOK",
      "groups": [
        {
          "text": "TAF RKSS 292300Z 3000/3106 18005KT CAVOK TX29/3006Z TN15/3020Z TX30/3106Z",
          "offset_h": 1,
          "wdir": 180,
          "wspd": 5
        },
        {
          "text": "BECMG 3002/3004 24007KT",
          "offset_h": 3,
          "wdir": 240,
          "wspd": 7
        },
        {
          "text": "BECMG 3012/3014 18005KT 6000 NSC",
          "offset_h": 13,
          "wdir": 180,
          "wspd": 5
        },
        {
          "text": "BECMG 3018/3020 15005KT 4000 BR",
          "offset_h": 19,
          "wdir": 150,
          "wspd": 5
        },
        {
          "text": "BECMG 3021/3023 18005KT 6000 NSW",
          "offset_h": 22,
          "wdir": 180,
          "wspd": 5
        },
        {
          "text": "BECMG 3102/3104 24006KT CAVOK",
          "offset_h": 27,
          "wdir": 240,
          "wspd": 6
        }
      ],
      "metar_raw": "METAR RKSS 292300Z 19005KT 140V220 9000 NSC 20/16 Q1011 NOSIG",
      "metar_wdir": 190,
      "metar_wspd": 5,
      "metar_oat": 20,
      "metar_qnh": 1011,
      "hourly_oat": [
        15,
        18,
        21,
        23,
        24,
        25,
        26,
        26,
        25,
        24,
        23,
        21,
        19,
        18,
        17,
        17,
        16,
        15,
        15,
        14,
        14,
        13,
        14,
        16,
        18
      ]
    },
    "BKK": {
      "icao": "VTBS",
      "issued": "2026-05-29T23:00:00.000Z",
      "raw": "TAF VTBS 292300Z 3000/3106 13005KT 9999 FEW020 BECMG 3002/3004 20008KT TEMPO 3006/3012 VRB10G25KT 4000 TSRA FEW018CB SCT030 BKN100",
      "groups": [
        {
          "text": "TAF VTBS 292300Z 3000/3106 13005KT 9999 FEW020",
          "offset_h": 1,
          "wdir": 130,
          "wspd": 5
        },
        {
          "text": "BECMG 3002/3004 20008KT",
          "offset_h": 3,
          "wdir": 200,
          "wspd": 8
        },
        {
          "text": "TEMPO 3006/3012 VRB10G25KT 4000 TSRA FEW018CB SCT030 BKN100",
          "offset_h": 7,
          "wdir": "VRB",
          "wspd": 10
        }
      ],
      "metar_raw": "METAR VTBS 292330Z VRB02KT 9999 FEW020 28/24 Q1008 NOSIG",
      "metar_wdir": "VRB",
      "metar_wspd": 2,
      "metar_oat": 28,
      "metar_qnh": 1008,
      "hourly_oat": [
        28,
        29,
        31,
        32,
        34,
        36,
        36,
        30,
        30,
        31,
        30,
        31,
        30,
        30,
        30,
        29,
        29,
        29,
        28,
        28,
        28,
        27,
        26,
        26,
        26
      ]
    },
    "SIN": {
      "icao": "WSSS",
      "issued": "2026-05-29T23:00:00.000Z",
      "raw": "TAF WSSS 292300Z 3000/3106 20007KT 9999 FEW015 SCT020",
      "groups": [
        {
          "text": "TAF WSSS 292300Z 3000/3106 20007KT 9999 FEW015 SCT020",
          "offset_h": 1,
          "wdir": 200,
          "wspd": 7
        }
      ],
      "metar_raw": "METAR WSSS 292330Z VRB02KT 9000 -RA FEW012 FEW017TCU BKN150 24/23 Q1010 NOSIG",
      "metar_wdir": "VRB",
      "metar_wspd": 2,
      "metar_oat": 24,
      "metar_qnh": 1010,
      "hourly_oat": [
        27,
        28,
        28,
        30,
        30,
        32,
        32,
        32,
        32,
        32,
        31,
        31,
        30,
        29,
        29,
        29,
        28,
        28,
        28,
        28,
        28,
        26,
        25,
        25,
        25
      ]
    },
    "KUL": {
      "icao": "WMKK",
      "issued": "2026-05-29T23:00:00.000Z",
      "raw": "TAF WMKK 292300Z 3000/3106 VRB02KT 9999 FEW018",
      "groups": [
        {
          "text": "TAF WMKK 292300Z 3000/3106 VRB02KT 9999 FEW018",
          "offset_h": 1,
          "wdir": "VRB",
          "wspd": 2
        }
      ],
      "metar_raw": "METAR WMKK 292330Z VRB02KT 9999 FEW017CB 26/24 Q1009 NOSIG",
      "metar_wdir": "VRB",
      "metar_wspd": 2,
      "metar_oat": 26,
      "metar_qnh": 1009,
      "hourly_oat": [
        24,
        24,
        26,
        27,
        29,
        30,
        30,
        31,
        31,
        31,
        31,
        30,
        29,
        28,
        27,
        27,
        27,
        26,
        26,
        25,
        25,
        25,
        25,
        25,
        24
      ]
    },
    "HAN": {
      "icao": "VVNB",
      "issued": "2026-05-29T23:00:00.000Z",
      "raw": "TAF VVNB 292300Z 3000/3024 06008KT 9999 SCT020 BKN040 TEMPO 3000/3004 3500 TSRA BKN010 FEW027CB",
      "groups": [
        {
          "text": "TAF VVNB 292300Z 3000/3024 06008KT 9999 SCT020 BKN040",
          "offset_h": 1,
          "wdir": 60,
          "wspd": 8
        },
        {
          "text": "TEMPO 3000/3004 3500 TSRA BKN010 FEW027CB",
          "offset_h": 1,
          "wdir": null,
          "wspd": null
        }
      ],
      "metar_raw": "METAR VVNB 292330Z 22004KT 160V330 9999 FEW037 BKN044 27/25 Q1010 NOSIG",
      "metar_wdir": 220,
      "metar_wspd": 4,
      "metar_oat": 27,
      "metar_qnh": 1010,
      "hourly_oat": [
        24,
        25,
        26,
        28,
        28,
        29,
        29,
        29,
        29,
        30,
        30,
        30,
        29,
        28,
        27,
        27,
        27,
        26,
        26,
        26,
        26,
        25,
        25,
        25,
        25
      ]
    },
    "CGK": {
      "icao": "WIII",
      "issued": "2026-05-29T23:00:00.000Z",
      "raw": "TAF WIII 292300Z 3000/3106 23006KT 7000 SCT020 BECMG 3001/3003 35012KT BECMG 3012/3014 22006KT",
      "groups": [
        {
          "text": "TAF WIII 292300Z 3000/3106 23006KT 7000 SCT020",
          "offset_h": 1,
          "wdir": 230,
          "wspd": 6
        },
        {
          "text": "BECMG 3001/3003 35012KT",
          "offset_h": 2,
          "wdir": 350,
          "wspd": 12
        },
        {
          "text": "BECMG 3012/3014 22006KT",
          "offset_h": 13,
          "wdir": 220,
          "wspd": 6
        }
      ],
      "metar_raw": "METAR WIII 292330Z 22004KT 5000 HZ FEW020 26/24 Q1010 NOSIG",
      "metar_wdir": 220,
      "metar_wspd": 4,
      "metar_oat": 26,
      "metar_qnh": 1010,
      "hourly_oat": [
        23,
        24,
        27,
        29,
        31,
        32,
        32,
        32,
        32,
        32,
        31,
        29,
        28,
        28,
        28,
        28,
        27,
        26,
        26,
        26,
        26,
        25,
        24,
        24,
        24
      ]
    },
    "TSA": {
      "icao": "RCSS",
      "issued": "2026-05-29T23:00:00.000Z",
      "raw": "TAF RCSS 292300Z 3000/3024 10015KT 9999 FEW020 BKN100 BECMG 3010/3012 09010KT",
      "groups": [
        {
          "text": "TAF RCSS 292300Z 3000/3024 10015KT 9999 FEW020 BKN100",
          "offset_h": 1,
          "wdir": 100,
          "wspd": 15
        },
        {
          "text": "BECMG 3010/3012 09010KT",
          "offset_h": 11,
          "wdir": 90,
          "wspd": 10
        }
      ],
      "metar_raw": "METAR RCSS 292330Z 10012KT 9999 FEW022 SCT037 28/22 Q1010 NOSIG RMK A2985",
      "metar_wdir": 100,
      "metar_wspd": 12,
      "metar_oat": 28,
      "metar_qnh": 1010,
      "hourly_oat": [
        25,
        27,
        28,
        28,
        29,
        29,
        29,
        28,
        28,
        27,
        26,
        25,
        24,
        24,
        24,
        23,
        23,
        22,
        22,
        22,
        22,
        22,
        21,
        22,
        25
      ]
    },
    "TPE": {
      "icao": "RCTP",
      "issued": "2026-05-29T23:00:00.000Z",
      "raw": "TAF RCTP 292300Z 3000/3106 06013KT 9999 FEW015 BKN080 TEMPO 3003/3009 04017G27KT TEMPO 3009/3014 07012G22KT TEMPO 3103/3106 05013G23KT",
      "groups": [
        {
          "text": "TAF RCTP 292300Z 3000/3106 06013KT 9999 FEW015 BKN080",
          "offset_h": 1,
          "wdir": 60,
          "wspd": 13
        },
        {
          "text": "TEMPO 3003/3009 04017G27KT",
          "offset_h": 4,
          "wdir": 40,
          "wspd": 17
        },
        {
          "text": "TEMPO 3009/3014 07012G22KT",
          "offset_h": 10,
          "wdir": 70,
          "wspd": 12
        },
        {
          "text": "TEMPO 3103/3106 05013G23KT",
          "offset_h": 28,
          "wdir": 50,
          "wspd": 13
        }
      ],
      "metar_raw": "METAR RCTP 292330Z 07013KT 9999 FEW015 BKN100 27/22 Q1010 NOSIG RMK A2983",
      "metar_wdir": 70,
      "metar_wspd": 13,
      "metar_oat": 27,
      "metar_qnh": 1010,
      "hourly_oat": [
        25,
        26,
        27,
        28,
        28,
        28,
        28,
        28,
        27,
        27,
        26,
        25,
        24,
        24,
        24,
        24,
        23,
        23,
        24,
        23,
        23,
        23,
        23,
        23,
        24
      ]
    },
    "HKG": {
      "icao": "VHHH",
      "issued": "2026-05-29T23:00:00.000Z",
      "raw": "TAF VHHH 292300Z 3000/3106 08010KT 9999 FEW015 TX33/3006Z TX32/3106Z TN28/3022Z TEMPO 3003/3009 25010KT TEMPO 3009/3013 3500 SHRA FEW010CB SCT020",
      "groups": [
        {
          "text": "TAF VHHH 292300Z 3000/3106 08010KT 9999 FEW015 TX33/3006Z TX32/3106Z TN28/3022Z",
          "offset_h": 1,
          "wdir": 80,
          "wspd": 10
        },
        {
          "text": "TEMPO 3003/3009 25010KT",
          "offset_h": 4,
          "wdir": 250,
          "wspd": 10
        },
        {
          "text": "TEMPO 3009/3013 3500 SHRA FEW010CB SCT020",
          "offset_h": 10,
          "wdir": null,
          "wspd": null
        }
      ],
      "metar_raw": "METAR VHHH 292330Z 05004KT 9999 FEW015 29/24 Q1010 NOSIG",
      "metar_wdir": 50,
      "metar_wspd": 4,
      "metar_oat": 29,
      "metar_qnh": 1010,
      "hourly_oat": [
        27,
        28,
        29,
        29,
        30,
        30,
        30,
        30,
        30,
        30,
        29,
        28,
        28,
        28,
        28,
        27,
        27,
        27,
        27,
        26,
        25,
        26,
        25,
        26,
        26
      ]
    },
    "CAN": {
      "icao": "ZGGG",
      "issued": "2026-05-29T21:15:00.000Z",
      "raw": "TAF ZGGG 292115Z 3000/3106 08003MPS 8000 BKN033 TX34/3007Z TX35/3106Z TN27/3022Z TEMPO 3007/3011 +TSRA SCT026CB BKN033 TEMPO 3019/3023 SHRA FEW026CB BKN033",
      "groups": [
        {
          "text": "TAF ZGGG 292115Z 3000/3106 08003MPS 8000 BKN033 TX34/3007Z TX35/3106Z TN27/3022Z",
          "offset_h": 1,
          "wdir": null,
          "wspd": null
        },
        {
          "text": "TEMPO 3007/3011 +TSRA SCT026CB BKN033",
          "offset_h": 8,
          "wdir": null,
          "wspd": null
        },
        {
          "text": "TEMPO 3019/3023 SHRA FEW026CB BKN033",
          "offset_h": 20,
          "wdir": null,
          "wspd": null
        }
      ],
      "metar_raw": "METAR ZGGG 292330Z VRB01MPS CAVOK 27/23 Q1011 NOSIG",
      "metar_wdir": null,
      "metar_wspd": null,
      "metar_oat": 27,
      "metar_qnh": 1011,
      "hourly_oat": [
        27,
        28,
        30,
        31,
        32,
        33,
        33,
        34,
        33,
        33,
        33,
        29,
        26,
        26,
        26,
        26,
        26,
        26,
        26,
        26,
        26,
        25,
        25,
        25,
        25
      ]
    },
    "PVG": {
      "icao": "ZSPD",
      "issued": "2026-05-29T21:12:00.000Z",
      "raw": "TAF ZSPD 292112Z 3000/3106 01004MPS 8000 SCT030 TX28/3006Z TX29/3106Z TN20/3021Z BECMG 3008/3009 11004MPS",
      "groups": [
        {
          "text": "TAF ZSPD 292112Z 3000/3106 01004MPS 8000 SCT030 TX28/3006Z TX29/3106Z TN20/3021Z",
          "offset_h": 1,
          "wdir": null,
          "wspd": null
        },
        {
          "text": "BECMG 3008/3009 11004MPS",
          "offset_h": 9,
          "wdir": null,
          "wspd": null
        }
      ],
      "metar_raw": "METAR ZSPD 292330Z 34002MPS 310V020 CAVOK 24/15 Q1014 NOSIG",
      "metar_wdir": null,
      "metar_wspd": null,
      "metar_oat": 24,
      "metar_qnh": 1014,
      "hourly_oat": [
        22,
        22,
        24,
        25,
        26,
        26,
        26,
        26,
        25,
        24,
        24,
        23,
        22,
        22,
        22,
        22,
        21,
        20,
        20,
        19,
        19,
        19,
        19,
        21,
        23
      ]
    },
    "SHA": {
      "icao": "ZSSS",
      "issued": "2026-05-29T21:12:00.000Z",
      "raw": "TAF ZSSS 292112Z 3000/3106 02004MPS 8000 SCT030 TX30/3006Z TX31/3106Z TN21/3021Z BECMG 3007/3008 11004MPS",
      "groups": [
        {
          "text": "TAF ZSSS 292112Z 3000/3106 02004MPS 8000 SCT030 TX30/3006Z TX31/3106Z TN21/3021Z",
          "offset_h": 1,
          "wdir": null,
          "wspd": null
        },
        {
          "text": "BECMG 3007/3008 11004MPS",
          "offset_h": 8,
          "wdir": null,
          "wspd": null
        }
      ],
      "metar_raw": "METAR ZSSS 292330Z VRB01MPS CAVOK 23/13 Q1014 NOSIG",
      "metar_wdir": null,
      "metar_wspd": null,
      "metar_oat": 23,
      "metar_qnh": 1014,
      "hourly_oat": [
        20,
        21,
        23,
        25,
        26,
        27,
        28,
        28,
        28,
        27,
        26,
        25,
        24,
        23,
        22,
        21,
        20,
        20,
        20,
        19,
        19,
        18,
        18,
        20,
        21
      ]
    },
    "PEK": {
      "icao": "ZBAA",
      "issued": "2026-05-29T21:09:00.000Z",
      "raw": "TAF ZBAA 292109Z 3000/3106 19004MPS CAVOK TX35/3007Z TX32/3106Z TN20/3021Z",
      "groups": [
        {
          "text": "TAF ZBAA 292109Z 3000/3106 19004MPS CAVOK TX35/3007Z TX32/3106Z TN20/3021Z",
          "offset_h": 1,
          "wdir": null,
          "wspd": null
        }
      ],
      "metar_raw": "METAR ZBAA 292330Z VRB01MPS CAVOK 23/15 Q1007 NOSIG",
      "metar_wdir": null,
      "metar_wspd": null,
      "metar_oat": 23,
      "metar_qnh": 1007,
      "hourly_oat": [
        19,
        22,
        25,
        28,
        30,
        32,
        33,
        34,
        34,
        34,
        33,
        32,
        30,
        29,
        28,
        28,
        27,
        26,
        25,
        25,
        24,
        22,
        22,
        23,
        24
      ]
    },
    "DLC": {
      "icao": "ZYTL",
      "issued": "2026-05-29T21:03:00.000Z",
      "raw": "TAF ZYTL 292103Z 3000/3024 24004MPS 6000 NSC TX29/3006Z TN19/3020Z",
      "groups": [
        {
          "text": "TAF ZYTL 292103Z 3000/3024 24004MPS 6000 NSC TX29/3006Z TN19/3020Z",
          "offset_h": 1,
          "wdir": null,
          "wspd": null
        }
      ],
      "metar_raw": "METAR ZYTL 292330Z 27008MPS CAVOK 27/12 Q1008 NOSIG",
      "metar_wdir": null,
      "metar_wspd": null,
      "metar_oat": 27,
      "metar_qnh": 1008,
      "hourly_oat": [
        22,
        24,
        25,
        26,
        27,
        27,
        28,
        28,
        27,
        26,
        26,
        25,
        24,
        24,
        24,
        23,
        22,
        22,
        22,
        21,
        21,
        20,
        20,
        21,
        22
      ]
    }
  }
}