{
  "updated": "2026-06-06T12:58:46Z",
  "tafs": {
    "SAN": {
      "icao": "KSAN",
      "issued": "2026-06-06T11:58:00.000Z",
      "raw": "TAF KSAN 061158Z 0612/0718 VRB04KT P6SM OVC012 FM061600 22009KT P6SM BKN015 FM070300 19005KT P6SM OVC021",
      "groups": [
        {
          "text": "TAF KSAN 061158Z 0612/0718 VRB04KT P6SM OVC012",
          "offset_h": 0,
          "wdir": "VRB",
          "wspd": 4
        },
        {
          "text": "FM061600 22009KT P6SM BKN015",
          "offset_h": 4,
          "wdir": 220,
          "wspd": 9
        },
        {
          "text": "FM070300 19005KT P6SM OVC021",
          "offset_h": 15,
          "wdir": 190,
          "wspd": 5
        }
      ],
      "metar_raw": "METAR KSAN 061251Z 18004KT 10SM OVC014 18/14 A2986 RMK AO2 SLP112 T01780139 $",
      "metar_wdir": 180,
      "metar_wspd": 4,
      "metar_oat": 18,
      "metar_qnh": 1011,
      "hourly_oat": [
        17,
        17,
        18,
        18,
        19,
        19,
        20,
        20,
        20,
        20,
        20,
        20,
        19,
        19,
        18,
        18,
        18,
        18,
        18,
        18,
        17,
        17,
        17,
        17,
        17
      ]
    },
    "LAX": {
      "icao": "KLAX",
      "issued": "2026-06-06T11:20:00.000Z",
      "raw": "TAF KLAX 061120Z 0612/0718 VRB03KT P6SM BKN013 OVC018 FM061700 25006KT P6SM OVC020 FM062100 26012KT P6SM SCT020 FM070100 26010KT P6SM OVC020 FM070500 VRB03KT P6SM OVC022 FM071700 26006KT P6SM OVC022",
      "groups": [
        {
          "text": "TAF KLAX 061120Z 0612/0718 VRB03KT P6SM BKN013 OVC018",
          "offset_h": 0,
          "wdir": "VRB",
          "wspd": 3
        },
        {
          "text": "FM061700 25006KT P6SM OVC020",
          "offset_h": 5,
          "wdir": 250,
          "wspd": 6
        },
        {
          "text": "FM062100 26012KT P6SM SCT020",
          "offset_h": 9,
          "wdir": 260,
          "wspd": 12
        },
        {
          "text": "FM070100 26010KT P6SM OVC020",
          "offset_h": 13,
          "wdir": 260,
          "wspd": 10
        },
        {
          "text": "FM070500 VRB03KT P6SM OVC022",
          "offset_h": 17,
          "wdir": "VRB",
          "wspd": 3
        },
        {
          "text": "FM071700 26006KT P6SM OVC022",
          "offset_h": 29,
          "wdir": 260,
          "wspd": 6
        }
      ],
      "metar_raw": "METAR KLAX 061253Z 18005KT 10SM FEW012 OVC019 18/14 A2985 RMK AO2 SLP105 T01830139 $",
      "metar_wdir": 180,
      "metar_wspd": 5,
      "metar_oat": 18,
      "metar_qnh": 1011,
      "hourly_oat": [
        18,
        18,
        18,
        19,
        19,
        20,
        20,
        20,
        21,
        21,
        22,
        21,
        20,
        19,
        18,
        17,
        17,
        17,
        17,
        17,
        17,
        17,
        17,
        17,
        17
      ]
    },
    "HNL": {
      "icao": "PHNL",
      "issued": "2026-06-06T11:20:00.000Z",
      "raw": "TAF PHNL 061120Z 0612/0718 07012KT P6SM FEW025 FEW045 FM062000 06015G28KT P6SM FEW025 SCT040 FM070600 06013G20KT P6SM FEW025 FEW040",
      "groups": [
        {
          "text": "TAF PHNL 061120Z 0612/0718 07012KT P6SM FEW025 FEW045",
          "offset_h": 0,
          "wdir": 70,
          "wspd": 12
        },
        {
          "text": "FM062000 06015G28KT P6SM FEW025 SCT040",
          "offset_h": 8,
          "wdir": 60,
          "wspd": 15
        },
        {
          "text": "FM070600 06013G20KT P6SM FEW025 FEW040",
          "offset_h": 18,
          "wdir": 60,
          "wspd": 13
        }
      ],
      "metar_raw": "METAR PHNL 061253Z 07017G24KT 10SM FEW025 BKN040 24/18 A3012 RMK AO2 SLP199 T02440178 $",
      "metar_wdir": 70,
      "metar_wspd": 17,
      "metar_oat": 24,
      "metar_qnh": 1020,
      "hourly_oat": [
        23,
        22,
        22,
        22,
        22,
        23,
        24,
        25,
        26,
        26,
        27,
        28,
        28,
        27,
        27,
        26,
        25,
        23,
        23,
        23,
        23,
        23,
        23,
        22,
        22
      ]
    },
    "ITM": {
      "icao": "RJOO",
      "issued": "2026-06-06T11:05:00.000Z",
      "raw": "TAF RJOO 061105Z 0612/0718 01004KT 9999 FEW030 BECMG 0616/0618 07012KT",
      "groups": [
        {
          "text": "TAF RJOO 061105Z 0612/0718 01004KT 9999 FEW030",
          "offset_h": 0,
          "wdir": 10,
          "wspd": 4
        },
        {
          "text": "BECMG 0616/0618 07012KT",
          "offset_h": 4,
          "wdir": 70,
          "wspd": 12
        }
      ],
      "metar_raw": "METAR RJOO 061200Z AUTO 25004KT 190V310 9999 FEW044 OVC240 23/18 Q1016",
      "metar_wdir": 250,
      "metar_wspd": 4,
      "metar_oat": 23,
      "metar_qnh": 1016,
      "hourly_oat": [
        22,
        22,
        21,
        21,
        20,
        20,
        20,
        20,
        20,
        20,
        20,
        20,
        20,
        20,
        20,
        20,
        20,
        20,
        20,
        20,
        20,
        20,
        20,
        20,
        21
      ]
    },
    "OKA": {
      "icao": "ROAH",
      "issued": "2026-06-06T11:05:00.000Z",
      "raw": "TAF ROAH 061105Z 0612/0718 20026KT 6000 -SHRA FEW005 BKN010 TEMPO 0612/0616 20028G38KT 2000 +TSRA BR FEW003 BKN005 SCT015CB TEMPO 0616/0621 3000 SHRA BR SCT003 BKN005 FEW015CB TEMPO 0621/0700 4000 -SHRA BR SCT003 BKN005 BECMG 0622/0700 21014KT TEMPO 0700/0718 FEW005 BKN008",
      "groups": [
        {
          "text": "TAF ROAH 061105Z 0612/0718 20026KT 6000 -SHRA FEW005 BKN010",
          "offset_h": 0,
          "wdir": 200,
          "wspd": 26
        },
        {
          "text": "TEMPO 0612/0616 20028G38KT 2000 +TSRA BR FEW003 BKN005 SCT015CB",
          "offset_h": 0,
          "wdir": 200,
          "wspd": 28
        },
        {
          "text": "TEMPO 0616/0621 3000 SHRA BR SCT003 BKN005 FEW015CB",
          "offset_h": 4,
          "wdir": null,
          "wspd": null
        },
        {
          "text": "TEMPO 0621/0700 4000 -SHRA BR SCT003 BKN005",
          "offset_h": 9,
          "wdir": null,
          "wspd": null
        },
        {
          "text": "BECMG 0622/0700 21014KT",
          "offset_h": 10,
          "wdir": 210,
          "wspd": 14
        },
        {
          "text": "TEMPO 0700/0718 FEW005 BKN008",
          "offset_h": 12,
          "wdir": null,
          "wspd": null
        }
      ],
      "metar_raw": "METAR ROAH 061230Z 19024KT 4000 RA BR FEW005 BKN007 BKN035 26/26 Q1006",
      "metar_wdir": 190,
      "metar_wspd": 24,
      "metar_oat": 26,
      "metar_qnh": 1006,
      "hourly_oat": [
        26,
        26,
        26,
        26,
        26,
        26,
        26,
        26,
        26,
        26,
        26,
        26,
        26,
        27,
        27,
        27,
        27,
        27,
        28,
        27,
        27,
        27,
        26,
        26,
        26
      ]
    },
    "NGO": {
      "icao": "RJGG",
      "issued": "2026-06-06T11:05:00.000Z",
      "raw": "TAF RJGG 061105Z 0612/0718 13010KT 9999 FEW020 BKN030 TEMPO 0703/0712 4000 RA BR BECMG 0712/0715 11020KT",
      "groups": [
        {
          "text": "TAF RJGG 061105Z 0612/0718 13010KT 9999 FEW020 BKN030",
          "offset_h": 0,
          "wdir": 130,
          "wspd": 10
        },
        {
          "text": "TEMPO 0703/0712 4000 RA BR",
          "offset_h": 15,
          "wdir": null,
          "wspd": null
        },
        {
          "text": "BECMG 0712/0715 11020KT",
          "offset_h": 24,
          "wdir": 110,
          "wspd": 20
        }
      ],
      "metar_raw": "METAR RJGG 061230Z 12010KT 9999 FEW020 BKN/// 20/17 Q1017 NOSIG",
      "metar_wdir": 120,
      "metar_wspd": 10,
      "metar_oat": 20,
      "metar_qnh": 1017,
      "hourly_oat": [
        21,
        21,
        21,
        20,
        20,
        20,
        20,
        20,
        20,
        20,
        20,
        21,
        21,
        21,
        21,
        20,
        20,
        20,
        20,
        21,
        21,
        21,
        21,
        21,
        21
      ]
    },
    "FUK": {
      "icao": "RJFF",
      "issued": "2026-06-06T11:05:00.000Z",
      "raw": "TAF RJFF 061105Z 0612/0718 13006KT 8000 -SHRA FEW008 SCT010 BKN015 TEMPO 0620/0706 4000 SHRA BR",
      "groups": [
        {
          "text": "TAF RJFF 061105Z 0612/0718 13006KT 8000 -SHRA FEW008 SCT010 BKN015",
          "offset_h": 0,
          "wdir": 130,
          "wspd": 6
        },
        {
          "text": "TEMPO 0620/0706 4000 SHRA BR",
          "offset_h": 8,
          "wdir": null,
          "wspd": null
        }
      ],
      "metar_raw": "METAR RJFF 061230Z 07004KT 020V100 9999 FEW030 BKN/// 26/20 Q1010 NOSIG",
      "metar_wdir": 70,
      "metar_wspd": 4,
      "metar_oat": 26,
      "metar_qnh": 1010,
      "hourly_oat": [
        25,
        24,
        24,
        24,
        24,
        24,
        24,
        23,
        22,
        22,
        22,
        23,
        23,
        22,
        22,
        22,
        22,
        22,
        23,
        23,
        23,
        23,
        23,
        22,
        22
      ]
    },
    "CTS": {
      "icao": "RJCC",
      "issued": "2026-06-06T11:05:00.000Z",
      "raw": "TAF RJCC 061105Z 0612/0718 17006KT 9999 FEW004 BKN015 TEMPO 0612/0618 3000 -SHRA BR FEW002 BKN004 TEMPO 0618/0703 FEW005 BKN008 BECMG 0709/0712 33004KT",
      "groups": [
        {
          "text": "TAF RJCC 061105Z 0612/0718 17006KT 9999 FEW004 BKN015",
          "offset_h": 0,
          "wdir": 170,
          "wspd": 6
        },
        {
          "text": "TEMPO 0612/0618 3000 -SHRA BR FEW002 BKN004",
          "offset_h": 0,
          "wdir": null,
          "wspd": null
        },
        {
          "text": "TEMPO 0618/0703 FEW005 BKN008",
          "offset_h": 6,
          "wdir": null,
          "wspd": null
        },
        {
          "text": "BECMG 0709/0712 33004KT",
          "offset_h": 21,
          "wdir": 330,
          "wspd": 4
        }
      ],
      "metar_raw": "METAR RJCC 061230Z 18009KT 2500 -SHRA BR FEW002 SCT003 BKN004 10/10 Q1021",
      "metar_wdir": 180,
      "metar_wspd": 9,
      "metar_oat": 10,
      "metar_qnh": 1021,
      "hourly_oat": [
        10,
        10,
        10,
        10,
        10,
        10,
        10,
        10,
        10,
        11,
        11,
        12,
        13,
        13,
        13,
        14,
        14,
        14,
        14,
        14,
        13,
        13,
        12,
        12,
        12
      ]
    },
    "NRT": {
      "icao": "RJAA",
      "issued": "2026-06-06T11:05:00.000Z",
      "raw": "TAF RJAA 061105Z 0612/0718 01006KT 9999 FEW005 BKN012 TEMPO 0612/0615 FEW005 BKN008 TEMPO 0615/0700 FEW003 BKN005 BECMG 0700/0703 13006KT TEMPO 0712/0718 FEW003 BKN008",
      "groups": [
        {
          "text": "TAF RJAA 061105Z 0612/0718 01006KT 9999 FEW005 BKN012",
          "offset_h": 0,
          "wdir": 10,
          "wspd": 6
        },
        {
          "text": "TEMPO 0612/0615 FEW005 BKN008",
          "offset_h": 0,
          "wdir": null,
          "wspd": null
        },
        {
          "text": "TEMPO 0615/0700 FEW003 BKN005",
          "offset_h": 3,
          "wdir": null,
          "wspd": null
        },
        {
          "text": "BECMG 0700/0703 13006KT",
          "offset_h": 12,
          "wdir": 130,
          "wspd": 6
        },
        {
          "text": "TEMPO 0712/0718 FEW003 BKN008",
          "offset_h": 24,
          "wdir": null,
          "wspd": null
        }
      ],
      "metar_raw": "METAR RJAA 061230Z 06004KT 360V100 9999 FEW007 BKN008 16/15 Q1018 BECMG 05006KT",
      "metar_wdir": 60,
      "metar_wspd": 4,
      "metar_oat": 16,
      "metar_qnh": 1018,
      "hourly_oat": [
        16,
        16,
        16,
        16,
        16,
        16,
        16,
        16,
        16,
        17,
        18,
        18,
        19,
        20,
        21,
        22,
        22,
        22,
        22,
        22,
        21,
        20,
        20,
        20,
        20
      ]
    },
    "KIX": {
      "icao": "RJBB",
      "issued": "2026-06-06T11:05:00.000Z",
      "raw": "TAF RJBB 061105Z 0612/0718 22006KT 9999 FEW020 SCT050 BECMG 0612/0614 06008KT TEMPO 0703/0709 3000 SHRA BR BECMG 0706/0709 06020KT",
      "groups": [
        {
          "text": "TAF RJBB 061105Z 0612/0718 22006KT 9999 FEW020 SCT050",
          "offset_h": 0,
          "wdir": 220,
          "wspd": 6
        },
        {
          "text": "BECMG 0612/0614 06008KT",
          "offset_h": 0,
          "wdir": 60,
          "wspd": 8
        },
        {
          "text": "TEMPO 0703/0709 3000 SHRA BR",
          "offset_h": 15,
          "wdir": null,
          "wspd": null
        },
        {
          "text": "BECMG 0706/0709 06020KT",
          "offset_h": 18,
          "wdir": 60,
          "wspd": 20
        }
      ],
      "metar_raw": "METAR RJBB 061230Z 22005KT 190V250 9999 FEW025 BKN040 BKN/// 23/19 Q1016 NOSIG",
      "metar_wdir": 220,
      "metar_wspd": 5,
      "metar_oat": 23,
      "metar_qnh": 1016,
      "hourly_oat": [
        22,
        22,
        22,
        22,
        22,
        22,
        21,
        21,
        21,
        21,
        21,
        20,
        21,
        21,
        21,
        21,
        21,
        21,
        21,
        21,
        21,
        22,
        22,
        22,
        22
      ]
    },
    "HND": {
      "icao": "RJTT",
      "issued": "2026-06-06T11:05:00.000Z",
      "raw": "TAF RJTT 061105Z 0612/0718 08008KT 9999 FEW008 SCT015 BECMG 0613/0615 03006KT BECMG 0703/0706 14008KT TEMPO 0709/0715 4000 -RA BR",
      "groups": [
        {
          "text": "TAF RJTT 061105Z 0612/0718 08008KT 9999 FEW008 SCT015",
          "offset_h": 0,
          "wdir": 80,
          "wspd": 8
        },
        {
          "text": "BECMG 0613/0615 03006KT",
          "offset_h": 1,
          "wdir": 30,
          "wspd": 6
        },
        {
          "text": "BECMG 0703/0706 14008KT",
          "offset_h": 15,
          "wdir": 140,
          "wspd": 8
        },
        {
          "text": "TEMPO 0709/0715 4000 -RA BR",
          "offset_h": 21,
          "wdir": null,
          "wspd": null
        }
      ],
      "metar_raw": "METAR RJTT 061230Z 11008KT 9999 FEW015 BKN/// 18/16 Q1018 NOSIG",
      "metar_wdir": 110,
      "metar_wspd": 8,
      "metar_oat": 18,
      "metar_qnh": 1018,
      "hourly_oat": [
        19,
        18,
        18,
        18,
        18,
        17,
        17,
        17,
        17,
        17,
        18,
        18,
        19,
        19,
        20,
        20,
        21,
        21,
        21,
        21,
        21,
        21,
        21,
        21,
        21
      ]
    },
    "CGK": {
      "icao": "WIII",
      "issued": "2026-06-06T11:00:00.000Z",
      "raw": "TAF WIII 061100Z 0612/0718 08010KT 7000 SCT020 BECMG 0616/0618 15005KT BECMG 0620/0622 5000 HZ BECMG 0701/0703 06013KT 8000 NSW",
      "groups": [
        {
          "text": "TAF WIII 061100Z 0612/0718 08010KT 7000 SCT020",
          "offset_h": 0,
          "wdir": 80,
          "wspd": 10
        },
        {
          "text": "BECMG 0616/0618 15005KT",
          "offset_h": 4,
          "wdir": 150,
          "wspd": 5
        },
        {
          "text": "BECMG 0620/0622 5000 HZ",
          "offset_h": 8,
          "wdir": null,
          "wspd": null
        },
        {
          "text": "BECMG 0701/0703 06013KT 8000 NSW",
          "offset_h": 13,
          "wdir": 60,
          "wspd": 13
        }
      ],
      "metar_raw": "METAR WIII 061230Z 09012KT 8000 FEW020 29/24 Q1012 NOSIG",
      "metar_wdir": 90,
      "metar_wspd": 12,
      "metar_oat": 29,
      "metar_qnh": 1012,
      "hourly_oat": [
        29,
        28,
        27,
        27,
        26,
        26,
        26,
        25,
        25,
        25,
        25,
        25,
        26,
        28,
        30,
        31,
        33,
        33,
        33,
        32,
        31,
        30,
        29,
        28,
        28
      ]
    },
    "HKG": {
      "icao": "VHHH",
      "issued": "2026-06-06T11:00:00.000Z",
      "raw": "TAF VHHH 061100Z 0612/0718 12010KT 9999 FEW015 SCT025 TX31/0706Z TN26/0623Z TEMPO 0612/0614 30020G35KT 1500 TSRA +SHRA FEW008CB SCT020 TEMPO 0618/0620 3500 SHRA FEW010CB SCT020 TEMPO 0620/0703 VRB20G30KT 2000 TSRA SHRA FEW008CB SCT020 TEMPO 0703/0706 3500 SHRA FEW010CB SCT020",
      "groups": [
        {
          "text": "TAF VHHH 061100Z 0612/0718 12010KT 9999 FEW015 SCT025 TX31/0706Z TN26/0623Z",
          "offset_h": 0,
          "wdir": 120,
          "wspd": 10
        },
        {
          "text": "TEMPO 0612/0614 30020G35KT 1500 TSRA +SHRA FEW008CB SCT020",
          "offset_h": 0,
          "wdir": 300,
          "wspd": 20
        },
        {
          "text": "TEMPO 0618/0620 3500 SHRA FEW010CB SCT020",
          "offset_h": 6,
          "wdir": null,
          "wspd": null
        },
        {
          "text": "TEMPO 0620/0703 VRB20G30KT 2000 TSRA SHRA FEW008CB SCT020",
          "offset_h": 8,
          "wdir": "VRB",
          "wspd": 20
        },
        {
          "text": "TEMPO 0703/0706 3500 SHRA FEW010CB SCT020",
          "offset_h": 15,
          "wdir": null,
          "wspd": null
        }
      ],
      "metar_raw": "SPECI VHHH 061246Z 13003KT 080V170 9999 TSRA FEW008 FEW010CB SCT025 26/25 Q1007 TEMPO 3000 SHRA TSRA FEW010CB SCT020",
      "metar_wdir": 130,
      "metar_wspd": 3,
      "metar_oat": 26,
      "metar_qnh": 1007,
      "hourly_oat": [
        28,
        28,
        28,
        28,
        27,
        27,
        26,
        27,
        27,
        27,
        27,
        27,
        27,
        27,
        27,
        26,
        27,
        28,
        28,
        28,
        28,
        27,
        27,
        26,
        27
      ]
    },
    "GMP": {
      "icao": "RKSS",
      "issued": "2026-06-06T11:00:00.000Z",
      "raw": "TAF RKSS 061100Z 0612/0718 34007KT CAVOK TN18/0620Z TX28/0706Z BECMG 0614/0616 09005KT BECMG 0703/0705 30007KT 9999 SCT040 BKN120 TEMPO 0712/0714 27007KT 6000 -RA BKN030 OVC080",
      "groups": [
        {
          "text": "TAF RKSS 061100Z 0612/0718 34007KT CAVOK TN18/0620Z TX28/0706Z",
          "offset_h": 0,
          "wdir": 340,
          "wspd": 7
        },
        {
          "text": "BECMG 0614/0616 09005KT",
          "offset_h": 2,
          "wdir": 90,
          "wspd": 5
        },
        {
          "text": "BECMG 0703/0705 30007KT 9999 SCT040 BKN120",
          "offset_h": 15,
          "wdir": 300,
          "wspd": 7
        },
        {
          "text": "TEMPO 0712/0714 27007KT 6000 -RA BKN030 OVC080",
          "offset_h": 24,
          "wdir": 270,
          "wspd": 7
        }
      ],
      "metar_raw": "METAR RKSS 061200Z 08008KT 050V110 CAVOK 23/12 Q1010 NOSIG",
      "metar_wdir": 80,
      "metar_wspd": 8,
      "metar_oat": 23,
      "metar_qnh": 1010,
      "hourly_oat": [
        20,
        20,
        20,
        20,
        19,
        19,
        18,
        18,
        18,
        18,
        18,
        19,
        20,
        21,
        22,
        22,
        23,
        24,
        24,
        24,
        23,
        22,
        21,
        20,
        20
      ]
    },
    "BKK": {
      "icao": "VTBS",
      "issued": "2026-06-06T11:00:00.000Z",
      "raw": "TAF VTBS 061100Z 0612/0718 20012KT 9999 FEW020 TEMPO 0707/0712 -TSRA FEW018CB SCT020 BKN080",
      "groups": [
        {
          "text": "TAF VTBS 061100Z 0612/0718 20012KT 9999 FEW020",
          "offset_h": 0,
          "wdir": 200,
          "wspd": 12
        },
        {
          "text": "TEMPO 0707/0712 -TSRA FEW018CB SCT020 BKN080",
          "offset_h": 19,
          "wdir": null,
          "wspd": null
        }
      ],
      "metar_raw": "METAR VTBS 061230Z 21015KT 9999 FEW020 30/24 Q1008 NOSIG",
      "metar_wdir": 210,
      "metar_wspd": 15,
      "metar_oat": 30,
      "metar_qnh": 1008,
      "hourly_oat": [
        28,
        28,
        28,
        28,
        28,
        28,
        28,
        28,
        28,
        28,
        28,
        28,
        28,
        29,
        30,
        32,
        33,
        31,
        32,
        31,
        31,
        32,
        31,
        29,
        29
      ]
    },
    "SIN": {
      "icao": "WSSS",
      "issued": "2026-06-06T11:00:00.000Z",
      "raw": "TAF WSSS 061100Z 0612/0718 15007KT 9999 FEW015 SCT020 TEMPO 0703/0706 3000 TSRA FEW012CB BKN015",
      "groups": [
        {
          "text": "TAF WSSS 061100Z 0612/0718 15007KT 9999 FEW015 SCT020",
          "offset_h": 0,
          "wdir": 150,
          "wspd": 7
        },
        {
          "text": "TEMPO 0703/0706 3000 TSRA FEW012CB BKN015",
          "offset_h": 15,
          "wdir": null,
          "wspd": null
        }
      ],
      "metar_raw": "METAR WSSS 061230Z 14007KT 9999 FEW018 BKN300 30/26 Q1010 NOSIG",
      "metar_wdir": 140,
      "metar_wspd": 7,
      "metar_oat": 30,
      "metar_qnh": 1010,
      "hourly_oat": [
        30,
        30,
        30,
        30,
        30,
        29,
        29,
        28,
        27,
        26,
        26,
        26,
        25,
        25,
        27,
        28,
        28,
        29,
        29,
        30,
        30,
        30,
        29,
        29,
        28
      ]
    },
    "KUL": {
      "icao": "WMKK",
      "issued": "2026-06-06T11:00:00.000Z",
      "raw": "TAF WMKK 061100Z 0612/0718 VRB03KT 9999 FEW030 PROB30 TEMPO 0622/0701 5000 TSRA FEW017CB",
      "groups": [
        {
          "text": "TAF WMKK 061100Z 0612/0718 VRB03KT 9999 FEW030",
          "offset_h": 0,
          "wdir": "VRB",
          "wspd": 3
        },
        {
          "text": "PROB30",
          "offset_h": 0,
          "wdir": null,
          "wspd": null
        },
        {
          "text": "TEMPO 0622/0701 5000 TSRA FEW017CB",
          "offset_h": 10,
          "wdir": null,
          "wspd": null
        }
      ],
      "metar_raw": "METAR WMKK 061230Z COR VRB02KT 9999 FEW017CB 31/25 Q1009 NOSIG",
      "metar_wdir": "VRB",
      "metar_wspd": 2,
      "metar_oat": 31,
      "metar_qnh": 1009,
      "hourly_oat": [
        29,
        28,
        28,
        28,
        25,
        25,
        24,
        24,
        24,
        24,
        23,
        24,
        24,
        26,
        28,
        30,
        31,
        31,
        31,
        30,
        30,
        30,
        30,
        28,
        28
      ]
    },
    "TSA": {
      "icao": "RCSS",
      "issued": "2026-06-06T11:00:00.000Z",
      "raw": "TAF RCSS 061100Z 0612/0712 29005KT 9999 FEW015 BKN032 TEMPO 0612/0615 FEW010 BKN020 BECMG 0616/0618 09005KT TEMPO 0700/0705 30010KT TEMPO 0706/0712 11010KT 2500 SHRA FEW006 FEW010CB BKN018",
      "groups": [
        {
          "text": "TAF RCSS 061100Z 0612/0712 29005KT 9999 FEW015 BKN032",
          "offset_h": 0,
          "wdir": 290,
          "wspd": 5
        },
        {
          "text": "TEMPO 0612/0615 FEW010 BKN020",
          "offset_h": 0,
          "wdir": null,
          "wspd": null
        },
        {
          "text": "BECMG 0616/0618 09005KT",
          "offset_h": 4,
          "wdir": 90,
          "wspd": 5
        },
        {
          "text": "TEMPO 0700/0705 30010KT",
          "offset_h": 12,
          "wdir": 300,
          "wspd": 10
        },
        {
          "text": "TEMPO 0706/0712 11010KT 2500 SHRA FEW006 FEW010CB BKN018",
          "offset_h": 18,
          "wdir": 110,
          "wspd": 10
        }
      ],
      "metar_raw": "METAR RCSS 061230Z VRB02KT 9999 FEW022 SCT037 BKN045 26/24 Q1007 NOSIG RMK A2976",
      "metar_wdir": "VRB",
      "metar_wspd": 2,
      "metar_oat": 26,
      "metar_qnh": 1007,
      "hourly_oat": [
        25,
        25,
        25,
        24,
        24,
        24,
        24,
        24,
        24,
        24,
        25,
        27,
        28,
        30,
        31,
        31,
        30,
        29,
        29,
        28,
        27,
        26,
        26,
        26,
        26
      ]
    },
    "TPE": {
      "icao": "RCTP",
      "issued": "2026-06-06T11:00:00.000Z",
      "raw": "TAF RCTP 061100Z 0612/0718 02005KT 9999 FEW015 BKN032 TEMPO 0612/0615 06005KT FEW006 BKN012 BECMG 0616/0618 24005KT TEMPO 0618/0624 16005KT TEMPO 0700/0706 29010KT TEMPO 0708/0714 15010KT 2500 SHRA FEW006 FEW010CB BKN018",
      "groups": [
        {
          "text": "TAF RCTP 061100Z 0612/0718 02005KT 9999 FEW015 BKN032",
          "offset_h": 0,
          "wdir": 20,
          "wspd": 5
        },
        {
          "text": "TEMPO 0612/0615 06005KT FEW006 BKN012",
          "offset_h": 0,
          "wdir": 60,
          "wspd": 5
        },
        {
          "text": "BECMG 0616/0618 24005KT",
          "offset_h": 4,
          "wdir": 240,
          "wspd": 5
        },
        {
          "text": "TEMPO 0618/0624 16005KT",
          "offset_h": 6,
          "wdir": 160,
          "wspd": 5
        },
        {
          "text": "TEMPO 0700/0706 29010KT",
          "offset_h": 12,
          "wdir": 290,
          "wspd": 10
        },
        {
          "text": "TEMPO 0708/0714 15010KT 2500 SHRA FEW006 FEW010CB BKN018",
          "offset_h": 20,
          "wdir": 150,
          "wspd": 10
        }
      ],
      "metar_raw": "METAR RCTP 061230Z 10004KT 070V140 9999 FEW012 SCT150 26/24 Q1008 NOSIG RMK A2977",
      "metar_wdir": 100,
      "metar_wspd": 4,
      "metar_oat": 26,
      "metar_qnh": 1008,
      "hourly_oat": [
        25,
        25,
        25,
        25,
        24,
        24,
        24,
        24,
        25,
        24,
        25,
        26,
        28,
        29,
        30,
        30,
        30,
        30,
        30,
        27,
        27,
        27,
        27,
        26,
        26
      ]
    },
    "HAN": {
      "icao": "VVNB",
      "issued": "2026-06-06T11:00:00.000Z",
      "raw": "TAF VVNB 061100Z 0612/0712 12005KT 9999 FEW030 TEMPO 0612/0616 22015G25KT 4000 TSRA SCT010 FEW027CB",
      "groups": [
        {
          "text": "TAF VVNB 061100Z 0612/0712 12005KT 9999 FEW030",
          "offset_h": 0,
          "wdir": 120,
          "wspd": 5
        },
        {
          "text": "TEMPO 0612/0616 22015G25KT 4000 TSRA SCT010 FEW027CB",
          "offset_h": 0,
          "wdir": 220,
          "wspd": 15
        }
      ],
      "metar_raw": "METAR VVNB 061230Z 21007KT 170V250 9999 VCTS FEW030CB SCT048 34/26 Q1002 TEMPO FM1330 24017KT 4000 TSRA",
      "metar_wdir": 210,
      "metar_wspd": 7,
      "metar_oat": 34,
      "metar_qnh": 1002,
      "hourly_oat": [
        30,
        30,
        30,
        30,
        29,
        29,
        29,
        28,
        28,
        28,
        28,
        28,
        30,
        31,
        33,
        34,
        35,
        35,
        36,
        36,
        36,
        35,
        34,
        33,
        32
      ]
    },
    "SGN": {
      "icao": "VVTS",
      "issued": "2026-06-06T11:00:00.000Z",
      "raw": "TAF VVTS 061100Z 0612/0718 23009KT 9999 SCT017 SCT040 TEMPO 0707/0710 23016G26KT 4000 TSRA SCT013 FEW015CB BKN040",
      "groups": [
        {
          "text": "TAF VVTS 061100Z 0612/0718 23009KT 9999 SCT017 SCT040",
          "offset_h": 0,
          "wdir": 230,
          "wspd": 9
        },
        {
          "text": "TEMPO 0707/0710 23016G26KT 4000 TSRA SCT013 FEW015CB BKN040",
          "offset_h": 19,
          "wdir": 230,
          "wspd": 16
        }
      ],
      "metar_raw": "METAR VVTS 061230Z 22006KT 9999 FEW026 SCT079 30/26 Q1009 NOSIG",
      "metar_wdir": 220,
      "metar_wspd": 6,
      "metar_oat": 30,
      "metar_qnh": 1009,
      "hourly_oat": [
        26,
        26,
        26,
        26,
        26,
        26,
        26,
        26,
        26,
        26,
        26,
        26,
        27,
        29,
        30,
        32,
        33,
        33,
        33,
        33,
        32,
        28,
        27,
        27,
        26
      ]
    },
    "CAN": {
      "icao": "ZGGG",
      "issued": "2026-06-06T09:05:00.000Z",
      "raw": "TAF ZGGG 060905Z 0612/0718 18003MPS 8000 BKN033 TX25/0612Z TX33/0707Z TN23/0622Z TEMPO 0619/0701 TSRA FEW026CB BKN033 TEMPO 0704/0707 2500 +TSRA SCT026CB BKN033 TEMPO 0708/0712 TSRA FEW026CB BKN033",
      "groups": [
        {
          "text": "TAF ZGGG 060905Z 0612/0718 18003MPS 8000 BKN033 TX25/0612Z TX33/0707Z TN23/0622Z",
          "offset_h": 0,
          "wdir": null,
          "wspd": null
        },
        {
          "text": "TEMPO 0619/0701 TSRA FEW026CB BKN033",
          "offset_h": 7,
          "wdir": null,
          "wspd": null
        },
        {
          "text": "TEMPO 0704/0707 2500 +TSRA SCT026CB BKN033",
          "offset_h": 16,
          "wdir": null,
          "wspd": null
        },
        {
          "text": "TEMPO 0708/0712 TSRA FEW026CB BKN033",
          "offset_h": 20,
          "wdir": null,
          "wspd": null
        }
      ],
      "metar_raw": "METAR ZGGG 061230Z 09002MPS 9999 -SHRA SCT010 BKN023 26/25 Q1006 NOSIG",
      "metar_wdir": null,
      "metar_wspd": null,
      "metar_oat": 26,
      "metar_qnh": 1006,
      "hourly_oat": [
        27,
        27,
        26,
        26,
        26,
        26,
        26,
        26,
        25,
        25,
        25,
        26,
        27,
        29,
        30,
        30,
        31,
        32,
        27,
        27,
        27,
        28,
        27,
        26,
        26
      ]
    },
    "DLC": {
      "icao": "ZYTL",
      "issued": "2026-06-06T09:03:00.000Z",
      "raw": "TAF ZYTL 060903Z 0612/0712 12004MPS 3000 BR BKN026 TX22/0706Z TN14/0620Z TEMPO 0612/0618 2500 -SHRA BR",
      "groups": [
        {
          "text": "TAF ZYTL 060903Z 0612/0712 12004MPS 3000 BR BKN026 TX22/0706Z TN14/0620Z",
          "offset_h": 0,
          "wdir": null,
          "wspd": null
        },
        {
          "text": "TEMPO 0612/0618 2500 -SHRA BR",
          "offset_h": 0,
          "wdir": null,
          "wspd": null
        }
      ],
      "metar_raw": "METAR ZYTL 061230Z 10004MPS 9999 -RA FEW026 16/14 Q1012 NOSIG",
      "metar_wdir": null,
      "metar_wspd": null,
      "metar_oat": 16,
      "metar_qnh": 1012,
      "hourly_oat": [
        16,
        16,
        16,
        16,
        16,
        15,
        15,
        16,
        16,
        16,
        16,
        17,
        19,
        20,
        20,
        19,
        21,
        21,
        21,
        20,
        19,
        18,
        18,
        17,
        16
      ]
    },
    "SHA": {
      "icao": "ZSSS",
      "issued": "2026-06-06T09:02:00.000Z",
      "raw": "TAF ZSSS 060902Z 0612/0718 13004MPS 8000 SCT030 TX25/0612Z TX30/0706Z TN20/0621Z BECMG 0614/0615 04004MPS",
      "groups": [
        {
          "text": "TAF ZSSS 060902Z 0612/0718 13004MPS 8000 SCT030 TX25/0612Z TX30/0706Z TN20/0621Z",
          "offset_h": 0,
          "wdir": null,
          "wspd": null
        },
        {
          "text": "BECMG 0614/0615 04004MPS",
          "offset_h": 2,
          "wdir": null,
          "wspd": null
        }
      ],
      "metar_raw": "METAR ZSSS 061230Z 12003MPS CAVOK 24/18 Q1008 NOSIG",
      "metar_wdir": null,
      "metar_wspd": null,
      "metar_oat": 24,
      "metar_qnh": 1008,
      "hourly_oat": [
        22,
        22,
        21,
        21,
        21,
        20,
        20,
        20,
        20,
        20,
        21,
        22,
        24,
        25,
        27,
        27,
        28,
        28,
        29,
        29,
        29,
        28,
        26,
        24,
        23
      ]
    },
    "PVG": {
      "icao": "ZSPD",
      "issued": "2026-06-06T09:02:00.000Z",
      "raw": "TAF ZSPD 060902Z 0612/0718 10004MPS 8000 SCT030 TX24/0612Z TX27/0706Z TN20/0621Z BECMG 0614/0615 04004MPS",
      "groups": [
        {
          "text": "TAF ZSPD 060902Z 0612/0718 10004MPS 8000 SCT030 TX24/0612Z TX27/0706Z TN20/0621Z",
          "offset_h": 0,
          "wdir": null,
          "wspd": null
        },
        {
          "text": "BECMG 0614/0615 04004MPS",
          "offset_h": 2,
          "wdir": null,
          "wspd": null
        }
      ],
      "metar_raw": "METAR ZSPD 061230Z 07004MPS 040V100 9999 SCT016 23/19 Q1008 NOSIG",
      "metar_wdir": null,
      "metar_wspd": null,
      "metar_oat": 23,
      "metar_qnh": 1008,
      "hourly_oat": [
        22,
        21,
        21,
        21,
        21,
        21,
        21,
        20,
        20,
        20,
        22,
        23,
        24,
        25,
        26,
        26,
        26,
        26,
        25,
        25,
        24,
        24,
        23,
        22,
        22
      ]
    },
    "PEK": {
      "icao": "ZBAA",
      "issued": "2026-06-06T09:01:00.000Z",
      "raw": "TAF ZBAA 060901Z 0612/0718 06003MPS 6000 NSC TX25/0707Z TN11/0621Z TN15/0718Z TEMPO 0706/0710 TS FEW050CB",
      "groups": [
        {
          "text": "TAF ZBAA 060901Z 0612/0718 06003MPS 6000 NSC TX25/0707Z TN11/0621Z TN15/0718Z",
          "offset_h": 0,
          "wdir": null,
          "wspd": null
        },
        {
          "text": "TEMPO 0706/0710 TS FEW050CB",
          "offset_h": 18,
          "wdir": null,
          "wspd": null
        }
      ],
      "metar_raw": "METAR ZBAA 061230Z VRB01MPS CAVOK 13/12 Q1013 NOSIG",
      "metar_wdir": null,
      "metar_wspd": null,
      "metar_oat": 13,
      "metar_qnh": 1013,
      "hourly_oat": [
        14,
        14,
        13,
        13,
        12,
        12,
        12,
        11,
        10,
        9,
        10,
        13,
        15,
        18,
        20,
        22,
        24,
        25,
        25,
        24,
        23,
        24,
        23,
        22,
        20
      ]
    }
  }
}