{
  "updated": "2026-07-04T17:55:05Z",
  "tafs": {
    "SAN": {
      "icao": "KSAN",
      "issued": "2026-07-04T17:31:00.000Z",
      "raw": "TAF KSAN 041731Z 0418/0524 29010KT P6SM BKN150 FM050300 VRB04KT P6SM SCT015 SCT150 FM050600 VRB03KT P6SM BKN012 FM051700 29007KT P6SM SCT015 FM051900 29012KT P6SM SKC",
      "groups": [
        {
          "text": "TAF KSAN 041731Z 0418/0524 29010KT P6SM BKN150",
          "offset_h": 1,
          "wdir": 290,
          "wspd": 10
        },
        {
          "text": "FM050300 VRB04KT P6SM SCT015 SCT150",
          "offset_h": 10,
          "wdir": "VRB",
          "wspd": 4
        },
        {
          "text": "FM050600 VRB03KT P6SM BKN012",
          "offset_h": 13,
          "wdir": "VRB",
          "wspd": 3
        },
        {
          "text": "FM051700 29007KT P6SM SCT015",
          "offset_h": 24,
          "wdir": 290,
          "wspd": 7
        },
        {
          "text": "FM051900 29012KT P6SM SKC",
          "offset_h": 26,
          "wdir": 290,
          "wspd": 12
        }
      ],
      "metar_raw": "METAR KSAN 041751Z 28008KT 10SM FEW015 BKN120 BKN200 23/17 A3004 RMK AO2 SLP171 T02280172 10233 20189 50002 $",
      "metar_wdir": 280,
      "metar_wspd": 8,
      "metar_oat": 23,
      "metar_qnh": 1017,
      "hourly_oat": [
        23,
        23,
        25,
        24,
        25,
        25,
        24,
        24,
        22,
        21,
        20,
        20,
        20,
        19,
        19,
        19,
        19,
        19,
        18,
        18,
        18,
        18,
        19,
        20,
        21
      ]
    },
    "HNL": {
      "icao": "PHNL",
      "issued": "2026-07-04T17:21:00.000Z",
      "raw": "TAF PHNL 041721Z 0418/0524 05010KT P6SM VCSH FEW025 FEW035 FM042000 05012G20KT P6SM FEW025 SCT045 FM050500 06010KT P6SM VCSH FEW025 SCT040 FM052000 05012G20KT P6SM FEW025 SCT045",
      "groups": [
        {
          "text": "TAF PHNL 041721Z 0418/0524 05010KT P6SM VCSH FEW025 FEW035",
          "offset_h": 1,
          "wdir": 50,
          "wspd": 10
        },
        {
          "text": "FM042000 05012G20KT P6SM FEW025 SCT045",
          "offset_h": 3,
          "wdir": 50,
          "wspd": 12
        },
        {
          "text": "FM050500 06010KT P6SM VCSH FEW025 SCT040",
          "offset_h": 12,
          "wdir": 60,
          "wspd": 10
        },
        {
          "text": "FM052000 05012G20KT P6SM FEW025 SCT045",
          "offset_h": 27,
          "wdir": 50,
          "wspd": 12
        }
      ],
      "metar_raw": "METAR PHNL 041653Z 07011KT 10SM FEW027 FEW038 26/18 A3002 RMK AO2 SLP164 T02560183 $",
      "metar_wdir": 70,
      "metar_wspd": 11,
      "metar_oat": 26,
      "metar_qnh": 1017,
      "hourly_oat": [
        24,
        25,
        26,
        28,
        29,
        29,
        29,
        29,
        29,
        28,
        27,
        26,
        25,
        24,
        24,
        24,
        24,
        24,
        24,
        24,
        24,
        24,
        24,
        23,
        24
      ]
    },
    "LAX": {
      "icao": "KLAX",
      "issued": "2026-07-04T17:20:00.000Z",
      "raw": "TAF KLAX 041720Z 0418/0524 26006KT P6SM SCT150 BKN250 FM042100 26012KT P6SM SCT150 BKN250 FM050700 25006KT P6SM SCT150 BKN250 FM050900 VRB03KT P6SM SCT010 SCT250 FM051200 VRB03KT P6SM BKN010 FM051800 26006KT P6SM FEW250 FM052100 26012KT P6SM SCT250",
      "groups": [
        {
          "text": "TAF KLAX 041720Z 0418/0524 26006KT P6SM SCT150 BKN250",
          "offset_h": 1,
          "wdir": 260,
          "wspd": 6
        },
        {
          "text": "FM042100 26012KT P6SM SCT150 BKN250",
          "offset_h": 4,
          "wdir": 260,
          "wspd": 12
        },
        {
          "text": "FM050700 25006KT P6SM SCT150 BKN250",
          "offset_h": 14,
          "wdir": 250,
          "wspd": 6
        },
        {
          "text": "FM050900 VRB03KT P6SM SCT010 SCT250",
          "offset_h": 16,
          "wdir": "VRB",
          "wspd": 3
        },
        {
          "text": "FM051200 VRB03KT P6SM BKN010",
          "offset_h": 19,
          "wdir": "VRB",
          "wspd": 3
        },
        {
          "text": "FM051800 26006KT P6SM FEW250",
          "offset_h": 25,
          "wdir": 260,
          "wspd": 6
        },
        {
          "text": "FM052100 26012KT P6SM SCT250",
          "offset_h": 28,
          "wdir": 260,
          "wspd": 12
        }
      ],
      "metar_raw": "METAR KLAX 041653Z VRB03KT 10SM FEW010 SCT150 BKN230 BKN300 21/16 A3003 RMK AO2 SLP167 ACSL DSNT NE T02060156 $",
      "metar_wdir": "VRB",
      "metar_wspd": 3,
      "metar_oat": 21,
      "metar_qnh": 1017,
      "hourly_oat": [
        20,
        20,
        22,
        22,
        24,
        25,
        23,
        22,
        20,
        20,
        19,
        18,
        18,
        18,
        18,
        18,
        18,
        17,
        17,
        17,
        16,
        17,
        18,
        19,
        20
      ]
    },
    "PEK": {
      "icao": "ZBAA",
      "issued": "2026-07-04T17:10:00.000Z",
      "raw": "TAF AMD ZBAA 041710Z 0418/0524 01004MPS 6000 NSC TX33/0507Z TN24/0421Z TN22/0521Z TEMPO 0419/0421 -TSRA FEW040CB TEMPO 0508/0514 -TSRA FEW040CB BKN040",
      "groups": [
        {
          "text": "TAF AMD ZBAA 041710Z 0418/0524 01004MPS 6000 NSC TX33/0507Z TN24/0421Z TN22/0521Z",
          "offset_h": 1,
          "wdir": null,
          "wspd": null
        },
        {
          "text": "TEMPO 0419/0421 -TSRA FEW040CB",
          "offset_h": 2,
          "wdir": null,
          "wspd": null
        },
        {
          "text": "TEMPO 0508/0514 -TSRA FEW040CB BKN040",
          "offset_h": 15,
          "wdir": null,
          "wspd": null
        }
      ],
      "metar_raw": "METAR ZBAA 041730Z VRB01MPS CAVOK 23/22 Q0996 RETS NOSIG",
      "metar_wdir": null,
      "metar_wspd": null,
      "metar_oat": 23,
      "metar_qnh": 996,
      "hourly_oat": [
        24,
        24,
        23,
        24,
        23,
        23,
        24,
        26,
        29,
        30,
        31,
        32,
        31,
        32,
        32,
        31,
        30,
        29,
        28,
        26,
        24,
        24,
        23,
        22,
        22
      ]
    },
    "HND": {
      "icao": "RJTT",
      "issued": "2026-07-04T17:05:00.000Z",
      "raw": "TAF RJTT 041705Z 0418/0600 11010KT 9000 -SHRA FEW010 BKN015 BKN030",
      "groups": [
        {
          "text": "TAF RJTT 041705Z 0418/0600 11010KT 9000 -SHRA FEW010 BKN015 BKN030",
          "offset_h": 1,
          "wdir": 110,
          "wspd": 10
        }
      ],
      "metar_raw": "METAR RJTT 041730Z 08005KT 9999 FEW010 BKN030 BKN/// 23/22 Q1011 NOSIG",
      "metar_wdir": 80,
      "metar_wspd": 5,
      "metar_oat": 23,
      "metar_qnh": 1011,
      "hourly_oat": [
        22,
        22,
        22,
        22,
        22,
        22,
        22,
        23,
        24,
        24,
        24,
        24,
        24,
        24,
        24,
        24,
        23,
        23,
        23,
        22,
        22,
        22,
        22,
        22,
        22
      ]
    },
    "ITM": {
      "icao": "RJOO",
      "issued": "2026-07-04T17:05:00.000Z",
      "raw": "TAF RJOO 041705Z 0418/0600 10005KT 9999 FEW020 SCT040 TEMPO 0418/0421 4000 -SHRA BR TEMPO 0505/0515 3000 SHRA BR TEMPO 0521/0600 4000 -SHRA BR",
      "groups": [
        {
          "text": "TAF RJOO 041705Z 0418/0600 10005KT 9999 FEW020 SCT040",
          "offset_h": 1,
          "wdir": 100,
          "wspd": 5
        },
        {
          "text": "TEMPO 0418/0421 4000 -SHRA BR",
          "offset_h": 1,
          "wdir": null,
          "wspd": null
        },
        {
          "text": "TEMPO 0505/0515 3000 SHRA BR",
          "offset_h": 12,
          "wdir": null,
          "wspd": null
        },
        {
          "text": "TEMPO 0521/0600 4000 -SHRA BR",
          "offset_h": 28,
          "wdir": null,
          "wspd": null
        }
      ],
      "metar_raw": "METAR RJOO 041700Z AUTO VRB02KT 9999 FEW007 OVC018 22/20 Q1009",
      "metar_wdir": "VRB",
      "metar_wspd": 2,
      "metar_oat": 22,
      "metar_qnh": 1009,
      "hourly_oat": [
        22,
        22,
        22,
        21,
        22,
        22,
        23,
        23,
        24,
        24,
        24,
        24,
        24,
        24,
        24,
        24,
        23,
        23,
        23,
        23,
        23,
        23,
        22,
        22,
        22
      ]
    },
    "OKA": {
      "icao": "ROAH",
      "issued": "2026-07-04T17:05:00.000Z",
      "raw": "TAF ROAH 041705Z 0418/0600 20010KT 9999 FEW010 SCT015",
      "groups": [
        {
          "text": "TAF ROAH 041705Z 0418/0600 20010KT 9999 FEW010 SCT015",
          "offset_h": 1,
          "wdir": 200,
          "wspd": 10
        }
      ],
      "metar_raw": "METAR ROAH 041730Z AUTO 20003KT 9999 NCD 27/25 Q1012",
      "metar_wdir": 200,
      "metar_wspd": 3,
      "metar_oat": 27,
      "metar_qnh": 1012,
      "hourly_oat": [
        27,
        27,
        27,
        27,
        27,
        28,
        29,
        29,
        30,
        30,
        30,
        30,
        30,
        30,
        30,
        30,
        29,
        28,
        28,
        27,
        27,
        27,
        27,
        27,
        27
      ]
    },
    "NGO": {
      "icao": "RJGG",
      "issued": "2026-07-04T17:05:00.000Z",
      "raw": "TAF RJGG 041705Z 0418/0600 15008KT 9999 FEW012 BKN020 TEMPO 0418/0420 FEW003 SCT005 BKN008 TEMPO 0506/0509 4000 SHRA BR FEW003 SCT005 BKN008 TEMPO 0515/0521 4000 SHRA BR FEW003 SCT005 BKN008",
      "groups": [
        {
          "text": "TAF RJGG 041705Z 0418/0600 15008KT 9999 FEW012 BKN020",
          "offset_h": 1,
          "wdir": 150,
          "wspd": 8
        },
        {
          "text": "TEMPO 0418/0420 FEW003 SCT005 BKN008",
          "offset_h": 1,
          "wdir": null,
          "wspd": null
        },
        {
          "text": "TEMPO 0506/0509 4000 SHRA BR FEW003 SCT005 BKN008",
          "offset_h": 13,
          "wdir": null,
          "wspd": null
        },
        {
          "text": "TEMPO 0515/0521 4000 SHRA BR FEW003 SCT005 BKN008",
          "offset_h": 22,
          "wdir": null,
          "wspd": null
        }
      ],
      "metar_raw": "METAR RJGG 041730Z AUTO 00000KT 9999 FEW011 BKN041 OVC043 //////TCU 22/21 Q1009 TEMPO FEW005 BKN008",
      "metar_wdir": 0,
      "metar_wspd": 0,
      "metar_oat": 22,
      "metar_qnh": 1009,
      "hourly_oat": [
        23,
        23,
        23,
        23,
        23,
        23,
        23,
        23,
        24,
        24,
        24,
        24,
        24,
        24,
        24,
        23,
        23,
        23,
        23,
        23,
        23,
        23,
        23,
        23,
        22
      ]
    },
    "FUK": {
      "icao": "RJFF",
      "issued": "2026-07-04T17:05:00.000Z",
      "raw": "TAF RJFF 041705Z 0418/0600 14006KT 8000 -SHRA FEW005 BKN020 TEMPO 0423/0500 4000 -TSRA BR FEW005 BKN015 FEW015CB BECMG 0500/0502 27006KT TEMPO 0500/0503 1500 +TSRA BR FEW005 BKN015 FEW015CB TEMPO 0503/0504 4000 -TSRA BR FEW006 BKN015 FEW015CB BECMG 0506/0509 15008KT TEMPO 0512/0518 1500 +TSRA BR FEW007 SCT009 BKN015 FEW015CB TEMPO 0518/0521 3000 TSRA BR BKN005 BKN014 FEW015CB BECMG 0518/0521 29006KT TEMPO 0521/0600 BKN005",
      "groups": [
        {
          "text": "TAF RJFF 041705Z 0418/0600 14006KT 8000 -SHRA FEW005 BKN020",
          "offset_h": 1,
          "wdir": 140,
          "wspd": 6
        },
        {
          "text": "TEMPO 0423/0500 4000 -TSRA BR FEW005 BKN015 FEW015CB",
          "offset_h": 6,
          "wdir": null,
          "wspd": null
        },
        {
          "text": "BECMG 0500/0502 27006KT",
          "offset_h": 7,
          "wdir": 270,
          "wspd": 6
        },
        {
          "text": "TEMPO 0500/0503 1500 +TSRA BR FEW005 BKN015 FEW015CB",
          "offset_h": 7,
          "wdir": null,
          "wspd": null
        },
        {
          "text": "TEMPO 0503/0504 4000 -TSRA BR FEW006 BKN015 FEW015CB",
          "offset_h": 10,
          "wdir": null,
          "wspd": null
        },
        {
          "text": "BECMG 0506/0509 15008KT",
          "offset_h": 13,
          "wdir": 150,
          "wspd": 8
        },
        {
          "text": "TEMPO 0512/0518 1500 +TSRA BR FEW007 SCT009 BKN015 FEW015CB",
          "offset_h": 19,
          "wdir": null,
          "wspd": null
        },
        {
          "text": "TEMPO 0518/0521 3000 TSRA BR BKN005 BKN014 FEW015CB",
          "offset_h": 25,
          "wdir": null,
          "wspd": null
        },
        {
          "text": "BECMG 0518/0521 29006KT",
          "offset_h": 25,
          "wdir": 290,
          "wspd": 6
        },
        {
          "text": "TEMPO 0521/0600 BKN005",
          "offset_h": 28,
          "wdir": null,
          "wspd": null
        }
      ],
      "metar_raw": "METAR RJFF 041730Z AUTO VRB02KT 9999 FEW025 SCT029 BKN070 26/24 Q1008 NOSIG",
      "metar_wdir": "VRB",
      "metar_wspd": 2,
      "metar_oat": 26,
      "metar_qnh": 1008,
      "hourly_oat": [
        25,
        25,
        25,
        25,
        25,
        25,
        26,
        26,
        26,
        25,
        25,
        26,
        26,
        26,
        26,
        25,
        26,
        25,
        25,
        25,
        25,
        25,
        25,
        25,
        25
      ]
    },
    "CTS": {
      "icao": "RJCC",
      "issued": "2026-07-04T17:05:00.000Z",
      "raw": "TAF RJCC 041705Z 0418/0600 16014KT 9999 FEW005 BKN012 TEMPO 0418/0422 FEW002 BKN005 TEMPO 0422/0500 FEW003 BKN008 TEMPO 0506/0515 FEW003 BKN008 TEMPO 0521/0600 FEW003 BKN008",
      "groups": [
        {
          "text": "TAF RJCC 041705Z 0418/0600 16014KT 9999 FEW005 BKN012",
          "offset_h": 1,
          "wdir": 160,
          "wspd": 14
        },
        {
          "text": "TEMPO 0418/0422 FEW002 BKN005",
          "offset_h": 1,
          "wdir": null,
          "wspd": null
        },
        {
          "text": "TEMPO 0422/0500 FEW003 BKN008",
          "offset_h": 5,
          "wdir": null,
          "wspd": null
        },
        {
          "text": "TEMPO 0506/0515 FEW003 BKN008",
          "offset_h": 13,
          "wdir": null,
          "wspd": null
        },
        {
          "text": "TEMPO 0521/0600 FEW003 BKN008",
          "offset_h": 28,
          "wdir": null,
          "wspd": null
        }
      ],
      "metar_raw": "METAR RJCC 041730Z 14007KT 9999 FEW005 BKN015 15/14 Q1014",
      "metar_wdir": 140,
      "metar_wspd": 7,
      "metar_oat": 15,
      "metar_qnh": 1014,
      "hourly_oat": [
        14,
        14,
        14,
        14,
        15,
        16,
        18,
        18,
        19,
        20,
        20,
        20,
        19,
        19,
        18,
        17,
        17,
        17,
        17,
        17,
        17,
        17,
        17,
        17,
        16
      ]
    },
    "KIX": {
      "icao": "RJBB",
      "issued": "2026-07-04T17:05:00.000Z",
      "raw": "TAF RJBB 041705Z 0418/0600 04008KT 9000 -SHRA FEW015 BKN025 TEMPO 0418/0421 FEW005 BKN008 BKN015 BECMG 0423/0501 27006KT BECMG 0509/0512 05006KT TEMPO 0509/0512 4000 -SHRA BR TEMPO 0521/0600 4000 -SHRA BR",
      "groups": [
        {
          "text": "TAF RJBB 041705Z 0418/0600 04008KT 9000 -SHRA FEW015 BKN025",
          "offset_h": 1,
          "wdir": 40,
          "wspd": 8
        },
        {
          "text": "TEMPO 0418/0421 FEW005 BKN008 BKN015",
          "offset_h": 1,
          "wdir": null,
          "wspd": null
        },
        {
          "text": "BECMG 0423/0501 27006KT",
          "offset_h": 6,
          "wdir": 270,
          "wspd": 6
        },
        {
          "text": "BECMG 0509/0512 05006KT",
          "offset_h": 16,
          "wdir": 50,
          "wspd": 6
        },
        {
          "text": "TEMPO 0509/0512 4000 -SHRA BR",
          "offset_h": 16,
          "wdir": null,
          "wspd": null
        },
        {
          "text": "TEMPO 0521/0600 4000 -SHRA BR",
          "offset_h": 28,
          "wdir": null,
          "wspd": null
        }
      ],
      "metar_raw": "METAR RJBB 041730Z AUTO 05008KT 9999 FEW004 BKN008 OVC018 22/21 Q1009 NOSIG",
      "metar_wdir": 50,
      "metar_wspd": 8,
      "metar_oat": 22,
      "metar_qnh": 1009,
      "hourly_oat": [
        23,
        23,
        23,
        23,
        23,
        23,
        23,
        23,
        23,
        23,
        23,
        23,
        24,
        24,
        24,
        24,
        24,
        24,
        24,
        24,
        24,
        24,
        24,
        24,
        23
      ]
    },
    "NRT": {
      "icao": "RJAA",
      "issued": "2026-07-04T17:05:00.000Z",
      "raw": "TAF RJAA 041705Z 0418/0600 13008KT 9999 FEW015 BKN030 BECMG 0515/0518 05004KT TEMPO 0515/0600 FEW001 BKN005",
      "groups": [
        {
          "text": "TAF RJAA 041705Z 0418/0600 13008KT 9999 FEW015 BKN030",
          "offset_h": 1,
          "wdir": 130,
          "wspd": 8
        },
        {
          "text": "BECMG 0515/0518 05004KT",
          "offset_h": 22,
          "wdir": 50,
          "wspd": 4
        },
        {
          "text": "TEMPO 0515/0600 FEW001 BKN005",
          "offset_h": 22,
          "wdir": null,
          "wspd": null
        }
      ],
      "metar_raw": "METAR RJAA 041730Z AUTO 11003KT 080V140 9999 FEW023 OVC050 //////TCU 22/21 Q1011 NOSIG",
      "metar_wdir": 110,
      "metar_wspd": 3,
      "metar_oat": 22,
      "metar_qnh": 1011,
      "hourly_oat": [
        22,
        22,
        22,
        21,
        22,
        21,
        22,
        23,
        24,
        24,
        24,
        24,
        24,
        24,
        24,
        23,
        23,
        22,
        22,
        22,
        22,
        22,
        21,
        21,
        20
      ]
    },
    "CGK": {
      "icao": "WIII",
      "issued": "2026-07-04T17:00:00.000Z",
      "raw": "TAF WIII 041700Z 0418/0600 08010KT 7000 SCT020 BECMG 0419/0421 15005KT 5000 HZ BECMG 0501/0503 06014KT 8000 NSW BECMG 0506/0508 5000 HZ BECMG 0516/0518 16005KT",
      "groups": [
        {
          "text": "TAF WIII 041700Z 0418/0600 08010KT 7000 SCT020",
          "offset_h": 1,
          "wdir": 80,
          "wspd": 10
        },
        {
          "text": "BECMG 0419/0421 15005KT 5000 HZ",
          "offset_h": 2,
          "wdir": 150,
          "wspd": 5
        },
        {
          "text": "BECMG 0501/0503 06014KT 8000 NSW",
          "offset_h": 8,
          "wdir": 60,
          "wspd": 14
        },
        {
          "text": "BECMG 0506/0508 5000 HZ",
          "offset_h": 13,
          "wdir": null,
          "wspd": null
        },
        {
          "text": "BECMG 0516/0518 16005KT",
          "offset_h": 23,
          "wdir": 160,
          "wspd": 5
        }
      ],
      "metar_raw": "METAR WIII 041730Z 11005KT 6000 FEW020 27/23 Q1012 NOSIG",
      "metar_wdir": 110,
      "metar_wspd": 5,
      "metar_oat": 27,
      "metar_qnh": 1012,
      "hourly_oat": [
        26,
        26,
        25,
        25,
        25,
        24,
        24,
        25,
        28,
        29,
        31,
        32,
        33,
        32,
        31,
        30,
        30,
        29,
        27,
        27,
        26,
        26,
        26,
        26,
        26
      ]
    },
    "GMP": {
      "icao": "RKSS",
      "issued": "2026-07-04T17:00:00.000Z",
      "raw": "TAF RKSS 041700Z 0418/0524 15006KT 6000 BKN030 BKN150 TN23/0419Z TX27/0504Z TN24/0521Z BECMG 0503/0505 20008KT -RA FEW010 BKN020 OVC070 TEMPO 0506/0508 24008KT 4000 BECMG 0515/0517 NSW BECMG 0518/0520 4000 BR",
      "groups": [
        {
          "text": "TAF RKSS 041700Z 0418/0524 15006KT 6000 BKN030 BKN150 TN23/0419Z TX27/0504Z TN24/0521Z",
          "offset_h": 1,
          "wdir": 150,
          "wspd": 6
        },
        {
          "text": "BECMG 0503/0505 20008KT -RA FEW010 BKN020 OVC070",
          "offset_h": 10,
          "wdir": 200,
          "wspd": 8
        },
        {
          "text": "TEMPO 0506/0508 24008KT 4000",
          "offset_h": 13,
          "wdir": 240,
          "wspd": 8
        },
        {
          "text": "BECMG 0515/0517 NSW",
          "offset_h": 22,
          "wdir": null,
          "wspd": null
        },
        {
          "text": "BECMG 0518/0520 4000 BR",
          "offset_h": 25,
          "wdir": null,
          "wspd": null
        }
      ],
      "metar_raw": "METAR RKSS 041700Z 05001KT 9999 SCT030 BKN200 24/24 Q1006 NOSIG",
      "metar_wdir": 50,
      "metar_wspd": 1,
      "metar_oat": 24,
      "metar_qnh": 1006,
      "hourly_oat": [
        22,
        21,
        21,
        21,
        22,
        22,
        24,
        25,
        26,
        26,
        26,
        27,
        27,
        26,
        26,
        25,
        25,
        24,
        24,
        24,
        24,
        24,
        24,
        24,
        24
      ]
    },
    "SIN": {
      "icao": "WSSS",
      "issued": "2026-07-04T17:00:00.000Z",
      "raw": "TAF WSSS 041700Z 0418/0600 13008KT 9999 FEW015 SCT020 TEMPO 0506/0509 3000 TSRA FEW012CB BKN015",
      "groups": [
        {
          "text": "TAF WSSS 041700Z 0418/0600 13008KT 9999 FEW015 SCT020",
          "offset_h": 1,
          "wdir": 130,
          "wspd": 8
        },
        {
          "text": "TEMPO 0506/0509 3000 TSRA FEW012CB BKN015",
          "offset_h": 13,
          "wdir": null,
          "wspd": null
        }
      ],
      "metar_raw": "METAR WSSS 041730Z 10007KT 9999 FEW016 BKN160 29/25 Q1011 NOSIG",
      "metar_wdir": 100,
      "metar_wspd": 7,
      "metar_oat": 29,
      "metar_qnh": 1011,
      "hourly_oat": [
        28,
        28,
        28,
        28,
        28,
        28,
        28,
        28,
        28,
        29,
        29,
        28,
        29,
        29,
        29,
        29,
        28,
        28,
        28,
        25,
        25,
        26,
        26,
        26,
        26
      ]
    },
    "TSA": {
      "icao": "RCSS",
      "issued": "2026-07-04T17:00:00.000Z",
      "raw": "TAF RCSS 041700Z 0418/0518 30005KT 9999 FEW010 BKN032 TEMPO 0418/0424 23005KT TEMPO 0503/0509 29010KT TEMPO 0505/0510 4000 SHRA FEW010 FEW015TCU BKN017",
      "groups": [
        {
          "text": "TAF RCSS 041700Z 0418/0518 30005KT 9999 FEW010 BKN032",
          "offset_h": 1,
          "wdir": 300,
          "wspd": 5
        },
        {
          "text": "TEMPO 0418/0424 23005KT",
          "offset_h": 1,
          "wdir": 230,
          "wspd": 5
        },
        {
          "text": "TEMPO 0503/0509 29010KT",
          "offset_h": 10,
          "wdir": 290,
          "wspd": 10
        },
        {
          "text": "TEMPO 0505/0510 4000 SHRA FEW010 FEW015TCU BKN017",
          "offset_h": 12,
          "wdir": null,
          "wspd": null
        }
      ],
      "metar_raw": "METAR RCSS 041700Z 25007KT 9999 FEW020 SCT035 BKN065 29/26 Q1011 NOSIG RMK A2987",
      "metar_wdir": 250,
      "metar_wspd": 7,
      "metar_oat": 29,
      "metar_qnh": 1011,
      "hourly_oat": [
        27,
        27,
        26,
        26,
        26,
        27,
        28,
        30,
        31,
        32,
        33,
        33,
        33,
        33,
        32,
        32,
        31,
        30,
        29,
        28,
        27,
        27,
        26,
        26,
        26
      ]
    },
    "TPE": {
      "icao": "RCTP",
      "issued": "2026-07-04T17:00:00.000Z",
      "raw": "TAF RCTP 041700Z 0418/0524 24008KT 9999 FEW010 BKN032 TEMPO 0418/0424 15005KT TEMPO 0503/0509 29013KT TEMPO 0506/0510 5000 SHRA FEW010 FEW015TCU BKN017 BECMG 0512/0514 18005KT TEMPO 0518/0524 14005KT",
      "groups": [
        {
          "text": "TAF RCTP 041700Z 0418/0524 24008KT 9999 FEW010 BKN032",
          "offset_h": 1,
          "wdir": 240,
          "wspd": 8
        },
        {
          "text": "TEMPO 0418/0424 15005KT",
          "offset_h": 1,
          "wdir": 150,
          "wspd": 5
        },
        {
          "text": "TEMPO 0503/0509 29013KT",
          "offset_h": 10,
          "wdir": 290,
          "wspd": 13
        },
        {
          "text": "TEMPO 0506/0510 5000 SHRA FEW010 FEW015TCU BKN017",
          "offset_h": 13,
          "wdir": null,
          "wspd": null
        },
        {
          "text": "BECMG 0512/0514 18005KT",
          "offset_h": 19,
          "wdir": 180,
          "wspd": 5
        },
        {
          "text": "TEMPO 0518/0524 14005KT",
          "offset_h": 25,
          "wdir": 140,
          "wspd": 5
        }
      ],
      "metar_raw": "METAR RCTP 041730Z 23007KT 9999 FEW012 SCT035 BKN100 28/26 Q1011 NOSIG RMK A2987",
      "metar_wdir": 230,
      "metar_wspd": 7,
      "metar_oat": 28,
      "metar_qnh": 1011,
      "hourly_oat": [
        27,
        26,
        26,
        26,
        26,
        26,
        28,
        29,
        30,
        31,
        31,
        31,
        31,
        31,
        31,
        30,
        30,
        29,
        28,
        28,
        28,
        27,
        27,
        26,
        26
      ]
    },
    "HKG": {
      "icao": "VHHH",
      "issued": "2026-07-04T17:00:00.000Z",
      "raw": "TAF VHHH 041700Z 0418/0524 16015KT 9999 FEW010 SCT025 TX32/0506Z TN28/0422Z TN28/0522Z TEMPO 0418/0420 3500 SHRA FEW010CB SCT020 TEMPO 0420/0502 16020G30KT 1500 TSRA +SHRA FEW008CB SCT015 TEMPO 0502/0506 3500 SHRA FEW010CB SCT020",
      "groups": [
        {
          "text": "TAF VHHH 041700Z 0418/0524 16015KT 9999 FEW010 SCT025 TX32/0506Z TN28/0422Z TN28/0522Z",
          "offset_h": 1,
          "wdir": 160,
          "wspd": 15
        },
        {
          "text": "TEMPO 0418/0420 3500 SHRA FEW010CB SCT020",
          "offset_h": 1,
          "wdir": null,
          "wspd": null
        },
        {
          "text": "TEMPO 0420/0502 16020G30KT 1500 TSRA +SHRA FEW008CB SCT015",
          "offset_h": 3,
          "wdir": 160,
          "wspd": 20
        },
        {
          "text": "TEMPO 0502/0506 3500 SHRA FEW010CB SCT020",
          "offset_h": 9,
          "wdir": null,
          "wspd": null
        }
      ],
      "metar_raw": "METAR VHHH 041730Z 16010KT 120V190 9999 FEW012 SCT025 29/26 Q1008 NOSIG",
      "metar_wdir": 160,
      "metar_wspd": 10,
      "metar_oat": 29,
      "metar_qnh": 1008,
      "hourly_oat": [
        28,
        27,
        27,
        27,
        27,
        27,
        27,
        28,
        28,
        29,
        29,
        29,
        30,
        30,
        30,
        30,
        30,
        29,
        28,
        28,
        28,
        28,
        28,
        28,
        28
      ]
    },
    "BKK": {
      "icao": "VTBS",
      "issued": "2026-07-04T17:00:00.000Z",
      "raw": "TAF VTBS 041700Z 0418/0524 22008KT 9999 FEW020 TEMPO 0422/0502 -TSRA FEW018CB SCT030 BKN080 TEMPO 0510/0514 VRB15KT 4000 TSRA FEW018CB SCT030 BKN080",
      "groups": [
        {
          "text": "TAF VTBS 041700Z 0418/0524 22008KT 9999 FEW020",
          "offset_h": 1,
          "wdir": 220,
          "wspd": 8
        },
        {
          "text": "TEMPO 0422/0502 -TSRA FEW018CB SCT030 BKN080",
          "offset_h": 5,
          "wdir": null,
          "wspd": null
        },
        {
          "text": "TEMPO 0510/0514 VRB15KT 4000 TSRA FEW018CB SCT030 BKN080",
          "offset_h": 17,
          "wdir": "VRB",
          "wspd": 15
        }
      ],
      "metar_raw": "METAR VTBS 041730Z 21006KT 9999 FEW020 29/23 Q1009 NOSIG",
      "metar_wdir": 210,
      "metar_wspd": 6,
      "metar_oat": 29,
      "metar_qnh": 1009,
      "hourly_oat": [
        28,
        28,
        27,
        27,
        27,
        27,
        27,
        28,
        28,
        29,
        29,
        30,
        30,
        30,
        29,
        29,
        28,
        26,
        26,
        26,
        26,
        26,
        26,
        27,
        27
      ]
    },
    "KUL": {
      "icao": "WMKK",
      "issued": "2026-07-04T17:00:00.000Z",
      "raw": "TAF WMKK 041700Z 0418/0600 VRB03KT 9999 FEW030 PROB30 TEMPO 0422/0501 5000 TSRA FEW010 FEW017CB",
      "groups": [
        {
          "text": "TAF WMKK 041700Z 0418/0600 VRB03KT 9999 FEW030",
          "offset_h": 1,
          "wdir": "VRB",
          "wspd": 3
        },
        {
          "text": "PROB30",
          "offset_h": 0,
          "wdir": null,
          "wspd": null
        },
        {
          "text": "TEMPO 0422/0501 5000 TSRA FEW010 FEW017CB",
          "offset_h": 5,
          "wdir": null,
          "wspd": null
        }
      ],
      "metar_raw": "METAR WMKK 041730Z 15004KT 080V210 9999 FEW017CB 28/24 Q1010 NOSIG",
      "metar_wdir": 150,
      "metar_wspd": 4,
      "metar_oat": 28,
      "metar_qnh": 1010,
      "hourly_oat": [
        26,
        25,
        25,
        25,
        24,
        24,
        24,
        25,
        26,
        27,
        28,
        29,
        26,
        27,
        28,
        27,
        27,
        26,
        26,
        25,
        25,
        25,
        25,
        25,
        24
      ]
    },
    "HAN": {
      "icao": "VVNB",
      "issued": "2026-07-04T17:00:00.000Z",
      "raw": "TAF VVNB 041700Z 0418/0518 24008KT 9999 FEW025 TEMPO 0418/0423 4000 RA SCT012 FEW020TCU TEMPO 0501/0504 4000 RA SCT012 FEW020TCU",
      "groups": [
        {
          "text": "TAF VVNB 041700Z 0418/0518 24008KT 9999 FEW025",
          "offset_h": 1,
          "wdir": 240,
          "wspd": 8
        },
        {
          "text": "TEMPO 0418/0423 4000 RA SCT012 FEW020TCU",
          "offset_h": 1,
          "wdir": null,
          "wspd": null
        },
        {
          "text": "TEMPO 0501/0504 4000 RA SCT012 FEW020TCU",
          "offset_h": 8,
          "wdir": null,
          "wspd": null
        }
      ],
      "metar_raw": "METAR VVNB 041730Z 01006KT 330V030 9999 FEW046 BKN088 29/24 Q1000 NOSIG",
      "metar_wdir": 10,
      "metar_wspd": 6,
      "metar_oat": 29,
      "metar_qnh": 1000,
      "hourly_oat": [
        26,
        26,
        26,
        26,
        26,
        26,
        26,
        26,
        27,
        29,
        30,
        31,
        32,
        32,
        32,
        32,
        31,
        32,
        31,
        30,
        30,
        29,
        29,
        29,
        29
      ]
    },
    "SGN": {
      "icao": "VVTS",
      "issued": "2026-07-04T17:00:00.000Z",
      "raw": "TAF VVTS 041700Z 0418/0524 24008KT 9999 SCT017 SCT040 TEMPO 0505/0507 5000 SHRA SCT015 FEW017CB BKN040 TEMPO 0507/0510 24015G28KT 3000 TSRA SCT013 SCT015CB BKN040",
      "groups": [
        {
          "text": "TAF VVTS 041700Z 0418/0524 24008KT 9999 SCT017 SCT040",
          "offset_h": 1,
          "wdir": 240,
          "wspd": 8
        },
        {
          "text": "TEMPO 0505/0507 5000 SHRA SCT015 FEW017CB BKN040",
          "offset_h": 12,
          "wdir": null,
          "wspd": null
        },
        {
          "text": "TEMPO 0507/0510 24015G28KT 3000 TSRA SCT013 SCT015CB BKN040",
          "offset_h": 14,
          "wdir": 240,
          "wspd": 15
        }
      ],
      "metar_raw": "METAR VVTS 041730Z 24007KT 9999 -RA FEW020 BKN098 26/24 Q1011 NOSIG",
      "metar_wdir": 240,
      "metar_wspd": 7,
      "metar_oat": 26,
      "metar_qnh": 1011,
      "hourly_oat": [
        25,
        25,
        25,
        25,
        24,
        24,
        25,
        25,
        27,
        29,
        30,
        31,
        32,
        32,
        32,
        30,
        28,
        27,
        27,
        26,
        26,
        26,
        26,
        26,
        25
      ]
    },
    "DLC": {
      "icao": "ZYTL",
      "issued": "2026-07-04T15:13:00.000Z",
      "raw": "TAF ZYTL 041513Z 0418/0518 15004MPS 5000 BR FEW033 TX30/0506Z TN22/0420Z TEMPO 0516/0518 2500 TSRA BR BKN008 BKN020 FEW040CB",
      "groups": [
        {
          "text": "TAF ZYTL 041513Z 0418/0518 15004MPS 5000 BR FEW033 TX30/0506Z TN22/0420Z",
          "offset_h": 1,
          "wdir": null,
          "wspd": null
        },
        {
          "text": "TEMPO 0516/0518 2500 TSRA BR BKN008 BKN020 FEW040CB",
          "offset_h": 23,
          "wdir": null,
          "wspd": null
        }
      ],
      "metar_raw": "METAR ZYTL 041730Z 14004G09MPS 100V200 9999 SCT020 23/21 Q1000 NOSIG",
      "metar_wdir": null,
      "metar_wspd": null,
      "metar_oat": 23,
      "metar_qnh": 1000,
      "hourly_oat": [
        23,
        23,
        22,
        22,
        22,
        23,
        24,
        26,
        26,
        28,
        28,
        28,
        27,
        27,
        27,
        27,
        26,
        25,
        24,
        24,
        24,
        24,
        24,
        22,
        22
      ]
    },
    "PVG": {
      "icao": "ZSPD",
      "issued": "2026-07-04T15:12:00.000Z",
      "raw": "TAF ZSPD 041512Z 0418/0524 29004MPS 6000 -SHRA BKN016 TX31/0506Z TN25/0421Z TN25/0521Z TEMPO 0418/0422 2800 +TSRA BKN011 SCT030CB TEMPO 0422/0502 33008G14MPS 2400 +TSRA BKN011 SCT030CB TEMPO 0506/0511 33008G14MPS 2500 +TSRA BKN011 SCT030CB",
      "groups": [
        {
          "text": "TAF ZSPD 041512Z 0418/0524 29004MPS 6000 -SHRA BKN016 TX31/0506Z TN25/0421Z TN25/0521Z",
          "offset_h": 1,
          "wdir": null,
          "wspd": null
        },
        {
          "text": "TEMPO 0418/0422 2800 +TSRA BKN011 SCT030CB",
          "offset_h": 1,
          "wdir": null,
          "wspd": null
        },
        {
          "text": "TEMPO 0422/0502 33008G14MPS 2400 +TSRA BKN011 SCT030CB",
          "offset_h": 5,
          "wdir": null,
          "wspd": null
        },
        {
          "text": "TEMPO 0506/0511 33008G14MPS 2500 +TSRA BKN011 SCT030CB",
          "offset_h": 13,
          "wdir": null,
          "wspd": null
        }
      ],
      "metar_raw": "METAR ZSPD 041730Z 21003MPS 9999 -SHRA NSC 26/26 Q1007 NOSIG",
      "metar_wdir": null,
      "metar_wspd": null,
      "metar_oat": 26,
      "metar_qnh": 1007,
      "hourly_oat": [
        26,
        26,
        26,
        26,
        26,
        26,
        27,
        27,
        27,
        28,
        28,
        31,
        30,
        31,
        28,
        27,
        28,
        28,
        26,
        26,
        26,
        26,
        26,
        27,
        27
      ]
    },
    "SHA": {
      "icao": "ZSSS",
      "issued": "2026-07-04T15:12:00.000Z",
      "raw": "TAF ZSSS 041512Z 0418/0524 20004MPS 6000 -SHRA BKN016 TX32/0506Z TN26/0421Z TN26/0521Z TEMPO 0418/0422 2800 +TSRA BKN013 SCT030CB TEMPO 0422/0501 33008G13MPS 2500 +TSRA BKN013 SCT030CB TEMPO 0505/0510 33008G13MPS 2500 +TSRA BKN013 SCT030CB",
      "groups": [
        {
          "text": "TAF ZSSS 041512Z 0418/0524 20004MPS 6000 -SHRA BKN016 TX32/0506Z TN26/0421Z TN26/0521Z",
          "offset_h": 1,
          "wdir": null,
          "wspd": null
        },
        {
          "text": "TEMPO 0418/0422 2800 +TSRA BKN013 SCT030CB",
          "offset_h": 1,
          "wdir": null,
          "wspd": null
        },
        {
          "text": "TEMPO 0422/0501 33008G13MPS 2500 +TSRA BKN013 SCT030CB",
          "offset_h": 5,
          "wdir": null,
          "wspd": null
        },
        {
          "text": "TEMPO 0505/0510 33008G13MPS 2500 +TSRA BKN013 SCT030CB",
          "offset_h": 12,
          "wdir": null,
          "wspd": null
        }
      ],
      "metar_raw": "METAR ZSSS 041730Z 20003MPS 9999 -SHRA NSC 26/25 Q1007 NOSIG",
      "metar_wdir": null,
      "metar_wspd": null,
      "metar_oat": 26,
      "metar_qnh": 1007,
      "hourly_oat": [
        27,
        26,
        26,
        26,
        26,
        26,
        27,
        27,
        27,
        28,
        29,
        30,
        30,
        29,
        27,
        28,
        28,
        27,
        26,
        27,
        26,
        26,
        26,
        27,
        27
      ]
    },
    "CAN": {
      "icao": "ZGGG",
      "issued": "2026-07-04T15:09:00.000Z",
      "raw": "TAF ZGGG 041509Z 0418/0524 16004MPS 8000 BKN033 TX32/0507Z TN26/0422Z TN26/0522Z TEMPO 0418/0424 SHRA FEW030CB BKN033 TEMPO 0504/0508 TSRA SCT011 SCT026CB BKN033 TEMPO 0508/0512 TSRA FEW026CB BKN033 TEMPO 0521/0524 SHRA FEW030CB BKN033",
      "groups": [
        {
          "text": "TAF ZGGG 041509Z 0418/0524 16004MPS 8000 BKN033 TX32/0507Z TN26/0422Z TN26/0522Z",
          "offset_h": 1,
          "wdir": null,
          "wspd": null
        },
        {
          "text": "TEMPO 0418/0424 SHRA FEW030CB BKN033",
          "offset_h": 1,
          "wdir": null,
          "wspd": null
        },
        {
          "text": "TEMPO 0504/0508 TSRA SCT011 SCT026CB BKN033",
          "offset_h": 11,
          "wdir": null,
          "wspd": null
        },
        {
          "text": "TEMPO 0508/0512 TSRA FEW026CB BKN033",
          "offset_h": 15,
          "wdir": null,
          "wspd": null
        },
        {
          "text": "TEMPO 0521/0524 SHRA FEW030CB BKN033",
          "offset_h": 28,
          "wdir": null,
          "wspd": null
        }
      ],
      "metar_raw": "METAR ZGGG 041730Z 08003MPS 9999 SCT023 27/25 Q1008 NOSIG",
      "metar_wdir": null,
      "metar_wspd": null,
      "metar_oat": 27,
      "metar_qnh": 1008,
      "hourly_oat": [
        25,
        24,
        24,
        24,
        24,
        24,
        24,
        25,
        26,
        26,
        27,
        28,
        29,
        31,
        31,
        30,
        31,
        30,
        29,
        28,
        28,
        28,
        27,
        27,
        27
      ]
    }
  }
}