{
  "updated": "2026-07-01T21:16:32Z",
  "tafs": {
    "HNL": {
      "icao": "PHNL",
      "issued": "2026-07-01T21:06:00.000Z",
      "raw": "TAF PHNL 012106Z 0121/0224 06016G26KT P6SM VCSH FEW025 SCT045 FM020600 06012KT P6SM FEW025 FEW045 FM022000 06015G23KT P6SM FEW025 SCT040",
      "groups": [
        {
          "text": "TAF PHNL 012106Z 0121/0224 06016G26KT P6SM VCSH FEW025 SCT045",
          "offset_h": 0,
          "wdir": 60,
          "wspd": 16
        },
        {
          "text": "FM020600 06012KT P6SM FEW025 FEW045",
          "offset_h": 9,
          "wdir": 60,
          "wspd": 12
        },
        {
          "text": "FM022000 06015G23KT P6SM FEW025 SCT040",
          "offset_h": 23,
          "wdir": 60,
          "wspd": 15
        }
      ],
      "metar_raw": "METAR PHNL 012053Z 07017G26KT 10SM FEW025 SCT050 30/21 A3003 RMK AO2 PK WND 09026/2049 SLP167 T03000206 50000 $",
      "metar_wdir": 70,
      "metar_wspd": 17,
      "metar_oat": 30,
      "metar_qnh": 1017,
      "hourly_oat": [
        29,
        30,
        30,
        30,
        29,
        28,
        28,
        26,
        25,
        24,
        24,
        24,
        24,
        24,
        24,
        24,
        23,
        23,
        23,
        23,
        24,
        26,
        27,
        28,
        28
      ]
    },
    "SAN": {
      "icao": "KSAN",
      "issued": "2026-07-01T20:30:00.000Z",
      "raw": "TAF KSAN 012030Z 0121/0224 27011KT P6SM BKN025 FM020300 VRB03KT P6SM OVC022 FM021900 29011KT P6SM SCT026",
      "groups": [
        {
          "text": "TAF KSAN 012030Z 0121/0224 27011KT P6SM BKN025",
          "offset_h": 0,
          "wdir": 270,
          "wspd": 11
        },
        {
          "text": "FM020300 VRB03KT P6SM OVC022",
          "offset_h": 6,
          "wdir": "VRB",
          "wspd": 3
        },
        {
          "text": "FM021900 29011KT P6SM SCT026",
          "offset_h": 22,
          "wdir": 290,
          "wspd": 11
        }
      ],
      "metar_raw": "METAR KSAN 012051Z 29010KT 10SM BKN023 22/14 A2997 RMK AO2 SLP147 T02170144 51002",
      "metar_wdir": 290,
      "metar_wspd": 10,
      "metar_oat": 22,
      "metar_qnh": 1015,
      "hourly_oat": [
        21,
        22,
        21,
        20,
        20,
        19,
        18,
        18,
        18,
        18,
        18,
        18,
        18,
        17,
        17,
        17,
        17,
        18,
        19,
        19,
        21,
        22,
        23,
        23,
        23
      ]
    },
    "NGO": {
      "icao": "RJGG",
      "issued": "2026-07-01T20:28:00.000Z",
      "raw": "TAF AMD RJGG 012028Z 0120/0300 15008KT 8000 -SHRA FEW005 BKN012 TEMPO 0120/0122 3000 TSRA BR FEW001 BKN005 FEW012CB TEMPO 0201/0203 4000 SHRA BR BECMG 0204/0206 30018KT",
      "groups": [
        {
          "text": "TAF AMD RJGG 012028Z 0120/0300 15008KT 8000 -SHRA FEW005 BKN012",
          "offset_h": -1,
          "wdir": 150,
          "wspd": 8
        },
        {
          "text": "TEMPO 0120/0122 3000 TSRA BR FEW001 BKN005 FEW012CB",
          "offset_h": -1,
          "wdir": null,
          "wspd": null
        },
        {
          "text": "TEMPO 0201/0203 4000 SHRA BR",
          "offset_h": 4,
          "wdir": null,
          "wspd": null
        },
        {
          "text": "BECMG 0204/0206 30018KT",
          "offset_h": 7,
          "wdir": 300,
          "wspd": 18
        }
      ],
      "metar_raw": "METAR RJGG 012100Z 13004KT 090V160 7000 -SHRA FEW008 BKN020 BKN045 23/23 Q1005 TEMPO 3000 TSRA BR FEW002 BKN008 FEW012CB BECMG 36006KT",
      "metar_wdir": 130,
      "metar_wspd": 4,
      "metar_oat": 23,
      "metar_qnh": 1005,
      "hourly_oat": [
        24,
        24,
        24,
        24,
        24,
        24,
        25,
        25,
        25,
        26,
        26,
        26,
        25,
        25,
        24,
        24,
        24,
        24,
        24,
        23,
        23,
        23,
        23,
        23,
        23
      ]
    },
    "LAX": {
      "icao": "KLAX",
      "issued": "2026-07-01T20:17:00.000Z",
      "raw": "TAF KLAX 012017Z 0120/0224 26008KT P6SM BKN028 BKN035 FM012100 26012KT P6SM SCT035 FM020300 28006KT P6SM SKC FM020500 VRB03KT P6SM OVC012 FM021800 25006KT P6SM BKN020 FM022000 26012KT P6SM FEW025",
      "groups": [
        {
          "text": "TAF KLAX 012017Z 0120/0224 26008KT P6SM BKN028 BKN035",
          "offset_h": -1,
          "wdir": 260,
          "wspd": 8
        },
        {
          "text": "FM012100 26012KT P6SM SCT035",
          "offset_h": 0,
          "wdir": 260,
          "wspd": 12
        },
        {
          "text": "FM020300 28006KT P6SM SKC",
          "offset_h": 6,
          "wdir": 280,
          "wspd": 6
        },
        {
          "text": "FM020500 VRB03KT P6SM OVC012",
          "offset_h": 8,
          "wdir": "VRB",
          "wspd": 3
        },
        {
          "text": "FM021800 25006KT P6SM BKN020",
          "offset_h": 21,
          "wdir": 250,
          "wspd": 6
        },
        {
          "text": "FM022000 26012KT P6SM FEW025",
          "offset_h": 23,
          "wdir": 260,
          "wspd": 12
        }
      ],
      "metar_raw": "METAR KLAX 012053Z 26013KT 10SM FEW019 SCT030 BKN038 21/15 A2995 RMK AO2 SLP141 T02060150 58000",
      "metar_wdir": 260,
      "metar_wspd": 13,
      "metar_oat": 21,
      "metar_qnh": 1014,
      "hourly_oat": [
        21,
        21,
        21,
        20,
        19,
        18,
        18,
        17,
        16,
        16,
        15,
        15,
        15,
        16,
        16,
        17,
        17,
        17,
        18,
        18,
        20,
        21,
        21,
        21,
        22
      ]
    },
    "HKG": {
      "icao": "VHHH",
      "issued": "2026-07-01T20:00:00.000Z",
      "raw": "TAF VHHH 012000Z 0121/0303 12010KT 9999 FEW015 SCT030 TX34/0206Z TN28/0122Z TN28/0222Z TEMPO 0200/0203 3000 SHRA FEW010CB SCT020 TEMPO 0218/0224 12015G25KT 3000 SHRA FEW008CB SCT020 TEMPO 0300/0303 14020G30KT 2500 TSRA SHRA FEW008CB SCT020",
      "groups": [
        {
          "text": "TAF VHHH 012000Z 0121/0303 12010KT 9999 FEW015 SCT030 TX34/0206Z TN28/0122Z TN28/0222Z",
          "offset_h": 0,
          "wdir": 120,
          "wspd": 10
        },
        {
          "text": "TEMPO 0200/0203 3000 SHRA FEW010CB SCT020",
          "offset_h": 3,
          "wdir": null,
          "wspd": null
        },
        {
          "text": "TEMPO 0218/0224 12015G25KT 3000 SHRA FEW008CB SCT020",
          "offset_h": 21,
          "wdir": 120,
          "wspd": 15
        },
        {
          "text": "TEMPO 0300/0303 14020G30KT 2500 TSRA SHRA FEW008CB SCT020",
          "offset_h": 27,
          "wdir": 140,
          "wspd": 20
        }
      ],
      "metar_raw": "METAR VHHH 012100Z 09008KT 9999 FEW018 SCT030 29/26 Q1007 NOSIG",
      "metar_wdir": 90,
      "metar_wspd": 8,
      "metar_oat": 29,
      "metar_qnh": 1007,
      "hourly_oat": [
        28,
        28,
        29,
        30,
        30,
        30,
        31,
        31,
        31,
        31,
        30,
        30,
        30,
        30,
        29,
        28,
        28,
        27,
        27,
        27,
        27,
        27,
        27,
        27,
        27
      ]
    },
    "KIX": {
      "icao": "RJBB",
      "issued": "2026-07-01T19:32:00.000Z",
      "raw": "TAF AMD RJBB 011932Z 0119/0300 22020KT 7000 -SHRA FEW005 SCT010 BKN020 TEMPO 0119/0200 3000 SHRA BR FEW003 SCT005 BKN008 BECMG 0209/0212 30012KT BECMG 0212/0215 34010KT",
      "groups": [
        {
          "text": "TAF AMD RJBB 011932Z 0119/0300 22020KT 7000 -SHRA FEW005 SCT010 BKN020",
          "offset_h": -2,
          "wdir": 220,
          "wspd": 20
        },
        {
          "text": "TEMPO 0119/0200 3000 SHRA BR FEW003 SCT005 BKN008",
          "offset_h": -2,
          "wdir": null,
          "wspd": null
        },
        {
          "text": "BECMG 0209/0212 30012KT",
          "offset_h": 12,
          "wdir": 300,
          "wspd": 12
        },
        {
          "text": "BECMG 0212/0215 34010KT",
          "offset_h": 15,
          "wdir": 340,
          "wspd": 10
        }
      ],
      "metar_raw": "METAR RJBB 012100Z 22017KT 8000 -SHRA FEW005 BKN008 BKN025 FEW025CB 25/24 Q1005 TEMPO 4000 SHRA BR",
      "metar_wdir": 220,
      "metar_wspd": 17,
      "metar_oat": 25,
      "metar_qnh": 1005,
      "hourly_oat": [
        25,
        25,
        25,
        26,
        25,
        24,
        25,
        26,
        26,
        26,
        26,
        25,
        25,
        25,
        24,
        24,
        24,
        24,
        24,
        23,
        23,
        23,
        23,
        23,
        22
      ]
    },
    "CTS": {
      "icao": "RJCC",
      "issued": "2026-07-01T17:05:00.000Z",
      "raw": "TAF RJCC 011705Z 0118/0300 19012KT 9999 FEW005 BKN015 TEMPO 0118/0121 1500 BR FEW001 BKN003 TEMPO 0121/0123 FEW003 BKN008 TEMPO 0206/0218 FEW003 BKN008",
      "groups": [
        {
          "text": "TAF RJCC 011705Z 0118/0300 19012KT 9999 FEW005 BKN015",
          "offset_h": -3,
          "wdir": 190,
          "wspd": 12
        },
        {
          "text": "TEMPO 0118/0121 1500 BR FEW001 BKN003",
          "offset_h": -3,
          "wdir": null,
          "wspd": null
        },
        {
          "text": "TEMPO 0121/0123 FEW003 BKN008",
          "offset_h": 0,
          "wdir": null,
          "wspd": null
        },
        {
          "text": "TEMPO 0206/0218 FEW003 BKN008",
          "offset_h": 9,
          "wdir": null,
          "wspd": null
        }
      ],
      "metar_raw": "METAR RJCC 012100Z 19005KT 3500 -DZ BR FEW001 BKN003 BKN006 17/16 Q1012",
      "metar_wdir": 190,
      "metar_wspd": 5,
      "metar_oat": 17,
      "metar_qnh": 1012,
      "hourly_oat": [
        17,
        17,
        17,
        18,
        18,
        18,
        19,
        19,
        19,
        19,
        18,
        18,
        17,
        16,
        15,
        15,
        15,
        15,
        15,
        15,
        16,
        16,
        16,
        16,
        16
      ]
    },
    "ITM": {
      "icao": "RJOO",
      "issued": "2026-07-01T17:05:00.000Z",
      "raw": "TAF RJOO 011705Z 0118/0300 24005KT 7000 -SHRA FEW008 SCT015 BKN030 TEMPO 0118/0122 2000 TSRA BR FEW003 SCT005 BKN008 FEW015CB TEMPO 0122/0200 3000 SHRA BR FEW003 BKN008 BKN015 BECMG 0206/0209 32010KT",
      "groups": [
        {
          "text": "TAF RJOO 011705Z 0118/0300 24005KT 7000 -SHRA FEW008 SCT015 BKN030",
          "offset_h": -3,
          "wdir": 240,
          "wspd": 5
        },
        {
          "text": "TEMPO 0118/0122 2000 TSRA BR FEW003 SCT005 BKN008 FEW015CB",
          "offset_h": -3,
          "wdir": null,
          "wspd": null
        },
        {
          "text": "TEMPO 0122/0200 3000 SHRA BR FEW003 BKN008 BKN015",
          "offset_h": 1,
          "wdir": null,
          "wspd": null
        },
        {
          "text": "BECMG 0206/0209 32010KT",
          "offset_h": 9,
          "wdir": 320,
          "wspd": 10
        }
      ],
      "metar_raw": "METAR RJOO 012100Z AUTO 28005KT 230V350 1000 R32L/0900VP2000D +RA BR FEW010 SCT017 BKN026 //////TCU 24/23 Q1005",
      "metar_wdir": 280,
      "metar_wspd": 5,
      "metar_oat": 24,
      "metar_qnh": 1005,
      "hourly_oat": [
        24,
        24,
        25,
        25,
        25,
        26,
        29,
        28,
        28,
        29,
        25,
        26,
        25,
        24,
        23,
        23,
        22,
        22,
        22,
        22,
        21,
        21,
        20,
        20,
        21
      ]
    },
    "OKA": {
      "icao": "ROAH",
      "issued": "2026-07-01T17:05:00.000Z",
      "raw": "TAF ROAH 011705Z 0118/0300 21008KT 9999 FEW010 SCT012 TEMPO 0118/0121 FEW005 BKN008 TEMPO 0215/0218 FEW005 BKN008",
      "groups": [
        {
          "text": "TAF ROAH 011705Z 0118/0300 21008KT 9999 FEW010 SCT012",
          "offset_h": -3,
          "wdir": 210,
          "wspd": 8
        },
        {
          "text": "TEMPO 0118/0121 FEW005 BKN008",
          "offset_h": -3,
          "wdir": null,
          "wspd": null
        },
        {
          "text": "TEMPO 0215/0218 FEW005 BKN008",
          "offset_h": 18,
          "wdir": null,
          "wspd": null
        }
      ],
      "metar_raw": "METAR ROAH 012100Z 20009KT 9999 FEW015 27/27 Q1013",
      "metar_wdir": 200,
      "metar_wspd": 9,
      "metar_oat": 27,
      "metar_qnh": 1013,
      "hourly_oat": [
        27,
        28,
        28,
        29,
        29,
        30,
        30,
        30,
        30,
        30,
        29,
        29,
        28,
        28,
        27,
        27,
        27,
        27,
        27,
        26,
        26,
        26,
        26,
        26,
        26
      ]
    },
    "NRT": {
      "icao": "RJAA",
      "issued": "2026-07-01T17:05:00.000Z",
      "raw": "TAF RJAA 011705Z 0118/0300 09010KT 6000 -SHRA FEW005 BKN012 TEMPO 0118/0201 1500 +SHRA BR FEW001 BKN003 BECMG 0123/0201 02006KT TEMPO 0201/0221 FEW001 BKN003 TEMPO 0221/0300 FEW005 BKN008",
      "groups": [
        {
          "text": "TAF RJAA 011705Z 0118/0300 09010KT 6000 -SHRA FEW005 BKN012",
          "offset_h": -3,
          "wdir": 90,
          "wspd": 10
        },
        {
          "text": "TEMPO 0118/0201 1500 +SHRA BR FEW001 BKN003",
          "offset_h": -3,
          "wdir": null,
          "wspd": null
        },
        {
          "text": "BECMG 0123/0201 02006KT",
          "offset_h": 2,
          "wdir": 20,
          "wspd": 6
        },
        {
          "text": "TEMPO 0201/0221 FEW001 BKN003",
          "offset_h": 4,
          "wdir": null,
          "wspd": null
        },
        {
          "text": "TEMPO 0221/0300 FEW005 BKN008",
          "offset_h": 24,
          "wdir": null,
          "wspd": null
        }
      ],
      "metar_raw": "METAR RJAA 012100Z 14008KT 3000 SHRA BR FEW003 SCT005 BKN040 21/20 Q1009 TEMPO FEW003 BKN005",
      "metar_wdir": 140,
      "metar_wspd": 8,
      "metar_oat": 21,
      "metar_qnh": 1009,
      "hourly_oat": [
        22,
        21,
        21,
        21,
        21,
        21,
        22,
        22,
        22,
        22,
        21,
        21,
        20,
        20,
        20,
        20,
        20,
        20,
        20,
        20,
        20,
        20,
        20,
        20,
        20
      ]
    },
    "HND": {
      "icao": "RJTT",
      "issued": "2026-07-01T17:05:00.000Z",
      "raw": "TAF RJTT 011705Z 0118/0300 14010KT 6000 -SHRA FEW005 BKN012 TEMPO 0118/0120 3500 SHRA BR FEW003 BKN005 TEMPO 0120/0123 2000 +SHRA BR FEW003 BKN005 BECMG 0121/0123 36010KT TEMPO 0123/0201 3500 SHRA BR FEW003 BKN005 TEMPO 0201/0209 4000 -SHRA BR FEW005 BKN008",
      "groups": [
        {
          "text": "TAF RJTT 011705Z 0118/0300 14010KT 6000 -SHRA FEW005 BKN012",
          "offset_h": -3,
          "wdir": 140,
          "wspd": 10
        },
        {
          "text": "TEMPO 0118/0120 3500 SHRA BR FEW003 BKN005",
          "offset_h": -3,
          "wdir": null,
          "wspd": null
        },
        {
          "text": "TEMPO 0120/0123 2000 +SHRA BR FEW003 BKN005",
          "offset_h": -1,
          "wdir": null,
          "wspd": null
        },
        {
          "text": "BECMG 0121/0123 36010KT",
          "offset_h": 0,
          "wdir": 360,
          "wspd": 10
        },
        {
          "text": "TEMPO 0123/0201 3500 SHRA BR FEW003 BKN005",
          "offset_h": 2,
          "wdir": null,
          "wspd": null
        },
        {
          "text": "TEMPO 0201/0209 4000 -SHRA BR FEW005 BKN008",
          "offset_h": 4,
          "wdir": null,
          "wspd": null
        }
      ],
      "metar_raw": "METAR RJTT 012100Z 07011KT 3500 SHRA BR FEW004 BKN007 BKN030 21/20 Q1008 TEMPO 2000 SHRA BR FEW003 BKN005",
      "metar_wdir": 70,
      "metar_wspd": 11,
      "metar_oat": 21,
      "metar_qnh": 1008,
      "hourly_oat": [
        22,
        22,
        23,
        23,
        23,
        23,
        23,
        23,
        23,
        23,
        22,
        22,
        22,
        22,
        22,
        22,
        21,
        21,
        21,
        21,
        21,
        21,
        21,
        21,
        21
      ]
    },
    "FUK": {
      "icao": "RJFF",
      "issued": "2026-07-01T17:05:00.000Z",
      "raw": "TAF RJFF 011705Z 0118/0300 31006KT 9999 FEW012 SCT020 BKN030 TEMPO 0118/0119 2000 SHRA BR BKN005 BKN008 TEMPO 0119/0121 BKN005 BKN007 BECMG 0212/0215 11004KT",
      "groups": [
        {
          "text": "TAF RJFF 011705Z 0118/0300 31006KT 9999 FEW012 SCT020 BKN030",
          "offset_h": -3,
          "wdir": 310,
          "wspd": 6
        },
        {
          "text": "TEMPO 0118/0119 2000 SHRA BR BKN005 BKN008",
          "offset_h": -3,
          "wdir": null,
          "wspd": null
        },
        {
          "text": "TEMPO 0119/0121 BKN005 BKN007",
          "offset_h": -2,
          "wdir": null,
          "wspd": null
        },
        {
          "text": "BECMG 0212/0215 11004KT",
          "offset_h": 15,
          "wdir": 110,
          "wspd": 4
        }
      ],
      "metar_raw": "METAR RJFF 012100Z 32005KT 9999 FEW001 BKN007 BKN035 22/21 Q1008 TEMPO BKN005 BKN015",
      "metar_wdir": 320,
      "metar_wspd": 5,
      "metar_oat": 22,
      "metar_qnh": 1008,
      "hourly_oat": [
        22,
        22,
        23,
        23,
        23,
        24,
        24,
        24,
        24,
        25,
        24,
        24,
        24,
        23,
        23,
        22,
        22,
        22,
        21,
        21,
        21,
        21,
        20,
        20,
        20
      ]
    },
    "SGN": {
      "icao": "VVTS",
      "issued": "2026-07-01T17:00:00.000Z",
      "raw": "TAF VVTS 011700Z 0118/0224 25010KT 9999 SCT017 TEMPO 0205/0208 25016G28KT 4000 SHRA SCT015 FEW017CB",
      "groups": [
        {
          "text": "TAF VVTS 011700Z 0118/0224 25010KT 9999 SCT017",
          "offset_h": -3,
          "wdir": 250,
          "wspd": 10
        },
        {
          "text": "TEMPO 0205/0208 25016G28KT 4000 SHRA SCT015 FEW017CB",
          "offset_h": 8,
          "wdir": 250,
          "wspd": 16
        }
      ],
      "metar_raw": "METAR VVTS 012100Z 24009KT 9999 SCT012 27/26 Q1006 NOSIG",
      "metar_wdir": 240,
      "metar_wspd": 9,
      "metar_oat": 27,
      "metar_qnh": 1006,
      "hourly_oat": [
        26,
        26,
        26,
        26,
        28,
        28,
        29,
        28,
        30,
        30,
        27,
        27,
        27,
        27,
        26,
        26,
        26,
        26,
        26,
        26,
        26,
        26,
        26,
        25,
        25
      ]
    },
    "SIN": {
      "icao": "WSSS",
      "issued": "2026-07-01T17:00:00.000Z",
      "raw": "TAF WSSS 011700Z 0118/0300 20007KT 9999 FEW015 SCT020 TEMPO 0121/0200 24015G25KT 3000 TSRA FEW012CB BKN015",
      "groups": [
        {
          "text": "TAF WSSS 011700Z 0118/0300 20007KT 9999 FEW015 SCT020",
          "offset_h": -3,
          "wdir": 200,
          "wspd": 7
        },
        {
          "text": "TEMPO 0121/0200 24015G25KT 3000 TSRA FEW012CB BKN015",
          "offset_h": 0,
          "wdir": 240,
          "wspd": 15
        }
      ],
      "metar_raw": "METAR WSSS 012100Z 21013KT 9000 FEW016 FEW018TCU FEW020CB SCT025 27/24 Q1009 TEMPO TL2215 4500 -TSRA",
      "metar_wdir": 210,
      "metar_wspd": 13,
      "metar_oat": 27,
      "metar_qnh": 1009,
      "hourly_oat": [
        26,
        26,
        26,
        27,
        28,
        28,
        29,
        28,
        28,
        29,
        29,
        29,
        29,
        29,
        28,
        28,
        26,
        26,
        26,
        26,
        27,
        27,
        27,
        26,
        26
      ]
    },
    "HAN": {
      "icao": "VVNB",
      "issued": "2026-07-01T17:00:00.000Z",
      "raw": "TAF VVNB 011700Z 0118/0218 09005KT 9999 FEW020 TEMPO 0118/0123 4000 TSRA SCT015 FEW027CB TEMPO 0200/0203 2500 +TSRA BKN010 FEW027CB TEMPO 0208/0212 3500 TSRA SCT012 FEW027CB",
      "groups": [
        {
          "text": "TAF VVNB 011700Z 0118/0218 09005KT 9999 FEW020",
          "offset_h": -3,
          "wdir": 90,
          "wspd": 5
        },
        {
          "text": "TEMPO 0118/0123 4000 TSRA SCT015 FEW027CB",
          "offset_h": -3,
          "wdir": null,
          "wspd": null
        },
        {
          "text": "TEMPO 0200/0203 2500 +TSRA BKN010 FEW027CB",
          "offset_h": 3,
          "wdir": null,
          "wspd": null
        },
        {
          "text": "TEMPO 0208/0212 3500 TSRA SCT012 FEW027CB",
          "offset_h": 11,
          "wdir": null,
          "wspd": null
        }
      ],
      "metar_raw": "METAR VVNB 012100Z 06005KT 9999 FEW022 27/26 Q1006 NOSIG",
      "metar_wdir": 60,
      "metar_wspd": 5,
      "metar_oat": 27,
      "metar_qnh": 1006,
      "hourly_oat": [
        25,
        24,
        25,
        25,
        26,
        28,
        29,
        30,
        31,
        31,
        32,
        32,
        32,
        32,
        31,
        29,
        29,
        28,
        28,
        28,
        28,
        27,
        27,
        26,
        26
      ]
    },
    "KUL": {
      "icao": "WMKK",
      "issued": "2026-07-01T17:00:00.000Z",
      "raw": "TAF WMKK 011700Z 0118/0300 VRB03KT 9999 FEW030",
      "groups": [
        {
          "text": "TAF WMKK 011700Z 0118/0300 VRB03KT 9999 FEW030",
          "offset_h": -3,
          "wdir": "VRB",
          "wspd": 3
        }
      ],
      "metar_raw": "METAR WMKK 012100Z 14003KT 070V200 9000 FEW010 26/25 Q1008 NOSIG",
      "metar_wdir": 140,
      "metar_wspd": 3,
      "metar_oat": 26,
      "metar_qnh": 1008,
      "hourly_oat": [
        25,
        25,
        24,
        25,
        27,
        28,
        29,
        27,
        29,
        30,
        30,
        30,
        29,
        29,
        28,
        27,
        27,
        26,
        26,
        26,
        26,
        26,
        26,
        26,
        25
      ]
    },
    "CGK": {
      "icao": "WIII",
      "issued": "2026-07-01T17:00:00.000Z",
      "raw": "TAF WIII 011700Z 0118/0300 15003KT 4000 HZ SCT020 BECMG 0201/0203 03010KT 8000 NSW",
      "groups": [
        {
          "text": "TAF WIII 011700Z 0118/0300 15003KT 4000 HZ SCT020",
          "offset_h": -3,
          "wdir": 150,
          "wspd": 3
        },
        {
          "text": "BECMG 0201/0203 03010KT 8000 NSW",
          "offset_h": 4,
          "wdir": 30,
          "wspd": 10
        }
      ],
      "metar_raw": "METAR WIII 012100Z 16005KT 5000 HZ FEW020 26/22 Q1010 NOSIG",
      "metar_wdir": 160,
      "metar_wspd": 5,
      "metar_oat": 26,
      "metar_qnh": 1010,
      "hourly_oat": [
        25,
        25,
        24,
        25,
        27,
        29,
        32,
        33,
        34,
        34,
        33,
        32,
        31,
        30,
        29,
        28,
        28,
        28,
        28,
        27,
        27,
        26,
        26,
        26,
        25
      ]
    },
    "TSA": {
      "icao": "RCSS",
      "issued": "2026-07-01T17:00:00.000Z",
      "raw": "TAF RCSS 011700Z 0118/0218 09005KT 9999 FEW015 TEMPO 0204/0210 VRB05KT FEW015 BKN025 BECMG 0210/0212 29005KT",
      "groups": [
        {
          "text": "TAF RCSS 011700Z 0118/0218 09005KT 9999 FEW015",
          "offset_h": -3,
          "wdir": 90,
          "wspd": 5
        },
        {
          "text": "TEMPO 0204/0210 VRB05KT FEW015 BKN025",
          "offset_h": 7,
          "wdir": "VRB",
          "wspd": 5
        },
        {
          "text": "BECMG 0210/0212 29005KT",
          "offset_h": 13,
          "wdir": 290,
          "wspd": 5
        }
      ],
      "metar_raw": "METAR RCSS 012100Z 25004KT 9999 FEW020 SCT200 27/24 Q1010 NOSIG RMK A2984",
      "metar_wdir": 250,
      "metar_wspd": 4,
      "metar_oat": 27,
      "metar_qnh": 1010,
      "hourly_oat": [
        25,
        26,
        27,
        29,
        31,
        33,
        34,
        34,
        34,
        32,
        32,
        31,
        30,
        29,
        28,
        27,
        27,
        27,
        26,
        26,
        26,
        26,
        26,
        26,
        25
      ]
    },
    "TPE": {
      "icao": "RCTP",
      "issued": "2026-07-01T17:00:00.000Z",
      "raw": "TAF RCTP 011700Z 0118/0224 18005KT 9999 FEW015 BECMG 0200/0202 33007KT BECMG 0211/0213 15005KT",
      "groups": [
        {
          "text": "TAF RCTP 011700Z 0118/0224 18005KT 9999 FEW015",
          "offset_h": -3,
          "wdir": 180,
          "wspd": 5
        },
        {
          "text": "BECMG 0200/0202 33007KT",
          "offset_h": 3,
          "wdir": 330,
          "wspd": 7
        },
        {
          "text": "BECMG 0211/0213 15005KT",
          "offset_h": 14,
          "wdir": 150,
          "wspd": 5
        }
      ],
      "metar_raw": "METAR RCTP 012100Z 25002KT 9999 FEW020 SCT150 27/27 Q1010 NOSIG RMK A2984",
      "metar_wdir": 250,
      "metar_wspd": 2,
      "metar_oat": 27,
      "metar_qnh": 1010,
      "hourly_oat": [
        25,
        26,
        28,
        29,
        30,
        30,
        30,
        30,
        30,
        30,
        29,
        29,
        29,
        28,
        28,
        28,
        27,
        27,
        27,
        26,
        26,
        26,
        26,
        26,
        26
      ]
    },
    "GMP": {
      "icao": "RKSS",
      "issued": "2026-07-01T17:00:00.000Z",
      "raw": "TAF RKSS 011700Z 0118/0224 16005KT 6000 SCT040 TN22/0119Z TX31/0205Z TN22/0220Z BECMG 0201/0203 25007KT 9999 TEMPO 0205/0207 28007KT 6000 -SHRA FEW010CB BKN025 OVC070 BECMG 0211/0213 18005KT 6000 SCT010 BECMG 0218/0220 4000 BR SCT010 BKN025 BECMG 0221/0223 6000 NSW",
      "groups": [
        {
          "text": "TAF RKSS 011700Z 0118/0224 16005KT 6000 SCT040 TN22/0119Z TX31/0205Z TN22/0220Z",
          "offset_h": -3,
          "wdir": 160,
          "wspd": 5
        },
        {
          "text": "BECMG 0201/0203 25007KT 9999",
          "offset_h": 4,
          "wdir": 250,
          "wspd": 7
        },
        {
          "text": "TEMPO 0205/0207 28007KT 6000 -SHRA FEW010CB BKN025 OVC070",
          "offset_h": 8,
          "wdir": 280,
          "wspd": 7
        },
        {
          "text": "BECMG 0211/0213 18005KT 6000 SCT010",
          "offset_h": 14,
          "wdir": 180,
          "wspd": 5
        },
        {
          "text": "BECMG 0218/0220 4000 BR SCT010 BKN025",
          "offset_h": 21,
          "wdir": null,
          "wspd": null
        },
        {
          "text": "BECMG 0221/0223 6000 NSW",
          "offset_h": 24,
          "wdir": null,
          "wspd": null
        }
      ],
      "metar_raw": "METAR RKSS 012100Z 06002KT 9999 -RA FEW017 BKN060 OVC130 23/23 Q1009 NOSIG",
      "metar_wdir": 60,
      "metar_wspd": 2,
      "metar_oat": 23,
      "metar_qnh": 1009,
      "hourly_oat": [
        21,
        21,
        22,
        23,
        24,
        25,
        26,
        27,
        26,
        26,
        26,
        26,
        25,
        24,
        23,
        23,
        22,
        22,
        21,
        21,
        21,
        21,
        20,
        21,
        21
      ]
    },
    "BKK": {
      "icao": "VTBS",
      "issued": "2026-07-01T17:00:00.000Z",
      "raw": "TAF VTBS 011700Z 0118/0224 29005KT 9999 FEW020 BECMG 0202/0204 22008KT TEMPO 0210/0216 VRB10G25KT 4000 TSRA FEW018CB SCT030 BKN100 BECMG 0218/0220 28005KT",
      "groups": [
        {
          "text": "TAF VTBS 011700Z 0118/0224 29005KT 9999 FEW020",
          "offset_h": -3,
          "wdir": 290,
          "wspd": 5
        },
        {
          "text": "BECMG 0202/0204 22008KT",
          "offset_h": 5,
          "wdir": 220,
          "wspd": 8
        },
        {
          "text": "TEMPO 0210/0216 VRB10G25KT 4000 TSRA FEW018CB SCT030 BKN100",
          "offset_h": 13,
          "wdir": "VRB",
          "wspd": 10
        },
        {
          "text": "BECMG 0218/0220 28005KT",
          "offset_h": 21,
          "wdir": 280,
          "wspd": 5
        }
      ],
      "metar_raw": "METAR VTBS 012100Z 10005KT 090V170 9999 FEW020 27/24 Q1006 NOSIG",
      "metar_wdir": 100,
      "metar_wspd": 5,
      "metar_oat": 27,
      "metar_qnh": 1006,
      "hourly_oat": [
        27,
        27,
        26,
        27,
        28,
        28,
        28,
        27,
        28,
        30,
        30,
        30,
        29,
        28,
        28,
        28,
        27,
        27,
        27,
        27,
        27,
        27,
        27,
        27,
        27
      ]
    },
    "DLC": {
      "icao": "ZYTL",
      "issued": "2026-07-01T15:05:00.000Z",
      "raw": "TAF ZYTL 011505Z 0118/0218 16004MPS 5000 BR SCT011 BKN026 TX27/0206Z TN20/0121Z",
      "groups": [
        {
          "text": "TAF ZYTL 011505Z 0118/0218 16004MPS 5000 BR SCT011 BKN026 TX27/0206Z TN20/0121Z",
          "offset_h": -3,
          "wdir": null,
          "wspd": null
        }
      ],
      "metar_raw": "METAR ZYTL 012100Z 14002MPS 090V180 7000 FEW010 SCT033 21/20 Q1008 NOSIG",
      "metar_wdir": null,
      "metar_wspd": null,
      "metar_oat": 21,
      "metar_qnh": 1008,
      "hourly_oat": [
        21,
        22,
        23,
        24,
        26,
        27,
        28,
        28,
        29,
        29,
        29,
        29,
        28,
        26,
        25,
        24,
        24,
        24,
        24,
        24,
        23,
        23,
        23,
        23,
        23
      ]
    },
    "PVG": {
      "icao": "ZSPD",
      "issued": "2026-07-01T15:02:00.000Z",
      "raw": "TAF ZSPD 011502Z 0118/0224 19004MPS 6000 BKN015 TX28/0206Z TN23/0121Z TN24/0221Z",
      "groups": [
        {
          "text": "TAF ZSPD 011502Z 0118/0224 19004MPS 6000 BKN015 TX28/0206Z TN23/0121Z TN24/0221Z",
          "offset_h": -3,
          "wdir": null,
          "wspd": null
        }
      ],
      "metar_raw": "METAR ZSPD 012100Z 15001MPS 5000 BR NSC 24/24 Q1009 NOSIG",
      "metar_wdir": null,
      "metar_wspd": null,
      "metar_oat": 24,
      "metar_qnh": 1009,
      "hourly_oat": [
        22,
        23,
        25,
        26,
        28,
        27,
        29,
        28,
        28,
        27,
        27,
        26,
        25,
        25,
        25,
        25,
        24,
        24,
        25,
        25,
        25,
        25,
        25,
        25,
        25
      ]
    },
    "SHA": {
      "icao": "ZSSS",
      "issued": "2026-07-01T15:02:00.000Z",
      "raw": "TAF ZSSS 011502Z 0118/0224 19004MPS 6000 BKN020 TX29/0206Z TN23/0121Z TN24/0221Z",
      "groups": [
        {
          "text": "TAF ZSSS 011502Z 0118/0224 19004MPS 6000 BKN020 TX29/0206Z TN23/0121Z TN24/0221Z",
          "offset_h": -3,
          "wdir": null,
          "wspd": null
        }
      ],
      "metar_raw": "METAR ZSSS 012100Z VRB01MPS 5000 BR NSC 23/23 Q1009 NOSIG",
      "metar_wdir": null,
      "metar_wspd": null,
      "metar_oat": 23,
      "metar_qnh": 1009,
      "hourly_oat": [
        22,
        23,
        24,
        26,
        27,
        28,
        28,
        28,
        28,
        27,
        27,
        26,
        25,
        25,
        25,
        25,
        25,
        25,
        25,
        25,
        25,
        25,
        25,
        25,
        25
      ]
    },
    "CAN": {
      "icao": "ZGGG",
      "issued": "2026-07-01T15:01:00.000Z",
      "raw": "TAF ZGGG 011501Z 0118/0224 10003MPS 8000 SCT040 TX32/0207Z TN26/0122Z TN25/0222Z TEMPO 0205/0209 TSRA SCT026CB BKN033",
      "groups": [
        {
          "text": "TAF ZGGG 011501Z 0118/0224 10003MPS 8000 SCT040 TX32/0207Z TN26/0122Z TN25/0222Z",
          "offset_h": -3,
          "wdir": null,
          "wspd": null
        },
        {
          "text": "TEMPO 0205/0209 TSRA SCT026CB BKN033",
          "offset_h": 8,
          "wdir": null,
          "wspd": null
        }
      ],
      "metar_raw": "METAR ZGGG 012100Z 08002MPS CAVOK 27/25 Q1008 NOSIG",
      "metar_wdir": null,
      "metar_wspd": null,
      "metar_oat": 27,
      "metar_qnh": 1008,
      "hourly_oat": [
        26,
        26,
        27,
        28,
        30,
        31,
        32,
        33,
        33,
        34,
        32,
        32,
        33,
        31,
        30,
        30,
        29,
        28,
        28,
        27,
        27,
        27,
        26,
        26,
        26
      ]
    },
    "PEK": {
      "icao": "ZBAA",
      "issued": "2026-07-01T15:00:00.000Z",
      "raw": "TAF ZBAA 011500Z 0118/0224 15004MPS 5000 BR NSC TX34/0207Z TN21/0121Z TN23/0221Z",
      "groups": [
        {
          "text": "TAF ZBAA 011500Z 0118/0224 15004MPS 5000 BR NSC TX34/0207Z TN21/0121Z TN23/0221Z",
          "offset_h": -3,
          "wdir": null,
          "wspd": null
        }
      ],
      "metar_raw": "METAR ZBAA 012100Z 15003MPS 5000 BR NSC 24/23 Q1005 NOSIG",
      "metar_wdir": null,
      "metar_wspd": null,
      "metar_oat": 24,
      "metar_qnh": 1005,
      "hourly_oat": [
        21,
        22,
        24,
        25,
        26,
        28,
        30,
        31,
        32,
        32,
        33,
        33,
        33,
        33,
        31,
        30,
        29,
        28,
        27,
        26,
        25,
        25,
        24,
        24,
        24
      ]
    }
  }
}