{
  "updated": "2026-07-02T17:25:22Z",
  "tafs": {
    "LAX": {
      "icao": "KLAX",
      "issued": "2026-07-02T17:22:00.000Z",
      "raw": "TAF KLAX 021722Z 0218/0324 25006KT P6SM SCT015 OVC025 FM022000 26012KT P6SM SCT035 FM030300 VRB03KT P6SM SKC FM030600 VRB03KT P6SM OVC012 FM031700 25006KT P6SM BKN015 FM031900 26012KT P6SM FEW015",
      "groups": [
        {
          "text": "TAF KLAX 021722Z 0218/0324 25006KT P6SM SCT015 OVC025",
          "offset_h": 1,
          "wdir": 250,
          "wspd": 6
        },
        {
          "text": "FM022000 26012KT P6SM SCT035",
          "offset_h": 3,
          "wdir": 260,
          "wspd": 12
        },
        {
          "text": "FM030300 VRB03KT P6SM SKC",
          "offset_h": 10,
          "wdir": "VRB",
          "wspd": 3
        },
        {
          "text": "FM030600 VRB03KT P6SM OVC012",
          "offset_h": 13,
          "wdir": "VRB",
          "wspd": 3
        },
        {
          "text": "FM031700 25006KT P6SM BKN015",
          "offset_h": 24,
          "wdir": 250,
          "wspd": 6
        },
        {
          "text": "FM031900 26012KT P6SM FEW015",
          "offset_h": 26,
          "wdir": 260,
          "wspd": 12
        }
      ],
      "metar_raw": "METAR KLAX 021653Z 25005KT 10SM SCT019 OVC026 19/14 A2998 RMK AO2 SLP151 T01890144 $",
      "metar_wdir": 250,
      "metar_wspd": 5,
      "metar_oat": 19,
      "metar_qnh": 1015,
      "hourly_oat": [
        19,
        20,
        22,
        22,
        22,
        22,
        21,
        20,
        20,
        19,
        17,
        17,
        16,
        16,
        15,
        15,
        14,
        15,
        15,
        16,
        15,
        16,
        16,
        17,
        19
      ]
    },
    "HNL": {
      "icao": "PHNL",
      "issued": "2026-07-02T17:20:00.000Z",
      "raw": "TAF PHNL 021720Z 0218/0324 05010KT P6SM FEW025 SCT045 FM022000 07015G25KT P6SM FEW025 SCT045 FM030600 05010KT P6SM SCT025 BKN040 FM032000 07015G25KT P6SM FEW025 SCT040",
      "groups": [
        {
          "text": "TAF PHNL 021720Z 0218/0324 05010KT P6SM FEW025 SCT045",
          "offset_h": 1,
          "wdir": 50,
          "wspd": 10
        },
        {
          "text": "FM022000 07015G25KT P6SM FEW025 SCT045",
          "offset_h": 3,
          "wdir": 70,
          "wspd": 15
        },
        {
          "text": "FM030600 05010KT P6SM SCT025 BKN040",
          "offset_h": 13,
          "wdir": 50,
          "wspd": 10
        },
        {
          "text": "FM032000 07015G25KT P6SM FEW025 SCT040",
          "offset_h": 27,
          "wdir": 70,
          "wspd": 15
        }
      ],
      "metar_raw": "METAR PHNL 021653Z 05008KT 10SM FEW025 25/19 A2998 RMK AO2 SLP150 T02500194 $",
      "metar_wdir": 50,
      "metar_wspd": 8,
      "metar_oat": 25,
      "metar_qnh": 1015,
      "hourly_oat": [
        24,
        25,
        26,
        27,
        28,
        29,
        29,
        28,
        29,
        28,
        27,
        26,
        24,
        24,
        23,
        23,
        23,
        23,
        23,
        23,
        23,
        23,
        23,
        22,
        24
      ]
    },
    "GMP": {
      "icao": "RKSS",
      "issued": "2026-07-02T17:00:00.000Z",
      "raw": "TAF RKSS 021700Z 0218/0324 19005KT 6000 SCT035 TN22/0220Z TX30/0306Z TN23/0320Z BECMG 0300/0302 25007KT 9999 BECMG 0310/0312 19005KT 6000",
      "groups": [
        {
          "text": "TAF RKSS 021700Z 0218/0324 19005KT 6000 SCT035 TN22/0220Z TX30/0306Z TN23/0320Z",
          "offset_h": 1,
          "wdir": 190,
          "wspd": 5
        },
        {
          "text": "BECMG 0300/0302 25007KT 9999",
          "offset_h": 7,
          "wdir": 250,
          "wspd": 7
        },
        {
          "text": "BECMG 0310/0312 19005KT 6000",
          "offset_h": 17,
          "wdir": 190,
          "wspd": 5
        }
      ],
      "metar_raw": "METAR RKSS 021700Z 01001KT 8000 NSC 21/21 Q1012 NOSIG",
      "metar_wdir": 10,
      "metar_wspd": 1,
      "metar_oat": 21,
      "metar_qnh": 1012,
      "hourly_oat": [
        21,
        21,
        21,
        20,
        21,
        21,
        22,
        22,
        24,
        25,
        26,
        26,
        27,
        27,
        26,
        26,
        25,
        24,
        23,
        22,
        22,
        22,
        22,
        22,
        22
      ]
    },
    "TPE": {
      "icao": "RCTP",
      "issued": "2026-07-02T17:00:00.000Z",
      "raw": "TAF RCTP 021700Z 0218/0324 18005KT 9999 FEW015 BKN032 BECMG 0300/0302 33005KT TEMPO 0306/0310 30010KT FEW010 FEW015CB BKN018 BECMG 0310/0312 20005KT TEMPO 0318/0324 14005KT",
      "groups": [
        {
          "text": "TAF RCTP 021700Z 0218/0324 18005KT 9999 FEW015 BKN032",
          "offset_h": 1,
          "wdir": 180,
          "wspd": 5
        },
        {
          "text": "BECMG 0300/0302 33005KT",
          "offset_h": 7,
          "wdir": 330,
          "wspd": 5
        },
        {
          "text": "TEMPO 0306/0310 30010KT FEW010 FEW015CB BKN018",
          "offset_h": 13,
          "wdir": 300,
          "wspd": 10
        },
        {
          "text": "BECMG 0310/0312 20005KT",
          "offset_h": 17,
          "wdir": 200,
          "wspd": 5
        },
        {
          "text": "TEMPO 0318/0324 14005KT",
          "offset_h": 25,
          "wdir": 140,
          "wspd": 5
        }
      ],
      "metar_raw": "METAR RCTP 021700Z 16006KT 9999 FEW020 28/24 Q1012 NOSIG RMK A2991",
      "metar_wdir": 160,
      "metar_wspd": 6,
      "metar_oat": 28,
      "metar_qnh": 1012,
      "hourly_oat": [
        27,
        26,
        26,
        26,
        26,
        26,
        28,
        29,
        30,
        31,
        30,
        30,
        30,
        29,
        29,
        29,
        29,
        29,
        28,
        28,
        28,
        27,
        27,
        27,
        27
      ]
    },
    "HKG": {
      "icao": "VHHH",
      "issued": "2026-07-02T17:00:00.000Z",
      "raw": "TAF VHHH 021700Z 0218/0324 12020KT 9999 FEW015 SCT030 TX31/0306Z TN27/0222Z TN27/0322Z TEMPO 0218/0224 12020G30KT 2500 SHRA FEW008CB SCT020 TEMPO 0300/0306 13020G30KT 1500 +SHRA FEW008CB SCT015 TEMPO 0306/0315 13025G35KT 1500 TSRA +SHRA FEW008CB SCT015 TEMPO 0315/0321 13025G35KT 2000 TSRA SHRA FEW008CB SCT020 TEMPO 0321/0324 14020G30KT 1000 +SHRA FEW006CB SCT015",
      "groups": [
        {
          "text": "TAF VHHH 021700Z 0218/0324 12020KT 9999 FEW015 SCT030 TX31/0306Z TN27/0222Z TN27/0322Z",
          "offset_h": 1,
          "wdir": 120,
          "wspd": 20
        },
        {
          "text": "TEMPO 0218/0224 12020G30KT 2500 SHRA FEW008CB SCT020",
          "offset_h": 1,
          "wdir": 120,
          "wspd": 20
        },
        {
          "text": "TEMPO 0300/0306 13020G30KT 1500 +SHRA FEW008CB SCT015",
          "offset_h": 7,
          "wdir": 130,
          "wspd": 20
        },
        {
          "text": "TEMPO 0306/0315 13025G35KT 1500 TSRA +SHRA FEW008CB SCT015",
          "offset_h": 13,
          "wdir": 130,
          "wspd": 25
        },
        {
          "text": "TEMPO 0315/0321 13025G35KT 2000 TSRA SHRA FEW008CB SCT020",
          "offset_h": 22,
          "wdir": 130,
          "wspd": 25
        },
        {
          "text": "TEMPO 0321/0324 14020G30KT 1000 +SHRA FEW006CB SCT015",
          "offset_h": 28,
          "wdir": 140,
          "wspd": 20
        }
      ],
      "metar_raw": "METAR VHHH 021700Z 10008KT 9999 FEW010 SCT025 29/25 Q1010 NOSIG",
      "metar_wdir": 100,
      "metar_wspd": 8,
      "metar_oat": 29,
      "metar_qnh": 1010,
      "hourly_oat": [
        27,
        27,
        26,
        26,
        26,
        27,
        27,
        28,
        29,
        29,
        29,
        28,
        28,
        29,
        28,
        28,
        29,
        28,
        28,
        27,
        27,
        27,
        27,
        27,
        27
      ]
    },
    "TSA": {
      "icao": "RCSS",
      "issued": "2026-07-02T17:00:00.000Z",
      "raw": "TAF RCSS 021700Z 0218/0318 09005KT 9999 FEW015 BKN032 BECMG 0301/0303 31005KT TEMPO 0306/0310 28010KT 5000 SHRA FEW010 FEW015CB BKN020 BECMG 0310/0312 09005KT",
      "groups": [
        {
          "text": "TAF RCSS 021700Z 0218/0318 09005KT 9999 FEW015 BKN032",
          "offset_h": 1,
          "wdir": 90,
          "wspd": 5
        },
        {
          "text": "BECMG 0301/0303 31005KT",
          "offset_h": 8,
          "wdir": 310,
          "wspd": 5
        },
        {
          "text": "TEMPO 0306/0310 28010KT 5000 SHRA FEW010 FEW015CB BKN020",
          "offset_h": 13,
          "wdir": 280,
          "wspd": 10
        },
        {
          "text": "BECMG 0310/0312 09005KT",
          "offset_h": 17,
          "wdir": 90,
          "wspd": 5
        }
      ],
      "metar_raw": "METAR RCSS 021700Z VRB02KT 9999 FEW020 28/26 Q1012 NOSIG RMK A2991",
      "metar_wdir": "VRB",
      "metar_wspd": 2,
      "metar_oat": 28,
      "metar_qnh": 1012,
      "hourly_oat": [
        26,
        26,
        26,
        26,
        26,
        26,
        28,
        30,
        31,
        33,
        33,
        33,
        33,
        33,
        32,
        32,
        31,
        30,
        29,
        28,
        28,
        28,
        28,
        27,
        27
      ]
    },
    "PVG": {
      "icao": "ZSPD",
      "issued": "2026-07-02T15:06:00.000Z",
      "raw": "TAF ZSPD 021506Z 0218/0324 18004MPS 6000 -SHRA BKN015 TX29/0305Z TN24/0221Z TN24/0321Z TEMPO 0221/0301 TSRA BKN010 FEW030CB TEMPO 0306/0310 33008G13MPS 2000 TSRA BKN010 SCT030CB BECMG 0310/0312 NSW",
      "groups": [
        {
          "text": "TAF ZSPD 021506Z 0218/0324 18004MPS 6000 -SHRA BKN015 TX29/0305Z TN24/0221Z TN24/0321Z",
          "offset_h": 1,
          "wdir": null,
          "wspd": null
        },
        {
          "text": "TEMPO 0221/0301 TSRA BKN010 FEW030CB",
          "offset_h": 4,
          "wdir": null,
          "wspd": null
        },
        {
          "text": "TEMPO 0306/0310 33008G13MPS 2000 TSRA BKN010 SCT030CB",
          "offset_h": 13,
          "wdir": null,
          "wspd": null
        },
        {
          "text": "BECMG 0310/0312 NSW",
          "offset_h": 17,
          "wdir": null,
          "wspd": null
        }
      ],
      "metar_raw": "METAR ZSPD 021700Z 16002MPS 3000 -SHRA BR NSC 25/25 Q1011 NOSIG",
      "metar_wdir": null,
      "metar_wspd": null,
      "metar_oat": 25,
      "metar_qnh": 1011,
      "hourly_oat": [
        25,
        25,
        25,
        25,
        25,
        25,
        26,
        27,
        27,
        30,
        27,
        25,
        24,
        25,
        25,
        26,
        26,
        25,
        26,
        26,
        25,
        25,
        25,
        25,
        25
      ]
    },
    "SHA": {
      "icao": "ZSSS",
      "issued": "2026-07-02T15:05:00.000Z",
      "raw": "TAF ZSSS 021505Z 0218/0324 18004MPS 6000 -SHRA BKN015 TX30/0305Z TN24/0221Z TN24/0321Z TEMPO 0221/0301 TSRA BKN010 FEW030CB TEMPO 0306/0310 33008G13MPS 2000 TSRA BKN010 SCT030CB BECMG 0310/0312 NSW",
      "groups": [
        {
          "text": "TAF ZSSS 021505Z 0218/0324 18004MPS 6000 -SHRA BKN015 TX30/0305Z TN24/0221Z TN24/0321Z",
          "offset_h": 1,
          "wdir": null,
          "wspd": null
        },
        {
          "text": "TEMPO 0221/0301 TSRA BKN010 FEW030CB",
          "offset_h": 4,
          "wdir": null,
          "wspd": null
        },
        {
          "text": "TEMPO 0306/0310 33008G13MPS 2000 TSRA BKN010 SCT030CB",
          "offset_h": 13,
          "wdir": null,
          "wspd": null
        },
        {
          "text": "BECMG 0310/0312 NSW",
          "offset_h": 17,
          "wdir": null,
          "wspd": null
        }
      ],
      "metar_raw": "METAR ZSSS 021700Z 13001MPS 6000 NSC 26/25 Q1011 NOSIG",
      "metar_wdir": null,
      "metar_wspd": null,
      "metar_oat": 26,
      "metar_qnh": 1011,
      "hourly_oat": [
        25,
        25,
        25,
        25,
        25,
        25,
        26,
        28,
        30,
        30,
        31,
        31,
        32,
        27,
        25,
        26,
        26,
        26,
        26,
        25,
        25,
        25,
        25,
        25,
        25
      ]
    },
    "CAN": {
      "icao": "ZGGG",
      "issued": "2026-07-02T15:03:00.000Z",
      "raw": "TAF ZGGG 021503Z 0218/0324 13004MPS 8000 BKN033 TX34/0307Z TN27/0222Z TN25/0322Z TEMPO 0304/0308 2000 +TSRA SCT010 SCT026CB BKN033 TEMPO 0310/0314 TSRA SCT026CB BKN033 TEMPO 0320/0324 SHRA FEW026CB BKN033",
      "groups": [
        {
          "text": "TAF ZGGG 021503Z 0218/0324 13004MPS 8000 BKN033 TX34/0307Z TN27/0222Z TN25/0322Z",
          "offset_h": 1,
          "wdir": null,
          "wspd": null
        },
        {
          "text": "TEMPO 0304/0308 2000 +TSRA SCT010 SCT026CB BKN033",
          "offset_h": 11,
          "wdir": null,
          "wspd": null
        },
        {
          "text": "TEMPO 0310/0314 TSRA SCT026CB BKN033",
          "offset_h": 17,
          "wdir": null,
          "wspd": null
        },
        {
          "text": "TEMPO 0320/0324 SHRA FEW026CB BKN033",
          "offset_h": 27,
          "wdir": null,
          "wspd": null
        }
      ],
      "metar_raw": "METAR ZGGG 021700Z 08003MPS CAVOK 29/25 Q1011 NOSIG",
      "metar_wdir": null,
      "metar_wspd": null,
      "metar_oat": 29,
      "metar_qnh": 1011,
      "hourly_oat": [
        27,
        27,
        26,
        26,
        26,
        26,
        27,
        28,
        29,
        31,
        31,
        32,
        33,
        28,
        29,
        30,
        30,
        28,
        28,
        28,
        28,
        26,
        25,
        26,
        26
      ]
    },
    "DLC": {
      "icao": "ZYTL",
      "issued": "2026-07-02T15:02:00.000Z",
      "raw": "TAF ZYTL 021502Z 0218/0318 18004MPS 5000 BR FEW033 TX31/0306Z TN20/0220Z",
      "groups": [
        {
          "text": "TAF ZYTL 021502Z 0218/0318 18004MPS 5000 BR FEW033 TX31/0306Z TN20/0220Z",
          "offset_h": 1,
          "wdir": null,
          "wspd": null
        }
      ],
      "metar_raw": "METAR ZYTL 021700Z 11002MPS 6000 NSC 22/22 Q1008 NOSIG",
      "metar_wdir": null,
      "metar_wspd": null,
      "metar_oat": 22,
      "metar_qnh": 1008,
      "hourly_oat": [
        23,
        23,
        23,
        23,
        22,
        22,
        22,
        23,
        25,
        27,
        28,
        29,
        29,
        29,
        29,
        29,
        28,
        27,
        26,
        26,
        26,
        26,
        25,
        25,
        25
      ]
    },
    "SAN": {
      "icao": "KSAN",
      "issued": "2026-07-02T15:01:00.000Z",
      "raw": "TAF KSAN 021501Z 0215/0318 VRB04KT P6SM OVC022 FM021900 29011KT P6SM SCT020 FM030400 VRB04KT P6SM OVC015 FM031700 VRB05KT P6SM SCT018",
      "groups": [
        {
          "text": "TAF KSAN 021501Z 0215/0318 VRB04KT P6SM OVC022",
          "offset_h": -2,
          "wdir": "VRB",
          "wspd": 4
        },
        {
          "text": "FM021900 29011KT P6SM SCT020",
          "offset_h": 2,
          "wdir": 290,
          "wspd": 11
        },
        {
          "text": "FM030400 VRB04KT P6SM OVC015",
          "offset_h": 11,
          "wdir": "VRB",
          "wspd": 4
        },
        {
          "text": "FM031700 VRB05KT P6SM SCT018",
          "offset_h": 24,
          "wdir": "VRB",
          "wspd": 5
        }
      ],
      "metar_raw": "SPECI KSAN 021721Z VRB03KT 10SM SCT026 21/13 A2998 RMK AO2 T02060133 $",
      "metar_wdir": "VRB",
      "metar_wspd": 3,
      "metar_oat": 21,
      "metar_qnh": 1015,
      "hourly_oat": [
        21,
        22,
        22,
        23,
        23,
        22,
        22,
        21,
        20,
        19,
        18,
        18,
        18,
        18,
        18,
        18,
        18,
        18,
        18,
        17,
        17,
        18,
        18,
        19,
        20
      ]
    },
    "PEK": {
      "icao": "ZBAA",
      "issued": "2026-07-02T15:00:00.000Z",
      "raw": "TAF ZBAA 021500Z 0218/0324 19003MPS 3200 BR NSC TX37/0306Z TN23/0221Z TN24/0321Z TEMPO 0309/0313 -TSRA FEW040CB BKN040",
      "groups": [
        {
          "text": "TAF ZBAA 021500Z 0218/0324 19003MPS 3200 BR NSC TX37/0306Z TN23/0221Z TN24/0321Z",
          "offset_h": 1,
          "wdir": null,
          "wspd": null
        },
        {
          "text": "TEMPO 0309/0313 -TSRA FEW040CB BKN040",
          "offset_h": 16,
          "wdir": null,
          "wspd": null
        }
      ],
      "metar_raw": "METAR ZBAA 021700Z 01003MPS CAVOK 24/20 Q1006 NOSIG",
      "metar_wdir": null,
      "metar_wspd": null,
      "metar_oat": 24,
      "metar_qnh": 1006,
      "hourly_oat": [
        25,
        25,
        24,
        24,
        24,
        24,
        26,
        27,
        29,
        31,
        32,
        34,
        35,
        37,
        38,
        37,
        35,
        27,
        26,
        26,
        26,
        26,
        25,
        25,
        25
      ]
    },
    "NRT": {
      "icao": "RJAA",
      "issued": "2026-07-02T13:41:00.000Z",
      "raw": "TAF AMD RJAA 021341Z 0213/0318 36010KT 8000 -SHRA FEW003 BKN012 TEMPO 0213/0221 3000 -SHRA BR FEW002 BKN005 TEMPO 0221/0300 FEW003 BKN008 TEMPO 0315/0318 4000 BR FEW001 BKN003",
      "groups": [
        {
          "text": "TAF AMD RJAA 021341Z 0213/0318 36010KT 8000 -SHRA FEW003 BKN012",
          "offset_h": -4,
          "wdir": 360,
          "wspd": 10
        },
        {
          "text": "TEMPO 0213/0221 3000 -SHRA BR FEW002 BKN005",
          "offset_h": -4,
          "wdir": null,
          "wspd": null
        },
        {
          "text": "TEMPO 0221/0300 FEW003 BKN008",
          "offset_h": 4,
          "wdir": null,
          "wspd": null
        },
        {
          "text": "TEMPO 0315/0318 4000 BR FEW001 BKN003",
          "offset_h": 22,
          "wdir": null,
          "wspd": null
        }
      ],
      "metar_raw": "METAR RJAA 021700Z AUTO 01007KT 9999 SCT004 OVC007 20/19 Q1008 TEMPO FEW002 BKN005",
      "metar_wdir": 10,
      "metar_wspd": 7,
      "metar_oat": 20,
      "metar_qnh": 1008,
      "hourly_oat": [
        20,
        20,
        20,
        20,
        21,
        21,
        22,
        23,
        23,
        23,
        23,
        23,
        23,
        23,
        23,
        22,
        21,
        20,
        20,
        20,
        20,
        19,
        19,
        19,
        19
      ]
    },
    "HND": {
      "icao": "RJTT",
      "issued": "2026-07-02T11:05:00.000Z",
      "raw": "TAF RJTT 021105Z 0212/0318 02008KT 9999 FEW008 BKN015 BECMG 0303/0306 08010KT",
      "groups": [
        {
          "text": "TAF RJTT 021105Z 0212/0318 02008KT 9999 FEW008 BKN015",
          "offset_h": -5,
          "wdir": 20,
          "wspd": 8
        },
        {
          "text": "BECMG 0303/0306 08010KT",
          "offset_h": 10,
          "wdir": 80,
          "wspd": 10
        }
      ],
      "metar_raw": "METAR RJTT 021700Z 04005KT 9999 -RA FEW010 BKN020 22/20 Q1008 NOSIG",
      "metar_wdir": 40,
      "metar_wspd": 5,
      "metar_oat": 22,
      "metar_qnh": 1008,
      "hourly_oat": [
        22,
        21,
        21,
        21,
        22,
        22,
        23,
        23,
        24,
        24,
        24,
        25,
        25,
        25,
        24,
        24,
        24,
        23,
        23,
        22,
        22,
        22,
        21,
        21,
        21
      ]
    },
    "KIX": {
      "icao": "RJBB",
      "issued": "2026-07-02T11:05:00.000Z",
      "raw": "TAF RJBB 021105Z 0212/0318 35010KT 9999 FEW015 SCT020 BKN040 BECMG 0300/0303 27006KT",
      "groups": [
        {
          "text": "TAF RJBB 021105Z 0212/0318 35010KT 9999 FEW015 SCT020 BKN040",
          "offset_h": -5,
          "wdir": 350,
          "wspd": 10
        },
        {
          "text": "BECMG 0300/0303 27006KT",
          "offset_h": 7,
          "wdir": 270,
          "wspd": 6
        }
      ],
      "metar_raw": "METAR RJBB 021700Z AUTO 34012KT 9999 FEW026 OVC028 23/19 Q1011 NOSIG",
      "metar_wdir": 340,
      "metar_wspd": 12,
      "metar_oat": 23,
      "metar_qnh": 1011,
      "hourly_oat": [
        23,
        23,
        23,
        23,
        22,
        22,
        22,
        22,
        23,
        23,
        23,
        23,
        24,
        24,
        24,
        24,
        24,
        24,
        24,
        24,
        24,
        24,
        24,
        24,
        24
      ]
    },
    "ITM": {
      "icao": "RJOO",
      "issued": "2026-07-02T11:05:00.000Z",
      "raw": "TAF RJOO 021105Z 0212/0318 31006KT 9999 FEW020 SCT030",
      "groups": [
        {
          "text": "TAF RJOO 021105Z 0212/0318 31006KT 9999 FEW020 SCT030",
          "offset_h": -5,
          "wdir": 310,
          "wspd": 6
        }
      ],
      "metar_raw": "METAR RJOO 021700Z AUTO VRB02KT 9999 OVC029 22/17 Q1011",
      "metar_wdir": "VRB",
      "metar_wspd": 2,
      "metar_oat": 22,
      "metar_qnh": 1011,
      "hourly_oat": [
        22,
        21,
        21,
        21,
        21,
        22,
        23,
        24,
        25,
        26,
        27,
        28,
        29,
        29,
        29,
        28,
        28,
        26,
        25,
        25,
        24,
        23,
        23,
        22,
        22
      ]
    },
    "OKA": {
      "icao": "ROAH",
      "issued": "2026-07-02T11:05:00.000Z",
      "raw": "TAF ROAH 021105Z 0212/0318 19006KT 9999 FEW008 BKN012 TEMPO 0215/0221 FEW005 BKN008 TEMPO 0315/0318 FEW005 BKN008",
      "groups": [
        {
          "text": "TAF ROAH 021105Z 0212/0318 19006KT 9999 FEW008 BKN012",
          "offset_h": -5,
          "wdir": 190,
          "wspd": 6
        },
        {
          "text": "TEMPO 0215/0221 FEW005 BKN008",
          "offset_h": -2,
          "wdir": null,
          "wspd": null
        },
        {
          "text": "TEMPO 0315/0318 FEW005 BKN008",
          "offset_h": 22,
          "wdir": null,
          "wspd": null
        }
      ],
      "metar_raw": "METAR ROAH 021700Z AUTO 20003KT 9999 NCD 27/26 Q1014",
      "metar_wdir": 200,
      "metar_wspd": 3,
      "metar_oat": 27,
      "metar_qnh": 1014,
      "hourly_oat": [
        27,
        27,
        27,
        27,
        26,
        28,
        28,
        29,
        29,
        30,
        30,
        30,
        30,
        30,
        30,
        29,
        29,
        28,
        28,
        27,
        27,
        27,
        27,
        27,
        27
      ]
    },
    "NGO": {
      "icao": "RJGG",
      "issued": "2026-07-02T11:05:00.000Z",
      "raw": "TAF RJGG 021105Z 0212/0318 36014KT 9999 FEW020 SCT040 BECMG 0214/0216 30014KT BECMG 0300/0303 23006KT BECMG 0306/0309 13012KT",
      "groups": [
        {
          "text": "TAF RJGG 021105Z 0212/0318 36014KT 9999 FEW020 SCT040",
          "offset_h": -5,
          "wdir": 360,
          "wspd": 14
        },
        {
          "text": "BECMG 0214/0216 30014KT",
          "offset_h": -3,
          "wdir": 300,
          "wspd": 14
        },
        {
          "text": "BECMG 0300/0303 23006KT",
          "offset_h": 7,
          "wdir": 230,
          "wspd": 6
        },
        {
          "text": "BECMG 0306/0309 13012KT",
          "offset_h": 13,
          "wdir": 130,
          "wspd": 12
        }
      ],
      "metar_raw": "METAR RJGG 021700Z AUTO 28015KT 9999 NCD 23/19 Q1008 NOSIG",
      "metar_wdir": 280,
      "metar_wspd": 15,
      "metar_oat": 23,
      "metar_qnh": 1008,
      "hourly_oat": [
        24,
        24,
        24,
        24,
        24,
        24,
        24,
        24,
        25,
        25,
        25,
        25,
        26,
        26,
        26,
        25,
        24,
        24,
        24,
        23,
        23,
        23,
        23,
        23,
        23
      ]
    },
    "FUK": {
      "icao": "RJFF",
      "issued": "2026-07-02T11:05:00.000Z",
      "raw": "TAF RJFF 021105Z 0212/0318 34005KT 9999 FEW009 BECMG 0212/0214 15004KT BECMG 0300/0303 32008KT BECMG 0309/0312 15008KT TEMPO 0309/0312 4000 RA BR",
      "groups": [
        {
          "text": "TAF RJFF 021105Z 0212/0318 34005KT 9999 FEW009",
          "offset_h": -5,
          "wdir": 340,
          "wspd": 5
        },
        {
          "text": "BECMG 0212/0214 15004KT",
          "offset_h": -5,
          "wdir": 150,
          "wspd": 4
        },
        {
          "text": "BECMG 0300/0303 32008KT",
          "offset_h": 7,
          "wdir": 320,
          "wspd": 8
        },
        {
          "text": "BECMG 0309/0312 15008KT",
          "offset_h": 16,
          "wdir": 150,
          "wspd": 8
        },
        {
          "text": "TEMPO 0309/0312 4000 RA BR",
          "offset_h": 16,
          "wdir": null,
          "wspd": null
        }
      ],
      "metar_raw": "METAR RJFF 021700Z AUTO 07003KT 9999 NCD 21/20 Q1012 NOSIG",
      "metar_wdir": 70,
      "metar_wspd": 3,
      "metar_oat": 21,
      "metar_qnh": 1012,
      "hourly_oat": [
        22,
        21,
        21,
        21,
        21,
        22,
        22,
        23,
        24,
        25,
        25,
        25,
        24,
        24,
        24,
        23,
        23,
        23,
        23,
        23,
        23,
        23,
        23,
        23,
        22
      ]
    },
    "CTS": {
      "icao": "RJCC",
      "issued": "2026-07-02T11:05:00.000Z",
      "raw": "TAF RJCC 021105Z 0212/0318 18008KT 9999 FEW008 BKN015 TEMPO 0212/0215 FEW005 BKN008 TEMPO 0215/0220 FEW003 BKN005 TEMPO 0220/0223 FEW005 BKN008 TEMPO 0315/0318 FEW002 BKN004",
      "groups": [
        {
          "text": "TAF RJCC 021105Z 0212/0318 18008KT 9999 FEW008 BKN015",
          "offset_h": -5,
          "wdir": 180,
          "wspd": 8
        },
        {
          "text": "TEMPO 0212/0215 FEW005 BKN008",
          "offset_h": -5,
          "wdir": null,
          "wspd": null
        },
        {
          "text": "TEMPO 0215/0220 FEW003 BKN005",
          "offset_h": -2,
          "wdir": null,
          "wspd": null
        },
        {
          "text": "TEMPO 0220/0223 FEW005 BKN008",
          "offset_h": 3,
          "wdir": null,
          "wspd": null
        },
        {
          "text": "TEMPO 0315/0318 FEW002 BKN004",
          "offset_h": 22,
          "wdir": null,
          "wspd": null
        }
      ],
      "metar_raw": "METAR RJCC 021700Z 18007KT 9999 FEW010 BKN025 BKN/// 15/13 Q1013",
      "metar_wdir": 180,
      "metar_wspd": 7,
      "metar_oat": 15,
      "metar_qnh": 1013,
      "hourly_oat": [
        15,
        15,
        14,
        15,
        16,
        16,
        18,
        18,
        19,
        20,
        19,
        20,
        20,
        19,
        19,
        18,
        16,
        15,
        14,
        14,
        14,
        14,
        14,
        13,
        13
      ]
    },
    "CGK": {
      "icao": "WIII",
      "issued": "2026-07-02T11:00:00.000Z",
      "raw": "TAF WIII 021100Z 0212/0318 02010KT 5000 HZ SCT020 BECMG 0215/0217 17006KT BECMG 0303/0305 36011KT 7000 NSW",
      "groups": [
        {
          "text": "TAF WIII 021100Z 0212/0318 02010KT 5000 HZ SCT020",
          "offset_h": -5,
          "wdir": 20,
          "wspd": 10
        },
        {
          "text": "BECMG 0215/0217 17006KT",
          "offset_h": -2,
          "wdir": 170,
          "wspd": 6
        },
        {
          "text": "BECMG 0303/0305 36011KT 7000 NSW",
          "offset_h": 10,
          "wdir": 360,
          "wspd": 11
        }
      ],
      "metar_raw": "METAR WIII 021700Z 11004KT 5000 HZ FEW020 28/23 Q1012 NOSIG",
      "metar_wdir": 110,
      "metar_wspd": 4,
      "metar_oat": 28,
      "metar_qnh": 1012,
      "hourly_oat": [
        27,
        26,
        26,
        26,
        25,
        25,
        24,
        25,
        28,
        30,
        31,
        33,
        34,
        34,
        33,
        32,
        31,
        30,
        29,
        29,
        29,
        28,
        28,
        28,
        27
      ]
    },
    "BKK": {
      "icao": "VTBS",
      "issued": "2026-07-02T11:00:00.000Z",
      "raw": "TAF VTBS 021100Z 0212/0318 19008KT 9999 FEW020 TEMPO 0212/0218 VRB15G25KT 4000 TSRA FEW018CB SCT030 BKN100 TEMPO 0308/0314 VRB15G25KT 4000 TSRA FEW018CB SCT030 BKN100",
      "groups": [
        {
          "text": "TAF VTBS 021100Z 0212/0318 19008KT 9999 FEW020",
          "offset_h": -5,
          "wdir": 190,
          "wspd": 8
        },
        {
          "text": "TEMPO 0212/0218 VRB15G25KT 4000 TSRA FEW018CB SCT030 BKN100",
          "offset_h": -5,
          "wdir": "VRB",
          "wspd": 15
        },
        {
          "text": "TEMPO 0308/0314 VRB15G25KT 4000 TSRA FEW018CB SCT030 BKN100",
          "offset_h": 15,
          "wdir": "VRB",
          "wspd": 15
        }
      ],
      "metar_raw": "METAR VTBS 021700Z 19004KT 150V230 9999 FEW020 SCT040 27/26 Q1008 NOSIG",
      "metar_wdir": 190,
      "metar_wspd": 4,
      "metar_oat": 27,
      "metar_qnh": 1008,
      "hourly_oat": [
        26,
        26,
        26,
        26,
        26,
        26,
        26,
        27,
        28,
        30,
        31,
        31,
        31,
        32,
        30,
        30,
        30,
        30,
        29,
        29,
        28,
        28,
        28,
        28,
        28
      ]
    },
    "SIN": {
      "icao": "WSSS",
      "issued": "2026-07-02T11:00:00.000Z",
      "raw": "TAF WSSS 021100Z 0212/0318 18008KT 9999 FEW015 SCT020 TEMPO 0306/0309 3000 TSRA FEW012CB BKN015",
      "groups": [
        {
          "text": "TAF WSSS 021100Z 0212/0318 18008KT 9999 FEW015 SCT020",
          "offset_h": -5,
          "wdir": 180,
          "wspd": 8
        },
        {
          "text": "TEMPO 0306/0309 3000 TSRA FEW012CB BKN015",
          "offset_h": 13,
          "wdir": null,
          "wspd": null
        }
      ],
      "metar_raw": "METAR WSSS 021700Z VRB02KT 9999 FEW020 BKN160 28/25 Q1011 NOSIG",
      "metar_wdir": "VRB",
      "metar_wspd": 2,
      "metar_oat": 28,
      "metar_qnh": 1011,
      "hourly_oat": [
        28,
        28,
        28,
        28,
        28,
        28,
        27,
        28,
        28,
        28,
        30,
        30,
        30,
        30,
        30,
        30,
        30,
        29,
        29,
        28,
        27,
        27,
        27,
        27,
        28
      ]
    },
    "KUL": {
      "icao": "WMKK",
      "issued": "2026-07-02T11:00:00.000Z",
      "raw": "TAF WMKK 021100Z 0212/0318 VRB03KT 9999 FEW030 PROB30 TEMPO 0306/0310 5000 TSRA FEW017CB SCT018",
      "groups": [
        {
          "text": "TAF WMKK 021100Z 0212/0318 VRB03KT 9999 FEW030",
          "offset_h": -5,
          "wdir": "VRB",
          "wspd": 3
        },
        {
          "text": "PROB30",
          "offset_h": 0,
          "wdir": null,
          "wspd": null
        },
        {
          "text": "TEMPO 0306/0310 5000 TSRA FEW017CB SCT018",
          "offset_h": 13,
          "wdir": null,
          "wspd": null
        }
      ],
      "metar_raw": "METAR WMKK 021700Z 12004KT 050V190 9999 FEW030 28/25 Q1010 NOSIG",
      "metar_wdir": 120,
      "metar_wspd": 4,
      "metar_oat": 28,
      "metar_qnh": 1010,
      "hourly_oat": [
        27,
        26,
        26,
        26,
        26,
        25,
        24,
        24,
        25,
        27,
        28,
        29,
        30,
        30,
        30,
        30,
        30,
        29,
        28,
        28,
        28,
        27,
        26,
        25,
        25
      ]
    },
    "HAN": {
      "icao": "VVNB",
      "issued": "2026-07-02T11:00:00.000Z",
      "raw": "TAF VVNB 021100Z 0212/0312 32005KT 9999 FEW025 TEMPO 0222/0302 4000 SHRA SCT010 FEW025TCU TEMPO 0305/0311 06015G25KT 2500 +TSRA BKN010 SCT027CB",
      "groups": [
        {
          "text": "TAF VVNB 021100Z 0212/0312 32005KT 9999 FEW025",
          "offset_h": -5,
          "wdir": 320,
          "wspd": 5
        },
        {
          "text": "TEMPO 0222/0302 4000 SHRA SCT010 FEW025TCU",
          "offset_h": 5,
          "wdir": null,
          "wspd": null
        },
        {
          "text": "TEMPO 0305/0311 06015G25KT 2500 +TSRA BKN010 SCT027CB",
          "offset_h": 12,
          "wdir": 60,
          "wspd": 15
        }
      ],
      "metar_raw": "METAR VVNB 021700Z 28007KT 240V300 7000 NSC 27/26 Q1008 NOSIG",
      "metar_wdir": 280,
      "metar_wspd": 7,
      "metar_oat": 27,
      "metar_qnh": 1008,
      "hourly_oat": [
        26,
        26,
        25,
        25,
        25,
        25,
        25,
        27,
        28,
        30,
        31,
        32,
        32,
        33,
        28,
        30,
        31,
        28,
        27,
        27,
        27,
        27,
        26,
        26,
        25
      ]
    },
    "SGN": {
      "icao": "VVTS",
      "issued": "2026-07-02T11:00:00.000Z",
      "raw": "TAF VVTS 021100Z 0212/0318 27010KT 9999 SCT017 TEMPO 0300/0303 5000 SHRA SCT015 FEW017CB TEMPO 0306/0310 25018G28KT 2000 +TSRA BKN013 SCT015CB TEMPO 0310/0316 5000 RA",
      "groups": [
        {
          "text": "TAF VVTS 021100Z 0212/0318 27010KT 9999 SCT017",
          "offset_h": -5,
          "wdir": 270,
          "wspd": 10
        },
        {
          "text": "TEMPO 0300/0303 5000 SHRA SCT015 FEW017CB",
          "offset_h": 7,
          "wdir": null,
          "wspd": null
        },
        {
          "text": "TEMPO 0306/0310 25018G28KT 2000 +TSRA BKN013 SCT015CB",
          "offset_h": 13,
          "wdir": 250,
          "wspd": 18
        },
        {
          "text": "TEMPO 0310/0316 5000 RA",
          "offset_h": 17,
          "wdir": null,
          "wspd": null
        }
      ],
      "metar_raw": "METAR VVTS 021700Z 21008KT 9999 SCT012 27/26 Q1009 NOSIG",
      "metar_wdir": 210,
      "metar_wspd": 8,
      "metar_oat": 27,
      "metar_qnh": 1009,
      "hourly_oat": [
        26,
        26,
        26,
        26,
        26,
        26,
        26,
        26,
        26,
        27,
        28,
        29,
        27,
        28,
        27,
        26,
        26,
        26,
        26,
        26,
        26,
        26,
        26,
        26,
        26
      ]
    }
  }
}