{
  "updated": "2026-07-23T21:55:30Z",
  "tafs": {
    "OKA": {
      "icao": "ROAH",
      "issued": "2026-07-23T21:50:00.000Z",
      "raw": "TAF AMD ROAH 232150Z 2321/2500 12010KT 9999 FEW020 SCT030",
      "groups": [
        {
          "text": "TAF AMD ROAH 232150Z 2321/2500 12010KT 9999 FEW020 SCT030",
          "offset_h": 0,
          "wdir": 120,
          "wspd": 10
        }
      ],
      "hourly_oat": [
        29,
        30,
        30,
        31,
        32,
        32,
        33,
        33,
        33,
        33,
        32,
        32,
        31,
        30,
        30,
        29,
        29,
        29,
        28,
        28,
        28,
        28,
        28,
        28,
        28
      ],
      "metar_oat": 29,
      "metar_qnh": 1011
    },
    "LAX": {
      "icao": "KLAX",
      "issued": "2026-07-23T21:16:00.000Z",
      "raw": "TAF KLAX 232116Z 2321/2424 25014KT P6SM SKC FM240400 24007KT P6SM SKC FM240800 VRB03KT P6SM SKC FM241700 26006KT P6SM SCT250 FM242100 26012KT P6SM SCT250",
      "groups": [
        {
          "text": "TAF KLAX 232116Z 2321/2424 25014KT P6SM SKC",
          "offset_h": 0,
          "wdir": 250,
          "wspd": 14
        },
        {
          "text": "FM240400 24007KT P6SM SKC",
          "offset_h": 7,
          "wdir": 240,
          "wspd": 7
        },
        {
          "text": "FM240800 VRB03KT P6SM SKC",
          "offset_h": 11,
          "wdir": "VRB",
          "wspd": 3
        },
        {
          "text": "FM241700 26006KT P6SM SCT250",
          "offset_h": 20,
          "wdir": 260,
          "wspd": 6
        },
        {
          "text": "FM242100 26012KT P6SM SCT250",
          "offset_h": 24,
          "wdir": 260,
          "wspd": 12
        }
      ],
      "hourly_oat": [
        26,
        26,
        26,
        25,
        25,
        24,
        23,
        22,
        22,
        21,
        20,
        20,
        19,
        18,
        18,
        18,
        18,
        19,
        22,
        26,
        28,
        30,
        30,
        28,
        27
      ],
      "metar_oat": 26,
      "metar_qnh": 1010
    },
    "CTS": {
      "icao": "RJCC",
      "issued": "2026-07-23T21:15:00.000Z",
      "raw": "TAF AMD RJCC 232115Z 2321/2500 17010KT 0500 FG VV001 BECMG 2321/2323 0800 FG BECMG 2323/2401 9999 NSW BKN007 BKN012 BECMG 2401/2403 FEW005 BKN015 TEMPO 2405/2412 FEW003 BKN005 TEMPO 2412/2500 FEW005 BKN008",
      "groups": [
        {
          "text": "TAF AMD RJCC 232115Z 2321/2500 17010KT 0500 FG VV001",
          "offset_h": 0,
          "wdir": 170,
          "wspd": 10
        },
        {
          "text": "BECMG 2321/2323 0800 FG",
          "offset_h": 0,
          "wdir": null,
          "wspd": null
        },
        {
          "text": "BECMG 2323/2401 9999 NSW BKN007 BKN012",
          "offset_h": 2,
          "wdir": null,
          "wspd": null
        },
        {
          "text": "BECMG 2401/2403 FEW005 BKN015",
          "offset_h": 4,
          "wdir": null,
          "wspd": null
        },
        {
          "text": "TEMPO 2405/2412 FEW003 BKN005",
          "offset_h": 8,
          "wdir": null,
          "wspd": null
        },
        {
          "text": "TEMPO 2412/2500 FEW005 BKN008",
          "offset_h": 15,
          "wdir": null,
          "wspd": null
        }
      ],
      "hourly_oat": [
        20,
        20,
        21,
        22,
        23,
        23,
        23,
        23,
        22,
        22,
        21,
        20,
        20,
        19,
        19,
        19,
        19,
        19,
        19,
        19,
        19,
        19,
        19,
        19,
        19
      ],
      "metar_oat": 20,
      "metar_qnh": 1013
    },
    "HNL": {
      "icao": "PHNL",
      "issued": "2026-07-23T21:04:00.000Z",
      "raw": "TAF PHNL 232104Z 2321/2424 06018G28KT P6SM FEW025 SCT040 FM240600 05012G20KT P6SM FEW025 SCT040",
      "groups": [
        {
          "text": "TAF PHNL 232104Z 2321/2424 06018G28KT P6SM FEW025 SCT040",
          "offset_h": 0,
          "wdir": 60,
          "wspd": 18
        },
        {
          "text": "FM240600 05012G20KT P6SM FEW025 SCT040",
          "offset_h": 9,
          "wdir": 50,
          "wspd": 12
        }
      ],
      "hourly_oat": [
        28,
        29,
        29,
        29,
        28,
        28,
        26,
        25,
        24,
        24,
        24,
        23,
        23,
        23,
        23,
        22,
        23,
        23,
        23,
        23,
        23,
        25,
        26,
        27,
        28
      ],
      "metar_oat": 29,
      "metar_qnh": 1016
    },
    "SAN": {
      "icao": "KSAN",
      "issued": "2026-07-23T20:50:00.000Z",
      "raw": "TAF KSAN 232050Z 2321/2424 31010KT P6SM SKC FM240400 VRB04KT P6SM FEW012 FM240900 VRB03KT P6SM BKN010 FM241700 VRB04KT P6SM FEW012 FM241900 27008KT P6SM SKC",
      "groups": [
        {
          "text": "TAF KSAN 232050Z 2321/2424 31010KT P6SM SKC",
          "offset_h": 0,
          "wdir": 310,
          "wspd": 10
        },
        {
          "text": "FM240400 VRB04KT P6SM FEW012",
          "offset_h": 7,
          "wdir": "VRB",
          "wspd": 4
        },
        {
          "text": "FM240900 VRB03KT P6SM BKN010",
          "offset_h": 12,
          "wdir": "VRB",
          "wspd": 3
        },
        {
          "text": "FM241700 VRB04KT P6SM FEW012",
          "offset_h": 20,
          "wdir": "VRB",
          "wspd": 4
        },
        {
          "text": "FM241900 27008KT P6SM SKC",
          "offset_h": 22,
          "wdir": 270,
          "wspd": 8
        }
      ],
      "hourly_oat": [
        28,
        28,
        27,
        26,
        25,
        24,
        23,
        22,
        22,
        22,
        22,
        22,
        22,
        21,
        21,
        20,
        20,
        21,
        23,
        25,
        27,
        27,
        28,
        28,
        27
      ],
      "metar_oat": 28,
      "metar_qnh": 1009
    },
    "HKG": {
      "icao": "VHHH",
      "issued": "2026-07-23T20:00:00.000Z",
      "raw": "TAF VHHH 232000Z 2321/2503 VRB05KT 9999 FEW020 TX35/2406Z TN28/2322Z TN29/2422Z BECMG 2401/2403 26010KT BECMG 2409/2411 18010KT BECMG 2416/2418 26010KT BECMG 2500/2502 34015KT",
      "groups": [
        {
          "text": "TAF VHHH 232000Z 2321/2503 VRB05KT 9999 FEW020 TX35/2406Z TN28/2322Z TN29/2422Z",
          "offset_h": 0,
          "wdir": "VRB",
          "wspd": 5
        },
        {
          "text": "BECMG 2401/2403 26010KT",
          "offset_h": 4,
          "wdir": 260,
          "wspd": 10
        },
        {
          "text": "BECMG 2409/2411 18010KT",
          "offset_h": 12,
          "wdir": 180,
          "wspd": 10
        },
        {
          "text": "BECMG 2416/2418 26010KT",
          "offset_h": 19,
          "wdir": 260,
          "wspd": 10
        },
        {
          "text": "BECMG 2500/2502 34015KT",
          "offset_h": 27,
          "wdir": 340,
          "wspd": 15
        }
      ],
      "hourly_oat": [
        28,
        28,
        28,
        29,
        29,
        30,
        30,
        30,
        30,
        31,
        31,
        31,
        30,
        30,
        29,
        28,
        28,
        28,
        28,
        28,
        28,
        28,
        28,
        28,
        28
      ],
      "metar_oat": 28,
      "metar_qnh": 1007
    },
    "NRT": {
      "icao": "RJAA",
      "issued": "2026-07-23T17:05:00.000Z",
      "raw": "TAF RJAA 231705Z 2318/2500 02006KT 9999 FEW012 BKN020 TEMPO 2318/2322 3000 BR FEW002 BKN005 BECMG 2321/2323 13012KT TEMPO 2406/2412 4000 -TSRA BR FEW012 BKN020 FEW020CB BECMG 2415/2418 02012KT TEMPO 2418/2500 4000 -SHRA BR FEW003 BKN008",
      "groups": [
        {
          "text": "TAF RJAA 231705Z 2318/2500 02006KT 9999 FEW012 BKN020",
          "offset_h": -3,
          "wdir": 20,
          "wspd": 6
        },
        {
          "text": "TEMPO 2318/2322 3000 BR FEW002 BKN005",
          "offset_h": -3,
          "wdir": null,
          "wspd": null
        },
        {
          "text": "BECMG 2321/2323 13012KT",
          "offset_h": 0,
          "wdir": 130,
          "wspd": 12
        },
        {
          "text": "TEMPO 2406/2412 4000 -TSRA BR FEW012 BKN020 FEW020CB",
          "offset_h": 9,
          "wdir": null,
          "wspd": null
        },
        {
          "text": "BECMG 2415/2418 02012KT",
          "offset_h": 18,
          "wdir": 20,
          "wspd": 12
        },
        {
          "text": "TEMPO 2418/2500 4000 -SHRA BR FEW003 BKN008",
          "offset_h": 21,
          "wdir": null,
          "wspd": null
        }
      ],
      "hourly_oat": [
        25,
        26,
        27,
        28,
        29,
        30,
        30,
        30,
        30,
        30,
        29,
        28,
        28,
        27,
        27,
        26,
        26,
        26,
        25,
        25,
        25,
        25,
        25,
        25,
        24
      ],
      "metar_oat": 25,
      "metar_qnh": 1011
    },
    "KIX": {
      "icao": "RJBB",
      "issued": "2026-07-23T17:05:00.000Z",
      "raw": "TAF RJBB 231705Z 2318/2500 04006KT 9999 FEW030 SCT050 BECMG 2400/2402 26006KT BECMG 2409/2412 03008KT",
      "groups": [
        {
          "text": "TAF RJBB 231705Z 2318/2500 04006KT 9999 FEW030 SCT050",
          "offset_h": -3,
          "wdir": 40,
          "wspd": 6
        },
        {
          "text": "BECMG 2400/2402 26006KT",
          "offset_h": 3,
          "wdir": 260,
          "wspd": 6
        },
        {
          "text": "BECMG 2409/2412 03008KT",
          "offset_h": 12,
          "wdir": 30,
          "wspd": 8
        }
      ],
      "hourly_oat": [
        28,
        28,
        28,
        28,
        29,
        29,
        29,
        30,
        30,
        30,
        30,
        31,
        30,
        30,
        31,
        31,
        30,
        30,
        30,
        29,
        29,
        29,
        28,
        28,
        28
      ],
      "metar_oat": 28,
      "metar_qnh": 1011
    },
    "HND": {
      "icao": "RJTT",
      "issued": "2026-07-23T17:05:00.000Z",
      "raw": "TAF RJTT 231705Z 2318/2500 07008KT 9999 FEW020 BKN050 BECMG 2403/2405 17012KT TEMPO 2406/2409 TS FEW020 BKN030 FEW030CB TEMPO 2409/2412 3000 TSRA BR FEW012 BKN020 SCT020CB BECMG 2418/2421 04012KT",
      "groups": [
        {
          "text": "TAF RJTT 231705Z 2318/2500 07008KT 9999 FEW020 BKN050",
          "offset_h": -3,
          "wdir": 70,
          "wspd": 8
        },
        {
          "text": "BECMG 2403/2405 17012KT",
          "offset_h": 6,
          "wdir": 170,
          "wspd": 12
        },
        {
          "text": "TEMPO 2406/2409 TS FEW020 BKN030 FEW030CB",
          "offset_h": 9,
          "wdir": null,
          "wspd": null
        },
        {
          "text": "TEMPO 2409/2412 3000 TSRA BR FEW012 BKN020 SCT020CB",
          "offset_h": 12,
          "wdir": null,
          "wspd": null
        },
        {
          "text": "BECMG 2418/2421 04012KT",
          "offset_h": 21,
          "wdir": 40,
          "wspd": 12
        }
      ],
      "hourly_oat": [
        25,
        26,
        26,
        27,
        28,
        29,
        31,
        31,
        31,
        31,
        31,
        30,
        29,
        29,
        28,
        28,
        28,
        27,
        27,
        27,
        27,
        27,
        26,
        26,
        26
      ],
      "metar_oat": 25,
      "metar_qnh": 1011
    },
    "ITM": {
      "icao": "RJOO",
      "issued": "2026-07-23T17:05:00.000Z",
      "raw": "TAF RJOO 231705Z 2318/2500 33006KT 9999 FEW030 BECMG 2321/2323 18006KT TEMPO 2404/2409 TS FEW015 FEW025CB BKN030 BECMG 2406/2409 31010KT",
      "groups": [
        {
          "text": "TAF RJOO 231705Z 2318/2500 33006KT 9999 FEW030",
          "offset_h": -3,
          "wdir": 330,
          "wspd": 6
        },
        {
          "text": "BECMG 2321/2323 18006KT",
          "offset_h": 0,
          "wdir": 180,
          "wspd": 6
        },
        {
          "text": "TEMPO 2404/2409 TS FEW015 FEW025CB BKN030",
          "offset_h": 7,
          "wdir": null,
          "wspd": null
        },
        {
          "text": "BECMG 2406/2409 31010KT",
          "offset_h": 9,
          "wdir": 310,
          "wspd": 10
        }
      ],
      "hourly_oat": [
        26,
        27,
        28,
        30,
        32,
        34,
        34,
        34,
        34,
        34,
        34,
        34,
        33,
        32,
        30,
        29,
        29,
        28,
        28,
        27,
        27,
        26,
        26,
        26,
        26
      ],
      "metar_oat": 26,
      "metar_qnh": 1011
    },
    "NGO": {
      "icao": "RJGG",
      "issued": "2026-07-23T17:05:00.000Z",
      "raw": "TAF RJGG 231705Z 2318/2500 05004KT 9999 FEW040 SCT050 BECMG 2401/2403 23008KT BECMG 2406/2409 31014KT",
      "groups": [
        {
          "text": "TAF RJGG 231705Z 2318/2500 05004KT 9999 FEW040 SCT050",
          "offset_h": -3,
          "wdir": 50,
          "wspd": 4
        },
        {
          "text": "BECMG 2401/2403 23008KT",
          "offset_h": 4,
          "wdir": 230,
          "wspd": 8
        },
        {
          "text": "BECMG 2406/2409 31014KT",
          "offset_h": 9,
          "wdir": 310,
          "wspd": 14
        }
      ],
      "hourly_oat": [
        28,
        28,
        28,
        29,
        29,
        29,
        30,
        30,
        31,
        31,
        31,
        31,
        31,
        32,
        31,
        31,
        30,
        30,
        30,
        30,
        29,
        29,
        29,
        29,
        29
      ],
      "metar_oat": 28,
      "metar_qnh": 1011
    },
    "FUK": {
      "icao": "RJFF",
      "issued": "2026-07-23T17:05:00.000Z",
      "raw": "TAF RJFF 231705Z 2318/2500 14006KT CAVOK BECMG 2322/2400 31011KT BECMG 2412/2415 15005KT",
      "groups": [
        {
          "text": "TAF RJFF 231705Z 2318/2500 14006KT CAVOK",
          "offset_h": -3,
          "wdir": 140,
          "wspd": 6
        },
        {
          "text": "BECMG 2322/2400 31011KT",
          "offset_h": 1,
          "wdir": 310,
          "wspd": 11
        },
        {
          "text": "BECMG 2412/2415 15005KT",
          "offset_h": 15,
          "wdir": 150,
          "wspd": 5
        }
      ],
      "hourly_oat": [
        25,
        26,
        27,
        29,
        29,
        30,
        30,
        30,
        30,
        30,
        30,
        30,
        29,
        28,
        28,
        28,
        27,
        27,
        26,
        26,
        26,
        26,
        26,
        25,
        25
      ],
      "metar_oat": 26,
      "metar_qnh": 1012
    },
    "SGN": {
      "icao": "VVTS",
      "issued": "2026-07-23T17:00:00.000Z",
      "raw": "TAF VVTS 231700Z 2318/2424 VRB03KT 9999 SCT017 PROB40 TEMPO 2320/2324 5000 SHRA SCT015 FEW017CB BECMG 2400/2401 26010KT TEMPO 2406/2408 5000 TSRA BKN015 FEW017CB TEMPO 2408/2412 26015G28KT 2000 +TSRA BKN013 SCT015CB",
      "groups": [
        {
          "text": "TAF VVTS 231700Z 2318/2424 VRB03KT 9999 SCT017",
          "offset_h": -3,
          "wdir": "VRB",
          "wspd": 3
        },
        {
          "text": "PROB40",
          "offset_h": 0,
          "wdir": null,
          "wspd": null
        },
        {
          "text": "TEMPO 2320/2324 5000 SHRA SCT015 FEW017CB",
          "offset_h": -1,
          "wdir": null,
          "wspd": null
        },
        {
          "text": "BECMG 2400/2401 26010KT",
          "offset_h": 3,
          "wdir": 260,
          "wspd": 10
        },
        {
          "text": "TEMPO 2406/2408 5000 TSRA BKN015 FEW017CB",
          "offset_h": 9,
          "wdir": null,
          "wspd": null
        },
        {
          "text": "TEMPO 2408/2412 26015G28KT 2000 +TSRA BKN013 SCT015CB",
          "offset_h": 11,
          "wdir": 260,
          "wspd": 15
        }
      ],
      "hourly_oat": [
        25,
        25,
        25,
        26,
        28,
        29,
        31,
        30,
        29,
        29,
        30,
        28,
        27,
        28,
        27,
        26,
        26,
        26,
        26,
        26,
        26,
        25,
        25,
        25,
        25
      ],
      "metar_oat": 25,
      "metar_qnh": 1006
    },
    "HAN": {
      "icao": "VVNB",
      "issued": "2026-07-23T17:00:00.000Z",
      "raw": "TAF VVNB 231700Z 2318/2418 09005KT 9999 SCT020 TEMPO 2318/2324 3200 TSRA SCT010 FEW027CB TEMPO 2406/2410 18015G25KT 3000 TSRA SCT010 FEW027CB",
      "groups": [
        {
          "text": "TAF VVNB 231700Z 2318/2418 09005KT 9999 SCT020",
          "offset_h": -3,
          "wdir": 90,
          "wspd": 5
        },
        {
          "text": "TEMPO 2318/2324 3200 TSRA SCT010 FEW027CB",
          "offset_h": -3,
          "wdir": null,
          "wspd": null
        },
        {
          "text": "TEMPO 2406/2410 18015G25KT 3000 TSRA SCT010 FEW027CB",
          "offset_h": 9,
          "wdir": 180,
          "wspd": 15
        }
      ],
      "hourly_oat": [
        25,
        25,
        24,
        25,
        26,
        27,
        28,
        29,
        31,
        32,
        31,
        32,
        31,
        30,
        29,
        28,
        27,
        26,
        26,
        26,
        25,
        25,
        25,
        25,
        25
      ],
      "metar_oat": 25,
      "metar_qnh": 1005
    },
    "CGK": {
      "icao": "WIII",
      "issued": "2026-07-23T17:00:00.000Z",
      "raw": "TAF WIII 231700Z 2318/2500 18005KT 8000 SCT020 BECMG 2319/2321 5000 HZ BECMG 2323/2401 8000 NSW BECMG 2403/2405 02010KT",
      "groups": [
        {
          "text": "TAF WIII 231700Z 2318/2500 18005KT 8000 SCT020",
          "offset_h": -3,
          "wdir": 180,
          "wspd": 5
        },
        {
          "text": "BECMG 2319/2321 5000 HZ",
          "offset_h": -2,
          "wdir": null,
          "wspd": null
        },
        {
          "text": "BECMG 2323/2401 8000 NSW",
          "offset_h": 2,
          "wdir": null,
          "wspd": null
        },
        {
          "text": "BECMG 2403/2405 02010KT",
          "offset_h": 6,
          "wdir": 20,
          "wspd": 10
        }
      ],
      "hourly_oat": [
        24,
        24,
        24,
        24,
        26,
        29,
        31,
        32,
        33,
        34,
        33,
        32,
        31,
        30,
        29,
        29,
        28,
        28,
        28,
        28,
        27,
        26,
        25,
        25,
        25
      ],
      "metar_oat": 24,
      "metar_qnh": 1011
    },
    "SIN": {
      "icao": "WSSS",
      "issued": "2026-07-23T17:00:00.000Z",
      "raw": "TAF WSSS 231700Z 2318/2500 16007KT 9999 FEW015 SCT020",
      "groups": [
        {
          "text": "TAF WSSS 231700Z 2318/2500 16007KT 9999 FEW015 SCT020",
          "offset_h": -3,
          "wdir": 160,
          "wspd": 7
        }
      ],
      "hourly_oat": [
        28,
        28,
        28,
        28,
        28,
        29,
        30,
        31,
        30,
        30,
        30,
        30,
        29,
        29,
        28,
        26,
        25,
        25,
        26,
        26,
        26,
        26,
        26,
        26,
        26
      ],
      "metar_oat": 28,
      "metar_qnh": 1009
    },
    "KUL": {
      "icao": "WMKK",
      "issued": "2026-07-23T17:00:00.000Z",
      "raw": "TAF WMKK 231700Z 2318/2500 VRB03KT 9999 FEW030 PROB30 TEMPO 2405/2409 6000 -TSRA FEW017CB",
      "groups": [
        {
          "text": "TAF WMKK 231700Z 2318/2500 VRB03KT 9999 FEW030",
          "offset_h": -3,
          "wdir": "VRB",
          "wspd": 3
        },
        {
          "text": "PROB30",
          "offset_h": 0,
          "wdir": null,
          "wspd": null
        },
        {
          "text": "TEMPO 2405/2409 6000 -TSRA FEW017CB",
          "offset_h": 8,
          "wdir": null,
          "wspd": null
        }
      ],
      "hourly_oat": [
        25,
        24,
        24,
        25,
        26,
        27,
        28,
        28,
        29,
        30,
        30,
        30,
        30,
        28,
        26,
        25,
        25,
        25,
        24,
        24,
        24,
        24,
        24,
        24,
        24
      ],
      "metar_oat": 25,
      "metar_qnh": 1009
    },
    "BKK": {
      "icao": "VTBS",
      "issued": "2026-07-23T17:00:00.000Z",
      "raw": "TAF VTBS 231700Z 2318/2424 22008KT 9999 FEW020 TEMPO 2409/2414 VRB15KT 3000 TSRA FEW018CB SCT020 BKN080",
      "groups": [
        {
          "text": "TAF VTBS 231700Z 2318/2424 22008KT 9999 FEW020",
          "offset_h": -3,
          "wdir": 220,
          "wspd": 8
        },
        {
          "text": "TEMPO 2409/2414 VRB15KT 3000 TSRA FEW018CB SCT020 BKN080",
          "offset_h": 12,
          "wdir": "VRB",
          "wspd": 15
        }
      ],
      "hourly_oat": [
        26,
        26,
        26,
        27,
        29,
        31,
        32,
        34,
        35,
        36,
        30,
        30,
        28,
        28,
        28,
        28,
        28,
        28,
        28,
        28,
        28,
        27,
        27,
        26,
        26
      ],
      "metar_oat": 26,
      "metar_qnh": 1006
    },
    "TSA": {
      "icao": "RCSS",
      "issued": "2026-07-23T17:00:00.000Z",
      "raw": "TAF RCSS 231700Z 2318/2418 09010KT 9999 FEW015 BKN032 TEMPO 2403/2409 10012G23KT BECMG 2412/2414 10013G25KT",
      "groups": [
        {
          "text": "TAF RCSS 231700Z 2318/2418 09010KT 9999 FEW015 BKN032",
          "offset_h": -3,
          "wdir": 90,
          "wspd": 10
        },
        {
          "text": "TEMPO 2403/2409 10012G23KT",
          "offset_h": 6,
          "wdir": 100,
          "wspd": 12
        },
        {
          "text": "BECMG 2412/2414 10013G25KT",
          "offset_h": 15,
          "wdir": 100,
          "wspd": 13
        }
      ],
      "hourly_oat": [
        26,
        27,
        28,
        29,
        31,
        33,
        34,
        34,
        34,
        33,
        32,
        32,
        30,
        29,
        28,
        28,
        27,
        26,
        26,
        26,
        26,
        26,
        26,
        27,
        27
      ],
      "metar_oat": 26,
      "metar_qnh": 1007
    },
    "TPE": {
      "icao": "RCTP",
      "issued": "2026-07-23T17:00:00.000Z",
      "raw": "TAF RCTP 231700Z 2318/2424 09005KT 9999 FEW015 BKN032 TEMPO 2318/2324 16005KT BECMG 2400/2402 01005KT TEMPO 2404/2410 06010KT BECMG 2410/2412 08010KT TEMPO 2412/2418 09013G25KT",
      "groups": [
        {
          "text": "TAF RCTP 231700Z 2318/2424 09005KT 9999 FEW015 BKN032",
          "offset_h": -3,
          "wdir": 90,
          "wspd": 5
        },
        {
          "text": "TEMPO 2318/2324 16005KT",
          "offset_h": -3,
          "wdir": 160,
          "wspd": 5
        },
        {
          "text": "BECMG 2400/2402 01005KT",
          "offset_h": 3,
          "wdir": 10,
          "wspd": 5
        },
        {
          "text": "TEMPO 2404/2410 06010KT",
          "offset_h": 7,
          "wdir": 60,
          "wspd": 10
        },
        {
          "text": "BECMG 2410/2412 08010KT",
          "offset_h": 13,
          "wdir": 80,
          "wspd": 10
        },
        {
          "text": "TEMPO 2412/2418 09013G25KT",
          "offset_h": 15,
          "wdir": 90,
          "wspd": 13
        }
      ],
      "hourly_oat": [
        25,
        26,
        27,
        29,
        31,
        32,
        33,
        33,
        32,
        32,
        33,
        33,
        31,
        30,
        29,
        28,
        28,
        27,
        27,
        27,
        27,
        27,
        27,
        27,
        28
      ],
      "metar_oat": 26,
      "metar_qnh": 1007
    },
    "GMP": {
      "icao": "RKSS",
      "issued": "2026-07-23T17:00:00.000Z",
      "raw": "TAF RKSS 231700Z 2318/2424 18006KT 9999 BKN020 TN26/2320Z TX32/2406Z TN25/2420Z BECMG 2321/2323 21006KT 6000 -RA SCT010 BKN020 OVC070 BECMG 2404/2406 24007KT 9999 NSW SCT030 BECMG 2412/2414 18005KT BKN025",
      "groups": [
        {
          "text": "TAF RKSS 231700Z 2318/2424 18006KT 9999 BKN020 TN26/2320Z TX32/2406Z TN25/2420Z",
          "offset_h": -3,
          "wdir": 180,
          "wspd": 6
        },
        {
          "text": "BECMG 2321/2323 21006KT 6000 -RA SCT010 BKN020 OVC070",
          "offset_h": 0,
          "wdir": 210,
          "wspd": 6
        },
        {
          "text": "BECMG 2404/2406 24007KT 9999 NSW SCT030",
          "offset_h": 7,
          "wdir": 240,
          "wspd": 7
        },
        {
          "text": "BECMG 2412/2414 18005KT BKN025",
          "offset_h": 15,
          "wdir": 180,
          "wspd": 5
        }
      ],
      "hourly_oat": [
        25,
        25,
        26,
        27,
        28,
        29,
        29,
        30,
        30,
        30,
        30,
        30,
        29,
        28,
        27,
        26,
        26,
        26,
        25,
        25,
        25,
        25,
        25,
        25,
        25
      ],
      "metar_oat": 25,
      "metar_qnh": 1009
    },
    "DLC": {
      "icao": "ZYTL",
      "issued": "2026-07-23T15:05:00.000Z",
      "raw": "TAF ZYTL 231505Z 2318/2418 13004MPS 5000 BR SCT023 TX30/2406Z TN24/2320Z TEMPO 2406/2409 2000 -SHRA BR SCT012 BKN030 FEW040CB",
      "groups": [
        {
          "text": "TAF ZYTL 231505Z 2318/2418 13004MPS 5000 BR SCT023 TX30/2406Z TN24/2320Z",
          "offset_h": -3,
          "wdir": null,
          "wspd": null
        },
        {
          "text": "TEMPO 2406/2409 2000 -SHRA BR SCT012 BKN030 FEW040CB",
          "offset_h": 9,
          "wdir": null,
          "wspd": null
        }
      ],
      "hourly_oat": [
        24,
        25,
        26,
        27,
        28,
        29,
        29,
        30,
        31,
        31,
        30,
        29,
        28,
        27,
        26,
        26,
        25,
        25,
        25,
        26,
        25,
        25,
        25,
        25,
        25
      ],
      "metar_oat": 25,
      "metar_qnh": 1006
    },
    "SHA": {
      "icao": "ZSSS",
      "issued": "2026-07-23T15:03:00.000Z",
      "raw": "TAF ZSSS 231503Z 2318/2424 17004MPS 8000 SCT030 TX37/2406Z TN27/2321Z TN29/2421Z",
      "groups": [
        {
          "text": "TAF ZSSS 231503Z 2318/2424 17004MPS 8000 SCT030 TX37/2406Z TN27/2321Z TN29/2421Z",
          "offset_h": -3,
          "wdir": null,
          "wspd": null
        }
      ],
      "hourly_oat": [
        28,
        28,
        29,
        30,
        32,
        33,
        34,
        35,
        36,
        36,
        36,
        35,
        35,
        34,
        31,
        30,
        30,
        29,
        29,
        29,
        28,
        28,
        28,
        28,
        28
      ],
      "metar_oat": 28,
      "metar_qnh": 1007
    },
    "PVG": {
      "icao": "ZSPD",
      "issued": "2026-07-23T15:03:00.000Z",
      "raw": "TAF ZSPD 231503Z 2318/2424 17004MPS 6000 SCT030 TX37/2406Z TN26/2321Z TN28/2421Z",
      "groups": [
        {
          "text": "TAF ZSPD 231503Z 2318/2424 17004MPS 6000 SCT030 TX37/2406Z TN26/2321Z TN28/2421Z",
          "offset_h": -3,
          "wdir": null,
          "wspd": null
        }
      ],
      "hourly_oat": [
        28,
        29,
        30,
        31,
        33,
        34,
        35,
        36,
        36,
        36,
        36,
        35,
        33,
        32,
        30,
        30,
        30,
        29,
        29,
        29,
        29,
        29,
        29,
        29,
        29
      ],
      "metar_oat": 28,
      "metar_qnh": 1007
    },
    "CAN": {
      "icao": "ZGGG",
      "issued": "2026-07-23T15:01:00.000Z",
      "raw": "TAF ZGGG 231501Z 2318/2424 18003MPS 8000 BKN033 TX36/2407Z TN27/2322Z TN26/2422Z",
      "groups": [
        {
          "text": "TAF ZGGG 231501Z 2318/2424 18003MPS 8000 BKN033 TX36/2407Z TN27/2322Z TN26/2422Z",
          "offset_h": -3,
          "wdir": null,
          "wspd": null
        }
      ],
      "hourly_oat": [
        26,
        26,
        27,
        28,
        29,
        30,
        32,
        32,
        33,
        34,
        34,
        34,
        34,
        33,
        31,
        30,
        30,
        29,
        29,
        28,
        28,
        27,
        27,
        26,
        26
      ],
      "metar_oat": 26,
      "metar_qnh": 1007
    },
    "PEK": {
      "icao": "ZBAA",
      "issued": "2026-07-23T15:00:00.000Z",
      "raw": "TAF ZBAA 231500Z 2318/2424 16003MPS 6000 BKN040 TX30/2406Z TN21/2321Z TN24/2421Z",
      "groups": [
        {
          "text": "TAF ZBAA 231500Z 2318/2424 16003MPS 6000 BKN040 TX30/2406Z TN21/2321Z TN24/2421Z",
          "offset_h": -3,
          "wdir": null,
          "wspd": null
        }
      ],
      "hourly_oat": [
        22,
        22,
        24,
        25,
        26,
        27,
        28,
        29,
        30,
        30,
        30,
        30,
        30,
        30,
        28,
        27,
        26,
        25,
        24,
        24,
        23,
        23,
        23,
        23,
        22
      ],
      "metar_oat": 22,
      "metar_qnh": 1006
    }
  }
}