{
  "updated": "2026-07-20T22:00:39Z",
  "tafs": {
    "SIN": {
      "icao": "WSSS",
      "issued": "2026-07-20T21:05:00.000Z",
      "raw": "TAF AMD WSSS 202105Z 2021/2200 16004KT 9999 FEW015 SCT020 TEMPO 2104/2107 3000 TSRA FEW012CB BKN015",
      "groups": [
        {
          "text": "TAF AMD WSSS 202105Z 2021/2200 16004KT 9999 FEW015 SCT020",
          "offset_h": -1,
          "wdir": 160,
          "wspd": 4
        },
        {
          "text": "TEMPO 2104/2107 3000 TSRA FEW012CB BKN015",
          "offset_h": 6,
          "wdir": null,
          "wspd": null
        }
      ],
      "metar_raw": "METAR WSSS 202130Z 19003KT 160V240 7000 FEW016 FEW018TCU SCT050 26/24 Q1011 NOSIG",
      "metar_wdir": 190,
      "metar_wspd": 3,
      "metar_oat": 26,
      "metar_qnh": 1011,
      "hourly_oat": [
        25,
        25,
        26,
        28,
        29,
        29,
        29,
        30,
        30,
        30,
        30,
        31,
        30,
        29,
        28,
        28,
        28,
        28,
        28,
        28,
        28,
        27,
        26,
        23,
        24
      ]
    },
    "SAN": {
      "icao": "KSAN",
      "issued": "2026-07-20T20:56:00.000Z",
      "raw": "TAF KSAN 202056Z 2021/2124 29008KT P6SM BKN150 FM210300 VRB04KT P6SM FEW200 TEMPO 2108/2111 BKN010 FM211100 VRB04KT P6SM BKN010 FM211500 VRB04KT P6SM FEW015 FM211800 28010KT P6SM SCT150",
      "groups": [
        {
          "text": "TAF KSAN 202056Z 2021/2124 29008KT P6SM BKN150",
          "offset_h": -1,
          "wdir": 290,
          "wspd": 8
        },
        {
          "text": "FM210300 VRB04KT P6SM FEW200",
          "offset_h": 5,
          "wdir": "VRB",
          "wspd": 4
        },
        {
          "text": "TEMPO 2108/2111 BKN010",
          "offset_h": 10,
          "wdir": null,
          "wspd": null
        },
        {
          "text": "FM211100 VRB04KT P6SM BKN010",
          "offset_h": 13,
          "wdir": "VRB",
          "wspd": 4
        },
        {
          "text": "FM211500 VRB04KT P6SM FEW015",
          "offset_h": 17,
          "wdir": "VRB",
          "wspd": 4
        },
        {
          "text": "FM211800 28010KT P6SM SCT150",
          "offset_h": 20,
          "wdir": 280,
          "wspd": 10
        }
      ],
      "metar_raw": "METAR KSAN 202151Z 29008KT 10SM FEW100 SCT150 BKN190 24/19 A2992 RMK AO2 SLP132 T02440194",
      "metar_wdir": 290,
      "metar_wspd": 8,
      "metar_oat": 24,
      "metar_qnh": 1013,
      "hourly_oat": [
        25,
        25,
        26,
        25,
        25,
        23,
        22,
        21,
        20,
        20,
        20,
        20,
        20,
        19,
        19,
        18,
        20,
        22,
        23,
        24,
        24,
        26,
        28,
        28,
        26
      ]
    },
    "HNL": {
      "icao": "PHNL",
      "issued": "2026-07-20T20:52:00.000Z",
      "raw": "TAF PHNL 202052Z 2021/2124 06013G21KT P6SM FEW025 BKN050 FM210600 06008KT P6SM VCSH SCT025 SCT040 FM212100 08011KT P6SM VCSH SCT025 SCT040 BKN060",
      "groups": [
        {
          "text": "TAF PHNL 202052Z 2021/2124 06013G21KT P6SM FEW025 BKN050",
          "offset_h": -1,
          "wdir": 60,
          "wspd": 13
        },
        {
          "text": "FM210600 06008KT P6SM VCSH SCT025 SCT040",
          "offset_h": 8,
          "wdir": 60,
          "wspd": 8
        },
        {
          "text": "FM212100 08011KT P6SM VCSH SCT025 SCT040 BKN060",
          "offset_h": 23,
          "wdir": 80,
          "wspd": 11
        }
      ],
      "metar_raw": "METAR PHNL 202153Z 07016G23KT 10SM FEW023 SCT050 BKN060 28/19 A2996 RMK AO2 PK WND 07026/2137 SLP146 VCSH NE T02830194 $",
      "metar_wdir": 70,
      "metar_wspd": 16,
      "metar_oat": 28,
      "metar_qnh": 1015,
      "hourly_oat": [
        29,
        30,
        29,
        29,
        28,
        27,
        26,
        25,
        24,
        24,
        24,
        24,
        24,
        24,
        24,
        23,
        23,
        22,
        22,
        24,
        25,
        26,
        27,
        27,
        29
      ]
    },
    "HKG": {
      "icao": "VHHH",
      "issued": "2026-07-20T20:00:00.000Z",
      "raw": "TAF VHHH 202000Z 2021/2203 20010KT 9999 FEW010 SCT025 TX31/2106Z TN27/2022Z TN27/2122Z TEMPO 2021/2024 3500 SHRA FEW010CB SCT020 TEMPO 2100/2106 24015G25KT 2500 TSRA SHRA FEW008CB SCT015",
      "groups": [
        {
          "text": "TAF VHHH 202000Z 2021/2203 20010KT 9999 FEW010 SCT025 TX31/2106Z TN27/2022Z TN27/2122Z",
          "offset_h": -1,
          "wdir": 200,
          "wspd": 10
        },
        {
          "text": "TEMPO 2021/2024 3500 SHRA FEW010CB SCT020",
          "offset_h": -1,
          "wdir": null,
          "wspd": null
        },
        {
          "text": "TEMPO 2100/2106 24015G25KT 2500 TSRA SHRA FEW008CB SCT015",
          "offset_h": 2,
          "wdir": 240,
          "wspd": 15
        }
      ],
      "metar_raw": "METAR VHHH 202130Z 17007KT 130V200 9999 FEW010 29/25 Q1006 NOSIG",
      "metar_wdir": 170,
      "metar_wspd": 7,
      "metar_oat": 29,
      "metar_qnh": 1006,
      "hourly_oat": [
        29,
        29,
        29,
        28,
        28,
        27,
        28,
        26,
        28,
        29,
        29,
        29,
        29,
        29,
        29,
        29,
        29,
        29,
        28,
        28,
        28,
        28,
        28,
        28,
        28
      ]
    },
    "LAX": {
      "icao": "KLAX",
      "issued": "2026-07-20T17:45:00.000Z",
      "raw": "TAF KLAX 201745Z 2018/2124 26012KT P6SM SCT200 FM210400 26006KT P6SM SCT200 FM210800 VRB03KT P6SM SCT250 FM211000 VRB03KT 6SM BR BKN006 FM211500 26006KT P6SM SCT250",
      "groups": [
        {
          "text": "TAF KLAX 201745Z 2018/2124 26012KT P6SM SCT200",
          "offset_h": -4,
          "wdir": 260,
          "wspd": 12
        },
        {
          "text": "FM210400 26006KT P6SM SCT200",
          "offset_h": 6,
          "wdir": 260,
          "wspd": 6
        },
        {
          "text": "FM210800 VRB03KT P6SM SCT250",
          "offset_h": 10,
          "wdir": "VRB",
          "wspd": 3
        },
        {
          "text": "FM211000 VRB03KT 6SM BR BKN006",
          "offset_h": 12,
          "wdir": "VRB",
          "wspd": 3
        },
        {
          "text": "FM211500 26006KT P6SM SCT250",
          "offset_h": 17,
          "wdir": 260,
          "wspd": 6
        }
      ],
      "metar_raw": "METAR KLAX 202153Z 26010KT 10SM BKN200 26/18 A2990 RMK AO2 SLP124 T02560183 $",
      "metar_wdir": 260,
      "metar_wspd": 10,
      "metar_oat": 26,
      "metar_qnh": 1013,
      "hourly_oat": [
        24,
        25,
        25,
        23,
        22,
        21,
        21,
        20,
        20,
        20,
        19,
        19,
        19,
        19,
        19,
        19,
        20,
        22,
        22,
        25,
        28,
        26,
        26,
        25,
        26
      ]
    },
    "ITM": {
      "icao": "RJOO",
      "issued": "2026-07-20T17:08:00.000Z",
      "raw": "TAF RJOO 201708Z 2018/2200 32006KT 9999 FEW020 SCT040 BECMG 2023/2101 22006KT TEMPO 2103/2112 TS FEW015 FEW025CB BKN035 BECMG 2106/2109 25004KT",
      "groups": [
        {
          "text": "TAF RJOO 201708Z 2018/2200 32006KT 9999 FEW020 SCT040",
          "offset_h": -4,
          "wdir": 320,
          "wspd": 6
        },
        {
          "text": "BECMG 2023/2101 22006KT",
          "offset_h": 1,
          "wdir": 220,
          "wspd": 6
        },
        {
          "text": "TEMPO 2103/2112 TS FEW015 FEW025CB BKN035",
          "offset_h": 5,
          "wdir": null,
          "wspd": null
        },
        {
          "text": "BECMG 2106/2109 25004KT",
          "offset_h": 8,
          "wdir": 250,
          "wspd": 4
        }
      ],
      "metar_raw": "METAR RJOO 202100Z AUTO 26003KT 210V300 9999 FEW015 29/26 Q1009",
      "metar_wdir": 260,
      "metar_wspd": 3,
      "metar_oat": 29,
      "metar_qnh": 1009,
      "hourly_oat": [
        27,
        28,
        30,
        31,
        32,
        33,
        34,
        34,
        34,
        34,
        34,
        34,
        32,
        30,
        29,
        29,
        29,
        28,
        28,
        27,
        27,
        27,
        26,
        27,
        28
      ]
    },
    "KIX": {
      "icao": "RJBB",
      "issued": "2026-07-20T17:08:00.000Z",
      "raw": "TAF RJBB 201708Z 2018/2200 19006KT 9999 FEW020",
      "groups": [
        {
          "text": "TAF RJBB 201708Z 2018/2200 19006KT 9999 FEW020",
          "offset_h": -4,
          "wdir": 190,
          "wspd": 6
        }
      ],
      "metar_raw": "METAR RJBB 202130Z 24004KT 9999 FEW010 28/26 Q1010 NOSIG",
      "metar_wdir": 240,
      "metar_wspd": 4,
      "metar_oat": 28,
      "metar_qnh": 1010,
      "hourly_oat": [
        28,
        28,
        28,
        28,
        28,
        28,
        28,
        28,
        28,
        28,
        28,
        29,
        29,
        29,
        29,
        29,
        28,
        28,
        28,
        28,
        28,
        28,
        28,
        27,
        28
      ]
    },
    "HND": {
      "icao": "RJTT",
      "issued": "2026-07-20T17:05:00.000Z",
      "raw": "TAF RJTT 201705Z 2018/2200 22006KT 9999 FEW020 BECMG 2103/2105 18016KT BECMG 2115/2118 36005KT BECMG 2121/2200 08004KT",
      "groups": [
        {
          "text": "TAF RJTT 201705Z 2018/2200 22006KT 9999 FEW020",
          "offset_h": -4,
          "wdir": 220,
          "wspd": 6
        },
        {
          "text": "BECMG 2103/2105 18016KT",
          "offset_h": 5,
          "wdir": 180,
          "wspd": 16
        },
        {
          "text": "BECMG 2115/2118 36005KT",
          "offset_h": 17,
          "wdir": 360,
          "wspd": 5
        },
        {
          "text": "BECMG 2121/2200 08004KT",
          "offset_h": 23,
          "wdir": 80,
          "wspd": 4
        }
      ],
      "metar_raw": "METAR RJTT 202130Z 19007KT 9999 FEW010 BKN110 29/26 Q1008 NOSIG",
      "metar_wdir": 190,
      "metar_wspd": 7,
      "metar_oat": 29,
      "metar_qnh": 1008,
      "hourly_oat": [
        26,
        28,
        29,
        30,
        30,
        31,
        31,
        32,
        32,
        31,
        30,
        29,
        28,
        28,
        27,
        27,
        27,
        27,
        27,
        26,
        26,
        26,
        26,
        26,
        27
      ]
    },
    "CTS": {
      "icao": "RJCC",
      "issued": "2026-07-20T17:05:00.000Z",
      "raw": "TAF RJCC 201705Z 2018/2200 35008KT 9999 FEW008 SCT020 TEMPO 2018/2022 1500 BR FEW001 BKN003 TEMPO 2115/2121 1500 BR FEW001 BKN003",
      "groups": [
        {
          "text": "TAF RJCC 201705Z 2018/2200 35008KT 9999 FEW008 SCT020",
          "offset_h": -4,
          "wdir": 350,
          "wspd": 8
        },
        {
          "text": "TEMPO 2018/2022 1500 BR FEW001 BKN003",
          "offset_h": -4,
          "wdir": null,
          "wspd": null
        },
        {
          "text": "TEMPO 2115/2121 1500 BR FEW001 BKN003",
          "offset_h": 17,
          "wdir": null,
          "wspd": null
        }
      ],
      "metar_raw": "METAR RJCC 202130Z 36007KT 9999 FEW005 BKN008 BKN015 22/21 Q1007",
      "metar_wdir": 360,
      "metar_wspd": 7,
      "metar_oat": 22,
      "metar_qnh": 1007,
      "hourly_oat": [
        23,
        24,
        26,
        27,
        28,
        28,
        29,
        29,
        28,
        26,
        25,
        23,
        22,
        22,
        21,
        21,
        20,
        20,
        20,
        20,
        20,
        20,
        20,
        21,
        21
      ]
    },
    "NRT": {
      "icao": "RJAA",
      "issued": "2026-07-20T17:05:00.000Z",
      "raw": "TAF RJAA 201705Z 2018/2200 15005KT 9999 FEW030 BECMG 2021/2023 31004KT BECMG 2101/2103 16006KT BECMG 2109/2112 27004KT",
      "groups": [
        {
          "text": "TAF RJAA 201705Z 2018/2200 15005KT 9999 FEW030",
          "offset_h": -4,
          "wdir": 150,
          "wspd": 5
        },
        {
          "text": "BECMG 2021/2023 31004KT",
          "offset_h": -1,
          "wdir": 310,
          "wspd": 4
        },
        {
          "text": "BECMG 2101/2103 16006KT",
          "offset_h": 3,
          "wdir": 160,
          "wspd": 6
        },
        {
          "text": "BECMG 2109/2112 27004KT",
          "offset_h": 11,
          "wdir": 270,
          "wspd": 4
        }
      ],
      "metar_raw": "METAR RJAA 202130Z 21005KT 9999 FEW030 SCT120 28/25 Q1008 NOSIG",
      "metar_wdir": 210,
      "metar_wspd": 5,
      "metar_oat": 28,
      "metar_qnh": 1008,
      "hourly_oat": [
        27,
        29,
        30,
        32,
        33,
        34,
        35,
        36,
        36,
        35,
        33,
        32,
        30,
        30,
        29,
        28,
        28,
        27,
        27,
        26,
        26,
        25,
        25,
        26,
        27
      ]
    },
    "FUK": {
      "icao": "RJFF",
      "issued": "2026-07-20T17:05:00.000Z",
      "raw": "TAF RJFF 201705Z 2018/2200 15004KT 9999 FEW015 BKN030 BECMG 2023/2101 32011KT BECMG 2112/2115 14006KT",
      "groups": [
        {
          "text": "TAF RJFF 201705Z 2018/2200 15004KT 9999 FEW015 BKN030",
          "offset_h": -4,
          "wdir": 150,
          "wspd": 4
        },
        {
          "text": "BECMG 2023/2101 32011KT",
          "offset_h": 1,
          "wdir": 320,
          "wspd": 11
        },
        {
          "text": "BECMG 2112/2115 14006KT",
          "offset_h": 14,
          "wdir": 140,
          "wspd": 6
        }
      ],
      "metar_raw": "METAR RJFF 202130Z 00000KT 9999 FEW020 BKN050 28/24 Q1010 BECMG 17008KT",
      "metar_wdir": 0,
      "metar_wspd": 0,
      "metar_oat": 28,
      "metar_qnh": 1010,
      "hourly_oat": [
        27,
        28,
        30,
        30,
        30,
        30,
        30,
        30,
        30,
        30,
        30,
        29,
        29,
        28,
        28,
        27,
        27,
        27,
        26,
        26,
        26,
        26,
        25,
        25,
        26
      ]
    },
    "OKA": {
      "icao": "ROAH",
      "issued": "2026-07-20T17:05:00.000Z",
      "raw": "TAF ROAH 201705Z 2018/2200 22006KT 9999 FEW008 SCT015 BECMG 2106/2109 29006KT TEMPO 2106/2109 4000 SHRA BR FEW005 BKN008 FEW015CB BECMG 2112/2115 23006KT",
      "groups": [
        {
          "text": "TAF ROAH 201705Z 2018/2200 22006KT 9999 FEW008 SCT015",
          "offset_h": -4,
          "wdir": 220,
          "wspd": 6
        },
        {
          "text": "BECMG 2106/2109 29006KT",
          "offset_h": 8,
          "wdir": 290,
          "wspd": 6
        },
        {
          "text": "TEMPO 2106/2109 4000 SHRA BR FEW005 BKN008 FEW015CB",
          "offset_h": 8,
          "wdir": null,
          "wspd": null
        },
        {
          "text": "BECMG 2112/2115 23006KT",
          "offset_h": 14,
          "wdir": 230,
          "wspd": 6
        }
      ],
      "metar_raw": "METAR ROAH 202130Z 22007KT 9999 FEW009 28/27 Q1009",
      "metar_wdir": 220,
      "metar_wspd": 7,
      "metar_oat": 28,
      "metar_qnh": 1009,
      "hourly_oat": [
        28,
        29,
        30,
        30,
        30,
        31,
        30,
        31,
        31,
        31,
        30,
        30,
        29,
        29,
        28,
        28,
        28,
        28,
        28,
        27,
        27,
        27,
        27,
        27,
        28
      ]
    },
    "NGO": {
      "icao": "RJGG",
      "issued": "2026-07-20T17:05:00.000Z",
      "raw": "TAF RJGG 201705Z 2018/2200 11005KT 9999 FEW030 BECMG 2021/2023 30004KT BECMG 2102/2104 23006KT BECMG 2118/2121 33004KT",
      "groups": [
        {
          "text": "TAF RJGG 201705Z 2018/2200 11005KT 9999 FEW030",
          "offset_h": -4,
          "wdir": 110,
          "wspd": 5
        },
        {
          "text": "BECMG 2021/2023 30004KT",
          "offset_h": -1,
          "wdir": 300,
          "wspd": 4
        },
        {
          "text": "BECMG 2102/2104 23006KT",
          "offset_h": 4,
          "wdir": 230,
          "wspd": 6
        },
        {
          "text": "BECMG 2118/2121 33004KT",
          "offset_h": 20,
          "wdir": 330,
          "wspd": 4
        }
      ],
      "metar_raw": "METAR RJGG 202130Z 26001KT 9999 FEW012 29/27 Q1009 NOSIG",
      "metar_wdir": 260,
      "metar_wspd": 1,
      "metar_oat": 29,
      "metar_qnh": 1009,
      "hourly_oat": [
        27,
        27,
        27,
        28,
        28,
        29,
        29,
        29,
        30,
        30,
        30,
        30,
        30,
        29,
        29,
        29,
        28,
        28,
        28,
        28,
        27,
        27,
        28,
        28,
        28
      ]
    },
    "SGN": {
      "icao": "VVTS",
      "issued": "2026-07-20T17:00:00.000Z",
      "raw": "TAF VVTS 201700Z 2018/2124 23009KT 9999 SCT017",
      "groups": [
        {
          "text": "TAF VVTS 201700Z 2018/2124 23009KT 9999 SCT017",
          "offset_h": -4,
          "wdir": 230,
          "wspd": 9
        }
      ],
      "metar_raw": "METAR VVTS 202130Z 24007KT CAVOK 27/26 Q1010 NOSIG",
      "metar_wdir": 240,
      "metar_wspd": 7,
      "metar_oat": 27,
      "metar_qnh": 1010,
      "hourly_oat": [
        25,
        25,
        26,
        28,
        30,
        31,
        32,
        33,
        34,
        34,
        34,
        34,
        33,
        31,
        29,
        28,
        28,
        27,
        27,
        27,
        26,
        26,
        26,
        26,
        25
      ]
    },
    "KUL": {
      "icao": "WMKK",
      "issued": "2026-07-20T17:00:00.000Z",
      "raw": "TAF WMKK 201700Z 2018/2200 VRB03KT 9000 FEW030 PROB30 TEMPO 2019/2022 6000 -TSRA FEW017CB",
      "groups": [
        {
          "text": "TAF WMKK 201700Z 2018/2200 VRB03KT 9000 FEW030",
          "offset_h": -4,
          "wdir": "VRB",
          "wspd": 3
        },
        {
          "text": "PROB30",
          "offset_h": 0,
          "wdir": null,
          "wspd": null
        },
        {
          "text": "TEMPO 2019/2022 6000 -TSRA FEW017CB",
          "offset_h": -3,
          "wdir": null,
          "wspd": null
        }
      ],
      "metar_raw": "METAR WMKK 202130Z VRB03KT 8000 FEW010 FEW017CB 26/24 Q1010 NOSIG",
      "metar_wdir": "VRB",
      "metar_wspd": 3,
      "metar_oat": 26,
      "metar_qnh": 1010,
      "hourly_oat": [
        24,
        23,
        24,
        25,
        27,
        29,
        30,
        30,
        29,
        29,
        29,
        29,
        28,
        28,
        26,
        25,
        25,
        25,
        25,
        24,
        24,
        24,
        24,
        24,
        23
      ]
    },
    "TSA": {
      "icao": "RCSS",
      "issued": "2026-07-20T17:00:00.000Z",
      "raw": "TAF RCSS 201700Z 2018/2118 09005KT 9999 FEW015 BKN032 BECMG 2100/2102 29010KT TEMPO 2106/2110 12005KT 4000 SHRA FEW010 FEW015CB BKN017 BECMG 2110/2112 10005KT",
      "groups": [
        {
          "text": "TAF RCSS 201700Z 2018/2118 09005KT 9999 FEW015 BKN032",
          "offset_h": -4,
          "wdir": 90,
          "wspd": 5
        },
        {
          "text": "BECMG 2100/2102 29010KT",
          "offset_h": 2,
          "wdir": 290,
          "wspd": 10
        },
        {
          "text": "TEMPO 2106/2110 12005KT 4000 SHRA FEW010 FEW015CB BKN017",
          "offset_h": 8,
          "wdir": 120,
          "wspd": 5
        },
        {
          "text": "BECMG 2110/2112 10005KT",
          "offset_h": 12,
          "wdir": 100,
          "wspd": 5
        }
      ],
      "metar_raw": "METAR RCSS 202100Z VRB01KT 9999 FEW022 26/26 Q1009 NOSIG RMK A2980",
      "metar_wdir": "VRB",
      "metar_wspd": 1,
      "metar_oat": 26,
      "metar_qnh": 1009,
      "hourly_oat": [
        25,
        27,
        29,
        30,
        32,
        33,
        33,
        33,
        32,
        30,
        29,
        28,
        28,
        27,
        27,
        27,
        26,
        26,
        26,
        25,
        25,
        25,
        25,
        25,
        26
      ]
    },
    "TPE": {
      "icao": "RCTP",
      "issued": "2026-07-20T17:00:00.000Z",
      "raw": "TAF RCTP 201700Z 2018/2124 22007KT 9999 FEW015 BKN032 TEMPO 2018/2022 15005KT BECMG 2023/2101 24012KT TEMPO 2103/2109 27017KT TEMPO 2107/2111 5000 SHRA FEW010 FEW015CB BKN020 BECMG 2110/2112 20005KT",
      "groups": [
        {
          "text": "TAF RCTP 201700Z 2018/2124 22007KT 9999 FEW015 BKN032",
          "offset_h": -4,
          "wdir": 220,
          "wspd": 7
        },
        {
          "text": "TEMPO 2018/2022 15005KT",
          "offset_h": -4,
          "wdir": 150,
          "wspd": 5
        },
        {
          "text": "BECMG 2023/2101 24012KT",
          "offset_h": 1,
          "wdir": 240,
          "wspd": 12
        },
        {
          "text": "TEMPO 2103/2109 27017KT",
          "offset_h": 5,
          "wdir": 270,
          "wspd": 17
        },
        {
          "text": "TEMPO 2107/2111 5000 SHRA FEW010 FEW015CB BKN020",
          "offset_h": 9,
          "wdir": null,
          "wspd": null
        },
        {
          "text": "BECMG 2110/2112 20005KT",
          "offset_h": 12,
          "wdir": 200,
          "wspd": 5
        }
      ],
      "metar_raw": "METAR RCTP 202130Z 21008KT 9999 FEW015 27/24 Q1009 NOSIG RMK A2980",
      "metar_wdir": 210,
      "metar_wspd": 8,
      "metar_oat": 27,
      "metar_qnh": 1009,
      "hourly_oat": [
        26,
        28,
        29,
        31,
        31,
        32,
        31,
        31,
        31,
        31,
        30,
        29,
        29,
        28,
        28,
        28,
        27,
        27,
        27,
        26,
        26,
        26,
        26,
        26,
        26
      ]
    },
    "GMP": {
      "icao": "RKSS",
      "issued": "2026-07-20T17:00:00.000Z",
      "raw": "TAF RKSS 201700Z 2018/2124 18007KT 6000 FEW010 BKN020 OVC070 TN25/2020Z TX27/2105Z TN24/2120Z TEMPO 2018/2019 4000 RA TEMPO 2021/2023 -RA BECMG 2100/2102 22008KT -RA BECMG 2109/2111 19005KT NSW TEMPO 2120/2123 -RA",
      "groups": [
        {
          "text": "TAF RKSS 201700Z 2018/2124 18007KT 6000 FEW010 BKN020 OVC070 TN25/2020Z TX27/2105Z TN24/2120Z",
          "offset_h": -4,
          "wdir": 180,
          "wspd": 7
        },
        {
          "text": "TEMPO 2018/2019 4000 RA",
          "offset_h": -4,
          "wdir": null,
          "wspd": null
        },
        {
          "text": "TEMPO 2021/2023 -RA",
          "offset_h": -1,
          "wdir": null,
          "wspd": null
        },
        {
          "text": "BECMG 2100/2102 22008KT -RA",
          "offset_h": 2,
          "wdir": 220,
          "wspd": 8
        },
        {
          "text": "BECMG 2109/2111 19005KT NSW",
          "offset_h": 11,
          "wdir": 190,
          "wspd": 5
        },
        {
          "text": "TEMPO 2120/2123 -RA",
          "offset_h": 22,
          "wdir": null,
          "wspd": null
        }
      ],
      "metar_raw": "METAR RKSS 202100Z 15008KT 9999 -RA FEW015 BKN030 OVC070 26/26 Q1005 NOSIG",
      "metar_wdir": 150,
      "metar_wspd": 8,
      "metar_oat": 26,
      "metar_qnh": 1005,
      "hourly_oat": [
        25,
        25,
        25,
        25,
        25,
        26,
        26,
        26,
        26,
        26,
        26,
        26,
        26,
        26,
        25,
        25,
        25,
        25,
        25,
        25,
        25,
        25,
        25,
        25,
        25
      ]
    },
    "CGK": {
      "icao": "WIII",
      "issued": "2026-07-20T17:00:00.000Z",
      "raw": "TAF WIII 201700Z 2018/2200 15003KT 4000 HZ FEW020 BECMG 2102/2104 05012KT 8000 NSW",
      "groups": [
        {
          "text": "TAF WIII 201700Z 2018/2200 15003KT 4000 HZ FEW020",
          "offset_h": -4,
          "wdir": 150,
          "wspd": 3
        },
        {
          "text": "BECMG 2102/2104 05012KT 8000 NSW",
          "offset_h": 4,
          "wdir": 50,
          "wspd": 12
        }
      ],
      "metar_raw": "METAR WIII 202130Z 17004KT 6000 FEW020 26/23 Q1012 NOSIG",
      "metar_wdir": 170,
      "metar_wspd": 4,
      "metar_oat": 26,
      "metar_qnh": 1012,
      "hourly_oat": [
        24,
        24,
        25,
        27,
        29,
        30,
        32,
        32,
        31,
        30,
        30,
        30,
        29,
        28,
        27,
        27,
        27,
        26,
        25,
        25,
        25,
        24,
        24,
        24,
        24
      ]
    },
    "BKK": {
      "icao": "VTBS",
      "issued": "2026-07-20T17:00:00.000Z",
      "raw": "TAF VTBS 201700Z 2018/2124 21008KT 9999 FEW020 BECMG 2020/2022 27005KT BECMG 2106/2108 21008KT TEMPO 2108/2112 VRB15KT 4000 TSRA FEW018CB SCT030 BKN100",
      "groups": [
        {
          "text": "TAF VTBS 201700Z 2018/2124 21008KT 9999 FEW020",
          "offset_h": -4,
          "wdir": 210,
          "wspd": 8
        },
        {
          "text": "BECMG 2020/2022 27005KT",
          "offset_h": -2,
          "wdir": 270,
          "wspd": 5
        },
        {
          "text": "BECMG 2106/2108 21008KT",
          "offset_h": 8,
          "wdir": 210,
          "wspd": 8
        },
        {
          "text": "TEMPO 2108/2112 VRB15KT 4000 TSRA FEW018CB SCT030 BKN100",
          "offset_h": 10,
          "wdir": "VRB",
          "wspd": 15
        }
      ],
      "metar_raw": "METAR VTBS 202130Z 25004KT 9999 FEW020 29/21 Q1009 NOSIG",
      "metar_wdir": 250,
      "metar_wspd": 4,
      "metar_oat": 29,
      "metar_qnh": 1009,
      "hourly_oat": [
        27,
        26,
        27,
        28,
        30,
        32,
        33,
        34,
        31,
        32,
        30,
        30,
        30,
        29,
        29,
        29,
        28,
        28,
        28,
        28,
        28,
        27,
        27,
        27,
        27
      ]
    },
    "HAN": {
      "icao": "VVNB",
      "issued": "2026-07-20T17:00:00.000Z",
      "raw": "TAF VVNB 201700Z 2018/2118 05005KT 6000 FEW030 PROB40 TEMPO 2103/2107 4000 TSRA SCT015 FEW027CB",
      "groups": [
        {
          "text": "TAF VVNB 201700Z 2018/2118 05005KT 6000 FEW030",
          "offset_h": -4,
          "wdir": 50,
          "wspd": 5
        },
        {
          "text": "PROB40",
          "offset_h": 0,
          "wdir": null,
          "wspd": null
        },
        {
          "text": "TEMPO 2103/2107 4000 TSRA SCT015 FEW027CB",
          "offset_h": 5,
          "wdir": null,
          "wspd": null
        }
      ],
      "metar_raw": "METAR VVNB 202130Z 33003KT 280V030 9999 SCT031 28/26 Q1003 NOSIG",
      "metar_wdir": 330,
      "metar_wspd": 3,
      "metar_oat": 28,
      "metar_qnh": 1003,
      "hourly_oat": [
        26,
        26,
        27,
        28,
        29,
        30,
        31,
        32,
        32,
        33,
        32,
        31,
        31,
        30,
        29,
        29,
        28,
        28,
        28,
        27,
        27,
        27,
        27,
        26,
        26
      ]
    },
    "DLC": {
      "icao": "ZYTL",
      "issued": "2026-07-20T15:06:00.000Z",
      "raw": "TAF ZYTL 201506Z 2018/2118 16004MPS 5000 BR FEW033 TX30/2106Z TN22/2021Z",
      "groups": [
        {
          "text": "TAF ZYTL 201506Z 2018/2118 16004MPS 5000 BR FEW033 TX30/2106Z TN22/2021Z",
          "offset_h": -4,
          "wdir": null,
          "wspd": null
        }
      ],
      "metar_raw": "METAR ZYTL 202130Z VRB01MPS CAVOK 23/22 Q1005 NOSIG",
      "metar_wdir": null,
      "metar_wspd": null,
      "metar_oat": 23,
      "metar_qnh": 1005,
      "hourly_oat": [
        23,
        25,
        26,
        28,
        30,
        31,
        32,
        32,
        31,
        31,
        31,
        30,
        29,
        27,
        25,
        25,
        24,
        24,
        24,
        24,
        24,
        24,
        24,
        24,
        25
      ]
    },
    "CAN": {
      "icao": "ZGGG",
      "issued": "2026-07-20T15:05:00.000Z",
      "raw": "TAF ZGGG 201505Z 2018/2124 12003MPS 8000 SCT030 TX31/2107Z TN27/2022Z TN27/2122Z TEMPO 2021/2101 TSRA SCT026CB BKN030 TEMPO 2104/2108 2500 +TSRA SCT026CB BKN030 TEMPO 2120/2124 SHRA FEW026CB BKN030",
      "groups": [
        {
          "text": "TAF ZGGG 201505Z 2018/2124 12003MPS 8000 SCT030 TX31/2107Z TN27/2022Z TN27/2122Z",
          "offset_h": -4,
          "wdir": null,
          "wspd": null
        },
        {
          "text": "TEMPO 2021/2101 TSRA SCT026CB BKN030",
          "offset_h": -1,
          "wdir": null,
          "wspd": null
        },
        {
          "text": "TEMPO 2104/2108 2500 +TSRA SCT026CB BKN030",
          "offset_h": 6,
          "wdir": null,
          "wspd": null
        },
        {
          "text": "TEMPO 2120/2124 SHRA FEW026CB BKN030",
          "offset_h": 22,
          "wdir": null,
          "wspd": null
        }
      ],
      "metar_raw": "METAR ZGGG 202130Z 08003MPS 9999 FEW026 27/26 Q1006 NOSIG",
      "metar_wdir": null,
      "metar_wspd": null,
      "metar_oat": 27,
      "metar_qnh": 1006,
      "hourly_oat": [
        25,
        25,
        26,
        27,
        29,
        30,
        30,
        29,
        29,
        29,
        30,
        29,
        29,
        28,
        28,
        27,
        27,
        27,
        27,
        27,
        27,
        26,
        26,
        26,
        25
      ]
    },
    "SHA": {
      "icao": "ZSSS",
      "issued": "2026-07-20T15:05:00.000Z",
      "raw": "TAF ZSSS 201505Z 2018/2124 20004MPS 6000 SCT030 TX34/2106Z TN27/2021Z TN28/2121Z TEMPO 2106/2110 TSRA BKN015 FEW030CB",
      "groups": [
        {
          "text": "TAF ZSSS 201505Z 2018/2124 20004MPS 6000 SCT030 TX34/2106Z TN27/2021Z TN28/2121Z",
          "offset_h": -4,
          "wdir": null,
          "wspd": null
        },
        {
          "text": "TEMPO 2106/2110 TSRA BKN015 FEW030CB",
          "offset_h": 8,
          "wdir": null,
          "wspd": null
        }
      ],
      "metar_raw": "METAR ZSSS 202130Z 30002MPS CAVOK 28/26 Q1005 NOSIG",
      "metar_wdir": null,
      "metar_wspd": null,
      "metar_oat": 28,
      "metar_qnh": 1005,
      "hourly_oat": [
        27,
        28,
        29,
        30,
        31,
        29,
        30,
        31,
        31,
        31,
        29,
        28,
        28,
        27,
        27,
        27,
        27,
        27,
        27,
        27,
        27,
        27,
        27,
        27,
        27
      ]
    },
    "PVG": {
      "icao": "ZSPD",
      "issued": "2026-07-20T15:05:00.000Z",
      "raw": "TAF ZSPD 201505Z 2018/2124 20004MPS 6000 SCT030 TX33/2106Z TN26/2021Z TN27/2121Z TEMPO 2106/2110 TSRA BKN015 FEW030CB",
      "groups": [
        {
          "text": "TAF ZSPD 201505Z 2018/2124 20004MPS 6000 SCT030 TX33/2106Z TN26/2021Z TN27/2121Z",
          "offset_h": -4,
          "wdir": null,
          "wspd": null
        },
        {
          "text": "TEMPO 2106/2110 TSRA BKN015 FEW030CB",
          "offset_h": 8,
          "wdir": null,
          "wspd": null
        }
      ],
      "metar_raw": "METAR ZSPD 202130Z VRB01MPS 6000 FEW013 29/27 Q1005 NOSIG",
      "metar_wdir": null,
      "metar_wspd": null,
      "metar_oat": 29,
      "metar_qnh": 1005,
      "hourly_oat": [
        27,
        28,
        29,
        29,
        31,
        32,
        31,
        30,
        31,
        32,
        30,
        28,
        26,
        27,
        27,
        27,
        27,
        27,
        27,
        27,
        27,
        27,
        27,
        27,
        27
      ]
    },
    "PEK": {
      "icao": "ZBAA",
      "issued": "2026-07-20T15:01:00.000Z",
      "raw": "TAF ZBAA 201501Z 2018/2124 16004MPS 6000 NSC TX31/2106Z TN21/2021Z TN23/2121Z",
      "groups": [
        {
          "text": "TAF ZBAA 201501Z 2018/2124 16004MPS 6000 NSC TX31/2106Z TN21/2021Z TN23/2121Z",
          "offset_h": -4,
          "wdir": null,
          "wspd": null
        }
      ],
      "metar_raw": "METAR ZBAA 202130Z VRB01MPS 9999 BKN026 23/22 Q1004 NOSIG",
      "metar_wdir": null,
      "metar_wspd": null,
      "metar_oat": 23,
      "metar_qnh": 1004,
      "hourly_oat": [
        21,
        22,
        23,
        25,
        26,
        26,
        27,
        28,
        29,
        29,
        30,
        29,
        29,
        28,
        26,
        26,
        26,
        25,
        25,
        25,
        24,
        24,
        24,
        24,
        24
      ]
    }
  }
}