{
  "updated": "2026-05-31T22:36:36Z",
  "tafs": {
    "SAN": {
      "icao": "KSAN",
      "issued": "2026-05-31T21:16:00.000Z",
      "raw": "TAF KSAN 312116Z 3121/0124 22010KT P6SM SKC FM010300 VRB04KT P6SM SCT012 TEMPO 0103/0107 BKN010 FM010700 VRB04KT P6SM OVC010 FM011730 25008KT P6SM SCT015",
      "groups": [
        {
          "text": "TAF KSAN 312116Z 3121/0124 22010KT P6SM SKC",
          "offset_h": -1,
          "wdir": 220,
          "wspd": 10
        },
        {
          "text": "FM010300 VRB04KT P6SM SCT012",
          "offset_h": -19,
          "wdir": "VRB",
          "wspd": 4
        },
        {
          "text": "TEMPO 0103/0107 BKN010",
          "offset_h": -19,
          "wdir": null,
          "wspd": null
        },
        {
          "text": "FM010700 VRB04KT P6SM OVC010",
          "offset_h": -15,
          "wdir": "VRB",
          "wspd": 4
        },
        {
          "text": "FM011730 25008KT P6SM SCT015",
          "offset_h": -5,
          "wdir": 250,
          "wspd": 8
        }
      ],
      "metar_raw": "METAR KSAN 312151Z VRB06KT 10SM FEW015 22/14 A2993 RMK AO2 SLP134 T02170144 $",
      "metar_wdir": "VRB",
      "metar_wspd": 6,
      "metar_oat": 22,
      "metar_qnh": 1014,
      "hourly_oat": [
        22,
        22,
        21,
        20,
        19,
        18,
        17,
        16,
        16,
        16,
        16,
        16,
        15,
        15,
        15,
        15,
        15,
        16,
        18,
        19,
        21,
        21,
        21,
        21,
        20
      ]
    },
    "DLC": {
      "icao": "ZYTL",
      "issued": "2026-05-31T21:13:00.000Z",
      "raw": "TAF ZYTL 312113Z 0100/0124 13004MPS 5000 BR FEW040 TX26/0106Z TN21/0121Z",
      "groups": [
        {
          "text": "TAF ZYTL 312113Z 0100/0124 13004MPS 5000 BR FEW040 TX26/0106Z TN21/0121Z",
          "offset_h": -22,
          "wdir": null,
          "wspd": null
        }
      ],
      "metar_raw": "METAR ZYTL 312230Z VRB01MPS CAVOK 23/11 Q1009 NOSIG",
      "metar_wdir": null,
      "metar_wspd": null,
      "metar_oat": 23,
      "metar_qnh": 1009,
      "hourly_oat": [
        20,
        22,
        24,
        26,
        27,
        28,
        28,
        29,
        28,
        28,
        28,
        27,
        25,
        23,
        22,
        22,
        21,
        20,
        20,
        19,
        19,
        18,
        18,
        18,
        19
      ]
    },
    "CAN": {
      "icao": "ZGGG",
      "issued": "2026-05-31T21:12:00.000Z",
      "raw": "TAF ZGGG 312112Z 0100/0206 20003MPS 8000 SCT040 TX36/0107Z TX37/0206Z TN28/0122Z TEMPO 0111/0114 TSRA FEW026CB BKN033",
      "groups": [
        {
          "text": "TAF ZGGG 312112Z 0100/0206 20003MPS 8000 SCT040 TX36/0107Z TX37/0206Z TN28/0122Z",
          "offset_h": -22,
          "wdir": null,
          "wspd": null
        },
        {
          "text": "TEMPO 0111/0114 TSRA FEW026CB BKN033",
          "offset_h": -11,
          "wdir": null,
          "wspd": null
        }
      ],
      "metar_raw": "METAR ZGGG 312230Z 07003MPS 9000 SCT016 BKN033 28/26 Q1009 NOSIG",
      "metar_wdir": null,
      "metar_wspd": null,
      "metar_oat": 28,
      "metar_qnh": 1009,
      "hourly_oat": [
        26,
        27,
        28,
        29,
        30,
        31,
        31,
        32,
        33,
        34,
        31,
        31,
        31,
        30,
        29,
        29,
        27,
        27,
        27,
        27,
        27,
        27,
        26,
        26,
        26
      ]
    },
    "SHA": {
      "icao": "ZSSS",
      "issued": "2026-05-31T21:07:00.000Z",
      "raw": "TAF ZSSS 312107Z 0100/0206 11004MPS 8000 SCT030 TX32/0106Z TX33/0206Z TN24/0121Z",
      "groups": [
        {
          "text": "TAF ZSSS 312107Z 0100/0206 11004MPS 8000 SCT030 TX32/0106Z TX33/0206Z TN24/0121Z",
          "offset_h": -22,
          "wdir": null,
          "wspd": null
        }
      ],
      "metar_raw": "METAR ZSSS 312230Z 13003MPS 100V160 CAVOK 23/18 Q1011 NOSIG",
      "metar_wdir": null,
      "metar_wspd": null,
      "metar_oat": 23,
      "metar_qnh": 1011,
      "hourly_oat": [
        21,
        23,
        25,
        27,
        29,
        31,
        32,
        33,
        34,
        34,
        34,
        30,
        28,
        27,
        26,
        25,
        25,
        24,
        24,
        24,
        24,
        24,
        24,
        24,
        24
      ]
    },
    "PVG": {
      "icao": "ZSPD",
      "issued": "2026-05-31T21:07:00.000Z",
      "raw": "TAF ZSPD 312107Z 0100/0206 09004MPS 8000 SCT030 TX31/0106Z TX32/0206Z TN23/0121Z",
      "groups": [
        {
          "text": "TAF ZSPD 312107Z 0100/0206 09004MPS 8000 SCT030 TX31/0106Z TX32/0206Z TN23/0121Z",
          "offset_h": -22,
          "wdir": null,
          "wspd": null
        }
      ],
      "metar_raw": "METAR ZSPD 312230Z 12003MPS CAVOK 23/20 Q1011 NOSIG",
      "metar_wdir": null,
      "metar_wspd": null,
      "metar_oat": 23,
      "metar_qnh": 1011,
      "hourly_oat": [
        22,
        23,
        24,
        25,
        26,
        26,
        27,
        26,
        26,
        26,
        26,
        25,
        24,
        24,
        24,
        24,
        23,
        23,
        23,
        23,
        23,
        23,
        23,
        23,
        24
      ]
    },
    "PEK": {
      "icao": "ZBAA",
      "issued": "2026-05-31T21:01:00.000Z",
      "raw": "TAF ZBAA 312101Z 0100/0206 19004MPS CAVOK TX36/0106Z TX37/0206Z TN21/0121Z",
      "groups": [
        {
          "text": "TAF ZBAA 312101Z 0100/0206 19004MPS CAVOK TX36/0106Z TX37/0206Z TN21/0121Z",
          "offset_h": -22,
          "wdir": null,
          "wspd": null
        }
      ],
      "metar_raw": "METAR ZBAA 312230Z 00000MPS CAVOK 21/14 Q1008 NOSIG",
      "metar_wdir": null,
      "metar_wspd": null,
      "metar_oat": 21,
      "metar_qnh": 1008,
      "hourly_oat": [
        19,
        21,
        24,
        27,
        28,
        30,
        31,
        33,
        35,
        36,
        36,
        35,
        34,
        32,
        30,
        29,
        28,
        27,
        26,
        25,
        24,
        23,
        22,
        22,
        22
      ]
    },
    "LAX": {
      "icao": "KLAX",
      "issued": "2026-05-31T20:57:00.000Z",
      "raw": "TAF KLAX 312057Z 3121/0124 26015KT P6SM SKC FM010300 26008KT P6SM SKC FM011100 12005KT P6SM BKN009 FM011700 26010KT P6SM FEW015 FEW250",
      "groups": [
        {
          "text": "TAF KLAX 312057Z 3121/0124 26015KT P6SM SKC",
          "offset_h": -1,
          "wdir": 260,
          "wspd": 15
        },
        {
          "text": "FM010300 26008KT P6SM SKC",
          "offset_h": -19,
          "wdir": 260,
          "wspd": 8
        },
        {
          "text": "FM011100 12005KT P6SM BKN009",
          "offset_h": -11,
          "wdir": 120,
          "wspd": 5
        },
        {
          "text": "FM011700 26010KT P6SM FEW015 FEW250",
          "offset_h": -5,
          "wdir": 260,
          "wspd": 10
        }
      ],
      "metar_raw": "METAR KLAX 312153Z 27011KT 10SM CLR 21/14 A2992 RMK AO2 SLP129 T02110144 $",
      "metar_wdir": 270,
      "metar_wspd": 11,
      "metar_oat": 21,
      "metar_qnh": 1013,
      "hourly_oat": [
        21,
        20,
        19,
        18,
        16,
        15,
        15,
        15,
        15,
        14,
        14,
        14,
        14,
        13,
        12,
        14,
        14,
        15,
        17,
        20,
        21,
        20,
        20,
        19,
        19
      ]
    },
    "HNL": {
      "icao": "PHNL",
      "issued": "2026-05-31T20:35:00.000Z",
      "raw": "TAF PHNL 312035Z 3121/0124 09011KT P6SM VCSH FEW025 BKN040 FM010600 03006KT P6SM FEW025 SCT040",
      "groups": [
        {
          "text": "TAF PHNL 312035Z 3121/0124 09011KT P6SM VCSH FEW025 BKN040",
          "offset_h": -1,
          "wdir": 90,
          "wspd": 11
        },
        {
          "text": "FM010600 03006KT P6SM FEW025 SCT040",
          "offset_h": -16,
          "wdir": 30,
          "wspd": 6
        }
      ],
      "metar_raw": "METAR PHNL 312153Z 33011G17KT 10SM FEW027 SCT040 SCT060 27/20 A2999 RMK AO2 SLP156 VCSH N-NE T02720200 $",
      "metar_wdir": 330,
      "metar_wspd": 11,
      "metar_oat": 27,
      "metar_qnh": 1016,
      "hourly_oat": [
        28,
        28,
        28,
        27,
        26,
        26,
        25,
        23,
        22,
        22,
        22,
        22,
        21,
        21,
        21,
        21,
        21,
        21,
        21,
        22,
        24,
        25,
        26,
        26,
        27
      ]
    },
    "HAN": {
      "icao": "VVNB",
      "issued": "2026-05-31T20:30:00.000Z",
      "raw": "TAF AMD VVNB 312030Z 3121/0118 09005KT 3000 BR FEW030 BECMG 3123/0101 6000 NSW",
      "groups": [
        {
          "text": "TAF AMD VVNB 312030Z 3121/0118 09005KT 3000 BR FEW030",
          "offset_h": -1,
          "wdir": 90,
          "wspd": 5
        },
        {
          "text": "BECMG 3123/0101 6000 NSW",
          "offset_h": 1,
          "wdir": null,
          "wspd": null
        }
      ],
      "metar_raw": "METAR VVNB 312230Z 08005KT 3500 BR NSC 27/26 Q1007 NOSIG",
      "metar_wdir": 80,
      "metar_wspd": 5,
      "metar_oat": 27,
      "metar_qnh": 1007,
      "hourly_oat": [
        26,
        27,
        28,
        30,
        31,
        32,
        33,
        33,
        34,
        34,
        34,
        34,
        33,
        32,
        31,
        30,
        29,
        28,
        28,
        28,
        27,
        27,
        27,
        27,
        27
      ]
    },
    "HKG": {
      "icao": "VHHH",
      "issued": "2026-05-31T20:00:00.000Z",
      "raw": "TAF VHHH 312000Z 3121/0203 12010KT 9999 FEW015 SCT025 TX33/0106Z TN27/3122Z TN28/0122Z TEMPO 3122/0102 4000 SHRA FEW010CB SCT020 TEMPO 0103/0109 24010KT BECMG 0109/0111 18010KT",
      "groups": [
        {
          "text": "TAF VHHH 312000Z 3121/0203 12010KT 9999 FEW015 SCT025 TX33/0106Z TN27/3122Z TN28/0122Z",
          "offset_h": -1,
          "wdir": 120,
          "wspd": 10
        },
        {
          "text": "TEMPO 3122/0102 4000 SHRA FEW010CB SCT020",
          "offset_h": 0,
          "wdir": null,
          "wspd": null
        },
        {
          "text": "TEMPO 0103/0109 24010KT",
          "offset_h": -19,
          "wdir": 240,
          "wspd": 10
        },
        {
          "text": "BECMG 0109/0111 18010KT",
          "offset_h": -13,
          "wdir": 180,
          "wspd": 10
        }
      ],
      "metar_raw": "METAR VHHH 312230Z 11007KT 9999 FEW025 28/23 Q1009 NOSIG",
      "metar_wdir": 110,
      "metar_wspd": 7,
      "metar_oat": 28,
      "metar_qnh": 1009,
      "hourly_oat": [
        28,
        28,
        28,
        29,
        29,
        29,
        30,
        30,
        30,
        29,
        29,
        29,
        29,
        28,
        28,
        28,
        28,
        28,
        28,
        28,
        28,
        28,
        28,
        27,
        27
      ]
    },
    "OKA": {
      "icao": "ROAH",
      "issued": "2026-05-31T17:15:00.000Z",
      "raw": "TAF ROAH 311715Z 3118/0200 08030KT 8000 -SHRA FEW008 BKN012 TEMPO 3118/0100 08035G50KT 1500 +SHRA BR FEW003 BKN005 SCT015CB BECMG 3120/3121 3000 SHRA BR BECMG 0100/0101 08035G45KT TEMPO 0100/0102 08040G55KT 1500 +SHRA BR FEW003 BKN005 SCT015CB TEMPO 0102/0103 1500 +SHRA BR FEW003 BKN005 SCT015CB BECMG 0102/0104 10040G50KT TEMPO 0103/0109 15050G65KT 1500 +SHRA BR FEW003 BKN005 SCT015CB BECMG 0109/0112 25040G50KT TEMPO 0109/0118 22050G65KT 1500 +SHRA BR FEW003 BKN005 SCT015CB TEMPO 0118/0121 FEW006 BKN008 SCT015CB BECMG 0118/0121 8000 -SHRA TEMPO 0121/0200 3000 +SHRA BR FEW006 BKN008 SCT015CB",
      "groups": [
        {
          "text": "TAF ROAH 311715Z 3118/0200 08030KT 8000 -SHRA FEW008 BKN012",
          "offset_h": -4,
          "wdir": 80,
          "wspd": 30
        },
        {
          "text": "TEMPO 3118/0100 08035G50KT 1500 +SHRA BR FEW003 BKN005 SCT015CB",
          "offset_h": -4,
          "wdir": 80,
          "wspd": 35
        },
        {
          "text": "BECMG 3120/3121 3000 SHRA BR",
          "offset_h": -2,
          "wdir": null,
          "wspd": null
        },
        {
          "text": "BECMG 0100/0101 08035G45KT",
          "offset_h": -22,
          "wdir": 80,
          "wspd": 35
        },
        {
          "text": "TEMPO 0100/0102 08040G55KT 1500 +SHRA BR FEW003 BKN005 SCT015CB",
          "offset_h": -22,
          "wdir": 80,
          "wspd": 40
        },
        {
          "text": "TEMPO 0102/0103 1500 +SHRA BR FEW003 BKN005 SCT015CB",
          "offset_h": -20,
          "wdir": null,
          "wspd": null
        },
        {
          "text": "BECMG 0102/0104 10040G50KT",
          "offset_h": -20,
          "wdir": 100,
          "wspd": 40
        },
        {
          "text": "TEMPO 0103/0109 15050G65KT 1500 +SHRA BR FEW003 BKN005 SCT015CB",
          "offset_h": -19,
          "wdir": 150,
          "wspd": 50
        },
        {
          "text": "BECMG 0109/0112 25040G50KT",
          "offset_h": -13,
          "wdir": 250,
          "wspd": 40
        },
        {
          "text": "TEMPO 0109/0118 22050G65KT 1500 +SHRA BR FEW003 BKN005 SCT015CB",
          "offset_h": -13,
          "wdir": 220,
          "wspd": 50
        },
        {
          "text": "TEMPO 0118/0121 FEW006 BKN008 SCT015CB",
          "offset_h": -4,
          "wdir": null,
          "wspd": null
        },
        {
          "text": "BECMG 0118/0121 8000 -SHRA",
          "offset_h": -4,
          "wdir": null,
          "wspd": null
        },
        {
          "text": "TEMPO 0121/0200 3000 +SHRA BR FEW006 BKN008 SCT015CB",
          "offset_h": -1,
          "wdir": null,
          "wspd": null
        }
      ],
      "metar_raw": "METAR ROAH 312200Z 09031G48KT 040V110 5000 R18L/P2000N R18R/P2000N SHRA BR FEW007 BKN010 26/25 Q0998",
      "metar_wdir": 90,
      "metar_wspd": 31,
      "metar_oat": 26,
      "metar_qnh": 998,
      "hourly_oat": [
        26,
        25,
        25,
        25,
        25,
        25,
        25,
        25,
        25,
        25,
        25,
        25,
        25,
        25,
        25,
        25,
        25,
        26,
        26,
        26,
        26,
        26,
        26,
        26,
        26
      ]
    },
    "FUK": {
      "icao": "RJFF",
      "issued": "2026-05-31T17:05:00.000Z",
      "raw": "TAF RJFF 311705Z 3118/0200 15004KT 9999 FEW030 BECMG 0100/0102 31008KT TEMPO 0109/0112 4000 RA BR BECMG 0109/0112 10006KT",
      "groups": [
        {
          "text": "TAF RJFF 311705Z 3118/0200 15004KT 9999 FEW030",
          "offset_h": -4,
          "wdir": 150,
          "wspd": 4
        },
        {
          "text": "BECMG 0100/0102 31008KT",
          "offset_h": -22,
          "wdir": 310,
          "wspd": 8
        },
        {
          "text": "TEMPO 0109/0112 4000 RA BR",
          "offset_h": -13,
          "wdir": null,
          "wspd": null
        },
        {
          "text": "BECMG 0109/0112 10006KT",
          "offset_h": -13,
          "wdir": 100,
          "wspd": 6
        }
      ],
      "metar_raw": "METAR RJFF 312200Z 11003KT 070V140 CAVOK 23/17 Q1015 NOSIG",
      "metar_wdir": 110,
      "metar_wspd": 3,
      "metar_oat": 23,
      "metar_qnh": 1015,
      "hourly_oat": [
        21,
        23,
        26,
        27,
        28,
        28,
        28,
        27,
        28,
        26,
        26,
        26,
        26,
        24,
        23,
        23,
        23,
        22,
        23,
        23,
        23,
        23,
        23,
        22,
        22
      ]
    },
    "ITM": {
      "icao": "RJOO",
      "issued": "2026-05-31T17:05:00.000Z",
      "raw": "TAF RJOO 311705Z 3118/0200 20006KT 9999 FEW030 BECMG 0104/0106 25008KT BECMG 0115/0118 06010KT TEMPO 0115/0118 4000 -SHRA BR FEW003 BKN008 TEMPO 0118/0200 2000 SHRA BR FEW003 BKN008",
      "groups": [
        {
          "text": "TAF RJOO 311705Z 3118/0200 20006KT 9999 FEW030",
          "offset_h": -4,
          "wdir": 200,
          "wspd": 6
        },
        {
          "text": "BECMG 0104/0106 25008KT",
          "offset_h": -18,
          "wdir": 250,
          "wspd": 8
        },
        {
          "text": "BECMG 0115/0118 06010KT",
          "offset_h": -7,
          "wdir": 60,
          "wspd": 10
        },
        {
          "text": "TEMPO 0115/0118 4000 -SHRA BR FEW003 BKN008",
          "offset_h": -7,
          "wdir": null,
          "wspd": null
        },
        {
          "text": "TEMPO 0118/0200 2000 SHRA BR FEW003 BKN008",
          "offset_h": -4,
          "wdir": null,
          "wspd": null
        }
      ],
      "metar_raw": "METAR RJOO 312200Z VRB01KT 9999 SCT015 23/19 Q1019",
      "metar_wdir": "VRB",
      "metar_wspd": 1,
      "metar_oat": 23,
      "metar_qnh": 1019,
      "hourly_oat": [
        20,
        22,
        23,
        25,
        27,
        27,
        28,
        28,
        27,
        26,
        25,
        24,
        24,
        23,
        23,
        22,
        22,
        22,
        22,
        21,
        21,
        20,
        20,
        20,
        20
      ]
    },
    "HND": {
      "icao": "RJTT",
      "issued": "2026-05-31T17:05:00.000Z",
      "raw": "TAF RJTT 311705Z 3118/0200 31004KT 9999 FEW030 BECMG 3123/0101 10006KT BECMG 0102/0104 18010KT",
      "groups": [
        {
          "text": "TAF RJTT 311705Z 3118/0200 31004KT 9999 FEW030",
          "offset_h": -4,
          "wdir": 310,
          "wspd": 4
        },
        {
          "text": "BECMG 3123/0101 10006KT",
          "offset_h": 1,
          "wdir": 100,
          "wspd": 6
        },
        {
          "text": "BECMG 0102/0104 18010KT",
          "offset_h": -20,
          "wdir": 180,
          "wspd": 10
        }
      ],
      "metar_raw": "METAR RJTT 312200Z VRB02KT CAVOK 23/17 Q1019 NOSIG",
      "metar_wdir": "VRB",
      "metar_wspd": 2,
      "metar_oat": 23,
      "metar_qnh": 1019,
      "hourly_oat": [
        18,
        21,
        23,
        25,
        25,
        26,
        27,
        28,
        27,
        25,
        24,
        23,
        22,
        22,
        22,
        22,
        21,
        21,
        21,
        21,
        21,
        21,
        21,
        21,
        22
      ]
    },
    "KIX": {
      "icao": "RJBB",
      "issued": "2026-05-31T17:05:00.000Z",
      "raw": "TAF RJBB 311705Z 3118/0200 16008KT 9999 FEW030 BECMG 3119/3121 03006KT BECMG 0100/0102 25010KT BECMG 0115/0118 05010KT TEMPO 0118/0200 3000 SHRA BR FEW003 BKN008",
      "groups": [
        {
          "text": "TAF RJBB 311705Z 3118/0200 16008KT 9999 FEW030",
          "offset_h": -4,
          "wdir": 160,
          "wspd": 8
        },
        {
          "text": "BECMG 3119/3121 03006KT",
          "offset_h": -3,
          "wdir": 30,
          "wspd": 6
        },
        {
          "text": "BECMG 0100/0102 25010KT",
          "offset_h": -22,
          "wdir": 250,
          "wspd": 10
        },
        {
          "text": "BECMG 0115/0118 05010KT",
          "offset_h": -7,
          "wdir": 50,
          "wspd": 10
        },
        {
          "text": "TEMPO 0118/0200 3000 SHRA BR FEW003 BKN008",
          "offset_h": -4,
          "wdir": null,
          "wspd": null
        }
      ],
      "metar_raw": "METAR RJBB 312200Z VRB02KT 9999 FEW020 24/18 Q1019 BECMG 08005KT",
      "metar_wdir": "VRB",
      "metar_wspd": 2,
      "metar_oat": 24,
      "metar_qnh": 1019,
      "hourly_oat": [
        21,
        22,
        22,
        22,
        22,
        22,
        23,
        23,
        23,
        24,
        24,
        24,
        24,
        23,
        23,
        22,
        22,
        22,
        22,
        22,
        21,
        21,
        21,
        21,
        20
      ]
    },
    "NRT": {
      "icao": "RJAA",
      "issued": "2026-05-31T17:05:00.000Z",
      "raw": "TAF RJAA 311705Z 3118/0200 20004KT 8000 FEW008 SCT015 TEMPO 3118/3122 4000 BR FEW005 BKN008 BECMG 0101/0103 14010KT",
      "groups": [
        {
          "text": "TAF RJAA 311705Z 3118/0200 20004KT 8000 FEW008 SCT015",
          "offset_h": -4,
          "wdir": 200,
          "wspd": 4
        },
        {
          "text": "TEMPO 3118/3122 4000 BR FEW005 BKN008",
          "offset_h": -4,
          "wdir": null,
          "wspd": null
        },
        {
          "text": "BECMG 0101/0103 14010KT",
          "offset_h": -21,
          "wdir": 140,
          "wspd": 10
        }
      ],
      "metar_raw": "METAR RJAA 312200Z 20003KT 150V250 6000 FEW030 22/19 Q1019 NOSIG",
      "metar_wdir": 200,
      "metar_wspd": 3,
      "metar_oat": 22,
      "metar_qnh": 1019,
      "hourly_oat": [
        17,
        19,
        24,
        26,
        28,
        28,
        29,
        28,
        28,
        27,
        26,
        25,
        24,
        22,
        21,
        20,
        19,
        19,
        19,
        18,
        18,
        18,
        18,
        19,
        21
      ]
    },
    "CTS": {
      "icao": "RJCC",
      "issued": "2026-05-31T17:05:00.000Z",
      "raw": "TAF RJCC 311705Z 3118/0200 17006KT 9999 FEW030 BECMG 3122/0100 17016KT",
      "groups": [
        {
          "text": "TAF RJCC 311705Z 3118/0200 17006KT 9999 FEW030",
          "offset_h": -4,
          "wdir": 170,
          "wspd": 6
        },
        {
          "text": "BECMG 3122/0100 17016KT",
          "offset_h": 0,
          "wdir": 170,
          "wspd": 16
        }
      ],
      "metar_raw": "METAR RJCC 312200Z 15007KT CAVOK 16/10 Q1016",
      "metar_wdir": 150,
      "metar_wspd": 7,
      "metar_oat": 16,
      "metar_qnh": 1016,
      "hourly_oat": [
        17,
        19,
        21,
        22,
        22,
        23,
        23,
        22,
        22,
        21,
        20,
        18,
        16,
        15,
        15,
        14,
        14,
        14,
        14,
        14,
        13,
        12,
        13,
        16,
        18
      ]
    },
    "NGO": {
      "icao": "RJGG",
      "issued": "2026-05-31T17:05:00.000Z",
      "raw": "TAF RJGG 311705Z 3118/0200 36006KT 9999 FEW008 SCT015 BECMG 0101/0103 14014KT TEMPO 0118/0200 4000 SHRA BR FEW003 BKN008",
      "groups": [
        {
          "text": "TAF RJGG 311705Z 3118/0200 36006KT 9999 FEW008 SCT015",
          "offset_h": -4,
          "wdir": 360,
          "wspd": 6
        },
        {
          "text": "BECMG 0101/0103 14014KT",
          "offset_h": -21,
          "wdir": 140,
          "wspd": 14
        },
        {
          "text": "TEMPO 0118/0200 4000 SHRA BR FEW003 BKN008",
          "offset_h": -4,
          "wdir": null,
          "wspd": null
        }
      ],
      "metar_raw": "METAR RJGG 312200Z 08004KT 010V100 9999 FEW010 BKN013 BKN016 21/19 Q1019 BECMG 06005KT FEW010 SCT013",
      "metar_wdir": 80,
      "metar_wspd": 4,
      "metar_oat": 21,
      "metar_qnh": 1019,
      "hourly_oat": [
        20,
        21,
        21,
        21,
        21,
        22,
        24,
        24,
        24,
        23,
        23,
        23,
        22,
        22,
        22,
        22,
        22,
        22,
        22,
        22,
        21,
        21,
        21,
        21,
        21
      ]
    },
    "TPE": {
      "icao": "RCTP",
      "issued": "2026-05-31T17:00:00.000Z",
      "raw": "TAF RCTP 311700Z 3118/0124 04011KT 9999 FEW010 BKN032 BECMG 3119/3120 01010KT TEMPO 3120/0102 5000 -RA FEW010 BKN017 TEMPO 0102/0108 4000 RA FEW010 BKN017 TEMPO 0108/0112 02005KT FEW010 BKN014 BECMG 0112/0113 01005KT",
      "groups": [
        {
          "text": "TAF RCTP 311700Z 3118/0124 04011KT 9999 FEW010 BKN032",
          "offset_h": -4,
          "wdir": 40,
          "wspd": 11
        },
        {
          "text": "BECMG 3119/3120 01010KT",
          "offset_h": -3,
          "wdir": 10,
          "wspd": 10
        },
        {
          "text": "TEMPO 3120/0102 5000 -RA FEW010 BKN017",
          "offset_h": -2,
          "wdir": null,
          "wspd": null
        },
        {
          "text": "TEMPO 0102/0108 4000 RA FEW010 BKN017",
          "offset_h": -20,
          "wdir": null,
          "wspd": null
        },
        {
          "text": "TEMPO 0108/0112 02005KT FEW010 BKN014",
          "offset_h": -14,
          "wdir": 20,
          "wspd": 5
        },
        {
          "text": "BECMG 0112/0113 01005KT",
          "offset_h": -10,
          "wdir": 10,
          "wspd": 5
        }
      ],
      "metar_raw": "METAR RCTP 312230Z VRB01KT 9999 FEW015 BKN022 25/21 Q1009 NOSIG RMK A2981",
      "metar_wdir": "VRB",
      "metar_wspd": 1,
      "metar_oat": 25,
      "metar_qnh": 1009,
      "hourly_oat": [
        24,
        24,
        25,
        25,
        26,
        26,
        27,
        27,
        27,
        27,
        26,
        26,
        26,
        25,
        25,
        25,
        25,
        25,
        24,
        24,
        24,
        24,
        24,
        23,
        24
      ]
    },
    "TSA": {
      "icao": "RCSS",
      "issued": "2026-05-31T17:00:00.000Z",
      "raw": "TAF RCSS 311700Z 3118/0118 28005KT 9999 FEW010 BKN032 TEMPO 3118/3122 09005KT TEMPO 3122/0102 34005KT 5000 -RA FEW010 BKN020 TEMPO 0102/0108 27011KT 4000 RA FEW010 BKN017 TEMPO 0112/0118 09005KT",
      "groups": [
        {
          "text": "TAF RCSS 311700Z 3118/0118 28005KT 9999 FEW010 BKN032",
          "offset_h": -4,
          "wdir": 280,
          "wspd": 5
        },
        {
          "text": "TEMPO 3118/3122 09005KT",
          "offset_h": -4,
          "wdir": 90,
          "wspd": 5
        },
        {
          "text": "TEMPO 3122/0102 34005KT 5000 -RA FEW010 BKN020",
          "offset_h": 0,
          "wdir": 340,
          "wspd": 5
        },
        {
          "text": "TEMPO 0102/0108 27011KT 4000 RA FEW010 BKN017",
          "offset_h": -20,
          "wdir": 270,
          "wspd": 11
        },
        {
          "text": "TEMPO 0112/0118 09005KT",
          "offset_h": -10,
          "wdir": 90,
          "wspd": 5
        }
      ],
      "metar_raw": "METAR RCSS 312230Z 28004KT 240V340 9999 FEW018 BKN035 26/21 Q1009 NOSIG RMK A2980",
      "metar_wdir": 280,
      "metar_wspd": 4,
      "metar_oat": 26,
      "metar_qnh": 1009,
      "hourly_oat": [
        23,
        24,
        25,
        26,
        27,
        28,
        28,
        29,
        29,
        29,
        28,
        27,
        27,
        26,
        25,
        25,
        24,
        24,
        24,
        23,
        23,
        23,
        23,
        23,
        24
      ]
    },
    "BKK": {
      "icao": "VTBS",
      "issued": "2026-05-31T17:00:00.000Z",
      "raw": "TAF VTBS 311700Z 3118/0124 14005KT 9999 FEW020 BECMG 0102/0104 20008KT TEMPO 0108/0112 VRB15KT 4000 TSRA FEW018CB SCT030 BKN080 BECMG 0116/0118 14005KT",
      "groups": [
        {
          "text": "TAF VTBS 311700Z 3118/0124 14005KT 9999 FEW020",
          "offset_h": -4,
          "wdir": 140,
          "wspd": 5
        },
        {
          "text": "BECMG 0102/0104 20008KT",
          "offset_h": -20,
          "wdir": 200,
          "wspd": 8
        },
        {
          "text": "TEMPO 0108/0112 VRB15KT 4000 TSRA FEW018CB SCT030 BKN080",
          "offset_h": -14,
          "wdir": "VRB",
          "wspd": 15
        },
        {
          "text": "BECMG 0116/0118 14005KT",
          "offset_h": -6,
          "wdir": 140,
          "wspd": 5
        }
      ],
      "metar_raw": "METAR VTBS 312230Z 09003KT 060V210 9999 FEW020 26/25 Q1008 NOSIG",
      "metar_wdir": 90,
      "metar_wspd": 3,
      "metar_oat": 26,
      "metar_qnh": 1008,
      "hourly_oat": [
        26,
        26,
        27,
        28,
        30,
        32,
        33,
        34,
        35,
        32,
        30,
        30,
        30,
        30,
        29,
        29,
        29,
        27,
        26,
        26,
        26,
        26,
        26,
        26,
        26
      ]
    },
    "KUL": {
      "icao": "WMKK",
      "issued": "2026-05-31T17:00:00.000Z",
      "raw": "TAF WMKK 311700Z 3118/0200 VRB03KT 9999 FEW030",
      "groups": [
        {
          "text": "TAF WMKK 311700Z 3118/0200 VRB03KT 9999 FEW030",
          "offset_h": -4,
          "wdir": "VRB",
          "wspd": 3
        }
      ],
      "metar_raw": "METAR WMKK 312200Z 00000KT 9000 FEW010 FEW017CB 26/25 Q1009 NOSIG",
      "metar_wdir": 0,
      "metar_wspd": 0,
      "metar_oat": 26,
      "metar_qnh": 1009,
      "hourly_oat": [
        25,
        24,
        25,
        26,
        28,
        29,
        30,
        31,
        30,
        30,
        31,
        30,
        30,
        29,
        28,
        27,
        27,
        25,
        25,
        24,
        24,
        24,
        24,
        24,
        23
      ]
    },
    "SGN": {
      "icao": "VVTS",
      "issued": "2026-05-31T17:00:00.000Z",
      "raw": "TAF VVTS 311700Z 3118/0124 28008KT 9999 SCT017 SCT040 TEMPO 0107/0110 28016G28KT 3000 TSRA SCT013 SCT015CB BKN040 TEMPO 0110/0114 5000 RA",
      "groups": [
        {
          "text": "TAF VVTS 311700Z 3118/0124 28008KT 9999 SCT017 SCT040",
          "offset_h": -4,
          "wdir": 280,
          "wspd": 8
        },
        {
          "text": "TEMPO 0107/0110 28016G28KT 3000 TSRA SCT013 SCT015CB BKN040",
          "offset_h": -15,
          "wdir": 280,
          "wspd": 16
        },
        {
          "text": "TEMPO 0110/0114 5000 RA",
          "offset_h": -12,
          "wdir": null,
          "wspd": null
        }
      ],
      "metar_raw": "METAR VVTS 312230Z 29003KT 260V320 9999 SCT029 SCT067 26/25 Q1009 NOSIG",
      "metar_wdir": 290,
      "metar_wspd": 3,
      "metar_oat": 26,
      "metar_qnh": 1009,
      "hourly_oat": [
        25,
        25,
        26,
        27,
        28,
        28,
        28,
        28,
        29,
        30,
        30,
        30,
        29,
        27,
        26,
        26,
        26,
        26,
        26,
        26,
        26,
        25,
        25,
        25,
        25
      ]
    },
    "GMP": {
      "icao": "RKSS",
      "issued": "2026-05-31T17:00:00.000Z",
      "raw": "TAF RKSS 311700Z 3118/0124 30005KT CAVOK TN16/3120Z TX29/0106Z TN17/0120Z BECMG 3120/3122 18005KT TEMPO 0102/0104 24006KT BECMG 0105/0107 28007KT BECMG 0113/0115 06005KT 6000 NSC",
      "groups": [
        {
          "text": "TAF RKSS 311700Z 3118/0124 30005KT CAVOK TN16/3120Z TX29/0106Z TN17/0120Z",
          "offset_h": -4,
          "wdir": 300,
          "wspd": 5
        },
        {
          "text": "BECMG 3120/3122 18005KT",
          "offset_h": -2,
          "wdir": 180,
          "wspd": 5
        },
        {
          "text": "TEMPO 0102/0104 24006KT",
          "offset_h": -20,
          "wdir": 240,
          "wspd": 6
        },
        {
          "text": "BECMG 0105/0107 28007KT",
          "offset_h": -17,
          "wdir": 280,
          "wspd": 7
        },
        {
          "text": "BECMG 0113/0115 06005KT 6000 NSC",
          "offset_h": -9,
          "wdir": 60,
          "wspd": 5
        }
      ],
      "metar_raw": "METAR RKSS 312200Z 00000KT CAVOK 18/17 Q1014 NOSIG",
      "metar_wdir": 0,
      "metar_wspd": 0,
      "metar_oat": 18,
      "metar_qnh": 1014,
      "hourly_oat": [
        15,
        19,
        21,
        23,
        25,
        27,
        27,
        26,
        25,
        25,
        24,
        22,
        21,
        19,
        18,
        17,
        17,
        16,
        16,
        15,
        15,
        13,
        13,
        13,
        15
      ]
    },
    "SIN": {
      "icao": "WSSS",
      "issued": "2026-05-31T17:00:00.000Z",
      "raw": "TAF WSSS 311700Z 3118/0200 16006KT 9999 FEW015 SCT020",
      "groups": [
        {
          "text": "TAF WSSS 311700Z 3118/0200 16006KT 9999 FEW015 SCT020",
          "offset_h": -4,
          "wdir": 160,
          "wspd": 6
        }
      ],
      "metar_raw": "METAR WSSS 312230Z 16004KT 130V190 9999 FEW018 BKN300 28/25 Q1010 NOSIG",
      "metar_wdir": 160,
      "metar_wspd": 4,
      "metar_oat": 28,
      "metar_qnh": 1010,
      "hourly_oat": [
        28,
        28,
        26,
        27,
        28,
        30,
        30,
        30,
        30,
        31,
        31,
        31,
        30,
        29,
        29,
        29,
        29,
        29,
        28,
        28,
        28,
        28,
        28,
        28,
        28
      ]
    },
    "CGK": {
      "icao": "WIII",
      "issued": "2026-05-31T17:00:00.000Z",
      "raw": "TAF WIII 311700Z 3118/0200 21005KT 3000 HZ SCT020 BECMG 0101/0103 01010KT 8000 NSW",
      "groups": [
        {
          "text": "TAF WIII 311700Z 3118/0200 21005KT 3000 HZ SCT020",
          "offset_h": -4,
          "wdir": 210,
          "wspd": 5
        },
        {
          "text": "BECMG 0101/0103 01010KT 8000 NSW",
          "offset_h": -21,
          "wdir": 10,
          "wspd": 10
        }
      ],
      "metar_raw": "METAR WIII 312230Z 16003KT 4500 HZ FEW020 27/24 Q1011 NOSIG",
      "metar_wdir": 160,
      "metar_wspd": 3,
      "metar_oat": 27,
      "metar_qnh": 1011,
      "hourly_oat": [
        25,
        25,
        25,
        27,
        29,
        30,
        32,
        32,
        32,
        32,
        31,
        30,
        28,
        27,
        26,
        26,
        26,
        25,
        25,
        24,
        24,
        24,
        24,
        24,
        24
      ]
    }
  }
}