{
  "updated": "2026-06-30T06:45:10Z",
  "tafs": {
    "CAN": {
      "icao": "ZGGG",
      "issued": "2026-06-30T06:02:00.000Z",
      "raw": "TAF AMD ZGGG 300602Z 3006/0112 14003MPS 8000 BKN033 TX34/3007Z TX35/0107Z TN28/3022Z TEMPO 3006/3010 4000 +TSRA SCT026CB BKN033 TEMPO 3011/3014 SHRA FEW026CB BKN033",
      "groups": [
        {
          "text": "TAF AMD ZGGG 300602Z 3006/0112 14003MPS 8000 BKN033 TX34/3007Z TX35/0107Z TN28/3022Z",
          "offset_h": 0,
          "wdir": null,
          "wspd": null
        },
        {
          "text": "TEMPO 3006/3010 4000 +TSRA SCT026CB BKN033",
          "offset_h": 0,
          "wdir": null,
          "wspd": null
        },
        {
          "text": "TEMPO 3011/3014 SHRA FEW026CB BKN033",
          "offset_h": 5,
          "wdir": null,
          "wspd": null
        }
      ],
      "metar_raw": "METAR ZGGG 300630Z 26004MPS 9999 -TSRA FEW026CB BKN033 27/26 Q1007 RESHRA BECMG AT0700 NSW",
      "metar_wdir": null,
      "metar_wspd": null,
      "metar_oat": 27,
      "metar_qnh": 1007,
      "hourly_oat": [
        29,
        30,
        31,
        31,
        30,
        29,
        28,
        28,
        28,
        28,
        27,
        27,
        26,
        26,
        26,
        25,
        25,
        26,
        27,
        28,
        30,
        31,
        31,
        32,
        33
      ]
    },
    "LAX": {
      "icao": "KLAX",
      "issued": "2026-06-30T05:41:00.000Z",
      "raw": "TAF KLAX 300541Z 3006/0112 27008KT P6SM FEW015 SCT025 FM300700 VRB03KT P6SM BKN025 FM301600 VRB03KT P6SM BKN025 OVC035 FM302000 26012KT P6SM SCT025 BKN035 FM010300 26008KT P6SM BKN015 FM010700 VRB03KT P6SM BKN025",
      "groups": [
        {
          "text": "TAF KLAX 300541Z 3006/0112 27008KT P6SM FEW015 SCT025",
          "offset_h": 0,
          "wdir": 270,
          "wspd": 8
        },
        {
          "text": "FM300700 VRB03KT P6SM BKN025",
          "offset_h": 1,
          "wdir": "VRB",
          "wspd": 3
        },
        {
          "text": "FM301600 VRB03KT P6SM BKN025 OVC035",
          "offset_h": 10,
          "wdir": "VRB",
          "wspd": 3
        },
        {
          "text": "FM302000 26012KT P6SM SCT025 BKN035",
          "offset_h": 14,
          "wdir": 260,
          "wspd": 12
        },
        {
          "text": "FM010300 26008KT P6SM BKN015",
          "offset_h": 21,
          "wdir": 260,
          "wspd": 8
        },
        {
          "text": "FM010700 VRB03KT P6SM BKN025",
          "offset_h": 25,
          "wdir": "VRB",
          "wspd": 3
        }
      ],
      "metar_raw": "METAR KLAX 300553Z 26008KT 10SM FEW016 BKN022 18/14 A2993 RMK AO2 SLP134 T01830139 10211 20178 51015 $",
      "metar_wdir": 260,
      "metar_wspd": 8,
      "metar_oat": 18,
      "metar_qnh": 1014,
      "hourly_oat": [
        18,
        17,
        17,
        16,
        17,
        17,
        17,
        16,
        17,
        17,
        18,
        19,
        20,
        21,
        20,
        20,
        20,
        19,
        19,
        18,
        17,
        16,
        16,
        16,
        16
      ]
    },
    "HNL": {
      "icao": "PHNL",
      "issued": "2026-06-30T05:21:00.000Z",
      "raw": "TAF PHNL 300521Z 3006/0112 05009KT P6SM FEW025 SCT045 FM302000 06014G24KT P6SM SCT025 SCT045 FM010500 05009KT P6SM FEW025 SCT045",
      "groups": [
        {
          "text": "TAF PHNL 300521Z 3006/0112 05009KT P6SM FEW025 SCT045",
          "offset_h": 0,
          "wdir": 50,
          "wspd": 9
        },
        {
          "text": "FM302000 06014G24KT P6SM SCT025 SCT045",
          "offset_h": 14,
          "wdir": 60,
          "wspd": 14
        },
        {
          "text": "FM010500 05009KT P6SM FEW025 SCT045",
          "offset_h": 23,
          "wdir": 50,
          "wspd": 9
        }
      ],
      "metar_raw": "METAR PHNL 300553Z 07012KT 10SM FEW024 FEW035 FEW050 27/21 A3000 RMK AO2 SLP158 T02670206 10306 20267 53012 $",
      "metar_wdir": 70,
      "metar_wspd": 12,
      "metar_oat": 27,
      "metar_qnh": 1016,
      "hourly_oat": [
        24,
        24,
        24,
        24,
        24,
        24,
        24,
        23,
        24,
        24,
        23,
        25,
        26,
        28,
        29,
        30,
        30,
        30,
        30,
        30,
        29,
        28,
        27,
        26,
        25
      ]
    },
    "SAN": {
      "icao": "KSAN",
      "issued": "2026-06-30T05:20:00.000Z",
      "raw": "TAF KSAN 300520Z 3006/0112 19005KT P6SM OVC025 FM301900 27010G18KT P6SM FEW025 FM010100 27009KT P6SM BKN025 FM010300 28005KT P6SM OVC022",
      "groups": [
        {
          "text": "TAF KSAN 300520Z 3006/0112 19005KT P6SM OVC025",
          "offset_h": 0,
          "wdir": 190,
          "wspd": 5
        },
        {
          "text": "FM301900 27010G18KT P6SM FEW025",
          "offset_h": 13,
          "wdir": 270,
          "wspd": 10
        },
        {
          "text": "FM010100 27009KT P6SM BKN025",
          "offset_h": 19,
          "wdir": 270,
          "wspd": 9
        },
        {
          "text": "FM010300 28005KT P6SM OVC022",
          "offset_h": 21,
          "wdir": 280,
          "wspd": 5
        }
      ],
      "metar_raw": "METAR KSAN 300551Z VRB06KT 10SM OVC024 19/13 A2996 RMK AO2 SLP144 T01940133 10206 20189 51011",
      "metar_wdir": "VRB",
      "metar_wspd": 6,
      "metar_oat": 19,
      "metar_qnh": 1015,
      "hourly_oat": [
        18,
        18,
        18,
        18,
        17,
        17,
        18,
        18,
        18,
        19,
        20,
        20,
        21,
        22,
        23,
        22,
        20,
        20,
        21,
        20,
        19,
        18,
        18,
        18,
        18
      ]
    },
    "ITM": {
      "icao": "RJOO",
      "issued": "2026-06-30T05:08:00.000Z",
      "raw": "TAF RJOO 300508Z 3006/0112 24005KT 9999 FEW020 BECMG 3021/0100 22005KT BECMG 0106/0109 24005KT",
      "groups": [
        {
          "text": "TAF RJOO 300508Z 3006/0112 24005KT 9999 FEW020",
          "offset_h": 0,
          "wdir": 240,
          "wspd": 5
        },
        {
          "text": "BECMG 3021/0100 22005KT",
          "offset_h": 15,
          "wdir": 220,
          "wspd": 5
        },
        {
          "text": "BECMG 0106/0109 24005KT",
          "offset_h": 24,
          "wdir": 240,
          "wspd": 5
        }
      ],
      "metar_raw": "METAR RJOO 300600Z 23006KT 170V270 9999 FEW030 BKN/// 28/20 Q1011",
      "metar_wdir": 230,
      "metar_wspd": 6,
      "metar_oat": 28,
      "metar_qnh": 1011,
      "hourly_oat": [
        28,
        28,
        27,
        26,
        26,
        25,
        24,
        24,
        23,
        23,
        22,
        22,
        22,
        22,
        22,
        22,
        23,
        24,
        24,
        26,
        27,
        27,
        27,
        27,
        26
      ]
    },
    "KIX": {
      "icao": "RJBB",
      "issued": "2026-06-30T05:08:00.000Z",
      "raw": "TAF RJBB 300508Z 3006/0112 22010KT 9999 FEW020 BECMG 3021/0100 06005KT BECMG 0103/0106 24010KT",
      "groups": [
        {
          "text": "TAF RJBB 300508Z 3006/0112 22010KT 9999 FEW020",
          "offset_h": 0,
          "wdir": 220,
          "wspd": 10
        },
        {
          "text": "BECMG 3021/0100 06005KT",
          "offset_h": 15,
          "wdir": 60,
          "wspd": 5
        },
        {
          "text": "BECMG 0103/0106 24010KT",
          "offset_h": 21,
          "wdir": 240,
          "wspd": 10
        }
      ],
      "metar_raw": "METAR RJBB 300630Z 24009KT 9999 FEW025 BKN/// 26/23 Q1011 NOSIG",
      "metar_wdir": 240,
      "metar_wspd": 9,
      "metar_oat": 26,
      "metar_qnh": 1011,
      "hourly_oat": [
        25,
        25,
        25,
        25,
        25,
        24,
        24,
        24,
        24,
        24,
        23,
        23,
        23,
        23,
        23,
        23,
        23,
        23,
        24,
        24,
        24,
        24,
        24,
        24,
        24
      ]
    },
    "NGO": {
      "icao": "RJGG",
      "issued": "2026-06-30T05:05:00.000Z",
      "raw": "TAF RJGG 300505Z 3006/0112 16010KT 9999 FEW020 BECMG 3016/3018 06004KT BECMG 0100/0103 23008KT",
      "groups": [
        {
          "text": "TAF RJGG 300505Z 3006/0112 16010KT 9999 FEW020",
          "offset_h": 0,
          "wdir": 160,
          "wspd": 10
        },
        {
          "text": "BECMG 3016/3018 06004KT",
          "offset_h": 10,
          "wdir": 60,
          "wspd": 4
        },
        {
          "text": "BECMG 0100/0103 23008KT",
          "offset_h": 18,
          "wdir": 230,
          "wspd": 8
        }
      ],
      "metar_raw": "METAR RJGG 300630Z 17009KT 9999 FEW020 BKN/// 27/21 Q1011 NOSIG",
      "metar_wdir": 170,
      "metar_wspd": 9,
      "metar_oat": 27,
      "metar_qnh": 1011,
      "hourly_oat": [
        25,
        25,
        25,
        25,
        24,
        24,
        24,
        23,
        23,
        23,
        23,
        22,
        22,
        22,
        22,
        22,
        22,
        23,
        23,
        23,
        23,
        23,
        24,
        24,
        24
      ]
    },
    "FUK": {
      "icao": "RJFF",
      "issued": "2026-06-30T05:05:00.000Z",
      "raw": "TAF RJFF 300505Z 3006/0112 32007KT 9999 FEW015 SCT025 BKN030 BECMG 3014/3016 14010KT TEMPO 0100/0112 3000 SHRA BR",
      "groups": [
        {
          "text": "TAF RJFF 300505Z 3006/0112 32007KT 9999 FEW015 SCT025 BKN030",
          "offset_h": 0,
          "wdir": 320,
          "wspd": 7
        },
        {
          "text": "BECMG 3014/3016 14010KT",
          "offset_h": 8,
          "wdir": 140,
          "wspd": 10
        },
        {
          "text": "TEMPO 0100/0112 3000 SHRA BR",
          "offset_h": 18,
          "wdir": null,
          "wspd": null
        }
      ],
      "metar_raw": "METAR RJFF 300630Z 33006KT 290V350 9999 FEW025 BKN/// 27/20 Q1011 NOSIG",
      "metar_wdir": 330,
      "metar_wspd": 6,
      "metar_oat": 27,
      "metar_qnh": 1011,
      "hourly_oat": [
        26,
        25,
        24,
        24,
        24,
        24,
        23,
        23,
        23,
        23,
        23,
        23,
        22,
        22,
        22,
        22,
        23,
        23,
        23,
        23,
        24,
        24,
        24,
        24,
        25
      ]
    },
    "CTS": {
      "icao": "RJCC",
      "issued": "2026-06-30T05:05:00.000Z",
      "raw": "TAF RJCC 300505Z 3006/0112 17012KT 9999 FEW005 TEMPO 3011/3018 FEW002 BKN005 TEMPO 3018/0100 1500 BR FEW001 BKN003 BECMG 0103/0106 35010KT",
      "groups": [
        {
          "text": "TAF RJCC 300505Z 3006/0112 17012KT 9999 FEW005",
          "offset_h": 0,
          "wdir": 170,
          "wspd": 12
        },
        {
          "text": "TEMPO 3011/3018 FEW002 BKN005",
          "offset_h": 5,
          "wdir": null,
          "wspd": null
        },
        {
          "text": "TEMPO 3018/0100 1500 BR FEW001 BKN003",
          "offset_h": 12,
          "wdir": null,
          "wspd": null
        },
        {
          "text": "BECMG 0103/0106 35010KT",
          "offset_h": 21,
          "wdir": 350,
          "wspd": 10
        }
      ],
      "metar_raw": "METAR RJCC 300630Z 21006KT 180V250 9999 FEW015 BKN/// 22/16 Q1012",
      "metar_wdir": 210,
      "metar_wspd": 6,
      "metar_oat": 22,
      "metar_qnh": 1012,
      "hourly_oat": [
        21,
        21,
        20,
        19,
        17,
        16,
        15,
        14,
        14,
        14,
        13,
        13,
        13,
        13,
        14,
        14,
        17,
        19,
        21,
        22,
        24,
        24,
        25,
        25,
        26
      ]
    },
    "HND": {
      "icao": "RJTT",
      "issued": "2026-06-30T05:05:00.000Z",
      "raw": "TAF RJTT 300505Z 3006/0112 12008KT 9999 FEW020 BECMG 3016/3018 05006KT TEMPO 3017/0100 FEW005 BKN008 BECMG 3021/0100 10006KT BECMG 0103/0106 18010KT",
      "groups": [
        {
          "text": "TAF RJTT 300505Z 3006/0112 12008KT 9999 FEW020",
          "offset_h": 0,
          "wdir": 120,
          "wspd": 8
        },
        {
          "text": "BECMG 3016/3018 05006KT",
          "offset_h": 10,
          "wdir": 50,
          "wspd": 6
        },
        {
          "text": "TEMPO 3017/0100 FEW005 BKN008",
          "offset_h": 11,
          "wdir": null,
          "wspd": null
        },
        {
          "text": "BECMG 3021/0100 10006KT",
          "offset_h": 15,
          "wdir": 100,
          "wspd": 6
        },
        {
          "text": "BECMG 0103/0106 18010KT",
          "offset_h": 21,
          "wdir": 180,
          "wspd": 10
        }
      ],
      "metar_raw": "METAR RJTT 300630Z 09008KT 9999 FEW015 SCT/// 27/23 Q1011 BECMG TL0800 16010KT",
      "metar_wdir": 90,
      "metar_wspd": 8,
      "metar_oat": 27,
      "metar_qnh": 1011,
      "hourly_oat": [
        28,
        28,
        27,
        26,
        25,
        24,
        24,
        24,
        23,
        23,
        23,
        23,
        22,
        22,
        22,
        22,
        22,
        22,
        22,
        23,
        24,
        25,
        25,
        26,
        26
      ]
    },
    "OKA": {
      "icao": "ROAH",
      "issued": "2026-06-30T05:05:00.000Z",
      "raw": "TAF ROAH 300505Z 3006/0112 19012KT 9999 FEW010 SCT020 TEMPO 3012/3021 FEW005 BKN008",
      "groups": [
        {
          "text": "TAF ROAH 300505Z 3006/0112 19012KT 9999 FEW010 SCT020",
          "offset_h": 0,
          "wdir": 190,
          "wspd": 12
        },
        {
          "text": "TEMPO 3012/3021 FEW005 BKN008",
          "offset_h": 6,
          "wdir": null,
          "wspd": null
        }
      ],
      "metar_raw": "METAR ROAH 300630Z 20011KT 9999 FEW017 BKN/// 31/27 Q1012",
      "metar_wdir": 200,
      "metar_wspd": 11,
      "metar_oat": 31,
      "metar_qnh": 1012,
      "hourly_oat": [
        30,
        29,
        29,
        28,
        28,
        27,
        27,
        27,
        27,
        27,
        27,
        26,
        26,
        26,
        26,
        26,
        27,
        28,
        29,
        29,
        29,
        30,
        30,
        30,
        30
      ]
    },
    "NRT": {
      "icao": "RJAA",
      "issued": "2026-06-30T05:05:00.000Z",
      "raw": "TAF RJAA 300505Z 3006/0112 08008KT 9999 FEW020 SCT030 BECMG 3010/3012 02006KT TEMPO 3012/3015 4000 BR FEW002 BKN005 TEMPO 3015/3021 0800 FG FEW001 BKN003 TEMPO 3021/0100 FEW002 BKN005 BECMG 0106/0109 14010KT",
      "groups": [
        {
          "text": "TAF RJAA 300505Z 3006/0112 08008KT 9999 FEW020 SCT030",
          "offset_h": 0,
          "wdir": 80,
          "wspd": 8
        },
        {
          "text": "BECMG 3010/3012 02006KT",
          "offset_h": 4,
          "wdir": 20,
          "wspd": 6
        },
        {
          "text": "TEMPO 3012/3015 4000 BR FEW002 BKN005",
          "offset_h": 6,
          "wdir": null,
          "wspd": null
        },
        {
          "text": "TEMPO 3015/3021 0800 FG FEW001 BKN003",
          "offset_h": 9,
          "wdir": null,
          "wspd": null
        },
        {
          "text": "TEMPO 3021/0100 FEW002 BKN005",
          "offset_h": 15,
          "wdir": null,
          "wspd": null
        },
        {
          "text": "BECMG 0106/0109 14010KT",
          "offset_h": 24,
          "wdir": 140,
          "wspd": 10
        }
      ],
      "metar_raw": "METAR RJAA 300630Z 14010KT 9999 FEW015 BKN025 BKN/// 27/22 Q1011 NOSIG",
      "metar_wdir": 140,
      "metar_wspd": 10,
      "metar_oat": 27,
      "metar_qnh": 1011,
      "hourly_oat": [
        27,
        26,
        26,
        25,
        24,
        23,
        22,
        22,
        22,
        22,
        21,
        21,
        21,
        21,
        21,
        21,
        21,
        22,
        23,
        24,
        25,
        26,
        27,
        27,
        27
      ]
    },
    "TPE": {
      "icao": "RCTP",
      "issued": "2026-06-30T05:00:00.000Z",
      "raw": "TAF RCTP 300500Z 3006/0112 34005KT 9999 FEW015 BKN032 TEMPO 3011/3015 VRB05KT BECMG 3015/3017 20005KT BECMG 0100/0102 30005KT TEMPO 0107/0112 02005KT 5000 SHRA FEW015 BKN015CB BKN020",
      "groups": [
        {
          "text": "TAF RCTP 300500Z 3006/0112 34005KT 9999 FEW015 BKN032",
          "offset_h": 0,
          "wdir": 340,
          "wspd": 5
        },
        {
          "text": "TEMPO 3011/3015 VRB05KT",
          "offset_h": 5,
          "wdir": "VRB",
          "wspd": 5
        },
        {
          "text": "BECMG 3015/3017 20005KT",
          "offset_h": 9,
          "wdir": 200,
          "wspd": 5
        },
        {
          "text": "BECMG 0100/0102 30005KT",
          "offset_h": 18,
          "wdir": 300,
          "wspd": 5
        },
        {
          "text": "TEMPO 0107/0112 02005KT 5000 SHRA FEW015 BKN015CB BKN020",
          "offset_h": 25,
          "wdir": 20,
          "wspd": 5
        }
      ],
      "metar_raw": "METAR RCTP 300630Z 34007KT 300V020 9999 FEW015 SCT200 33/26 Q1010 NOSIG RMK A2983",
      "metar_wdir": 340,
      "metar_wspd": 7,
      "metar_oat": 33,
      "metar_qnh": 1010,
      "hourly_oat": [
        30,
        30,
        30,
        30,
        29,
        28,
        28,
        28,
        27,
        27,
        27,
        26,
        26,
        26,
        26,
        26,
        26,
        28,
        29,
        30,
        30,
        30,
        29,
        30,
        29
      ]
    },
    "BKK": {
      "icao": "VTBS",
      "issued": "2026-06-30T05:00:00.000Z",
      "raw": "TAF VTBS 300500Z 3006/0112 24008KT 9999 FEW020 TEMPO 3009/3015 VRB12G30KT 3000 TSRA FEW018CB SCT030 BKN100 TEMPO 0108/0112 VRB12G30KT 3000 TSRA FEW018CB SCT030 BKN100",
      "groups": [
        {
          "text": "TAF VTBS 300500Z 3006/0112 24008KT 9999 FEW020",
          "offset_h": 0,
          "wdir": 240,
          "wspd": 8
        },
        {
          "text": "TEMPO 3009/3015 VRB12G30KT 3000 TSRA FEW018CB SCT030 BKN100",
          "offset_h": 3,
          "wdir": "VRB",
          "wspd": 12
        },
        {
          "text": "TEMPO 0108/0112 VRB12G30KT 3000 TSRA FEW018CB SCT030 BKN100",
          "offset_h": 26,
          "wdir": "VRB",
          "wspd": 12
        }
      ],
      "metar_raw": "METAR VTBS 300630Z 23006KT 190V350 9999 FEW020 33/22 Q1006 NOSIG",
      "metar_wdir": 230,
      "metar_wspd": 6,
      "metar_oat": 33,
      "metar_qnh": 1006,
      "hourly_oat": [
        33,
        28,
        28,
        29,
        30,
        29,
        27,
        26,
        26,
        26,
        27,
        27,
        26,
        26,
        26,
        26,
        26,
        26,
        27,
        29,
        30,
        30,
        31,
        32,
        31
      ]
    },
    "HKG": {
      "icao": "VHHH",
      "issued": "2026-06-30T05:00:00.000Z",
      "raw": "TAF VHHH 300500Z 3006/0112 27010KT 9999 FEW015 SCT025 TX33/3006Z TX33/0106Z TN28/3022Z TEMPO 3006/3010 4000 SHRA FEW010CB SCT015 BECMG 3010/3012 12010KT TEMPO 0104/0109 27010KT TEMPO 0109/0112 4000 SHRA FEW010CB SCT015",
      "groups": [
        {
          "text": "TAF VHHH 300500Z 3006/0112 27010KT 9999 FEW015 SCT025 TX33/3006Z TX33/0106Z TN28/3022Z",
          "offset_h": 0,
          "wdir": 270,
          "wspd": 10
        },
        {
          "text": "TEMPO 3006/3010 4000 SHRA FEW010CB SCT015",
          "offset_h": 0,
          "wdir": null,
          "wspd": null
        },
        {
          "text": "BECMG 3010/3012 12010KT",
          "offset_h": 4,
          "wdir": 120,
          "wspd": 10
        },
        {
          "text": "TEMPO 0104/0109 27010KT",
          "offset_h": 22,
          "wdir": 270,
          "wspd": 10
        },
        {
          "text": "TEMPO 0109/0112 4000 SHRA FEW010CB SCT015",
          "offset_h": 27,
          "wdir": null,
          "wspd": null
        }
      ],
      "metar_raw": "METAR VHHH 300630Z 16011KT 130V190 9999 FEW022 32/24 Q1007 NOSIG",
      "metar_wdir": 160,
      "metar_wspd": 11,
      "metar_oat": 32,
      "metar_qnh": 1007,
      "hourly_oat": [
        30,
        30,
        30,
        29,
        29,
        29,
        29,
        29,
        29,
        29,
        29,
        29,
        28,
        28,
        28,
        28,
        28,
        29,
        29,
        30,
        30,
        30,
        31,
        31,
        31
      ]
    },
    "KUL": {
      "icao": "WMKK",
      "issued": "2026-06-30T05:00:00.000Z",
      "raw": "TAF WMKK 300500Z 3006/0112 VRB03KT 9999 FEW018 TEMPO 3007/3011 22010KT 5000 TSRA FEW017CB",
      "groups": [
        {
          "text": "TAF WMKK 300500Z 3006/0112 VRB03KT 9999 FEW018",
          "offset_h": 0,
          "wdir": "VRB",
          "wspd": 3
        },
        {
          "text": "TEMPO 3007/3011 22010KT 5000 TSRA FEW017CB",
          "offset_h": 1,
          "wdir": 220,
          "wspd": 10
        }
      ],
      "metar_raw": "METAR WMKK 300630Z VRB04KT 9999 FEW017CB SCT018 32/25 Q1009 NOSIG",
      "metar_wdir": "VRB",
      "metar_wspd": 4,
      "metar_oat": 32,
      "metar_qnh": 1009,
      "hourly_oat": [
        28,
        29,
        29,
        29,
        29,
        28,
        26,
        26,
        26,
        26,
        25,
        24,
        24,
        24,
        24,
        24,
        24,
        24,
        25,
        27,
        28,
        29,
        30,
        30,
        29
      ]
    },
    "SIN": {
      "icao": "WSSS",
      "issued": "2026-06-30T05:00:00.000Z",
      "raw": "TAF WSSS 300500Z 3006/0112 21008KT 9999 FEW015 SCT020",
      "groups": [
        {
          "text": "TAF WSSS 300500Z 3006/0112 21008KT 9999 FEW015 SCT020",
          "offset_h": 0,
          "wdir": 210,
          "wspd": 8
        }
      ],
      "metar_raw": "METAR WSSS 300630Z 19007KT 9999 FEW018 BKN270 28/24 Q1010 NOSIG",
      "metar_wdir": 190,
      "metar_wspd": 7,
      "metar_oat": 28,
      "metar_qnh": 1010,
      "hourly_oat": [
        30,
        30,
        30,
        30,
        29,
        29,
        28,
        28,
        28,
        25,
        26,
        26,
        25,
        25,
        25,
        26,
        26,
        26,
        27,
        28,
        28,
        28,
        28,
        28,
        30
      ]
    },
    "GMP": {
      "icao": "RKSS",
      "issued": "2026-06-30T05:00:00.000Z",
      "raw": "TAF RKSS 300500Z 3006/0112 28007KT 9999 SCT040 TN22/3019Z TX33/0105Z BECMG 3013/3015 06005KT CAVOK BECMG 0102/0104 28007KT 9999 SCT040",
      "groups": [
        {
          "text": "TAF RKSS 300500Z 3006/0112 28007KT 9999 SCT040 TN22/3019Z TX33/0105Z",
          "offset_h": 0,
          "wdir": 280,
          "wspd": 7
        },
        {
          "text": "BECMG 3013/3015 06005KT CAVOK",
          "offset_h": 7,
          "wdir": 60,
          "wspd": 5
        },
        {
          "text": "BECMG 0102/0104 28007KT 9999 SCT040",
          "offset_h": 20,
          "wdir": 280,
          "wspd": 7
        }
      ],
      "metar_raw": "METAR RKSS 300600Z 29007KT 290V360 CAVOK 31/20 Q1010 NOSIG",
      "metar_wdir": 290,
      "metar_wspd": 7,
      "metar_oat": 31,
      "metar_qnh": 1010,
      "hourly_oat": [
        29,
        27,
        26,
        25,
        24,
        23,
        23,
        22,
        22,
        22,
        21,
        21,
        21,
        21,
        21,
        21,
        22,
        23,
        24,
        26,
        28,
        29,
        30,
        31,
        31
      ]
    },
    "HAN": {
      "icao": "VVNB",
      "issued": "2026-06-30T05:00:00.000Z",
      "raw": "TAF VVNB 300500Z 3006/0106 07008KT 9999 FEW010 TEMPO 3009/3014 4000 TSRA SCT015 FEW027CB TEMPO 3015/3021 2500 +TSRA BKN010 FEW027CB",
      "groups": [
        {
          "text": "TAF VVNB 300500Z 3006/0106 07008KT 9999 FEW010",
          "offset_h": 0,
          "wdir": 70,
          "wspd": 8
        },
        {
          "text": "TEMPO 3009/3014 4000 TSRA SCT015 FEW027CB",
          "offset_h": 3,
          "wdir": null,
          "wspd": null
        },
        {
          "text": "TEMPO 3015/3021 2500 +TSRA BKN010 FEW027CB",
          "offset_h": 9,
          "wdir": null,
          "wspd": null
        }
      ],
      "metar_raw": "METAR VVNB 300630Z 08008KT 040V100 9999 BKN015 30/27 Q1004 NOSIG",
      "metar_wdir": 80,
      "metar_wspd": 8,
      "metar_oat": 30,
      "metar_qnh": 1004,
      "hourly_oat": [
        31,
        31,
        30,
        31,
        30,
        29,
        27,
        26,
        26,
        26,
        25,
        25,
        25,
        24,
        24,
        25,
        25,
        25,
        26,
        27,
        28,
        29,
        30,
        30,
        31
      ]
    },
    "CGK": {
      "icao": "WIII",
      "issued": "2026-06-30T05:00:00.000Z",
      "raw": "TAF WIII 300500Z 3006/0112 06012KT 5000 HZ SCT020 BECMG 3006/3008 8000 NSW BECMG 3014/3016 15005KT 5000 HZ BECMG 0104/0106 09012KT 8000 NSW",
      "groups": [
        {
          "text": "TAF WIII 300500Z 3006/0112 06012KT 5000 HZ SCT020",
          "offset_h": 0,
          "wdir": 60,
          "wspd": 12
        },
        {
          "text": "BECMG 3006/3008 8000 NSW",
          "offset_h": 0,
          "wdir": null,
          "wspd": null
        },
        {
          "text": "BECMG 3014/3016 15005KT 5000 HZ",
          "offset_h": 8,
          "wdir": 150,
          "wspd": 5
        },
        {
          "text": "BECMG 0104/0106 09012KT 8000 NSW",
          "offset_h": 22,
          "wdir": 90,
          "wspd": 12
        }
      ],
      "metar_raw": "METAR WIII 300630Z 02009KT 330V060 2000 HZ SCT020 32/23 Q1009 NOSIG",
      "metar_wdir": 20,
      "metar_wspd": 9,
      "metar_oat": 32,
      "metar_qnh": 1009,
      "hourly_oat": [
        33,
        33,
        32,
        31,
        29,
        28,
        28,
        28,
        28,
        27,
        26,
        26,
        25,
        25,
        24,
        24,
        23,
        23,
        24,
        26,
        28,
        30,
        31,
        32,
        33
      ]
    },
    "SGN": {
      "icao": "VVTS",
      "issued": "2026-06-30T05:00:00.000Z",
      "raw": "TAF VVTS 300500Z 3006/0112 28010KT 9999 SCT017 TEMPO 3006/3007 5000 SHRA SCT015 FEW017CB TEMPO 3007/3010 28016G26KT 4000 TSRA SCT015 SCT017CB TEMPO 0105/0108 27016G28KT 4000 SHRA SCT015 FEW017CB",
      "groups": [
        {
          "text": "TAF VVTS 300500Z 3006/0112 28010KT 9999 SCT017",
          "offset_h": 0,
          "wdir": 280,
          "wspd": 10
        },
        {
          "text": "TEMPO 3006/3007 5000 SHRA SCT015 FEW017CB",
          "offset_h": 0,
          "wdir": null,
          "wspd": null
        },
        {
          "text": "TEMPO 3007/3010 28016G26KT 4000 TSRA SCT015 SCT017CB",
          "offset_h": 1,
          "wdir": 280,
          "wspd": 16
        },
        {
          "text": "TEMPO 0105/0108 27016G28KT 4000 SHRA SCT015 FEW017CB",
          "offset_h": 23,
          "wdir": 270,
          "wspd": 16
        }
      ],
      "metar_raw": "METAR VVTS 300630Z 27008KT 240V330 9999 SCT025 FEW029CB 34/25 Q1006 TEMPO FM0700 TL0730 28015G28KT 4000 TSRA",
      "metar_wdir": 270,
      "metar_wspd": 8,
      "metar_oat": 34,
      "metar_qnh": 1006,
      "hourly_oat": [
        32,
        26,
        27,
        28,
        28,
        27,
        27,
        27,
        27,
        27,
        27,
        26,
        26,
        26,
        26,
        26,
        26,
        26,
        27,
        28,
        29,
        30,
        32,
        32,
        28
      ]
    },
    "TSA": {
      "icao": "RCSS",
      "issued": "2026-06-30T05:00:00.000Z",
      "raw": "TAF RCSS 300500Z 3006/0106 09005KT 9999 FEW015 BKN032 TEMPO 3006/3010 28008KT 5000 SHRA FEW010 FEW015CB BKN020 TEMPO 3018/3022 VRB05KT",
      "groups": [
        {
          "text": "TAF RCSS 300500Z 3006/0106 09005KT 9999 FEW015 BKN032",
          "offset_h": 0,
          "wdir": 90,
          "wspd": 5
        },
        {
          "text": "TEMPO 3006/3010 28008KT 5000 SHRA FEW010 FEW015CB BKN020",
          "offset_h": 0,
          "wdir": 280,
          "wspd": 8
        },
        {
          "text": "TEMPO 3018/3022 VRB05KT",
          "offset_h": 12,
          "wdir": "VRB",
          "wspd": 5
        }
      ],
      "metar_raw": "SPECI RCSS 300634Z 28010KT 260V320 9999 FEW015 FEW018CB SCT025 34/26 Q1009 WS R28 NOSIG RMK 30011KT/R10 TCU NE AND SE A2980",
      "metar_wdir": 280,
      "metar_wspd": 10,
      "metar_oat": 34,
      "metar_qnh": 1009,
      "hourly_oat": [
        32,
        32,
        31,
        31,
        30,
        28,
        28,
        27,
        27,
        27,
        26,
        26,
        26,
        26,
        26,
        26,
        26,
        28,
        29,
        31,
        33,
        33,
        33,
        33,
        32
      ]
    },
    "DLC": {
      "icao": "ZYTL",
      "issued": "2026-06-30T03:07:00.000Z",
      "raw": "TAF ZYTL 300307Z 3006/0106 14004MPS 5000 BR BKN014 BKN026 TX26/3006Z TN20/3021Z TEMPO 3019/3023 2000 TSRA BR BKN008 BKN026 SCT033CB",
      "groups": [
        {
          "text": "TAF ZYTL 300307Z 3006/0106 14004MPS 5000 BR BKN014 BKN026 TX26/3006Z TN20/3021Z",
          "offset_h": 0,
          "wdir": null,
          "wspd": null
        },
        {
          "text": "TEMPO 3019/3023 2000 TSRA BR BKN008 BKN026 SCT033CB",
          "offset_h": 13,
          "wdir": null,
          "wspd": null
        }
      ],
      "metar_raw": "METAR ZYTL 300630Z 14004MPS 9999 OVC023 24/20 Q1009 NOSIG",
      "metar_wdir": null,
      "metar_wspd": null,
      "metar_oat": 24,
      "metar_qnh": 1009,
      "hourly_oat": [
        25,
        26,
        25,
        25,
        24,
        23,
        23,
        23,
        23,
        23,
        23,
        22,
        22,
        20,
        20,
        20,
        20,
        22,
        22,
        24,
        24,
        25,
        25,
        24,
        22
      ]
    },
    "SHA": {
      "icao": "ZSSS",
      "issued": "2026-06-30T03:06:00.000Z",
      "raw": "TAF ZSSS 300306Z 3006/0112 23004MPS 6000 -SHRA BKN013 TX27/3006Z TX26/0106Z TN22/3021Z TEMPO 3007/3010 SHRA BKN008 FEW030CB TEMPO 3021/0103 TSRA BKN008 SCT030CB",
      "groups": [
        {
          "text": "TAF ZSSS 300306Z 3006/0112 23004MPS 6000 -SHRA BKN013 TX27/3006Z TX26/0106Z TN22/3021Z",
          "offset_h": 0,
          "wdir": null,
          "wspd": null
        },
        {
          "text": "TEMPO 3007/3010 SHRA BKN008 FEW030CB",
          "offset_h": 1,
          "wdir": null,
          "wspd": null
        },
        {
          "text": "TEMPO 3021/0103 TSRA BKN008 SCT030CB",
          "offset_h": 15,
          "wdir": null,
          "wspd": null
        }
      ],
      "metar_raw": "METAR ZSSS 300630Z 16004MPS 9999 SCT009 OVC040 26/25 Q1007 NOSIG",
      "metar_wdir": null,
      "metar_wspd": null,
      "metar_oat": 26,
      "metar_qnh": 1007,
      "hourly_oat": [
        26,
        27,
        27,
        26,
        26,
        26,
        25,
        25,
        25,
        25,
        24,
        24,
        25,
        24,
        24,
        24,
        24,
        24,
        24,
        24,
        24,
        24,
        25,
        25,
        25
      ]
    },
    "PVG": {
      "icao": "ZSPD",
      "issued": "2026-06-30T03:06:00.000Z",
      "raw": "TAF ZSPD 300306Z 3006/0112 23004MPS 6000 -SHRA BKN011 TX27/3006Z TX26/0106Z TN22/3021Z TEMPO 3007/3010 SHRA BKN008 FEW030CB TEMPO 3021/0103 TSRA BKN008 SCT030CB",
      "groups": [
        {
          "text": "TAF ZSPD 300306Z 3006/0112 23004MPS 6000 -SHRA BKN011 TX27/3006Z TX26/0106Z TN22/3021Z",
          "offset_h": 0,
          "wdir": null,
          "wspd": null
        },
        {
          "text": "TEMPO 3007/3010 SHRA BKN008 FEW030CB",
          "offset_h": 1,
          "wdir": null,
          "wspd": null
        },
        {
          "text": "TEMPO 3021/0103 TSRA BKN008 SCT030CB",
          "offset_h": 15,
          "wdir": null,
          "wspd": null
        }
      ],
      "metar_raw": "METAR ZSPD 300630Z 15005MPS 9999 BKN015 27/27 Q1007 NOSIG",
      "metar_wdir": null,
      "metar_wspd": null,
      "metar_oat": 27,
      "metar_qnh": 1007,
      "hourly_oat": [
        26,
        26,
        27,
        27,
        26,
        26,
        26,
        25,
        24,
        24,
        24,
        24,
        24,
        24,
        24,
        24,
        24,
        24,
        24,
        24,
        24,
        25,
        26,
        25,
        25
      ]
    },
    "PEK": {
      "icao": "ZBAA",
      "issued": "2026-06-30T03:01:00.000Z",
      "raw": "TAF ZBAA 300301Z 3006/0112 15004MPS 6000 NSC TX28/3007Z TX30/0107Z TN21/3021Z TEMPO 3008/3012 -TSRA FEW040CB BKN040",
      "groups": [
        {
          "text": "TAF ZBAA 300301Z 3006/0112 15004MPS 6000 NSC TX28/3007Z TX30/0107Z TN21/3021Z",
          "offset_h": 0,
          "wdir": null,
          "wspd": null
        },
        {
          "text": "TEMPO 3008/3012 -TSRA FEW040CB BKN040",
          "offset_h": 2,
          "wdir": null,
          "wspd": null
        }
      ],
      "metar_raw": "METAR ZBAA 300630Z VRB02MPS CAVOK 29/20 Q1006 NOSIG",
      "metar_wdir": null,
      "metar_wspd": null,
      "metar_oat": 29,
      "metar_qnh": 1006,
      "hourly_oat": [
        28,
        28,
        28,
        23,
        23,
        23,
        23,
        22,
        21,
        21,
        22,
        22,
        22,
        22,
        22,
        22,
        22,
        22,
        23,
        25,
        26,
        27,
        28,
        29,
        29
      ]
    }
  }
}