{
  "updated": "2026-06-14T15:28:25Z",
  "tafs": {
    "HNL": {
      "icao": "PHNL",
      "issued": "2026-06-14T15:01:00.000Z",
      "raw": "TAF PHNL 141501Z 1415/1518 34005KT P6SM VCSH FEW030 SCT045 FM142000 05011KT P6SM VCSH SCT030 BKN050 FM150600 03006KT P6SM SCT030 BKN045",
      "groups": [
        {
          "text": "TAF PHNL 141501Z 1415/1518 34005KT P6SM VCSH FEW030 SCT045",
          "offset_h": 0,
          "wdir": 340,
          "wspd": 5
        },
        {
          "text": "FM142000 05011KT P6SM VCSH SCT030 BKN050",
          "offset_h": 5,
          "wdir": 50,
          "wspd": 11
        },
        {
          "text": "FM150600 03006KT P6SM SCT030 BKN045",
          "offset_h": 15,
          "wdir": 30,
          "wspd": 6
        }
      ],
      "hourly_oat": [
        22,
        22,
        24,
        25,
        26,
        27,
        27,
        28,
        27,
        27,
        27,
        27,
        26,
        24,
        23,
        23,
        22,
        22,
        22,
        22,
        22,
        22,
        22,
        22,
        21
      ],
      "metar_oat": 22,
      "metar_qnh": 1014
    },
    "LAX": {
      "icao": "KLAX",
      "issued": "2026-06-14T14:48:00.000Z",
      "raw": "TAF KLAX 141448Z 1415/1518 VRB03KT P6SM SCT009 FM141600 26006KT P6SM SCT010 FM142000 26012KT P6SM SCT012 FM150200 26006KT 5SM BR OVC006",
      "groups": [
        {
          "text": "TAF KLAX 141448Z 1415/1518 VRB03KT P6SM SCT009",
          "offset_h": 0,
          "wdir": "VRB",
          "wspd": 3
        },
        {
          "text": "FM141600 26006KT P6SM SCT010",
          "offset_h": 1,
          "wdir": 260,
          "wspd": 6
        },
        {
          "text": "FM142000 26012KT P6SM SCT012",
          "offset_h": 5,
          "wdir": 260,
          "wspd": 12
        },
        {
          "text": "FM150200 26006KT 5SM BR OVC006",
          "offset_h": 11,
          "wdir": 260,
          "wspd": 6
        }
      ],
      "hourly_oat": [
        19,
        20,
        20,
        20,
        21,
        21,
        21,
        21,
        20,
        20,
        20,
        19,
        18,
        18,
        18,
        17,
        17,
        17,
        16,
        16,
        16,
        16,
        16,
        16,
        17
      ],
      "metar_oat": 19,
      "metar_qnh": 1014
    },
    "SAN": {
      "icao": "KSAN",
      "issued": "2026-06-14T14:42:00.000Z",
      "raw": "TAF KSAN 141442Z 1415/1518 VRB03KT P6SM BKN012 FM141530 VRB05KT P6SM SCT012 FM141800 30011KT P6SM FEW012 FM150300 VRB04KT P6SM BKN012",
      "groups": [
        {
          "text": "TAF KSAN 141442Z 1415/1518 VRB03KT P6SM BKN012",
          "offset_h": 0,
          "wdir": "VRB",
          "wspd": 3
        },
        {
          "text": "FM141530 VRB05KT P6SM SCT012",
          "offset_h": 0,
          "wdir": "VRB",
          "wspd": 5
        },
        {
          "text": "FM141800 30011KT P6SM FEW012",
          "offset_h": 3,
          "wdir": 300,
          "wspd": 11
        },
        {
          "text": "FM150300 VRB04KT P6SM BKN012",
          "offset_h": 12,
          "wdir": "VRB",
          "wspd": 4
        }
      ],
      "hourly_oat": [
        20,
        22,
        23,
        22,
        22,
        23,
        23,
        23,
        22,
        22,
        22,
        20,
        20,
        19,
        20,
        19,
        19,
        19,
        19,
        19,
        19,
        19,
        19,
        19,
        19
      ],
      "metar_oat": 20,
      "metar_qnh": 1014
    },
    "KUL": {
      "icao": "WMKK",
      "issued": "2026-06-14T14:31:00.000Z",
      "raw": "TAF AMD WMKK 141431Z 1414/1518 VRB03KT 9999 FEW017CB TEMPO 1414/1417 5000 TSRA FEW017CB SCT025",
      "groups": [
        {
          "text": "TAF AMD WMKK 141431Z 1414/1518 VRB03KT 9999 FEW017CB",
          "offset_h": -1,
          "wdir": "VRB",
          "wspd": 3
        },
        {
          "text": "TEMPO 1414/1417 5000 TSRA FEW017CB SCT025",
          "offset_h": -1,
          "wdir": null,
          "wspd": null
        }
      ],
      "hourly_oat": [
        25,
        25,
        24,
        24,
        24,
        24,
        23,
        23,
        23,
        24,
        25,
        26,
        27,
        28,
        29,
        30,
        30,
        30,
        29,
        29,
        28,
        27,
        26,
        26,
        26
      ],
      "metar_oat": 25,
      "metar_qnh": 1013
    },
    "HKG": {
      "icao": "VHHH",
      "issued": "2026-06-14T14:00:00.000Z",
      "raw": "TAF VHHH 141400Z 1415/1521 20015KT 9999 FEW010 SCT025 TX30/1506Z TN26/1422Z TEMPO 1415/1417 3500 TSRA SHRA FEW010CB SCT020 TEMPO 1421/1503 24025G35KT 2000 TSRA +SHRA FEW008CB SCT015 TEMPO 1503/1506 24020G30KT 2000 TSRA SHRA FEW008CB SCT015 PROB30 TEMPO 1515/1518 24020G30KT 2000 TSRA SHRA FEW010CB SCT020",
      "groups": [
        {
          "text": "TAF VHHH 141400Z 1415/1521 20015KT 9999 FEW010 SCT025 TX30/1506Z TN26/1422Z",
          "offset_h": 0,
          "wdir": 200,
          "wspd": 15
        },
        {
          "text": "TEMPO 1415/1417 3500 TSRA SHRA FEW010CB SCT020",
          "offset_h": 0,
          "wdir": null,
          "wspd": null
        },
        {
          "text": "TEMPO 1421/1503 24025G35KT 2000 TSRA +SHRA FEW008CB SCT015",
          "offset_h": 6,
          "wdir": 240,
          "wspd": 25
        },
        {
          "text": "TEMPO 1503/1506 24020G30KT 2000 TSRA SHRA FEW008CB SCT015",
          "offset_h": 12,
          "wdir": 240,
          "wspd": 20
        },
        {
          "text": "PROB30",
          "offset_h": 0,
          "wdir": null,
          "wspd": null
        },
        {
          "text": "TEMPO 1515/1518 24020G30KT 2000 TSRA SHRA FEW010CB SCT020",
          "offset_h": 24,
          "wdir": 240,
          "wspd": 20
        }
      ],
      "hourly_oat": [
        28,
        28,
        28,
        27,
        27,
        27,
        26,
        26,
        26,
        26,
        26,
        26,
        26,
        26,
        27,
        27,
        28,
        28,
        29,
        28,
        26,
        27,
        27,
        27,
        26
      ],
      "metar_oat": 28,
      "metar_qnh": 1006
    },
    "GMP": {
      "icao": "RKSS",
      "issued": "2026-06-14T13:45:00.000Z",
      "raw": "TAF AMD RKSS 141345Z 1414/1518 01007KT 9999 SCT035 TN19/1420Z TX32/1505Z BECMG 1415/1417 07005KT 6000 NSC BECMG 1500/1502 27007KT CAVOK BECMG 1512/1514 10005KT 6000 NSC",
      "groups": [
        {
          "text": "TAF AMD RKSS 141345Z 1414/1518 01007KT 9999 SCT035 TN19/1420Z TX32/1505Z",
          "offset_h": -1,
          "wdir": 10,
          "wspd": 7
        },
        {
          "text": "BECMG 1415/1417 07005KT 6000 NSC",
          "offset_h": 0,
          "wdir": 70,
          "wspd": 5
        },
        {
          "text": "BECMG 1500/1502 27007KT CAVOK",
          "offset_h": 9,
          "wdir": 270,
          "wspd": 7
        },
        {
          "text": "BECMG 1512/1514 10005KT 6000 NSC",
          "offset_h": 21,
          "wdir": 100,
          "wspd": 5
        }
      ],
      "hourly_oat": [
        20,
        19,
        19,
        19,
        18,
        18,
        18,
        20,
        22,
        24,
        25,
        27,
        28,
        30,
        30,
        30,
        29,
        28,
        27,
        26,
        24,
        22,
        21,
        20,
        20
      ],
      "metar_oat": 20,
      "metar_qnh": 1012
    },
    "CAN": {
      "icao": "ZGGG",
      "issued": "2026-06-14T11:42:00.000Z",
      "raw": "TAF AMD ZGGG 141142Z 1412/1518 19003MPS 8000 BKN033 TX27/1412Z TX30/1507Z TN24/1422Z TEMPO 1415/1419 TSRA SCT030CB BKN033 TEMPO 1420/1424 SHRA FEW026CB BKN033 TEMPO 1502/1506 TSRA SCT026CB BKN033 TEMPO 1510/1514 TSRA SCT026CB BKN033",
      "groups": [
        {
          "text": "TAF AMD ZGGG 141142Z 1412/1518 19003MPS 8000 BKN033 TX27/1412Z TX30/1507Z TN24/1422Z",
          "offset_h": -3,
          "wdir": null,
          "wspd": null
        },
        {
          "text": "TEMPO 1415/1419 TSRA SCT030CB BKN033",
          "offset_h": 0,
          "wdir": null,
          "wspd": null
        },
        {
          "text": "TEMPO 1420/1424 SHRA FEW026CB BKN033",
          "offset_h": 5,
          "wdir": null,
          "wspd": null
        },
        {
          "text": "TEMPO 1502/1506 TSRA SCT026CB BKN033",
          "offset_h": 11,
          "wdir": null,
          "wspd": null
        },
        {
          "text": "TEMPO 1510/1514 TSRA SCT026CB BKN033",
          "offset_h": 19,
          "wdir": null,
          "wspd": null
        }
      ],
      "hourly_oat": [
        26,
        25,
        25,
        25,
        25,
        25,
        24,
        24,
        24,
        25,
        25,
        26,
        26,
        26,
        26,
        28,
        30,
        29,
        29,
        26,
        26,
        25,
        25,
        25,
        25
      ],
      "metar_oat": 26,
      "metar_qnh": 1006
    },
    "OKA": {
      "icao": "ROAH",
      "issued": "2026-06-14T11:05:00.000Z",
      "raw": "TAF ROAH 141105Z 1412/1518 20005KT 9999 FEW008 BKN012 TEMPO 1412/1421 FEW003 BKN005 TEMPO 1421/1500 4000 SHRA BR FEW003 BKN005 TEMPO 1500/1509 FEW005 BKN008 TEMPO 1509/1512 4000 TSRA BR FEW003 BKN005 FEW015CB TEMPO 1512/1518 FEW003 BKN005",
      "groups": [
        {
          "text": "TAF ROAH 141105Z 1412/1518 20005KT 9999 FEW008 BKN012",
          "offset_h": -3,
          "wdir": 200,
          "wspd": 5
        },
        {
          "text": "TEMPO 1412/1421 FEW003 BKN005",
          "offset_h": -3,
          "wdir": null,
          "wspd": null
        },
        {
          "text": "TEMPO 1421/1500 4000 SHRA BR FEW003 BKN005",
          "offset_h": 6,
          "wdir": null,
          "wspd": null
        },
        {
          "text": "TEMPO 1500/1509 FEW005 BKN008",
          "offset_h": 9,
          "wdir": null,
          "wspd": null
        },
        {
          "text": "TEMPO 1509/1512 4000 TSRA BR FEW003 BKN005 FEW015CB",
          "offset_h": 18,
          "wdir": null,
          "wspd": null
        },
        {
          "text": "TEMPO 1512/1518 FEW003 BKN005",
          "offset_h": 21,
          "wdir": null,
          "wspd": null
        }
      ],
      "hourly_oat": [
        25,
        25,
        25,
        24,
        24,
        24,
        25,
        25,
        26,
        27,
        27,
        28,
        26,
        26,
        26,
        27,
        27,
        27,
        26,
        26,
        26,
        26,
        25,
        26,
        25
      ],
      "metar_oat": 25,
      "metar_qnh": 1010
    },
    "NGO": {
      "icao": "RJGG",
      "issued": "2026-06-14T11:05:00.000Z",
      "raw": "TAF RJGG 141105Z 1412/1518 10006KT 9000 -RA FEW030 BKN050 BECMG 1416/1418 03006KT BECMG 1500/1503 19012KT BECMG 1509/1512 30012KT",
      "groups": [
        {
          "text": "TAF RJGG 141105Z 1412/1518 10006KT 9000 -RA FEW030 BKN050",
          "offset_h": -3,
          "wdir": 100,
          "wspd": 6
        },
        {
          "text": "BECMG 1416/1418 03006KT",
          "offset_h": 1,
          "wdir": 30,
          "wspd": 6
        },
        {
          "text": "BECMG 1500/1503 19012KT",
          "offset_h": 9,
          "wdir": 190,
          "wspd": 12
        },
        {
          "text": "BECMG 1509/1512 30012KT",
          "offset_h": 18,
          "wdir": 300,
          "wspd": 12
        }
      ],
      "hourly_oat": [
        21,
        21,
        20,
        20,
        20,
        20,
        20,
        20,
        20,
        20,
        20,
        21,
        21,
        21,
        21,
        22,
        22,
        22,
        23,
        23,
        23,
        23,
        22,
        22,
        22
      ],
      "metar_oat": 21,
      "metar_qnh": 1015
    },
    "FUK": {
      "icao": "RJFF",
      "issued": "2026-06-14T11:05:00.000Z",
      "raw": "TAF RJFF 141105Z 1412/1518 11005KT 9999 FEW025 SCT035",
      "groups": [
        {
          "text": "TAF RJFF 141105Z 1412/1518 11005KT 9999 FEW025 SCT035",
          "offset_h": -3,
          "wdir": 110,
          "wspd": 5
        }
      ],
      "hourly_oat": [
        21,
        21,
        20,
        20,
        20,
        20,
        20,
        20,
        22,
        23,
        24,
        26,
        27,
        28,
        28,
        28,
        28,
        28,
        27,
        26,
        25,
        24,
        24,
        23,
        23
      ],
      "metar_oat": 21,
      "metar_qnh": 1012
    },
    "CTS": {
      "icao": "RJCC",
      "issued": "2026-06-14T11:05:00.000Z",
      "raw": "TAF RJCC 141105Z 1412/1518 17008KT 6000 FEW001 BKN012 TEMPO 1412/1500 0700 FG VV001 TEMPO 1500/1503 3000 BR FEW003 BKN005 TEMPO 1506/1512 FEW003 BKN006 BECMG 1512/1515 29004KT TEMPO 1512/1518 2000 BR FEW003 BKN005",
      "groups": [
        {
          "text": "TAF RJCC 141105Z 1412/1518 17008KT 6000 FEW001 BKN012",
          "offset_h": -3,
          "wdir": 170,
          "wspd": 8
        },
        {
          "text": "TEMPO 1412/1500 0700 FG VV001",
          "offset_h": -3,
          "wdir": null,
          "wspd": null
        },
        {
          "text": "TEMPO 1500/1503 3000 BR FEW003 BKN005",
          "offset_h": 9,
          "wdir": null,
          "wspd": null
        },
        {
          "text": "TEMPO 1506/1512 FEW003 BKN006",
          "offset_h": 15,
          "wdir": null,
          "wspd": null
        },
        {
          "text": "BECMG 1512/1515 29004KT",
          "offset_h": 21,
          "wdir": 290,
          "wspd": 4
        },
        {
          "text": "TEMPO 1512/1518 2000 BR FEW003 BKN005",
          "offset_h": 21,
          "wdir": null,
          "wspd": null
        }
      ],
      "hourly_oat": [
        13,
        13,
        13,
        13,
        13,
        13,
        14,
        15,
        17,
        19,
        20,
        22,
        23,
        23,
        23,
        23,
        22,
        21,
        20,
        16,
        15,
        15,
        15,
        15,
        15
      ],
      "metar_oat": 13,
      "metar_qnh": 1017
    },
    "NRT": {
      "icao": "RJAA",
      "issued": "2026-06-14T11:05:00.000Z",
      "raw": "TAF RJAA 141105Z 1412/1518 15006KT 8000 -RA FEW008 BKN015 BECMG 1415/1417 04010KT TEMPO 1416/1418 4000 -RA BR FEW005 BKN008 TEMPO 1418/1423 3000 RA BR FEW001 BKN003 TEMPO 1423/1503 4000 -RA BR FEW005 BKN008 BECMG 1515/1518 34008KT",
      "groups": [
        {
          "text": "TAF RJAA 141105Z 1412/1518 15006KT 8000 -RA FEW008 BKN015",
          "offset_h": -3,
          "wdir": 150,
          "wspd": 6
        },
        {
          "text": "BECMG 1415/1417 04010KT",
          "offset_h": 0,
          "wdir": 40,
          "wspd": 10
        },
        {
          "text": "TEMPO 1416/1418 4000 -RA BR FEW005 BKN008",
          "offset_h": 1,
          "wdir": null,
          "wspd": null
        },
        {
          "text": "TEMPO 1418/1423 3000 RA BR FEW001 BKN003",
          "offset_h": 3,
          "wdir": null,
          "wspd": null
        },
        {
          "text": "TEMPO 1423/1503 4000 -RA BR FEW005 BKN008",
          "offset_h": 8,
          "wdir": null,
          "wspd": null
        },
        {
          "text": "BECMG 1515/1518 34008KT",
          "offset_h": 24,
          "wdir": 340,
          "wspd": 8
        }
      ],
      "hourly_oat": [
        20,
        19,
        19,
        18,
        18,
        18,
        18,
        18,
        18,
        18,
        18,
        17,
        17,
        17,
        18,
        19,
        19,
        18,
        18,
        18,
        18,
        18,
        18,
        18,
        18
      ],
      "metar_oat": 20,
      "metar_qnh": 1017
    },
    "KIX": {
      "icao": "RJBB",
      "issued": "2026-06-14T11:05:00.000Z",
      "raw": "TAF RJBB 141105Z 1412/1518 06012KT 9999 FEW020 BKN050 BECMG 1503/1506 30006KT BECMG 1509/1512 03008KT",
      "groups": [
        {
          "text": "TAF RJBB 141105Z 1412/1518 06012KT 9999 FEW020 BKN050",
          "offset_h": -3,
          "wdir": 60,
          "wspd": 12
        },
        {
          "text": "BECMG 1503/1506 30006KT",
          "offset_h": 12,
          "wdir": 300,
          "wspd": 6
        },
        {
          "text": "BECMG 1509/1512 03008KT",
          "offset_h": 18,
          "wdir": 30,
          "wspd": 8
        }
      ],
      "hourly_oat": [
        21,
        21,
        21,
        21,
        21,
        21,
        20,
        20,
        20,
        21,
        22,
        22,
        23,
        23,
        23,
        23,
        23,
        22,
        22,
        22,
        23,
        23,
        22,
        22,
        21
      ],
      "metar_oat": 21,
      "metar_qnh": 1013
    },
    "HND": {
      "icao": "RJTT",
      "issued": "2026-06-14T11:05:00.000Z",
      "raw": "TAF RJTT 141105Z 1412/1518 17008KT 9999 FEW015 SCT020 BECMG 1417/1419 04014KT TEMPO 1419/1422 4000 SHRA BR FEW005 BKN008 BECMG 1515/1518 34010KT",
      "groups": [
        {
          "text": "TAF RJTT 141105Z 1412/1518 17008KT 9999 FEW015 SCT020",
          "offset_h": -3,
          "wdir": 170,
          "wspd": 8
        },
        {
          "text": "BECMG 1417/1419 04014KT",
          "offset_h": 2,
          "wdir": 40,
          "wspd": 14
        },
        {
          "text": "TEMPO 1419/1422 4000 SHRA BR FEW005 BKN008",
          "offset_h": 4,
          "wdir": null,
          "wspd": null
        },
        {
          "text": "BECMG 1515/1518 34010KT",
          "offset_h": 24,
          "wdir": 340,
          "wspd": 10
        }
      ],
      "hourly_oat": [
        20,
        20,
        20,
        19,
        19,
        18,
        18,
        18,
        18,
        18,
        18,
        18,
        18,
        18,
        18,
        18,
        19,
        19,
        19,
        19,
        19,
        18,
        18,
        18,
        18
      ],
      "metar_oat": 20,
      "metar_qnh": 1017
    },
    "ITM": {
      "icao": "RJOO",
      "issued": "2026-06-14T11:05:00.000Z",
      "raw": "TAF RJOO 141105Z 1412/1518 07008KT 9999 FEW020 SCT040 BECMG 1503/1506 34010KT",
      "groups": [
        {
          "text": "TAF RJOO 141105Z 1412/1518 07008KT 9999 FEW020 SCT040",
          "offset_h": -3,
          "wdir": 70,
          "wspd": 8
        },
        {
          "text": "BECMG 1503/1506 34010KT",
          "offset_h": 12,
          "wdir": 340,
          "wspd": 10
        }
      ],
      "hourly_oat": [
        20,
        20,
        20,
        20,
        20,
        20,
        20,
        20,
        21,
        22,
        23,
        24,
        24,
        23,
        23,
        24,
        26,
        26,
        24,
        23,
        22,
        21,
        20,
        19,
        18
      ],
      "metar_oat": 20,
      "metar_qnh": 1014
    },
    "SGN": {
      "icao": "VVTS",
      "issued": "2026-06-14T11:00:00.000Z",
      "raw": "TAF VVTS 141100Z 1412/1518 26008KT 9999 SCT017 TEMPO 1507/1510 26016G28KT 2000 +TSRA SCT013 SCT015CB",
      "groups": [
        {
          "text": "TAF VVTS 141100Z 1412/1518 26008KT 9999 SCT017",
          "offset_h": -3,
          "wdir": 260,
          "wspd": 8
        },
        {
          "text": "TEMPO 1507/1510 26016G28KT 2000 +TSRA SCT013 SCT015CB",
          "offset_h": 16,
          "wdir": 260,
          "wspd": 16
        }
      ],
      "hourly_oat": [
        27,
        26,
        26,
        26,
        26,
        25,
        25,
        25,
        25,
        27,
        28,
        30,
        31,
        32,
        33,
        34,
        26,
        26,
        27,
        27,
        27,
        26,
        26,
        26,
        26
      ],
      "metar_oat": 27,
      "metar_qnh": 1012
    },
    "SIN": {
      "icao": "WSSS",
      "issued": "2026-06-14T11:00:00.000Z",
      "raw": "TAF WSSS 141100Z 1412/1518 23008KT 9999 FEW015 SCT020 TEMPO 1503/1506 3000 TSRA FEW012CB BKN015",
      "groups": [
        {
          "text": "TAF WSSS 141100Z 1412/1518 23008KT 9999 FEW015 SCT020",
          "offset_h": -3,
          "wdir": 230,
          "wspd": 8
        },
        {
          "text": "TEMPO 1503/1506 3000 TSRA FEW012CB BKN015",
          "offset_h": 12,
          "wdir": null,
          "wspd": null
        }
      ],
      "hourly_oat": [
        26,
        25,
        25,
        25,
        25,
        25,
        25,
        24,
        24,
        25,
        26,
        28,
        29,
        29,
        28,
        29,
        30,
        30,
        29,
        29,
        29,
        28,
        26,
        26,
        25
      ],
      "metar_oat": 26,
      "metar_qnh": 1012
    },
    "HAN": {
      "icao": "VVNB",
      "issued": "2026-06-14T11:00:00.000Z",
      "raw": "TAF VVNB 141100Z 1412/1512 13008KT 9999 FEW030 TEMPO 1418/1424 4000 TSRA SCT012 FEW027CB",
      "groups": [
        {
          "text": "TAF VVNB 141100Z 1412/1512 13008KT 9999 FEW030",
          "offset_h": -3,
          "wdir": 130,
          "wspd": 8
        },
        {
          "text": "TEMPO 1418/1424 4000 TSRA SCT012 FEW027CB",
          "offset_h": 3,
          "wdir": null,
          "wspd": null
        }
      ],
      "hourly_oat": [
        30,
        30,
        29,
        28,
        27,
        27,
        27,
        27,
        27,
        28,
        29,
        30,
        32,
        33,
        34,
        34,
        34,
        33,
        33,
        33,
        32,
        31,
        30,
        29,
        27
      ],
      "metar_oat": 30,
      "metar_qnh": 1004
    },
    "TSA": {
      "icao": "RCSS",
      "issued": "2026-06-14T11:00:00.000Z",
      "raw": "TAF RCSS 141100Z 1412/1512 30005KT 8000 FEW012 BKN032 TEMPO 1500/1506 4000 SHRA SCT010 BKN018 TEMPO 1506/1512 09005KT 5000 RA SCT010 BKN020",
      "groups": [
        {
          "text": "TAF RCSS 141100Z 1412/1512 30005KT 8000 FEW012 BKN032",
          "offset_h": -3,
          "wdir": 300,
          "wspd": 5
        },
        {
          "text": "TEMPO 1500/1506 4000 SHRA SCT010 BKN018",
          "offset_h": 9,
          "wdir": null,
          "wspd": null
        },
        {
          "text": "TEMPO 1506/1512 09005KT 5000 RA SCT010 BKN020",
          "offset_h": 15,
          "wdir": 90,
          "wspd": 5
        }
      ],
      "hourly_oat": [
        24,
        24,
        24,
        24,
        24,
        24,
        24,
        24,
        24,
        24,
        24,
        28,
        29,
        30,
        29,
        29,
        27,
        26,
        26,
        25,
        25,
        25,
        25,
        24,
        24
      ],
      "metar_oat": 24,
      "metar_qnh": 1007
    },
    "TPE": {
      "icao": "RCTP",
      "issued": "2026-06-14T11:00:00.000Z",
      "raw": "TAF RCTP 141100Z 1412/1518 22013KT 8000 FEW012 BKN032 TEMPO 1418/1424 18005KT FEW010 BKN017 TEMPO 1500/1506 4000 SHRA SCT008 BKN016 TEMPO 1502/1508 23018KT TEMPO 1506/1512 5000 RA FEW010 BKN020 BECMG 1510/1512 18005KT",
      "groups": [
        {
          "text": "TAF RCTP 141100Z 1412/1518 22013KT 8000 FEW012 BKN032",
          "offset_h": -3,
          "wdir": 220,
          "wspd": 13
        },
        {
          "text": "TEMPO 1418/1424 18005KT FEW010 BKN017",
          "offset_h": 3,
          "wdir": 180,
          "wspd": 5
        },
        {
          "text": "TEMPO 1500/1506 4000 SHRA SCT008 BKN016",
          "offset_h": 9,
          "wdir": null,
          "wspd": null
        },
        {
          "text": "TEMPO 1502/1508 23018KT",
          "offset_h": 11,
          "wdir": 230,
          "wspd": 18
        },
        {
          "text": "TEMPO 1506/1512 5000 RA FEW010 BKN020",
          "offset_h": 15,
          "wdir": null,
          "wspd": null
        },
        {
          "text": "BECMG 1510/1512 18005KT",
          "offset_h": 19,
          "wdir": 180,
          "wspd": 5
        }
      ],
      "hourly_oat": [
        25,
        24,
        25,
        25,
        26,
        26,
        25,
        25,
        24,
        25,
        25,
        27,
        28,
        28,
        27,
        26,
        26,
        26,
        26,
        27,
        26,
        26,
        26,
        25,
        25
      ],
      "metar_oat": 25,
      "metar_qnh": 1007
    },
    "BKK": {
      "icao": "VTBS",
      "issued": "2026-06-14T11:00:00.000Z",
      "raw": "TAF VTBS 141100Z 1412/1518 21008KT 9999 FEW020 TEMPO 1412/1416 VRB10G25KT 4000 TSRA FEW018CB SCT030 BKN100 BECMG 1420/1422 27005KT BECMG 1502/1504 21008KT TEMPO 1510/1514 VRB10G25KT 4000 TSRA FEW018CB SCT030 BKN100",
      "groups": [
        {
          "text": "TAF VTBS 141100Z 1412/1518 21008KT 9999 FEW020",
          "offset_h": -3,
          "wdir": 210,
          "wspd": 8
        },
        {
          "text": "TEMPO 1412/1416 VRB10G25KT 4000 TSRA FEW018CB SCT030 BKN100",
          "offset_h": -3,
          "wdir": "VRB",
          "wspd": 10
        },
        {
          "text": "BECMG 1420/1422 27005KT",
          "offset_h": 5,
          "wdir": 270,
          "wspd": 5
        },
        {
          "text": "BECMG 1502/1504 21008KT",
          "offset_h": 11,
          "wdir": 210,
          "wspd": 8
        },
        {
          "text": "TEMPO 1510/1514 VRB10G25KT 4000 TSRA FEW018CB SCT030 BKN100",
          "offset_h": 19,
          "wdir": "VRB",
          "wspd": 10
        }
      ],
      "hourly_oat": [
        28,
        28,
        28,
        28,
        28,
        28,
        27,
        27,
        27,
        28,
        30,
        31,
        32,
        32,
        32,
        31,
        32,
        32,
        31,
        28,
        27,
        27,
        27,
        27,
        27
      ],
      "metar_oat": 28,
      "metar_qnh": 1011
    },
    "CGK": {
      "icao": "WIII",
      "issued": "2026-06-14T11:00:00.000Z",
      "raw": "TAF WIII 141100Z 1412/1518 07011KT 7000 SCT020 BECMG 1414/1416 14006KT 5000 HZ BECMG 1501/1503 07012KT 7000 NSW",
      "groups": [
        {
          "text": "TAF WIII 141100Z 1412/1518 07011KT 7000 SCT020",
          "offset_h": -3,
          "wdir": 70,
          "wspd": 11
        },
        {
          "text": "BECMG 1414/1416 14006KT 5000 HZ",
          "offset_h": -1,
          "wdir": 140,
          "wspd": 6
        },
        {
          "text": "BECMG 1501/1503 07012KT 7000 NSW",
          "offset_h": 10,
          "wdir": 70,
          "wspd": 12
        }
      ],
      "hourly_oat": [
        27,
        27,
        26,
        26,
        25,
        25,
        25,
        24,
        24,
        25,
        27,
        29,
        31,
        32,
        32,
        32,
        32,
        30,
        29,
        27,
        26,
        26,
        26,
        26,
        25
      ],
      "metar_oat": 27,
      "metar_qnh": 1012
    },
    "PVG": {
      "icao": "ZSPD",
      "issued": "2026-06-14T09:10:00.000Z",
      "raw": "TAF ZSPD 140910Z 1412/1518 11004MPS 6000 -SHRA BKN008 TX20/1412Z TX24/1506Z TN19/1421Z BECMG 1415/1416 07004MPS NSW BECMG 1421/1422 BKN013",
      "groups": [
        {
          "text": "TAF ZSPD 140910Z 1412/1518 11004MPS 6000 -SHRA BKN008 TX20/1412Z TX24/1506Z TN19/1421Z",
          "offset_h": -3,
          "wdir": null,
          "wspd": null
        },
        {
          "text": "BECMG 1415/1416 07004MPS NSW",
          "offset_h": 0,
          "wdir": null,
          "wspd": null
        },
        {
          "text": "BECMG 1421/1422 BKN013",
          "offset_h": 6,
          "wdir": null,
          "wspd": null
        }
      ],
      "hourly_oat": [
        22,
        22,
        22,
        22,
        22,
        22,
        23,
        23,
        23,
        24,
        24,
        24,
        24,
        24,
        23,
        24,
        24,
        24,
        24,
        23,
        23,
        23,
        23,
        22,
        22
      ],
      "metar_oat": 22,
      "metar_qnh": 1008
    },
    "SHA": {
      "icao": "ZSSS",
      "issued": "2026-06-14T09:09:00.000Z",
      "raw": "TAF ZSSS 140909Z 1412/1518 11004MPS 6000 -SHRA BKN011 TX22/1412Z TX25/1506Z TN21/1421Z BECMG 1415/1416 07004MPS NSW BKN015",
      "groups": [
        {
          "text": "TAF ZSSS 140909Z 1412/1518 11004MPS 6000 -SHRA BKN011 TX22/1412Z TX25/1506Z TN21/1421Z",
          "offset_h": -3,
          "wdir": null,
          "wspd": null
        },
        {
          "text": "BECMG 1415/1416 07004MPS NSW BKN015",
          "offset_h": 0,
          "wdir": null,
          "wspd": null
        }
      ],
      "hourly_oat": [
        22,
        22,
        22,
        22,
        22,
        22,
        22,
        22,
        23,
        24,
        25,
        25,
        25,
        25,
        26,
        26,
        26,
        26,
        25,
        24,
        24,
        23,
        23,
        23,
        22
      ],
      "metar_oat": 22,
      "metar_qnh": 1008
    },
    "DLC": {
      "icao": "ZYTL",
      "issued": "2026-06-14T09:06:00.000Z",
      "raw": "TAF ZYTL 140906Z 1412/1512 16004MPS 3000 BR SCT033 TX25/1506Z TN18/1420Z TEMPO 1421/1424 1400 SCT004 BKN010 OVC040",
      "groups": [
        {
          "text": "TAF ZYTL 140906Z 1412/1512 16004MPS 3000 BR SCT033 TX25/1506Z TN18/1420Z",
          "offset_h": -3,
          "wdir": null,
          "wspd": null
        },
        {
          "text": "TEMPO 1421/1424 1400 SCT004 BKN010 OVC040",
          "offset_h": 6,
          "wdir": null,
          "wspd": null
        }
      ],
      "hourly_oat": [
        18,
        19,
        20,
        20,
        19,
        19,
        19,
        20,
        22,
        23,
        25,
        26,
        27,
        27,
        27,
        27,
        26,
        26,
        25,
        23,
        22,
        22,
        22,
        22,
        22
      ],
      "metar_oat": 19,
      "metar_qnh": 1012
    },
    "PEK": {
      "icao": "ZBAA",
      "issued": "2026-06-14T09:01:00.000Z",
      "raw": "TAF ZBAA 140901Z 1412/1518 16004MPS 6000 NSC TX30/1507Z TN19/1421Z TN20/1518Z BECMG 1509/1510 -TSRA FEW030CB BKN040 BECMG 1511/1512 NSW NSC",
      "groups": [
        {
          "text": "TAF ZBAA 140901Z 1412/1518 16004MPS 6000 NSC TX30/1507Z TN19/1421Z TN20/1518Z",
          "offset_h": -3,
          "wdir": null,
          "wspd": null
        },
        {
          "text": "BECMG 1509/1510 -TSRA FEW030CB BKN040",
          "offset_h": 18,
          "wdir": null,
          "wspd": null
        },
        {
          "text": "BECMG 1511/1512 NSW NSC",
          "offset_h": 20,
          "wdir": null,
          "wspd": null
        }
      ],
      "hourly_oat": [
        21,
        20,
        20,
        20,
        19,
        19,
        20,
        20,
        21,
        23,
        24,
        25,
        26,
        28,
        28,
        29,
        30,
        30,
        29,
        29,
        26,
        24,
        23,
        23,
        22
      ],
      "metar_oat": 21,
      "metar_qnh": 1009
    }
  }
}