{
  "updated": "2026-07-04T12:57:43Z",
  "tafs": {
    "SGN": {
      "icao": "VVTS",
      "issued": "2026-07-04T12:27:00.000Z",
      "raw": "TAF AMD VVTS 041227Z 0413/0518 23008KT 9999 SCT017 SCT040 TEMPO 0414/0417 27015G26KT 3000 TSRA SCT015 FEW017CB SCT040 TEMPO 0504/0507 5000 SHRA SCT015 FEW017CB BKN040 TEMPO 0507/0511 23015G28KT 3000 TSRA SCT013 SCT015CB",
      "groups": [
        {
          "text": "TAF AMD VVTS 041227Z 0413/0518 23008KT 9999 SCT017 SCT040",
          "offset_h": 1,
          "wdir": 230,
          "wspd": 8
        },
        {
          "text": "TEMPO 0414/0417 27015G26KT 3000 TSRA SCT015 FEW017CB SCT040",
          "offset_h": 2,
          "wdir": 270,
          "wspd": 15
        },
        {
          "text": "TEMPO 0504/0507 5000 SHRA SCT015 FEW017CB BKN040",
          "offset_h": 16,
          "wdir": null,
          "wspd": null
        },
        {
          "text": "TEMPO 0507/0511 23015G28KT 3000 TSRA SCT013 SCT015CB",
          "offset_h": 19,
          "wdir": 230,
          "wspd": 15
        }
      ],
      "metar_raw": "METAR VVTS 041230Z 29004KT CAVOK 27/25 Q1010 NOSIG",
      "metar_wdir": 290,
      "metar_wspd": 4,
      "metar_oat": 27,
      "metar_qnh": 1010,
      "hourly_oat": [
        25,
        25,
        25,
        25,
        25,
        25,
        25,
        25,
        25,
        25,
        25,
        25,
        26,
        27,
        28,
        29,
        31,
        32,
        32,
        32,
        25,
        26,
        26,
        26,
        26
      ]
    },
    "LAX": {
      "icao": "KLAX",
      "issued": "2026-07-04T11:34:00.000Z",
      "raw": "TAF KLAX 041134Z 0412/0518 VRB03KT P6SM SCT010 FM041800 26007KT P6SM SCT250 FM042100 26012KT P6SM SCT250 FM050500 25008KT P6SM SCT250 FM050900 VRB03KT P6SM SCT015 SCT250 FM051200 27005KT P6SM BKN008",
      "groups": [
        {
          "text": "TAF KLAX 041134Z 0412/0518 VRB03KT P6SM SCT010",
          "offset_h": 0,
          "wdir": "VRB",
          "wspd": 3
        },
        {
          "text": "FM041800 26007KT P6SM SCT250",
          "offset_h": 6,
          "wdir": 260,
          "wspd": 7
        },
        {
          "text": "FM042100 26012KT P6SM SCT250",
          "offset_h": 9,
          "wdir": 260,
          "wspd": 12
        },
        {
          "text": "FM050500 25008KT P6SM SCT250",
          "offset_h": 17,
          "wdir": 250,
          "wspd": 8
        },
        {
          "text": "FM050900 VRB03KT P6SM SCT015 SCT250",
          "offset_h": 21,
          "wdir": "VRB",
          "wspd": 3
        },
        {
          "text": "FM051200 27005KT P6SM BKN008",
          "offset_h": 24,
          "wdir": 270,
          "wspd": 5
        }
      ],
      "metar_raw": "METAR KLAX 041253Z 00000KT 10SM BKN250 17/15 A3001 RMK AO2 SLP159 T01720150 $",
      "metar_wdir": 0,
      "metar_wspd": 0,
      "metar_oat": 17,
      "metar_qnh": 1016,
      "hourly_oat": [
        17,
        17,
        18,
        19,
        19,
        20,
        20,
        21,
        21,
        22,
        22,
        22,
        21,
        20,
        19,
        18,
        18,
        18,
        17,
        17,
        17,
        17,
        16,
        17,
        16
      ]
    },
    "HNL": {
      "icao": "PHNL",
      "issued": "2026-07-04T11:21:00.000Z",
      "raw": "TAF PHNL 041121Z 0412/0518 06010KT P6SM VCSH FEW025 SCT035 FM042000 05012G20KT P6SM FEW025 SCT040 FM050500 05010KT P6SM VCSH FEW025 SCT040",
      "groups": [
        {
          "text": "TAF PHNL 041121Z 0412/0518 06010KT P6SM VCSH FEW025 SCT035",
          "offset_h": 0,
          "wdir": 60,
          "wspd": 10
        },
        {
          "text": "FM042000 05012G20KT P6SM FEW025 SCT040",
          "offset_h": 8,
          "wdir": 50,
          "wspd": 12
        },
        {
          "text": "FM050500 05010KT P6SM VCSH FEW025 SCT040",
          "offset_h": 17,
          "wdir": 50,
          "wspd": 10
        }
      ],
      "metar_raw": "METAR PHNL 041253Z 04007KT 10SM FEW022 FEW032 FEW060 25/19 A2999 RMK AO2 SLP154 T02500189 $",
      "metar_wdir": 40,
      "metar_wspd": 7,
      "metar_oat": 25,
      "metar_qnh": 1016,
      "hourly_oat": [
        23,
        23,
        23,
        23,
        23,
        24,
        25,
        26,
        28,
        28,
        29,
        29,
        29,
        29,
        28,
        27,
        26,
        25,
        24,
        24,
        24,
        24,
        24,
        24,
        23
      ]
    },
    "SAN": {
      "icao": "KSAN",
      "issued": "2026-07-04T11:20:00.000Z",
      "raw": "TAF KSAN 041120Z 0412/0518 VRB04KT P6SM SCT015 BKN250 TEMPO 0412/0415 BKN015 FM041800 29010KT P6SM BKN150 FM050300 VRB04KT P6SM SCT015 SCT150 FM050600 VRB03KT P6SM BKN012 FM051700 VRB04KT P6SM SCT015",
      "groups": [
        {
          "text": "TAF KSAN 041120Z 0412/0518 VRB04KT P6SM SCT015 BKN250",
          "offset_h": 0,
          "wdir": "VRB",
          "wspd": 4
        },
        {
          "text": "TEMPO 0412/0415 BKN015",
          "offset_h": 0,
          "wdir": null,
          "wspd": null
        },
        {
          "text": "FM041800 29010KT P6SM BKN150",
          "offset_h": 6,
          "wdir": 290,
          "wspd": 10
        },
        {
          "text": "FM050300 VRB04KT P6SM SCT015 SCT150",
          "offset_h": 15,
          "wdir": "VRB",
          "wspd": 4
        },
        {
          "text": "FM050600 VRB03KT P6SM BKN012",
          "offset_h": 18,
          "wdir": "VRB",
          "wspd": 3
        },
        {
          "text": "FM051700 VRB04KT P6SM SCT015",
          "offset_h": 29,
          "wdir": "VRB",
          "wspd": 4
        }
      ],
      "metar_raw": "METAR KSAN 041251Z 30003KT 10SM FEW015 BKN110 BKN170 19/16 A3000 RMK AO2 SLP160 T01890156 $",
      "metar_wdir": 300,
      "metar_wspd": 3,
      "metar_oat": 19,
      "metar_qnh": 1016,
      "hourly_oat": [
        16,
        16,
        18,
        20,
        21,
        23,
        23,
        23,
        24,
        24,
        24,
        23,
        22,
        22,
        21,
        20,
        19,
        19,
        18,
        18,
        18,
        18,
        18,
        18,
        18
      ]
    },
    "CTS": {
      "icao": "RJCC",
      "issued": "2026-07-04T11:05:00.000Z",
      "raw": "TAF RJCC 041105Z 0412/0518 16008KT 6000 FEW005 BKN012 TEMPO 0412/0420 4000 BR FEW002 BKN005 TEMPO 0420/0500 FEW003 BKN006",
      "groups": [
        {
          "text": "TAF RJCC 041105Z 0412/0518 16008KT 6000 FEW005 BKN012",
          "offset_h": 0,
          "wdir": 160,
          "wspd": 8
        },
        {
          "text": "TEMPO 0412/0420 4000 BR FEW002 BKN005",
          "offset_h": 0,
          "wdir": null,
          "wspd": null
        },
        {
          "text": "TEMPO 0420/0500 FEW003 BKN006",
          "offset_h": 8,
          "wdir": null,
          "wspd": null
        }
      ],
      "metar_raw": "METAR RJCC 041230Z 16007KT 9999 FEW005 SCT008 BKN010 16/15 Q1014",
      "metar_wdir": 160,
      "metar_wspd": 7,
      "metar_oat": 16,
      "metar_qnh": 1014,
      "hourly_oat": [
        14,
        14,
        14,
        14,
        14,
        14,
        14,
        14,
        14,
        15,
        16,
        18,
        18,
        19,
        19,
        19,
        19,
        18,
        18,
        18,
        18,
        17,
        16,
        16,
        16
      ]
    },
    "NRT": {
      "icao": "RJAA",
      "issued": "2026-07-04T11:05:00.000Z",
      "raw": "TAF RJAA 041105Z 0412/0518 13006KT 9999 FEW008 BKN015 TEMPO 0412/0416 FEW003 BKN008 TEMPO 0416/0500 4000 -RA BR FEW001 BKN003 TEMPO 0500/0503 FEW003 BKN008 BECMG 0512/0515 03004KT",
      "groups": [
        {
          "text": "TAF RJAA 041105Z 0412/0518 13006KT 9999 FEW008 BKN015",
          "offset_h": 0,
          "wdir": 130,
          "wspd": 6
        },
        {
          "text": "TEMPO 0412/0416 FEW003 BKN008",
          "offset_h": 0,
          "wdir": null,
          "wspd": null
        },
        {
          "text": "TEMPO 0416/0500 4000 -RA BR FEW001 BKN003",
          "offset_h": 4,
          "wdir": null,
          "wspd": null
        },
        {
          "text": "TEMPO 0500/0503 FEW003 BKN008",
          "offset_h": 12,
          "wdir": null,
          "wspd": null
        },
        {
          "text": "BECMG 0512/0515 03004KT",
          "offset_h": 24,
          "wdir": 30,
          "wspd": 4
        }
      ],
      "metar_raw": "METAR RJAA 041230Z 14004KT 9999 FEW012 SCT060 BKN/// 21/20 Q1012 NOSIG",
      "metar_wdir": 140,
      "metar_wspd": 4,
      "metar_oat": 21,
      "metar_qnh": 1012,
      "hourly_oat": [
        22,
        22,
        22,
        22,
        22,
        22,
        22,
        22,
        22,
        22,
        22,
        22,
        22,
        23,
        24,
        24,
        24,
        24,
        24,
        24,
        23,
        23,
        22,
        22,
        22
      ]
    },
    "KIX": {
      "icao": "RJBB",
      "issued": "2026-07-04T11:05:00.000Z",
      "raw": "TAF RJBB 041105Z 0412/0518 07006KT 9999 FEW015 BKN025 BECMG 0500/0503 27006KT BECMG 0509/0512 05006KT",
      "groups": [
        {
          "text": "TAF RJBB 041105Z 0412/0518 07006KT 9999 FEW015 BKN025",
          "offset_h": 0,
          "wdir": 70,
          "wspd": 6
        },
        {
          "text": "BECMG 0500/0503 27006KT",
          "offset_h": 12,
          "wdir": 270,
          "wspd": 6
        },
        {
          "text": "BECMG 0509/0512 05006KT",
          "offset_h": 21,
          "wdir": 50,
          "wspd": 6
        }
      ],
      "metar_raw": "METAR RJBB 041230Z 05009KT 9999 -SHRA FEW005 SCT025 BKN070 23/21 Q1009 NOSIG",
      "metar_wdir": 50,
      "metar_wspd": 9,
      "metar_oat": 23,
      "metar_qnh": 1009,
      "hourly_oat": [
        23,
        23,
        23,
        23,
        23,
        23,
        23,
        23,
        23,
        23,
        23,
        24,
        24,
        24,
        24,
        24,
        24,
        23,
        24,
        24,
        24,
        24,
        24,
        24,
        24
      ]
    },
    "ITM": {
      "icao": "RJOO",
      "issued": "2026-07-04T11:05:00.000Z",
      "raw": "TAF RJOO 041105Z 0412/0518 07006KT 9999 FEW015 BKN025 BECMG 0413/0415 36004KT BECMG 0422/0500 21006KT TEMPO 0509/0518 4000 -SHRA BR",
      "groups": [
        {
          "text": "TAF RJOO 041105Z 0412/0518 07006KT 9999 FEW015 BKN025",
          "offset_h": 0,
          "wdir": 70,
          "wspd": 6
        },
        {
          "text": "BECMG 0413/0415 36004KT",
          "offset_h": 1,
          "wdir": 360,
          "wspd": 4
        },
        {
          "text": "BECMG 0422/0500 21006KT",
          "offset_h": 10,
          "wdir": 210,
          "wspd": 6
        },
        {
          "text": "TEMPO 0509/0518 4000 -SHRA BR",
          "offset_h": 21,
          "wdir": null,
          "wspd": null
        }
      ],
      "metar_raw": "METAR RJOO 041200Z AUTO 08005KT 9999 FEW007 SCT020 BKN035 22/21 Q1009",
      "metar_wdir": 80,
      "metar_wspd": 5,
      "metar_oat": 22,
      "metar_qnh": 1009,
      "hourly_oat": [
        22,
        22,
        22,
        22,
        22,
        22,
        22,
        22,
        22,
        22,
        22,
        23,
        24,
        25,
        25,
        25,
        25,
        25,
        24,
        24,
        24,
        23,
        23,
        23,
        23
      ]
    },
    "HND": {
      "icao": "RJTT",
      "issued": "2026-07-04T11:05:00.000Z",
      "raw": "TAF RJTT 041105Z 0412/0518 13006KT 9999 -SHRA FEW005 BKN012 TEMPO 0413/0416 FEW005 BKN008 TEMPO 0416/0419 4000 SHRA BR FEW005 BKN008 TEMPO 0419/0422 FEW005 BKN008 BECMG 0515/0518 05010KT",
      "groups": [
        {
          "text": "TAF RJTT 041105Z 0412/0518 13006KT 9999 -SHRA FEW005 BKN012",
          "offset_h": 0,
          "wdir": 130,
          "wspd": 6
        },
        {
          "text": "TEMPO 0413/0416 FEW005 BKN008",
          "offset_h": 1,
          "wdir": null,
          "wspd": null
        },
        {
          "text": "TEMPO 0416/0419 4000 SHRA BR FEW005 BKN008",
          "offset_h": 4,
          "wdir": null,
          "wspd": null
        },
        {
          "text": "TEMPO 0419/0422 FEW005 BKN008",
          "offset_h": 7,
          "wdir": null,
          "wspd": null
        },
        {
          "text": "BECMG 0515/0518 05010KT",
          "offset_h": 27,
          "wdir": 50,
          "wspd": 10
        }
      ],
      "metar_raw": "METAR RJTT 041230Z 13006KT 9999 FEW015 SCT025 BKN/// 24/22 Q1012 TEMPO FEW010 BKN014",
      "metar_wdir": 130,
      "metar_wspd": 6,
      "metar_oat": 24,
      "metar_qnh": 1012,
      "hourly_oat": [
        24,
        23,
        23,
        23,
        22,
        23,
        23,
        23,
        23,
        23,
        23,
        23,
        23,
        23,
        23,
        23,
        24,
        24,
        24,
        24,
        24,
        23,
        23,
        23,
        22
      ]
    },
    "OKA": {
      "icao": "ROAH",
      "issued": "2026-07-04T11:05:00.000Z",
      "raw": "TAF ROAH 041105Z 0412/0518 21005KT 9999 FEW010 SCT015",
      "groups": [
        {
          "text": "TAF ROAH 041105Z 0412/0518 21005KT 9999 FEW010 SCT015",
          "offset_h": 0,
          "wdir": 210,
          "wspd": 5
        }
      ],
      "metar_raw": "METAR ROAH 041230Z 20004KT 9999 FEW015 28/25 Q1013",
      "metar_wdir": 200,
      "metar_wspd": 4,
      "metar_oat": 28,
      "metar_qnh": 1013,
      "hourly_oat": [
        27,
        27,
        27,
        27,
        27,
        27,
        27,
        27,
        27,
        27,
        28,
        29,
        29,
        30,
        30,
        30,
        30,
        30,
        30,
        30,
        30,
        29,
        28,
        28,
        27
      ]
    },
    "NGO": {
      "icao": "RJGG",
      "issued": "2026-07-04T11:05:00.000Z",
      "raw": "TAF RJGG 041105Z 0412/0518 11006KT 9000 -SHRA FEW012 SCT015 BKN020 TEMPO 0412/0415 4000 SHRA BR FEW003 SCT005 BKN008 TEMPO 0415/0418 FEW003 SCT005 BKN008",
      "groups": [
        {
          "text": "TAF RJGG 041105Z 0412/0518 11006KT 9000 -SHRA FEW012 SCT015 BKN020",
          "offset_h": 0,
          "wdir": 110,
          "wspd": 6
        },
        {
          "text": "TEMPO 0412/0415 4000 SHRA BR FEW003 SCT005 BKN008",
          "offset_h": 0,
          "wdir": null,
          "wspd": null
        },
        {
          "text": "TEMPO 0415/0418 FEW003 SCT005 BKN008",
          "offset_h": 3,
          "wdir": null,
          "wspd": null
        }
      ],
      "metar_raw": "METAR RJGG 041230Z 14006KT 8000 -SHRA FEW007 SCT040 BKN050 21/21 Q1010 TEMPO 4000 SHRA BR FEW005 BKN008",
      "metar_wdir": 140,
      "metar_wspd": 6,
      "metar_oat": 21,
      "metar_qnh": 1010,
      "hourly_oat": [
        22,
        23,
        23,
        23,
        23,
        23,
        23,
        23,
        23,
        23,
        23,
        23,
        23,
        23,
        23,
        23,
        23,
        24,
        24,
        24,
        24,
        24,
        23,
        23,
        23
      ]
    },
    "FUK": {
      "icao": "RJFF",
      "issued": "2026-07-04T11:05:00.000Z",
      "raw": "TAF RJFF 041105Z 0412/0518 31006KT 9999 FEW030 BECMG 0414/0416 14008KT TEMPO 0500/0506 3000 TSRA BR FEW009 BKN020 FEW020CB TEMPO 0515/0518 4000 TSRA BR FEW005 SCT009 BKN015 FEW015CB",
      "groups": [
        {
          "text": "TAF RJFF 041105Z 0412/0518 31006KT 9999 FEW030",
          "offset_h": 0,
          "wdir": 310,
          "wspd": 6
        },
        {
          "text": "BECMG 0414/0416 14008KT",
          "offset_h": 2,
          "wdir": 140,
          "wspd": 8
        },
        {
          "text": "TEMPO 0500/0506 3000 TSRA BR FEW009 BKN020 FEW020CB",
          "offset_h": 12,
          "wdir": null,
          "wspd": null
        },
        {
          "text": "TEMPO 0515/0518 4000 TSRA BR FEW005 SCT009 BKN015 FEW015CB",
          "offset_h": 27,
          "wdir": null,
          "wspd": null
        }
      ],
      "metar_raw": "METAR RJFF 041230Z 33004KT 280V350 9999 -SHRA FEW007 SCT030 BKN035 27/24 Q1009 NOSIG",
      "metar_wdir": 330,
      "metar_wspd": 4,
      "metar_oat": 27,
      "metar_qnh": 1009,
      "hourly_oat": [
        25,
        25,
        25,
        25,
        25,
        25,
        25,
        25,
        25,
        25,
        25,
        25,
        26,
        26,
        25,
        26,
        26,
        25,
        26,
        26,
        26,
        25,
        25,
        25,
        25
      ]
    },
    "SIN": {
      "icao": "WSSS",
      "issued": "2026-07-04T11:00:00.000Z",
      "raw": "TAF WSSS 041100Z 0412/0518 13007KT 9999 FEW015 SCT020 PROB30 TEMPO 0506/0509 3000 TSRA FEW012CB BKN015",
      "groups": [
        {
          "text": "TAF WSSS 041100Z 0412/0518 13007KT 9999 FEW015 SCT020",
          "offset_h": 0,
          "wdir": 130,
          "wspd": 7
        },
        {
          "text": "PROB30",
          "offset_h": 0,
          "wdir": null,
          "wspd": null
        },
        {
          "text": "TEMPO 0506/0509 3000 TSRA FEW012CB BKN015",
          "offset_h": 18,
          "wdir": null,
          "wspd": null
        }
      ],
      "metar_raw": "SPECI WSSS 041244Z 20010KT 3000 +TSRA FEW008 FEW015CB SCT016TCU 27/24 Q1011 BECMG FM1330 TL1345 6000 NSW",
      "metar_wdir": 200,
      "metar_wspd": 10,
      "metar_oat": 27,
      "metar_qnh": 1011,
      "hourly_oat": [
        29,
        29,
        29,
        29,
        28,
        28,
        28,
        28,
        28,
        28,
        28,
        27,
        25,
        26,
        27,
        28,
        29,
        29,
        29,
        30,
        30,
        28,
        28,
        26,
        26
      ]
    },
    "TPE": {
      "icao": "RCTP",
      "issued": "2026-07-04T11:00:00.000Z",
      "raw": "TAF RCTP 041100Z 0412/0518 24008KT 9999 FEW010 BKN032 TEMPO 0418/0424 15005KT TEMPO 0504/0510 30012KT FEW010 BKN017 FEW022TCU TEMPO 0512/0518 15005KT",
      "groups": [
        {
          "text": "TAF RCTP 041100Z 0412/0518 24008KT 9999 FEW010 BKN032",
          "offset_h": 0,
          "wdir": 240,
          "wspd": 8
        },
        {
          "text": "TEMPO 0418/0424 15005KT",
          "offset_h": 6,
          "wdir": 150,
          "wspd": 5
        },
        {
          "text": "TEMPO 0504/0510 30012KT FEW010 BKN017 FEW022TCU",
          "offset_h": 16,
          "wdir": 300,
          "wspd": 12
        },
        {
          "text": "TEMPO 0512/0518 15005KT",
          "offset_h": 24,
          "wdir": 150,
          "wspd": 5
        }
      ],
      "metar_raw": "METAR RCTP 041230Z 24011KT 9999 FEW020 SCT050 29/26 Q1011 NOSIG RMK A2988",
      "metar_wdir": 240,
      "metar_wspd": 11,
      "metar_oat": 29,
      "metar_qnh": 1011,
      "hourly_oat": [
        28,
        28,
        28,
        28,
        27,
        27,
        26,
        26,
        26,
        26,
        26,
        28,
        29,
        30,
        31,
        31,
        31,
        31,
        31,
        30,
        30,
        29,
        29,
        28,
        28
      ]
    },
    "HKG": {
      "icao": "VHHH",
      "issued": "2026-07-04T11:00:00.000Z",
      "raw": "TAF VHHH 041100Z 0412/0518 16015KT 9999 FEW010 SCT025 TX32/0506Z TN27/0422Z TEMPO 0412/0415 18015G25KT 2000 TSRA +SHRA FEW008CB SCT015 TEMPO 0415/0418 3000 SHRA FEW010CB SCT020 TEMPO 0418/0502 16020G30KT 1500 TSRA +SHRA FEW010CB SCT020 TEMPO 0502/0506 3000 SHRA FEW010CB SCT020",
      "groups": [
        {
          "text": "TAF VHHH 041100Z 0412/0518 16015KT 9999 FEW010 SCT025 TX32/0506Z TN27/0422Z",
          "offset_h": 0,
          "wdir": 160,
          "wspd": 15
        },
        {
          "text": "TEMPO 0412/0415 18015G25KT 2000 TSRA +SHRA FEW008CB SCT015",
          "offset_h": 0,
          "wdir": 180,
          "wspd": 15
        },
        {
          "text": "TEMPO 0415/0418 3000 SHRA FEW010CB SCT020",
          "offset_h": 3,
          "wdir": null,
          "wspd": null
        },
        {
          "text": "TEMPO 0418/0502 16020G30KT 1500 TSRA +SHRA FEW010CB SCT020",
          "offset_h": 6,
          "wdir": 160,
          "wspd": 20
        },
        {
          "text": "TEMPO 0502/0506 3000 SHRA FEW010CB SCT020",
          "offset_h": 14,
          "wdir": null,
          "wspd": null
        }
      ],
      "metar_raw": "METAR VHHH 041230Z 16014KT 130V200 9999 FEW012 SCT025 29/25 Q1009 TEMPO 4000 SHRA FEW010CB SCT020",
      "metar_wdir": 160,
      "metar_wspd": 14,
      "metar_oat": 29,
      "metar_qnh": 1009,
      "hourly_oat": [
        28,
        28,
        28,
        29,
        28,
        27,
        27,
        27,
        27,
        27,
        27,
        27,
        28,
        29,
        29,
        30,
        30,
        30,
        30,
        29,
        29,
        28,
        29,
        29,
        29
      ]
    },
    "CGK": {
      "icao": "WIII",
      "issued": "2026-07-04T11:00:00.000Z",
      "raw": "TAF WIII 041100Z 0412/0518 06012KT 4000 HZ FEW020 BECMG 0413/0415 12007KT BECMG 0501/0503 06011KT 8000 NSW",
      "groups": [
        {
          "text": "TAF WIII 041100Z 0412/0518 06012KT 4000 HZ FEW020",
          "offset_h": 0,
          "wdir": 60,
          "wspd": 12
        },
        {
          "text": "BECMG 0413/0415 12007KT",
          "offset_h": 1,
          "wdir": 120,
          "wspd": 7
        },
        {
          "text": "BECMG 0501/0503 06011KT 8000 NSW",
          "offset_h": 13,
          "wdir": 60,
          "wspd": 11
        }
      ],
      "metar_raw": "METAR WIII 041230Z 07013KT 5000 HZ FEW020 28/23 Q1010 NOSIG",
      "metar_wdir": 70,
      "metar_wspd": 13,
      "metar_oat": 28,
      "metar_qnh": 1010,
      "hourly_oat": [
        28,
        28,
        28,
        27,
        27,
        26,
        26,
        25,
        25,
        25,
        24,
        24,
        25,
        27,
        29,
        31,
        32,
        33,
        33,
        32,
        31,
        31,
        30,
        27,
        27
      ]
    },
    "GMP": {
      "icao": "RKSS",
      "issued": "2026-07-04T11:00:00.000Z",
      "raw": "TAF RKSS 041100Z 0412/0518 17005KT 6000 NSC TN22/0419Z TX31/0505Z BECMG 0419/0421 BKN040 BECMG 0506/0508 20006KT -RA FEW010 BKN030 OVC070 BECMG 0512/0514 NSW",
      "groups": [
        {
          "text": "TAF RKSS 041100Z 0412/0518 17005KT 6000 NSC TN22/0419Z TX31/0505Z",
          "offset_h": 0,
          "wdir": 170,
          "wspd": 5
        },
        {
          "text": "BECMG 0419/0421 BKN040",
          "offset_h": 7,
          "wdir": null,
          "wspd": null
        },
        {
          "text": "BECMG 0506/0508 20006KT -RA FEW010 BKN030 OVC070",
          "offset_h": 18,
          "wdir": 200,
          "wspd": 6
        },
        {
          "text": "BECMG 0512/0514 NSW",
          "offset_h": 24,
          "wdir": null,
          "wspd": null
        }
      ],
      "metar_raw": "METAR RKSS 041200Z 30004KT CAVOK 24/24 Q1006 NOSIG",
      "metar_wdir": 300,
      "metar_wspd": 4,
      "metar_oat": 24,
      "metar_qnh": 1006,
      "hourly_oat": [
        23,
        23,
        22,
        22,
        22,
        22,
        21,
        21,
        22,
        22,
        22,
        23,
        24,
        25,
        26,
        26,
        27,
        27,
        26,
        26,
        25,
        25,
        24,
        24,
        24
      ]
    },
    "BKK": {
      "icao": "VTBS",
      "issued": "2026-07-04T11:00:00.000Z",
      "raw": "TAF VTBS 041100Z 0412/0518 22008KT 9999 FEW020 TEMPO 0422/0502 -TSRA FEW018CB SCT030 BKN080 TEMPO 0510/0514 VRB15KT 4000 TSRA FEW018CB SCT030 BKN080",
      "groups": [
        {
          "text": "TAF VTBS 041100Z 0412/0518 22008KT 9999 FEW020",
          "offset_h": 0,
          "wdir": 220,
          "wspd": 8
        },
        {
          "text": "TEMPO 0422/0502 -TSRA FEW018CB SCT030 BKN080",
          "offset_h": 10,
          "wdir": null,
          "wspd": null
        },
        {
          "text": "TEMPO 0510/0514 VRB15KT 4000 TSRA FEW018CB SCT030 BKN080",
          "offset_h": 22,
          "wdir": "VRB",
          "wspd": 15
        }
      ],
      "metar_raw": "METAR VTBS 041230Z 21009KT 9999 FEW020 29/22 Q1007 NOSIG",
      "metar_wdir": 210,
      "metar_wspd": 9,
      "metar_oat": 29,
      "metar_qnh": 1007,
      "hourly_oat": [
        28,
        28,
        28,
        28,
        28,
        28,
        28,
        27,
        27,
        28,
        27,
        27,
        27,
        28,
        29,
        29,
        30,
        31,
        30,
        31,
        31,
        30,
        30,
        27,
        27
      ]
    },
    "KUL": {
      "icao": "WMKK",
      "issued": "2026-07-04T11:00:00.000Z",
      "raw": "TAF WMKK 041100Z 0412/0518 VRB03KT 9999 FEW018 PROB30 TEMPO 0421/0501 5000 TSRA FEW010 FEW017CB",
      "groups": [
        {
          "text": "TAF WMKK 041100Z 0412/0518 VRB03KT 9999 FEW018",
          "offset_h": 0,
          "wdir": "VRB",
          "wspd": 3
        },
        {
          "text": "PROB30",
          "offset_h": 0,
          "wdir": null,
          "wspd": null
        },
        {
          "text": "TEMPO 0421/0501 5000 TSRA FEW010 FEW017CB",
          "offset_h": 9,
          "wdir": null,
          "wspd": null
        }
      ],
      "metar_raw": "METAR WMKK 041230Z COR VRB02KT 9999 FEW030 29/26 Q1009 NOSIG",
      "metar_wdir": "VRB",
      "metar_wspd": 2,
      "metar_oat": 29,
      "metar_qnh": 1009,
      "hourly_oat": [
        27,
        26,
        26,
        26,
        26,
        25,
        25,
        25,
        24,
        24,
        24,
        24,
        24,
        27,
        28,
        29,
        26,
        25,
        26,
        28,
        27,
        27,
        26,
        26,
        25
      ]
    },
    "HAN": {
      "icao": "VVNB",
      "issued": "2026-07-04T11:00:00.000Z",
      "raw": "TAF VVNB 041100Z 0412/0512 29010KT 9999 SCT025 TEMPO 0414/0418 3500 TSRA BKN012 FEW027CB TEMPO 0419/0422 2000 +TSRA BKN010 FEW027CB TEMPO 0423/0503 4000 RA BKN010 FEW020TCU",
      "groups": [
        {
          "text": "TAF VVNB 041100Z 0412/0512 29010KT 9999 SCT025",
          "offset_h": 0,
          "wdir": 290,
          "wspd": 10
        },
        {
          "text": "TEMPO 0414/0418 3500 TSRA BKN012 FEW027CB",
          "offset_h": 2,
          "wdir": null,
          "wspd": null
        },
        {
          "text": "TEMPO 0419/0422 2000 +TSRA BKN010 FEW027CB",
          "offset_h": 7,
          "wdir": null,
          "wspd": null
        },
        {
          "text": "TEMPO 0423/0503 4000 RA BKN010 FEW020TCU",
          "offset_h": 11,
          "wdir": null,
          "wspd": null
        }
      ],
      "metar_raw": "METAR VVNB 041230Z 30005KT CAVOK 28/26 Q0999 NOSIG",
      "metar_wdir": 300,
      "metar_wspd": 5,
      "metar_oat": 28,
      "metar_qnh": 999,
      "hourly_oat": [
        28,
        28,
        27,
        27,
        26,
        26,
        26,
        25,
        25,
        25,
        26,
        26,
        26,
        27,
        29,
        31,
        31,
        32,
        32,
        32,
        32,
        32,
        32,
        31,
        30
      ]
    },
    "TSA": {
      "icao": "RCSS",
      "issued": "2026-07-04T11:00:00.000Z",
      "raw": "TAF RCSS 041100Z 0412/0512 30005KT 9999 FEW010 BKN032 TEMPO 0412/0418 09005KT TEMPO 0418/0424 14005KT TEMPO 0504/0510 28010KT 4000 SHRA FEW010 BKN015 FEW022CB",
      "groups": [
        {
          "text": "TAF RCSS 041100Z 0412/0512 30005KT 9999 FEW010 BKN032",
          "offset_h": 0,
          "wdir": 300,
          "wspd": 5
        },
        {
          "text": "TEMPO 0412/0418 09005KT",
          "offset_h": 0,
          "wdir": 90,
          "wspd": 5
        },
        {
          "text": "TEMPO 0418/0424 14005KT",
          "offset_h": 6,
          "wdir": 140,
          "wspd": 5
        },
        {
          "text": "TEMPO 0504/0510 28010KT 4000 SHRA FEW010 BKN015 FEW022CB",
          "offset_h": 16,
          "wdir": 280,
          "wspd": 10
        }
      ],
      "metar_raw": "METAR RCSS 041230Z 32004KT 280V350 9999 FEW015 BKN030 BKN045 31/26 Q1011 NOSIG RMK A2987",
      "metar_wdir": 320,
      "metar_wspd": 4,
      "metar_oat": 31,
      "metar_qnh": 1011,
      "hourly_oat": [
        29,
        28,
        28,
        28,
        27,
        27,
        26,
        26,
        26,
        26,
        26,
        28,
        30,
        31,
        32,
        33,
        34,
        34,
        34,
        33,
        32,
        31,
        30,
        29,
        28
      ]
    },
    "SHA": {
      "icao": "ZSSS",
      "issued": "2026-07-04T09:16:00.000Z",
      "raw": "TAF ZSSS 040916Z 0412/0518 20004MPS 6000 SHRA BKN023 FEW030CB TX28/0412Z TX32/0506Z TN25/0421Z BECMG 0412/0414 -SHRA BKN030 TEMPO 0422/0502 2800 TSRA BKN013 SCT030CB TEMPO 0505/0510 2500 +TSRA BKN013 SCT030CB",
      "groups": [
        {
          "text": "TAF ZSSS 040916Z 0412/0518 20004MPS 6000 SHRA BKN023 FEW030CB TX28/0412Z TX32/0506Z TN25/0421Z",
          "offset_h": 0,
          "wdir": null,
          "wspd": null
        },
        {
          "text": "BECMG 0412/0414 -SHRA BKN030",
          "offset_h": 0,
          "wdir": null,
          "wspd": null
        },
        {
          "text": "TEMPO 0422/0502 2800 TSRA BKN013 SCT030CB",
          "offset_h": 10,
          "wdir": null,
          "wspd": null
        },
        {
          "text": "TEMPO 0505/0510 2500 +TSRA BKN013 SCT030CB",
          "offset_h": 17,
          "wdir": null,
          "wspd": null
        }
      ],
      "metar_raw": "METAR ZSSS 041230Z 22003MPS 9999 -RA NSC 26/25 Q1008 NOSIG",
      "metar_wdir": null,
      "metar_wspd": null,
      "metar_oat": 26,
      "metar_qnh": 1008,
      "hourly_oat": [
        27,
        27,
        27,
        27,
        26,
        26,
        26,
        26,
        26,
        26,
        26,
        27,
        26,
        26,
        29,
        29,
        29,
        30,
        28,
        28,
        28,
        27,
        27,
        26,
        27
      ]
    },
    "PVG": {
      "icao": "ZSPD",
      "issued": "2026-07-04T09:16:00.000Z",
      "raw": "TAF ZSPD 040916Z 0412/0518 29004MPS 6000 SHRA BKN020 FEW030CB TX26/0412Z TX31/0506Z TN24/0421Z BECMG 0412/0414 20004MPS -SHRA BKN020 TEMPO 0422/0502 2800 TSRA BKN011 SCT030CB TEMPO 0506/0511 2400 +TSRA BKN011 SCT030CB",
      "groups": [
        {
          "text": "TAF ZSPD 040916Z 0412/0518 29004MPS 6000 SHRA BKN020 FEW030CB TX26/0412Z TX31/0506Z TN24/0421Z",
          "offset_h": 0,
          "wdir": null,
          "wspd": null
        },
        {
          "text": "BECMG 0412/0414 20004MPS -SHRA BKN020",
          "offset_h": 0,
          "wdir": null,
          "wspd": null
        },
        {
          "text": "TEMPO 0422/0502 2800 TSRA BKN011 SCT030CB",
          "offset_h": 10,
          "wdir": null,
          "wspd": null
        },
        {
          "text": "TEMPO 0506/0511 2400 +TSRA BKN011 SCT030CB",
          "offset_h": 18,
          "wdir": null,
          "wspd": null
        }
      ],
      "metar_raw": "METAR ZSPD 041230Z 21004MPS CAVOK 27/27 Q1008 NOSIG",
      "metar_wdir": null,
      "metar_wspd": null,
      "metar_oat": 27,
      "metar_qnh": 1008,
      "hourly_oat": [
        27,
        27,
        27,
        26,
        26,
        26,
        26,
        26,
        26,
        26,
        26,
        27,
        27,
        26,
        27,
        29,
        29,
        30,
        30,
        27,
        26,
        27,
        27,
        26,
        26
      ]
    },
    "DLC": {
      "icao": "ZYTL",
      "issued": "2026-07-04T09:09:00.000Z",
      "raw": "TAF ZYTL 040909Z 0412/0512 15004MPS 5000 BR FEW033 TX32/0506Z TN23/0420Z",
      "groups": [
        {
          "text": "TAF ZYTL 040909Z 0412/0512 15004MPS 5000 BR FEW033 TX32/0506Z TN23/0420Z",
          "offset_h": 0,
          "wdir": null,
          "wspd": null
        }
      ],
      "metar_raw": "METAR ZYTL 041230Z 16006MPS 130V190 CAVOK 26/21 Q1002 NOSIG",
      "metar_wdir": null,
      "metar_wspd": null,
      "metar_oat": 26,
      "metar_qnh": 1002,
      "hourly_oat": [
        26,
        25,
        25,
        24,
        24,
        23,
        23,
        22,
        22,
        22,
        23,
        24,
        26,
        28,
        28,
        28,
        28,
        28,
        28,
        27,
        27,
        26,
        25,
        24,
        24
      ]
    },
    "CAN": {
      "icao": "ZGGG",
      "issued": "2026-07-04T09:04:00.000Z",
      "raw": "TAF ZGGG 040904Z 0412/0518 16004MPS 8000 BKN033 TX27/0412Z TX32/0507Z TN25/0422Z TEMPO 0420/0424 SHRA FEW011 FEW026CB BKN033 TEMPO 0504/0508 TSRA SCT011 SCT026CB BKN033 TEMPO 0508/0512 TSRA FEW030CB BKN033",
      "groups": [
        {
          "text": "TAF ZGGG 040904Z 0412/0518 16004MPS 8000 BKN033 TX27/0412Z TX32/0507Z TN25/0422Z",
          "offset_h": 0,
          "wdir": null,
          "wspd": null
        },
        {
          "text": "TEMPO 0420/0424 SHRA FEW011 FEW026CB BKN033",
          "offset_h": 8,
          "wdir": null,
          "wspd": null
        },
        {
          "text": "TEMPO 0504/0508 TSRA SCT011 SCT026CB BKN033",
          "offset_h": 16,
          "wdir": null,
          "wspd": null
        },
        {
          "text": "TEMPO 0508/0512 TSRA FEW030CB BKN033",
          "offset_h": 20,
          "wdir": null,
          "wspd": null
        }
      ],
      "metar_raw": "METAR ZGGG 041230Z 12004MPS 090V160 9999 BKN026 28/25 Q1008 NOSIG",
      "metar_wdir": null,
      "metar_wspd": null,
      "metar_oat": 28,
      "metar_qnh": 1008,
      "hourly_oat": [
        27,
        27,
        26,
        25,
        25,
        24,
        24,
        24,
        24,
        24,
        24,
        24,
        25,
        27,
        28,
        28,
        29,
        29,
        30,
        30,
        30,
        30,
        28,
        28,
        28
      ]
    },
    "PEK": {
      "icao": "ZBAA",
      "issued": "2026-07-04T09:00:00.000Z",
      "raw": "TAF ZBAA 040900Z 0412/0518 17004MPS 6000 NSC TX33/0507Z TN24/0421Z TN22/0518Z TEMPO 0415/0421 TS FEW040CB TEMPO 0507/0513 -TSRA FEW040CB BKN040",
      "groups": [
        {
          "text": "TAF ZBAA 040900Z 0412/0518 17004MPS 6000 NSC TX33/0507Z TN24/0421Z TN22/0518Z",
          "offset_h": 0,
          "wdir": null,
          "wspd": null
        },
        {
          "text": "TEMPO 0415/0421 TS FEW040CB",
          "offset_h": 3,
          "wdir": null,
          "wspd": null
        },
        {
          "text": "TEMPO 0507/0513 -TSRA FEW040CB BKN040",
          "offset_h": 19,
          "wdir": null,
          "wspd": null
        }
      ],
      "metar_raw": "METAR ZBAA 041230Z 08002MPS CAVOK 30/25 Q0997 NOSIG",
      "metar_wdir": null,
      "metar_wspd": null,
      "metar_oat": 30,
      "metar_qnh": 997,
      "hourly_oat": [
        31,
        30,
        29,
        28,
        28,
        27,
        26,
        26,
        25,
        24,
        24,
        26,
        28,
        30,
        31,
        32,
        32,
        32,
        34,
        34,
        34,
        31,
        30,
        29,
        28
      ]
    }
  }
}