{
  "updated": "2026-06-04T11:35:15Z",
  "tafs": {
    "SAN": {
      "icao": "KSAN",
      "issued": "2026-06-04T11:28:00.000Z",
      "raw": "TAF KSAN 041128Z 0412/0518 VRB04KT P6SM OVC009 FM041500 18007KT P6SM OVC012 FM041900 21010KT P6SM SCT015 TEMPO 0423/0503 BKN012 FM050300 17005KT P6SM OVC010",
      "groups": [
        {
          "text": "TAF KSAN 041128Z 0412/0518 VRB04KT P6SM OVC009",
          "offset_h": 1,
          "wdir": "VRB",
          "wspd": 4
        },
        {
          "text": "FM041500 18007KT P6SM OVC012",
          "offset_h": 4,
          "wdir": 180,
          "wspd": 7
        },
        {
          "text": "FM041900 21010KT P6SM SCT015",
          "offset_h": 8,
          "wdir": 210,
          "wspd": 10
        },
        {
          "text": "TEMPO 0423/0503 BKN012",
          "offset_h": 12,
          "wdir": null,
          "wspd": null
        },
        {
          "text": "FM050300 17005KT P6SM OVC010",
          "offset_h": 16,
          "wdir": 170,
          "wspd": 5
        }
      ],
      "metar_raw": "SPECI KSAN 041100Z VRB04KT 8SM OVC009 17/14 A2989 RMK AO2 T01670139 $",
      "metar_wdir": "VRB",
      "metar_wspd": 4,
      "metar_oat": 17,
      "metar_qnh": 1012
    },
    "LAX": {
      "icao": "KLAX",
      "issued": "2026-06-04T11:20:00.000Z",
      "raw": "TAF KLAX 041120Z 0412/0518 VRB03KT P6SM FEW008 OVC012 FM041700 24006KT P6SM BKN015 FM042000 26012KT P6SM BKN015 FM050400 26006KT P6SM BKN012 FM050800 VRB03KT P6SM OVC008 FM051600 24006KT P6SM BKN012",
      "groups": [
        {
          "text": "TAF KLAX 041120Z 0412/0518 VRB03KT P6SM FEW008 OVC012",
          "offset_h": 1,
          "wdir": "VRB",
          "wspd": 3
        },
        {
          "text": "FM041700 24006KT P6SM BKN015",
          "offset_h": 6,
          "wdir": 240,
          "wspd": 6
        },
        {
          "text": "FM042000 26012KT P6SM BKN015",
          "offset_h": 9,
          "wdir": 260,
          "wspd": 12
        },
        {
          "text": "FM050400 26006KT P6SM BKN012",
          "offset_h": 17,
          "wdir": 260,
          "wspd": 6
        },
        {
          "text": "FM050800 VRB03KT P6SM OVC008",
          "offset_h": 21,
          "wdir": "VRB",
          "wspd": 3
        },
        {
          "text": "FM051600 24006KT P6SM BKN012",
          "offset_h": 29,
          "wdir": 240,
          "wspd": 6
        }
      ],
      "metar_raw": "METAR KLAX 041053Z VRB05KT 9SM FEW005 FEW008 OVC011 17/14 A2987 RMK AO2 SLP112 T01720144 $",
      "metar_wdir": "VRB",
      "metar_wspd": 5,
      "metar_oat": 17,
      "metar_qnh": 1012
    },
    "HNL": {
      "icao": "PHNL",
      "issued": "2026-06-04T11:20:00.000Z",
      "raw": "TAF PHNL 041120Z 0412/0518 06008KT P6SM FEW025 SCT040 FM042000 06015G25KT P6SM FEW025 SCT040 FM050600 05008KT P6SM SCT025 SCT040",
      "groups": [
        {
          "text": "TAF PHNL 041120Z 0412/0518 06008KT P6SM FEW025 SCT040",
          "offset_h": 1,
          "wdir": 60,
          "wspd": 8
        },
        {
          "text": "FM042000 06015G25KT P6SM FEW025 SCT040",
          "offset_h": 9,
          "wdir": 60,
          "wspd": 15
        },
        {
          "text": "FM050600 05008KT P6SM SCT025 SCT040",
          "offset_h": 19,
          "wdir": 50,
          "wspd": 8
        }
      ],
      "metar_raw": "METAR PHNL 041053Z 04007KT 10SM FEW025 SCT040 24/19 A3012 RMK AO2 SLP199 T02440194 $",
      "metar_wdir": 40,
      "metar_wspd": 7,
      "metar_oat": 24,
      "metar_qnh": 1020
    },
    "ITM": {
      "icao": "RJOO",
      "issued": "2026-06-04T11:05:00.000Z",
      "raw": "TAF RJOO 041105Z 0412/0518 07009KT 9000 -RA FEW020 BKN040 BECMG 0512/0515 36004KT",
      "groups": [
        {
          "text": "TAF RJOO 041105Z 0412/0518 07009KT 9000 -RA FEW020 BKN040",
          "offset_h": 1,
          "wdir": 70,
          "wspd": 9
        },
        {
          "text": "BECMG 0512/0515 36004KT",
          "offset_h": 25,
          "wdir": 360,
          "wspd": 4
        }
      ],
      "metar_raw": "METAR RJOO 041100Z 15002KT 9999 -RA FEW015 SCT025 BKN045 23/19 Q1005",
      "metar_wdir": 150,
      "metar_wspd": 2,
      "metar_oat": 23,
      "metar_qnh": 1005
    },
    "OKA": {
      "icao": "ROAH",
      "issued": "2026-06-04T11:05:00.000Z",
      "raw": "TAF ROAH 041105Z 0412/0518 20012KT 6000 FEW008 BKN012 TEMPO 0412/0415 FEW005 BKN008 BECMG 0415/0416 FEW003 BKN008 TEMPO 0415/0500 3000 BR FEW001 BKN003 BECMG 0500/0503 FEW008 BKN012 TEMPO 0503/0515 FEW005 BKN008 BECMG 0515/0518 FEW003 BKN008 TEMPO 0515/0518 3000 BR FEW001 BKN003",
      "groups": [
        {
          "text": "TAF ROAH 041105Z 0412/0518 20012KT 6000 FEW008 BKN012",
          "offset_h": 1,
          "wdir": 200,
          "wspd": 12
        },
        {
          "text": "TEMPO 0412/0415 FEW005 BKN008",
          "offset_h": 1,
          "wdir": null,
          "wspd": null
        },
        {
          "text": "BECMG 0415/0416 FEW003 BKN008",
          "offset_h": 4,
          "wdir": null,
          "wspd": null
        },
        {
          "text": "TEMPO 0415/0500 3000 BR FEW001 BKN003",
          "offset_h": 4,
          "wdir": null,
          "wspd": null
        },
        {
          "text": "BECMG 0500/0503 FEW008 BKN012",
          "offset_h": 13,
          "wdir": null,
          "wspd": null
        },
        {
          "text": "TEMPO 0503/0515 FEW005 BKN008",
          "offset_h": 16,
          "wdir": null,
          "wspd": null
        },
        {
          "text": "BECMG 0515/0518 FEW003 BKN008",
          "offset_h": 28,
          "wdir": null,
          "wspd": null
        },
        {
          "text": "TEMPO 0515/0518 3000 BR FEW001 BKN003",
          "offset_h": 28,
          "wdir": null,
          "wspd": null
        }
      ],
      "metar_raw": "METAR ROAH 041100Z 19009KT 9999 FEW007 BKN/// 26/26 Q1007",
      "metar_wdir": 190,
      "metar_wspd": 9,
      "metar_oat": 26,
      "metar_qnh": 1007
    },
    "NGO": {
      "icao": "RJGG",
      "issued": "2026-06-04T11:05:00.000Z",
      "raw": "TAF RJGG 041105Z 0412/0518 12012KT 9000 -RA FEW020 BKN040",
      "groups": [
        {
          "text": "TAF RJGG 041105Z 0412/0518 12012KT 9000 -RA FEW020 BKN040",
          "offset_h": 1,
          "wdir": 120,
          "wspd": 12
        }
      ],
      "metar_raw": "METAR RJGG 041100Z 15010KT 9999 -RA FEW015 BKN050 BKN060 19/16 Q1007 NOSIG",
      "metar_wdir": 150,
      "metar_wspd": 10,
      "metar_oat": 19,
      "metar_qnh": 1007
    },
    "FUK": {
      "icao": "RJFF",
      "issued": "2026-06-04T11:05:00.000Z",
      "raw": "TAF RJFF 041105Z 0412/0518 30008KT 9999 FEW009 BKN012 TEMPO 0412/0421 BKN005 BKN015 BECMG 0512/0515 11004KT",
      "groups": [
        {
          "text": "TAF RJFF 041105Z 0412/0518 30008KT 9999 FEW009 BKN012",
          "offset_h": 1,
          "wdir": 300,
          "wspd": 8
        },
        {
          "text": "TEMPO 0412/0421 BKN005 BKN015",
          "offset_h": 1,
          "wdir": null,
          "wspd": null
        },
        {
          "text": "BECMG 0512/0515 11004KT",
          "offset_h": 25,
          "wdir": 110,
          "wspd": 4
        }
      ],
      "metar_raw": "METAR RJFF 041100Z 30003KT 240V030 9999 -SHRA FEW002 BKN007 BKN012 21/20 Q1000 BECMG FEW008 BKN015 TEMPO 4000 SHRA BR",
      "metar_wdir": 300,
      "metar_wspd": 3,
      "metar_oat": 21,
      "metar_qnh": 1000
    },
    "CTS": {
      "icao": "RJCC",
      "issued": "2026-06-04T11:05:00.000Z",
      "raw": "TAF RJCC 041105Z 0412/0518 18006KT 9999 FEW005 BKN012 TEMPO 0412/0421 2000 BR FEW003 BKN005 TEMPO 0421/0423 FEW003 BKN008 BECMG 0500/0503 19016KT",
      "groups": [
        {
          "text": "TAF RJCC 041105Z 0412/0518 18006KT 9999 FEW005 BKN012",
          "offset_h": 1,
          "wdir": 180,
          "wspd": 6
        },
        {
          "text": "TEMPO 0412/0421 2000 BR FEW003 BKN005",
          "offset_h": 1,
          "wdir": null,
          "wspd": null
        },
        {
          "text": "TEMPO 0421/0423 FEW003 BKN008",
          "offset_h": 10,
          "wdir": null,
          "wspd": null
        },
        {
          "text": "BECMG 0500/0503 19016KT",
          "offset_h": 13,
          "wdir": 190,
          "wspd": 16
        }
      ],
      "metar_raw": "METAR RJCC 041100Z 14006KT 7000 FEW005 BKN007 13/12 Q1014",
      "metar_wdir": 140,
      "metar_wspd": 6,
      "metar_oat": 13,
      "metar_qnh": 1014
    },
    "NRT": {
      "icao": "RJAA",
      "issued": "2026-06-04T11:05:00.000Z",
      "raw": "TAF RJAA 041105Z 0412/0518 02014KT 9999 FEW020 TEMPO 0421/0506 03020G30KT",
      "groups": [
        {
          "text": "TAF RJAA 041105Z 0412/0518 02014KT 9999 FEW020",
          "offset_h": 1,
          "wdir": 20,
          "wspd": 14
        },
        {
          "text": "TEMPO 0421/0506 03020G30KT",
          "offset_h": 10,
          "wdir": 30,
          "wspd": 20
        }
      ],
      "metar_raw": "METAR RJAA 041100Z 02013KT 9999 FEW030 BKN080 BKN/// 18/12 Q1009 NOSIG",
      "metar_wdir": 20,
      "metar_wspd": 13,
      "metar_oat": 18,
      "metar_qnh": 1009
    },
    "KIX": {
      "icao": "RJBB",
      "issued": "2026-06-04T11:05:00.000Z",
      "raw": "TAF RJBB 041105Z 0412/0518 12004KT 7000 -RA FEW010 BKN025 BECMG 0415/0417 06010KT TEMPO 0415/0421 3000 RA BR BECMG 0506/0509 25008KT BECMG 0512/0515 08004KT",
      "groups": [
        {
          "text": "TAF RJBB 041105Z 0412/0518 12004KT 7000 -RA FEW010 BKN025",
          "offset_h": 1,
          "wdir": 120,
          "wspd": 4
        },
        {
          "text": "BECMG 0415/0417 06010KT",
          "offset_h": 4,
          "wdir": 60,
          "wspd": 10
        },
        {
          "text": "TEMPO 0415/0421 3000 RA BR",
          "offset_h": 4,
          "wdir": null,
          "wspd": null
        },
        {
          "text": "BECMG 0506/0509 25008KT",
          "offset_h": 19,
          "wdir": 250,
          "wspd": 8
        },
        {
          "text": "BECMG 0512/0515 08004KT",
          "offset_h": 25,
          "wdir": 80,
          "wspd": 4
        }
      ],
      "metar_raw": "METAR RJBB 041100Z 15004KT 100V190 9999 -RA FEW020 BKN060 OVC100 22/20 Q1004 NOSIG",
      "metar_wdir": 150,
      "metar_wspd": 4,
      "metar_oat": 22,
      "metar_qnh": 1004
    },
    "HND": {
      "icao": "RJTT",
      "issued": "2026-06-04T11:05:00.000Z",
      "raw": "TAF RJTT 041105Z 0412/0518 03012KT 9999 FEW030 BECMG 0503/0506 07016KT BECMG 0509/0512 01016KT",
      "groups": [
        {
          "text": "TAF RJTT 041105Z 0412/0518 03012KT 9999 FEW030",
          "offset_h": 1,
          "wdir": 30,
          "wspd": 12
        },
        {
          "text": "BECMG 0503/0506 07016KT",
          "offset_h": 16,
          "wdir": 70,
          "wspd": 16
        },
        {
          "text": "BECMG 0509/0512 01016KT",
          "offset_h": 22,
          "wdir": 10,
          "wspd": 16
        }
      ],
      "metar_raw": "METAR RJTT 041100Z 05015KT 9999 FEW030 BKN090 19/14 Q1009 NOSIG",
      "metar_wdir": 50,
      "metar_wspd": 15,
      "metar_oat": 19,
      "metar_qnh": 1009
    },
    "TPE": {
      "icao": "RCTP",
      "issued": "2026-06-04T11:00:00.000Z",
      "raw": "TAF RCTP 041100Z 0412/0518 30005KT 9999 FEW015 BKN032 TEMPO 0412/0414 3000 SHRA SCT008 FEW015CB BKN016 TEMPO 0418/0422 FEW012 BKN018 TEMPO 0422/0503 36007KT 4000 SHRA SCT008 BKN012 FEW015CB BECMG 0503/0505 02015KT TEMPO 0505/0511 03020G30KT 5000 SHRA SCT007 BKN011 BECMG 0511/0513 SCT003 BKN006",
      "groups": [
        {
          "text": "TAF RCTP 041100Z 0412/0518 30005KT 9999 FEW015 BKN032",
          "offset_h": 1,
          "wdir": 300,
          "wspd": 5
        },
        {
          "text": "TEMPO 0412/0414 3000 SHRA SCT008 FEW015CB BKN016",
          "offset_h": 1,
          "wdir": null,
          "wspd": null
        },
        {
          "text": "TEMPO 0418/0422 FEW012 BKN018",
          "offset_h": 7,
          "wdir": null,
          "wspd": null
        },
        {
          "text": "TEMPO 0422/0503 36007KT 4000 SHRA SCT008 BKN012 FEW015CB",
          "offset_h": 11,
          "wdir": 360,
          "wspd": 7
        },
        {
          "text": "BECMG 0503/0505 02015KT",
          "offset_h": 16,
          "wdir": 20,
          "wspd": 15
        },
        {
          "text": "TEMPO 0505/0511 03020G30KT 5000 SHRA SCT007 BKN011",
          "offset_h": 18,
          "wdir": 30,
          "wspd": 20
        },
        {
          "text": "BECMG 0511/0513 SCT003 BKN006",
          "offset_h": 24,
          "wdir": null,
          "wspd": null
        }
      ],
      "metar_raw": "METAR RCTP 041100Z 14012KT 120V180 8000 VCTS -SHRA FEW008 FEW012CB SCT016 BKN022 26/25 Q1005 NOSIG RMK TS NE-E-SE MOV N A2969 RA AMT 0.8MM",
      "metar_wdir": 140,
      "metar_wspd": 12,
      "metar_oat": 26,
      "metar_qnh": 1005
    },
    "CGK": {
      "icao": "WIII",
      "issued": "2026-06-04T11:00:00.000Z",
      "raw": "TAF WIII 041100Z 0412/0518 05010KT 8000 SCT020 BECMG 0412/0414 VRB02KT 5000 HZ BECMG 0501/0503 03012KT 8000 NSW",
      "groups": [
        {
          "text": "TAF WIII 041100Z 0412/0518 05010KT 8000 SCT020",
          "offset_h": 1,
          "wdir": 50,
          "wspd": 10
        },
        {
          "text": "BECMG 0412/0414 VRB02KT 5000 HZ",
          "offset_h": 1,
          "wdir": "VRB",
          "wspd": 2
        },
        {
          "text": "BECMG 0501/0503 03012KT 8000 NSW",
          "offset_h": 14,
          "wdir": 30,
          "wspd": 12
        }
      ],
      "metar_raw": "METAR WIII 041100Z 05008KT 5000 HZ FEW020 30/25 Q1009 NOSIG",
      "metar_wdir": 50,
      "metar_wspd": 8,
      "metar_oat": 30,
      "metar_qnh": 1009
    },
    "GMP": {
      "icao": "RKSS",
      "issued": "2026-06-04T11:00:00.000Z",
      "raw": "TAF RKSS 041100Z 0412/0518 25010KT 6000 FEW012 BKN035 OVC070 TN17/0420Z TX27/0506Z TEMPO 0413/0415 27015G25KT 4000 -RA SCT010 BKN025 OVC060 BECMG 0416/0418 31010KT BECMG 0512/0514 01005KT CAVOK",
      "groups": [
        {
          "text": "TAF RKSS 041100Z 0412/0518 25010KT 6000 FEW012 BKN035 OVC070 TN17/0420Z TX27/0506Z",
          "offset_h": 1,
          "wdir": 250,
          "wspd": 10
        },
        {
          "text": "TEMPO 0413/0415 27015G25KT 4000 -RA SCT010 BKN025 OVC060",
          "offset_h": 2,
          "wdir": 270,
          "wspd": 15
        },
        {
          "text": "BECMG 0416/0418 31010KT",
          "offset_h": 5,
          "wdir": 310,
          "wspd": 10
        },
        {
          "text": "BECMG 0512/0514 01005KT CAVOK",
          "offset_h": 25,
          "wdir": 10,
          "wspd": 5
        }
      ],
      "metar_raw": "METAR RKSS 041100Z 26007KT 230V290 9000 FEW010 BKN030 OVC070 21/21 Q1002 NOSIG",
      "metar_wdir": 260,
      "metar_wspd": 7,
      "metar_oat": 21,
      "metar_qnh": 1002
    },
    "HKG": {
      "icao": "VHHH",
      "issued": "2026-06-04T11:00:00.000Z",
      "raw": "TAF VHHH 041100Z 0412/0518 23010KT 9999 FEW015 TX35/0506Z TN28/0423Z TEMPO 0420/0424 VRB15G25KT 2500 TSRA SHRA FEW008CB SCT020 TEMPO 0500/0504 30010KT TEMPO 0512/0518 VRB25G35KT 2000 TSRA SHRA FEW008CB SCT020",
      "groups": [
        {
          "text": "TAF VHHH 041100Z 0412/0518 23010KT 9999 FEW015 TX35/0506Z TN28/0423Z",
          "offset_h": 1,
          "wdir": 230,
          "wspd": 10
        },
        {
          "text": "TEMPO 0420/0424 VRB15G25KT 2500 TSRA SHRA FEW008CB SCT020",
          "offset_h": 9,
          "wdir": "VRB",
          "wspd": 15
        },
        {
          "text": "TEMPO 0500/0504 30010KT",
          "offset_h": 13,
          "wdir": 300,
          "wspd": 10
        },
        {
          "text": "TEMPO 0512/0518 VRB25G35KT 2000 TSRA SHRA FEW008CB SCT020",
          "offset_h": 25,
          "wdir": "VRB",
          "wspd": 25
        }
      ],
      "metar_raw": "METAR VHHH 041130Z 21012KT 9999 FEW020 31/24 Q1002 NOSIG",
      "metar_wdir": 210,
      "metar_wspd": 12,
      "metar_oat": 31,
      "metar_qnh": 1002
    },
    "TSA": {
      "icao": "RCSS",
      "issued": "2026-06-04T11:00:00.000Z",
      "raw": "TAF RCSS 041100Z 0412/0512 09005KT 8000 FEW015 BKN032 TEMPO 0412/0414 2500 TSRA SCT008 BKN012 FEW015CB TEMPO 0418/0424 5000 SHRA FEW012 BKN018 TEMPO 0500/0506 VRB05KT 3500 SHRA SCT010 FEW015CB BKN018 TEMPO 0506/0510 09012KT 3000 TSRA SCT008 BKN014 FEW015CB",
      "groups": [
        {
          "text": "TAF RCSS 041100Z 0412/0512 09005KT 8000 FEW015 BKN032",
          "offset_h": 1,
          "wdir": 90,
          "wspd": 5
        },
        {
          "text": "TEMPO 0412/0414 2500 TSRA SCT008 BKN012 FEW015CB",
          "offset_h": 1,
          "wdir": null,
          "wspd": null
        },
        {
          "text": "TEMPO 0418/0424 5000 SHRA FEW012 BKN018",
          "offset_h": 7,
          "wdir": null,
          "wspd": null
        },
        {
          "text": "TEMPO 0500/0506 VRB05KT 3500 SHRA SCT010 FEW015CB BKN018",
          "offset_h": 13,
          "wdir": "VRB",
          "wspd": 5
        },
        {
          "text": "TEMPO 0506/0510 09012KT 3000 TSRA SCT008 BKN014 FEW015CB",
          "offset_h": 19,
          "wdir": 90,
          "wspd": 12
        }
      ],
      "metar_raw": "METAR RCSS 041100Z 28006KT 240V330 7000 VCTS -SHRA FEW008 FEW020CB BKN022 BKN035 25/25 Q1005 RESHRA NOSIG RMK TS SW-W-NW MOV N A2969 RA AMT 16.2MM",
      "metar_wdir": 280,
      "metar_wspd": 6,
      "metar_oat": 25,
      "metar_qnh": 1005
    },
    "HAN": {
      "icao": "VVNB",
      "issued": "2026-06-04T10:00:00.000Z",
      "raw": "TAF AMD VVNB 041000Z 0410/0506 03006KT 8000 SCT030 TEMPO 0414/0420 VRB15G25KT 2000 +TSRA BKN010 SCT027CB",
      "groups": [
        {
          "text": "TAF AMD VVNB 041000Z 0410/0506 03006KT 8000 SCT030",
          "offset_h": -1,
          "wdir": 30,
          "wspd": 6
        },
        {
          "text": "TEMPO 0414/0420 VRB15G25KT 2000 +TSRA BKN010 SCT027CB",
          "offset_h": 3,
          "wdir": "VRB",
          "wspd": 15
        }
      ],
      "metar_raw": "METAR VVNB 041100Z 08004KT CAVOK 35/26 Q0999 NOSIG",
      "metar_wdir": 80,
      "metar_wspd": 4,
      "metar_oat": 35,
      "metar_qnh": 999
    },
    "SGN": {
      "icao": "VVTS",
      "issued": "2026-06-04T09:21:00.000Z",
      "raw": "TAF AMD VVTS 040921Z 0409/0512 24012KT 9999 SCT017 TEMPO 0409/0411 24015G28KT TS SCT015 FEW017CB TEMPO 0506/0510 24015G28KT 3000 TSRA SCT013 SCT015CB",
      "groups": [
        {
          "text": "TAF AMD VVTS 040921Z 0409/0512 24012KT 9999 SCT017",
          "offset_h": -2,
          "wdir": 240,
          "wspd": 12
        },
        {
          "text": "TEMPO 0409/0411 24015G28KT TS SCT015 FEW017CB",
          "offset_h": -2,
          "wdir": 240,
          "wspd": 15
        },
        {
          "text": "TEMPO 0506/0510 24015G28KT 3000 TSRA SCT013 SCT015CB",
          "offset_h": 19,
          "wdir": 240,
          "wspd": 15
        }
      ],
      "metar_raw": "METAR VVTS 041100Z 25008KT 9999 SCT035 31/25 Q1006 NOSIG",
      "metar_wdir": 250,
      "metar_wspd": 8,
      "metar_oat": 31,
      "metar_qnh": 1006
    },
    "PVG": {
      "icao": "ZSPD",
      "issued": "2026-06-04T09:09:00.000Z",
      "raw": "TAF ZSPD 040909Z 0412/0518 14004MPS 6000 SCT030 TX24/0412Z TX28/0506Z TN22/0421Z BECMG 0415/0416 04004MPS BECMG 0512/0513 11004MPS",
      "groups": [
        {
          "text": "TAF ZSPD 040909Z 0412/0518 14004MPS 6000 SCT030 TX24/0412Z TX28/0506Z TN22/0421Z",
          "offset_h": 1,
          "wdir": null,
          "wspd": null
        },
        {
          "text": "BECMG 0415/0416 04004MPS",
          "offset_h": 4,
          "wdir": null,
          "wspd": null
        },
        {
          "text": "BECMG 0512/0513 11004MPS",
          "offset_h": 25,
          "wdir": null,
          "wspd": null
        }
      ],
      "metar_raw": "METAR ZSPD 041130Z 13002MPS 040V170 CAVOK 25/23 Q1004 NOSIG",
      "metar_wdir": null,
      "metar_wspd": null,
      "metar_oat": 25,
      "metar_qnh": 1004
    },
    "SHA": {
      "icao": "ZSSS",
      "issued": "2026-06-04T09:05:00.000Z",
      "raw": "TAF ZSSS 040905Z 0412/0518 14004MPS 8000 SCT020 TX26/0412Z TX29/0506Z TN23/0421Z BECMG 0416/0417 06004MPS BECMG 0510/0511 12004MPS",
      "groups": [
        {
          "text": "TAF ZSSS 040905Z 0412/0518 14004MPS 8000 SCT020 TX26/0412Z TX29/0506Z TN23/0421Z",
          "offset_h": 1,
          "wdir": null,
          "wspd": null
        },
        {
          "text": "BECMG 0416/0417 06004MPS",
          "offset_h": 5,
          "wdir": null,
          "wspd": null
        },
        {
          "text": "BECMG 0510/0511 12004MPS",
          "offset_h": 23,
          "wdir": null,
          "wspd": null
        }
      ],
      "metar_raw": "METAR ZSSS 041130Z 16003MPS CAVOK 28/23 Q1004 NOSIG",
      "metar_wdir": null,
      "metar_wspd": null,
      "metar_oat": 28,
      "metar_qnh": 1004
    },
    "CAN": {
      "icao": "ZGGG",
      "issued": "2026-06-04T09:04:00.000Z",
      "raw": "TAF ZGGG 040904Z 0412/0518 20003MPS 8000 BKN033 TX33/0412Z TX37/0507Z TN29/0422Z TEMPO 0412/0414 TSRA FEW026CB BKN033 TEMPO 0417/0421 2500 +TSRA SCT026CB BKN033 TEMPO 0513/0517 2500 +TSRA SCT026CB BKN033",
      "groups": [
        {
          "text": "TAF ZGGG 040904Z 0412/0518 20003MPS 8000 BKN033 TX33/0412Z TX37/0507Z TN29/0422Z",
          "offset_h": 1,
          "wdir": null,
          "wspd": null
        },
        {
          "text": "TEMPO 0412/0414 TSRA FEW026CB BKN033",
          "offset_h": 1,
          "wdir": null,
          "wspd": null
        },
        {
          "text": "TEMPO 0417/0421 2500 +TSRA SCT026CB BKN033",
          "offset_h": 6,
          "wdir": null,
          "wspd": null
        },
        {
          "text": "TEMPO 0513/0517 2500 +TSRA SCT026CB BKN033",
          "offset_h": 26,
          "wdir": null,
          "wspd": null
        }
      ],
      "metar_raw": "METAR ZGGG 041130Z 22002MPS CAVOK 35/24 Q1001 NOSIG",
      "metar_wdir": null,
      "metar_wspd": null,
      "metar_oat": 35,
      "metar_qnh": 1001
    },
    "DLC": {
      "icao": "ZYTL",
      "issued": "2026-06-04T09:01:00.000Z",
      "raw": "TAF ZYTL 040901Z 0412/0512 32004MPS 5000 BR FEW040 TX25/0506Z TN18/0421Z",
      "groups": [
        {
          "text": "TAF ZYTL 040901Z 0412/0512 32004MPS 5000 BR FEW040 TX25/0506Z TN18/0421Z",
          "offset_h": 1,
          "wdir": null,
          "wspd": null
        }
      ],
      "metar_raw": "METAR ZYTL 041130Z 31006MPS 280V350 CAVOK 19/13 Q1006 NOSIG",
      "metar_wdir": null,
      "metar_wspd": null,
      "metar_oat": 19,
      "metar_qnh": 1006
    },
    "PEK": {
      "icao": "ZBAA",
      "issued": "2026-06-04T09:00:00.000Z",
      "raw": "TAF ZBAA 040900Z 0412/0518 17004MPS CAVOK TX29/0507Z TN13/0421Z TN21/0518Z",
      "groups": [
        {
          "text": "TAF ZBAA 040900Z 0412/0518 17004MPS CAVOK TX29/0507Z TN13/0421Z TN21/0518Z",
          "offset_h": 1,
          "wdir": null,
          "wspd": null
        }
      ],
      "metar_raw": "METAR ZBAA 041130Z 08002MPS 040V120 CAVOK 20/15 Q1007 NOSIG",
      "metar_wdir": null,
      "metar_wspd": null,
      "metar_oat": 20,
      "metar_qnh": 1007
    },
    "BKK": {
      "icao": "VTBS",
      "issued": "2026-06-04T05:00:00.000Z",
      "raw": "TAF VTBS 040500Z 0406/0512 20010KT 9999 FEW020 TEMPO 0410/0414 VRB15KT 3000 TSRA FEW018CB SCT020 BKN080 TEMPO 0508/0512 VRB15KT 4000 TSRA FEW018CB SCT020 BKN080",
      "groups": [
        {
          "text": "TAF VTBS 040500Z 0406/0512 20010KT 9999 FEW020",
          "offset_h": -5,
          "wdir": 200,
          "wspd": 10
        },
        {
          "text": "TEMPO 0410/0414 VRB15KT 3000 TSRA FEW018CB SCT020 BKN080",
          "offset_h": -1,
          "wdir": "VRB",
          "wspd": 15
        },
        {
          "text": "TEMPO 0508/0512 VRB15KT 4000 TSRA FEW018CB SCT020 BKN080",
          "offset_h": 21,
          "wdir": "VRB",
          "wspd": 15
        }
      ],
      "metar_raw": "METAR VTBS 041100Z 19016KT 9999 FEW020CB SCT030 31/23 Q1004 NOSIG",
      "metar_wdir": 190,
      "metar_wspd": 16,
      "metar_oat": 31,
      "metar_qnh": 1004
    },
    "SIN": {
      "icao": "WSSS",
      "issued": "2026-06-04T05:00:00.000Z",
      "raw": "TAF WSSS 040500Z 0406/0512 15008KT 9999 FEW015 SCT020",
      "groups": [
        {
          "text": "TAF WSSS 040500Z 0406/0512 15008KT 9999 FEW015 SCT020",
          "offset_h": -5,
          "wdir": 150,
          "wspd": 8
        }
      ],
      "metar_raw": "METAR WSSS 041130Z 13009KT 090V150 9999 FEW018TCU BKN300 31/26 Q1008 NOSIG",
      "metar_wdir": 130,
      "metar_wspd": 9,
      "metar_oat": 31,
      "metar_qnh": 1008
    },
    "KUL": {
      "icao": "WMKK",
      "issued": "2026-06-04T05:00:00.000Z",
      "raw": "TAF WMKK 040500Z 0406/0512 VRB03KT 9000 FEW018 PROB30 TEMPO 0406/0409 5000 TSRA FEW017CB SCT018",
      "groups": [
        {
          "text": "TAF WMKK 040500Z 0406/0512 VRB03KT 9000 FEW018",
          "offset_h": -5,
          "wdir": "VRB",
          "wspd": 3
        },
        {
          "text": "PROB30",
          "offset_h": 0,
          "wdir": null,
          "wspd": null
        },
        {
          "text": "TEMPO 0406/0409 5000 TSRA FEW017CB SCT018",
          "offset_h": -5,
          "wdir": null,
          "wspd": null
        }
      ],
      "metar_raw": "METAR WMKK 041100Z VRB02KT 9999 FEW030 31/26 Q1007 NOSIG",
      "metar_wdir": "VRB",
      "metar_wspd": 2,
      "metar_oat": 31,
      "metar_qnh": 1007
    }
  }
}