{
  "updated": "2026-07-02T02:08:52Z",
  "tafs": {
    "LAX": {
      "icao": "KLAX",
      "issued": "2026-07-02T02:01:00.000Z",
      "raw": "TAF KLAX 020201Z 0202/0306 26012KT P6SM BKN015 FM020500 VRB03KT P6SM OVC012 FM021800 25006KT P6SM BKN020 FM022000 26012KT P6SM FEW025",
      "groups": [
        {
          "text": "TAF KLAX 020201Z 0202/0306 26012KT P6SM BKN015",
          "offset_h": 0,
          "wdir": 260,
          "wspd": 12
        },
        {
          "text": "FM020500 VRB03KT P6SM OVC012",
          "offset_h": 3,
          "wdir": "VRB",
          "wspd": 3
        },
        {
          "text": "FM021800 25006KT P6SM BKN020",
          "offset_h": 16,
          "wdir": 250,
          "wspd": 6
        },
        {
          "text": "FM022000 26012KT P6SM FEW025",
          "offset_h": 18,
          "wdir": 260,
          "wspd": 12
        }
      ],
      "metar_raw": "METAR KLAX 020153Z 24011KT 10SM BKN017 19/14 A2991 RMK AO2 SLP128 T01890139 $",
      "metar_wdir": 240,
      "metar_wspd": 11,
      "metar_oat": 19,
      "metar_qnh": 1013,
      "hourly_oat": [
        18,
        18,
        16,
        16,
        16,
        16,
        16,
        15,
        16,
        16,
        16,
        17,
        17,
        18,
        18,
        19,
        19,
        20,
        21,
        21,
        21,
        20,
        19,
        19,
        18
      ]
    },
    "HKG": {
      "icao": "VHHH",
      "issued": "2026-07-02T02:00:00.000Z",
      "raw": "TAF VHHH 020200Z 0203/0309 10010KT 9999 FEW015 SCT030 TX34/0206Z TX31/0306Z TN27/0222Z TEMPO 0212/0218 12015G25KT 3000 SHRA FEW010CB SCT020 TEMPO 0218/0224 12020G30KT 2500 SHRA FEW008CB SCT020 TEMPO 0300/0306 13020G30KT 2500 TSRA SHRA FEW008CB SCT020 BECMG 0302/0304 12020KT TEMPO 0306/0309 13025G35KT 1500 TSRA +SHRA FEW010CB SCT020",
      "groups": [
        {
          "text": "TAF VHHH 020200Z 0203/0309 10010KT 9999 FEW015 SCT030 TX34/0206Z TX31/0306Z TN27/0222Z",
          "offset_h": 1,
          "wdir": 100,
          "wspd": 10
        },
        {
          "text": "TEMPO 0212/0218 12015G25KT 3000 SHRA FEW010CB SCT020",
          "offset_h": 10,
          "wdir": 120,
          "wspd": 15
        },
        {
          "text": "TEMPO 0218/0224 12020G30KT 2500 SHRA FEW008CB SCT020",
          "offset_h": 16,
          "wdir": 120,
          "wspd": 20
        },
        {
          "text": "TEMPO 0300/0306 13020G30KT 2500 TSRA SHRA FEW008CB SCT020",
          "offset_h": 22,
          "wdir": 130,
          "wspd": 20
        },
        {
          "text": "BECMG 0302/0304 12020KT",
          "offset_h": 24,
          "wdir": 120,
          "wspd": 20
        },
        {
          "text": "TEMPO 0306/0309 13025G35KT 1500 TSRA +SHRA FEW010CB SCT020",
          "offset_h": 28,
          "wdir": 130,
          "wspd": 25
        }
      ],
      "metar_raw": "METAR VHHH 020200Z 10011KT 080V150 9999 FEW020 SCT030 33/25 Q1009 NOSIG",
      "metar_wdir": 100,
      "metar_wspd": 11,
      "metar_oat": 33,
      "metar_qnh": 1009,
      "hourly_oat": [
        30,
        31,
        31,
        31,
        31,
        30,
        29,
        29,
        29,
        28,
        28,
        28,
        28,
        28,
        28,
        27,
        26,
        26,
        26,
        26,
        27,
        27,
        28,
        27,
        27
      ]
    },
    "FUK": {
      "icao": "RJFF",
      "issued": "2026-07-02T00:40:00.000Z",
      "raw": "TAF AMD RJFF 020040Z 0200/0306 32011KT 9999 FEW020 SCT045 BECMG 0212/0215 15004KT BECMG 0300/0303 31008KT",
      "groups": [
        {
          "text": "TAF AMD RJFF 020040Z 0200/0306 32011KT 9999 FEW020 SCT045",
          "offset_h": -2,
          "wdir": 320,
          "wspd": 11
        },
        {
          "text": "BECMG 0212/0215 15004KT",
          "offset_h": 10,
          "wdir": 150,
          "wspd": 4
        },
        {
          "text": "BECMG 0300/0303 31008KT",
          "offset_h": 22,
          "wdir": 310,
          "wspd": 8
        }
      ],
      "metar_raw": "METAR RJFF 020200Z VRB04KT 9999 FEW010 SCT025 BKN030 25/21 Q1010 BECMG 32008KT",
      "metar_wdir": "VRB",
      "metar_wspd": 4,
      "metar_oat": 25,
      "metar_qnh": 1010,
      "hourly_oat": [
        24,
        24,
        24,
        24,
        25,
        24,
        24,
        24,
        23,
        23,
        23,
        22,
        22,
        22,
        21,
        21,
        21,
        21,
        20,
        21,
        22,
        23,
        24,
        26,
        26
      ]
    },
    "SAN": {
      "icao": "KSAN",
      "issued": "2026-07-01T23:29:00.000Z",
      "raw": "TAF KSAN 012329Z 0200/0306 27011KT P6SM BKN025 FM020300 VRB03KT P6SM OVC022 FM021900 29011KT P6SM SCT026 FM030400 VRB04KT P6SM BKN018",
      "groups": [
        {
          "text": "TAF KSAN 012329Z 0200/0306 27011KT P6SM BKN025",
          "offset_h": -2,
          "wdir": 270,
          "wspd": 11
        },
        {
          "text": "FM020300 VRB03KT P6SM OVC022",
          "offset_h": 1,
          "wdir": "VRB",
          "wspd": 3
        },
        {
          "text": "FM021900 29011KT P6SM SCT026",
          "offset_h": 17,
          "wdir": 290,
          "wspd": 11
        },
        {
          "text": "FM030400 VRB04KT P6SM BKN018",
          "offset_h": 26,
          "wdir": "VRB",
          "wspd": 4
        }
      ],
      "metar_raw": "METAR KSAN 020151Z 30007KT 10SM FEW022 19/13 A2993 RMK AO2 SLP135 T01940133",
      "metar_wdir": 300,
      "metar_wspd": 7,
      "metar_oat": 19,
      "metar_qnh": 1014,
      "hourly_oat": [
        19,
        18,
        18,
        18,
        18,
        18,
        18,
        18,
        18,
        18,
        18,
        18,
        18,
        18,
        19,
        20,
        21,
        22,
        22,
        22,
        22,
        22,
        21,
        20,
        20
      ]
    },
    "HNL": {
      "icao": "PHNL",
      "issued": "2026-07-01T23:22:00.000Z",
      "raw": "TAF PHNL 012322Z 0200/0306 06016G26KT P6SM VCSH FEW025 SCT045 FM020600 06012KT P6SM FEW025 FEW045 FM022000 06017G27KT P6SM FEW025 SCT040",
      "groups": [
        {
          "text": "TAF PHNL 012322Z 0200/0306 06016G26KT P6SM VCSH FEW025 SCT045",
          "offset_h": -2,
          "wdir": 60,
          "wspd": 16
        },
        {
          "text": "FM020600 06012KT P6SM FEW025 FEW045",
          "offset_h": 4,
          "wdir": 60,
          "wspd": 12
        },
        {
          "text": "FM022000 06017G27KT P6SM FEW025 SCT040",
          "offset_h": 18,
          "wdir": 60,
          "wspd": 17
        }
      ],
      "metar_raw": "METAR PHNL 020153Z 07017G27KT 10SM FEW024 SCT045 31/20 A2998 RMK AO2 PK WND 06029/0141 SLP150 T03060200 $",
      "metar_wdir": 70,
      "metar_wspd": 17,
      "metar_oat": 31,
      "metar_qnh": 1015,
      "hourly_oat": [
        29,
        28,
        26,
        25,
        25,
        24,
        24,
        24,
        24,
        24,
        24,
        23,
        23,
        23,
        23,
        24,
        26,
        27,
        28,
        28,
        28,
        29,
        29,
        29,
        28
      ]
    },
    "KIX": {
      "icao": "RJBB",
      "issued": "2026-07-01T23:05:00.000Z",
      "raw": "TAF RJBB 012305Z 0200/0306 26014KT 9999 FEW020 SCT040 TEMPO 0200/0202 4000 SHRA BR FEW003 BKN008 BKN015 BECMG 0208/0210 34010KT BECMG 0300/0303 24005KT",
      "groups": [
        {
          "text": "TAF RJBB 012305Z 0200/0306 26014KT 9999 FEW020 SCT040",
          "offset_h": -2,
          "wdir": 260,
          "wspd": 14
        },
        {
          "text": "TEMPO 0200/0202 4000 SHRA BR FEW003 BKN008 BKN015",
          "offset_h": -2,
          "wdir": null,
          "wspd": null
        },
        {
          "text": "BECMG 0208/0210 34010KT",
          "offset_h": 6,
          "wdir": 340,
          "wspd": 10
        },
        {
          "text": "BECMG 0300/0303 24005KT",
          "offset_h": 22,
          "wdir": 240,
          "wspd": 5
        }
      ],
      "metar_raw": "METAR RJBB 020200Z 26009KT 9999 FEW010 SCT060 BKN/// 25/24 Q1006 NOSIG",
      "metar_wdir": 260,
      "metar_wspd": 9,
      "metar_oat": 25,
      "metar_qnh": 1006,
      "hourly_oat": [
        25,
        25,
        26,
        26,
        26,
        26,
        25,
        25,
        25,
        24,
        24,
        24,
        24,
        23,
        23,
        23,
        23,
        22,
        22,
        22,
        22,
        22,
        22,
        22,
        23
      ]
    },
    "HND": {
      "icao": "RJTT",
      "issued": "2026-07-01T23:05:00.000Z",
      "raw": "TAF RJTT 012305Z 0200/0306 08014KT 6000 -SHRA FEW005 BKN012 TEMPO 0200/0202 3000 SHRA BR FEW003 BKN005 BECMG 0200/0202 34012KT TEMPO 0202/0206 FEW005 BKN008 BECMG 0300/0303 04010KT",
      "groups": [
        {
          "text": "TAF RJTT 012305Z 0200/0306 08014KT 6000 -SHRA FEW005 BKN012",
          "offset_h": -2,
          "wdir": 80,
          "wspd": 14
        },
        {
          "text": "TEMPO 0200/0202 3000 SHRA BR FEW003 BKN005",
          "offset_h": -2,
          "wdir": null,
          "wspd": null
        },
        {
          "text": "BECMG 0200/0202 34012KT",
          "offset_h": -2,
          "wdir": 340,
          "wspd": 12
        },
        {
          "text": "TEMPO 0202/0206 FEW005 BKN008",
          "offset_h": 0,
          "wdir": null,
          "wspd": null
        },
        {
          "text": "BECMG 0300/0303 04010KT",
          "offset_h": 22,
          "wdir": 40,
          "wspd": 10
        }
      ],
      "metar_raw": "METAR RJTT 020200Z 36008KT 7000 -SHRA FEW004 BKN007 BKN010 22/21 Q1005 TEMPO 4000 -SHRA BR FEW003 BKN005",
      "metar_wdir": 360,
      "metar_wspd": 8,
      "metar_oat": 22,
      "metar_qnh": 1005,
      "hourly_oat": [
        22,
        22,
        23,
        24,
        24,
        24,
        24,
        24,
        23,
        23,
        22,
        22,
        22,
        22,
        22,
        21,
        21,
        21,
        21,
        21,
        22,
        22,
        23,
        24,
        24
      ]
    },
    "CTS": {
      "icao": "RJCC",
      "issued": "2026-07-01T23:05:00.000Z",
      "raw": "TAF RJCC 012305Z 0200/0306 17012KT 4000 -DZ BR FEW002 BKN006 BECMG 0200/0202 9999 NSW FEW008 BKN012 TEMPO 0207/0218 FEW003 BKN008",
      "groups": [
        {
          "text": "TAF RJCC 012305Z 0200/0306 17012KT 4000 -DZ BR FEW002 BKN006",
          "offset_h": -2,
          "wdir": 170,
          "wspd": 12
        },
        {
          "text": "BECMG 0200/0202 9999 NSW FEW008 BKN012",
          "offset_h": -2,
          "wdir": null,
          "wspd": null
        },
        {
          "text": "TEMPO 0207/0218 FEW003 BKN008",
          "offset_h": 5,
          "wdir": null,
          "wspd": null
        }
      ],
      "metar_raw": "METAR RJCC 020200Z 19015KT 9999 FEW006 BKN012 18/15 Q1012",
      "metar_wdir": 190,
      "metar_wspd": 15,
      "metar_oat": 18,
      "metar_qnh": 1012,
      "hourly_oat": [
        18,
        19,
        19,
        19,
        19,
        18,
        17,
        16,
        16,
        16,
        15,
        15,
        15,
        15,
        15,
        15,
        15,
        15,
        15,
        16,
        17,
        18,
        19,
        19,
        20
      ]
    },
    "OKA": {
      "icao": "ROAH",
      "issued": "2026-07-01T23:05:00.000Z",
      "raw": "TAF ROAH 012305Z 0200/0306 20008KT 9999 FEW015 TEMPO 0215/0221 FEW005 BKN008",
      "groups": [
        {
          "text": "TAF ROAH 012305Z 0200/0306 20008KT 9999 FEW015",
          "offset_h": -2,
          "wdir": 200,
          "wspd": 8
        },
        {
          "text": "TEMPO 0215/0221 FEW005 BKN008",
          "offset_h": 13,
          "wdir": null,
          "wspd": null
        }
      ],
      "metar_raw": "METAR ROAH 020200Z 19008KT 9999 FEW012 30/27 Q1013",
      "metar_wdir": 190,
      "metar_wspd": 8,
      "metar_oat": 30,
      "metar_qnh": 1013,
      "hourly_oat": [
        30,
        30,
        30,
        30,
        30,
        29,
        29,
        28,
        28,
        27,
        27,
        27,
        27,
        27,
        27,
        26,
        27,
        27,
        27,
        27,
        28,
        28,
        29,
        29,
        30
      ]
    },
    "NGO": {
      "icao": "RJGG",
      "issued": "2026-07-01T23:05:00.000Z",
      "raw": "TAF RJGG 012305Z 0200/0306 36008KT 9999 FEW005 BKN012 TEMPO 0200/0203 FEW002 BKN005 BECMG 0206/0208 30018KT BECMG 0300/0303 19008KT",
      "groups": [
        {
          "text": "TAF RJGG 012305Z 0200/0306 36008KT 9999 FEW005 BKN012",
          "offset_h": -2,
          "wdir": 360,
          "wspd": 8
        },
        {
          "text": "TEMPO 0200/0203 FEW002 BKN005",
          "offset_h": -2,
          "wdir": null,
          "wspd": null
        },
        {
          "text": "BECMG 0206/0208 30018KT",
          "offset_h": 4,
          "wdir": 300,
          "wspd": 18
        },
        {
          "text": "BECMG 0300/0303 19008KT",
          "offset_h": 22,
          "wdir": 190,
          "wspd": 8
        }
      ],
      "metar_raw": "METAR RJGG 020200Z 33006KT 9999 FEW007 SCT030 BKN/// 25/23 Q1005 TEMPO FM0300 FEW003 BKN007",
      "metar_wdir": 330,
      "metar_wspd": 6,
      "metar_oat": 25,
      "metar_qnh": 1005,
      "hourly_oat": [
        25,
        25,
        25,
        25,
        25,
        26,
        25,
        25,
        25,
        24,
        24,
        24,
        24,
        24,
        24,
        24,
        24,
        24,
        24,
        23,
        23,
        24,
        25,
        25,
        25
      ]
    },
    "ITM": {
      "icao": "RJOO",
      "issued": "2026-07-01T23:05:00.000Z",
      "raw": "TAF RJOO 012305Z 0200/0306 24008KT 9999 FEW020 SCT040 TEMPO 0200/0202 4000 -SHRA BR FEW003 BKN008 BKN015 BECMG 0205/0207 32012KT BECMG 0300/0303 22005KT",
      "groups": [
        {
          "text": "TAF RJOO 012305Z 0200/0306 24008KT 9999 FEW020 SCT040",
          "offset_h": -2,
          "wdir": 240,
          "wspd": 8
        },
        {
          "text": "TEMPO 0200/0202 4000 -SHRA BR FEW003 BKN008 BKN015",
          "offset_h": -2,
          "wdir": null,
          "wspd": null
        },
        {
          "text": "BECMG 0205/0207 32012KT",
          "offset_h": 3,
          "wdir": 320,
          "wspd": 12
        },
        {
          "text": "BECMG 0300/0303 22005KT",
          "offset_h": 22,
          "wdir": 220,
          "wspd": 5
        }
      ],
      "metar_raw": "METAR RJOO 020200Z 27007KT 220V300 9999 FEW008 BKN040 BKN/// 28/23 Q1005",
      "metar_wdir": 270,
      "metar_wspd": 7,
      "metar_oat": 28,
      "metar_qnh": 1005,
      "hourly_oat": [
        28,
        28,
        29,
        29,
        28,
        25,
        25,
        24,
        24,
        23,
        23,
        22,
        22,
        22,
        21,
        21,
        21,
        20,
        20,
        20,
        22,
        23,
        25,
        26,
        28
      ]
    },
    "NRT": {
      "icao": "RJAA",
      "issued": "2026-07-01T23:05:00.000Z",
      "raw": "TAF RJAA 012305Z 0200/0306 09010KT 8000 -SHRA FEW005 BKN012 TEMPO 0200/0206 2000 SHRA BR FEW001 BKN003 BECMG 0201/0203 01010KT TEMPO 0206/0215 FEW003 BKN008 TEMPO 0215/0221 4000 BR FEW001 BKN003 TEMPO 0221/0300 FEW003 BKN008",
      "groups": [
        {
          "text": "TAF RJAA 012305Z 0200/0306 09010KT 8000 -SHRA FEW005 BKN012",
          "offset_h": -2,
          "wdir": 90,
          "wspd": 10
        },
        {
          "text": "TEMPO 0200/0206 2000 SHRA BR FEW001 BKN003",
          "offset_h": -2,
          "wdir": null,
          "wspd": null
        },
        {
          "text": "BECMG 0201/0203 01010KT",
          "offset_h": -1,
          "wdir": 10,
          "wspd": 10
        },
        {
          "text": "TEMPO 0206/0215 FEW003 BKN008",
          "offset_h": 4,
          "wdir": null,
          "wspd": null
        },
        {
          "text": "TEMPO 0215/0221 4000 BR FEW001 BKN003",
          "offset_h": 13,
          "wdir": null,
          "wspd": null
        },
        {
          "text": "TEMPO 0221/0300 FEW003 BKN008",
          "offset_h": 19,
          "wdir": null,
          "wspd": null
        }
      ],
      "metar_raw": "METAR RJAA 020200Z 11011KT 7000 -SHRA FEW003 BKN005 BKN008 22/21 Q1005 TEMPO 4000 -SHRA BR BECMG 05006KT",
      "metar_wdir": 110,
      "metar_wspd": 11,
      "metar_oat": 22,
      "metar_qnh": 1005,
      "hourly_oat": [
        21,
        21,
        22,
        23,
        23,
        24,
        23,
        22,
        22,
        21,
        21,
        21,
        20,
        20,
        20,
        21,
        21,
        21,
        21,
        21,
        21,
        22,
        23,
        23,
        24
      ]
    },
    "GMP": {
      "icao": "RKSS",
      "issued": "2026-07-01T23:00:00.000Z",
      "raw": "TAF RKSS 012300Z 0200/0306 25007KT 9999 SCT040 TX31/0205Z TN22/0220Z TX30/0306Z TEMPO 0205/0207 6000 -SHRA FEW010CB BKN025 OVC070 BECMG 0211/0213 19005KT 6000 SCT010 BECMG 0218/0220 4000 BR SCT010 BKN025 BECMG 0221/0223 6000 NSW BKN035 BECMG 0300/0302 25007KT 9999",
      "groups": [
        {
          "text": "TAF RKSS 012300Z 0200/0306 25007KT 9999 SCT040 TX31/0205Z TN22/0220Z TX30/0306Z",
          "offset_h": -2,
          "wdir": 250,
          "wspd": 7
        },
        {
          "text": "TEMPO 0205/0207 6000 -SHRA FEW010CB BKN025 OVC070",
          "offset_h": 3,
          "wdir": null,
          "wspd": null
        },
        {
          "text": "BECMG 0211/0213 19005KT 6000 SCT010",
          "offset_h": 9,
          "wdir": 190,
          "wspd": 5
        },
        {
          "text": "BECMG 0218/0220 4000 BR SCT010 BKN025",
          "offset_h": 16,
          "wdir": null,
          "wspd": null
        },
        {
          "text": "BECMG 0221/0223 6000 NSW BKN035",
          "offset_h": 19,
          "wdir": null,
          "wspd": null
        },
        {
          "text": "BECMG 0300/0302 25007KT 9999",
          "offset_h": 22,
          "wdir": 250,
          "wspd": 7
        }
      ],
      "metar_raw": "METAR RKSS 020200Z 15008KT 130V190 CAVOK 26/18 Q1010 NOSIG",
      "metar_wdir": 150,
      "metar_wspd": 8,
      "metar_oat": 26,
      "metar_qnh": 1010,
      "hourly_oat": [
        25,
        26,
        27,
        26,
        26,
        26,
        26,
        25,
        24,
        23,
        23,
        22,
        22,
        21,
        21,
        21,
        20,
        20,
        20,
        21,
        21,
        22,
        23,
        24,
        26
      ]
    },
    "CGK": {
      "icao": "WIII",
      "issued": "2026-07-01T23:00:00.000Z",
      "raw": "TAF WIII 012300Z 0200/0306 17005KT 5000 HZ SCT020 BECMG 0201/0203 03010KT 8000 NSW",
      "groups": [
        {
          "text": "TAF WIII 012300Z 0200/0306 17005KT 5000 HZ SCT020",
          "offset_h": -2,
          "wdir": 170,
          "wspd": 5
        },
        {
          "text": "BECMG 0201/0203 03010KT 8000 NSW",
          "offset_h": -1,
          "wdir": 30,
          "wspd": 10
        }
      ],
      "metar_raw": "METAR WIII 020200Z 21005KT 5000 HZ FEW020 31/22 Q1012 NOSIG",
      "metar_wdir": 210,
      "metar_wspd": 5,
      "metar_oat": 31,
      "metar_qnh": 1012,
      "hourly_oat": [
        29,
        31,
        32,
        34,
        34,
        33,
        32,
        31,
        30,
        28,
        28,
        28,
        28,
        28,
        27,
        27,
        26,
        26,
        26,
        25,
        25,
        24,
        25,
        28,
        30
      ]
    },
    "KUL": {
      "icao": "WMKK",
      "issued": "2026-07-01T23:00:00.000Z",
      "raw": "TAF WMKK 012300Z 0200/0306 VRB03KT 9999 FEW018",
      "groups": [
        {
          "text": "TAF WMKK 012300Z 0200/0306 VRB03KT 9999 FEW018",
          "offset_h": -2,
          "wdir": "VRB",
          "wspd": 3
        }
      ],
      "metar_raw": "METAR WMKK 020200Z 14004KT 060V230 9000 FEW017CB 30/25 Q1009 NOSIG",
      "metar_wdir": 140,
      "metar_wspd": 4,
      "metar_oat": 30,
      "metar_qnh": 1009,
      "hourly_oat": [
        29,
        29,
        30,
        30,
        30,
        29,
        29,
        30,
        29,
        28,
        27,
        27,
        27,
        26,
        26,
        26,
        26,
        26,
        26,
        25,
        25,
        25,
        26,
        27,
        28
      ]
    },
    "HAN": {
      "icao": "VVNB",
      "issued": "2026-07-01T23:00:00.000Z",
      "raw": "TAF VVNB 012300Z 0200/0224 09005KT 9999 FEW020 TEMPO 0201/0205 2500 +TSRA BKN010 FEW027CB TEMPO 0208/0212 3500 TSRA SCT012 FEW027CB TEMPO 0220/0224 4000 TSRA SCT015 FEW027CB",
      "groups": [
        {
          "text": "TAF VVNB 012300Z 0200/0224 09005KT 9999 FEW020",
          "offset_h": -2,
          "wdir": 90,
          "wspd": 5
        },
        {
          "text": "TEMPO 0201/0205 2500 +TSRA BKN010 FEW027CB",
          "offset_h": -1,
          "wdir": null,
          "wspd": null
        },
        {
          "text": "TEMPO 0208/0212 3500 TSRA SCT012 FEW027CB",
          "offset_h": 6,
          "wdir": null,
          "wspd": null
        },
        {
          "text": "TEMPO 0220/0224 4000 TSRA SCT015 FEW027CB",
          "offset_h": 18,
          "wdir": null,
          "wspd": null
        }
      ],
      "metar_raw": "METAR VVNB 020200Z 06008KT 9999 FEW019 BKN028 BKN036 31/26 Q1007 NOSIG",
      "metar_wdir": 60,
      "metar_wspd": 8,
      "metar_oat": 31,
      "metar_qnh": 1007,
      "hourly_oat": [
        28,
        29,
        30,
        28,
        30,
        30,
        31,
        31,
        31,
        30,
        29,
        28,
        28,
        27,
        27,
        26,
        26,
        25,
        25,
        25,
        25,
        25,
        26,
        27,
        29
      ]
    },
    "SGN": {
      "icao": "VVTS",
      "issued": "2026-07-01T23:00:00.000Z",
      "raw": "TAF VVTS 012300Z 0200/0306 24010KT 9999 SCT017 TEMPO 0205/0208 24016G28KT 4000 SHRA SCT015 FEW017CB TEMPO 0213/0216 5000 SHRA SCT015 FEW017CB BKN040",
      "groups": [
        {
          "text": "TAF VVTS 012300Z 0200/0306 24010KT 9999 SCT017",
          "offset_h": -2,
          "wdir": 240,
          "wspd": 10
        },
        {
          "text": "TEMPO 0205/0208 24016G28KT 4000 SHRA SCT015 FEW017CB",
          "offset_h": 3,
          "wdir": 240,
          "wspd": 16
        },
        {
          "text": "TEMPO 0213/0216 5000 SHRA SCT015 FEW017CB BKN040",
          "offset_h": 11,
          "wdir": null,
          "wspd": null
        }
      ],
      "metar_raw": "METAR VVTS 020200Z 24011KT 9999 SCT022 BKN078 30/26 Q1008 NOSIG",
      "metar_wdir": 240,
      "metar_wspd": 11,
      "metar_oat": 30,
      "metar_qnh": 1008,
      "hourly_oat": [
        25,
        27,
        28,
        28,
        30,
        27,
        28,
        26,
        26,
        26,
        26,
        25,
        25,
        25,
        25,
        25,
        25,
        25,
        25,
        25,
        25,
        25,
        26,
        27,
        28
      ]
    },
    "TSA": {
      "icao": "RCSS",
      "issued": "2026-07-01T23:00:00.000Z",
      "raw": "TAF RCSS 012300Z 0200/0224 09005KT 9999 FEW015 BKN032 TEMPO 0204/0210 28008KT FEW010 FEW015TCU BKN020",
      "groups": [
        {
          "text": "TAF RCSS 012300Z 0200/0224 09005KT 9999 FEW015 BKN032",
          "offset_h": -2,
          "wdir": 90,
          "wspd": 5
        },
        {
          "text": "TEMPO 0204/0210 28008KT FEW010 FEW015TCU BKN020",
          "offset_h": 2,
          "wdir": 280,
          "wspd": 8
        }
      ],
      "metar_raw": "METAR RCSS 020200Z VRB04KT 9999 FEW028 SCT050 BKN220 34/27 Q1011 NOSIG RMK A2986",
      "metar_wdir": "VRB",
      "metar_wspd": 4,
      "metar_oat": 34,
      "metar_qnh": 1011,
      "hourly_oat": [
        33,
        34,
        34,
        35,
        34,
        33,
        32,
        31,
        30,
        29,
        28,
        28,
        27,
        27,
        26,
        26,
        26,
        26,
        26,
        25,
        26,
        28,
        30,
        31,
        33
      ]
    },
    "TPE": {
      "icao": "RCTP",
      "issued": "2026-07-01T23:00:00.000Z",
      "raw": "TAF RCTP 012300Z 0200/0306 35005KT 9999 FEW015 BKN032 TEMPO 0204/0210 31010KT FEW010 BKN022 BKN040 BECMG 0210/0212 22005KT TEMPO 0218/0224 16005KT BECMG 0300/0302 32005KT",
      "groups": [
        {
          "text": "TAF RCTP 012300Z 0200/0306 35005KT 9999 FEW015 BKN032",
          "offset_h": -2,
          "wdir": 350,
          "wspd": 5
        },
        {
          "text": "TEMPO 0204/0210 31010KT FEW010 BKN022 BKN040",
          "offset_h": 2,
          "wdir": 310,
          "wspd": 10
        },
        {
          "text": "BECMG 0210/0212 22005KT",
          "offset_h": 8,
          "wdir": 220,
          "wspd": 5
        },
        {
          "text": "TEMPO 0218/0224 16005KT",
          "offset_h": 16,
          "wdir": 160,
          "wspd": 5
        },
        {
          "text": "BECMG 0300/0302 32005KT",
          "offset_h": 22,
          "wdir": 320,
          "wspd": 5
        }
      ],
      "metar_raw": "METAR RCTP 020200Z 29007KT 9999 FEW015 SCT022 33/26 Q1011 NOSIG RMK A2987",
      "metar_wdir": 290,
      "metar_wspd": 7,
      "metar_oat": 33,
      "metar_qnh": 1011,
      "hourly_oat": [
        30,
        30,
        30,
        30,
        30,
        30,
        30,
        30,
        29,
        28,
        28,
        28,
        27,
        27,
        27,
        27,
        26,
        26,
        26,
        26,
        26,
        28,
        29,
        30,
        30
      ]
    },
    "BKK": {
      "icao": "VTBS",
      "issued": "2026-07-01T23:00:00.000Z",
      "raw": "TAF VTBS 012300Z 0200/0306 13005KT 9999 FEW020 BECMG 0202/0204 22008KT TEMPO 0203/0207 VRB10G25KT 4000 TSRA FEW018CB SCT030 BKN100 TEMPO 0210/0216 VRB10G25KT 4000 TSRA FEW018CB SCT030 BKN100",
      "groups": [
        {
          "text": "TAF VTBS 012300Z 0200/0306 13005KT 9999 FEW020",
          "offset_h": -2,
          "wdir": 130,
          "wspd": 5
        },
        {
          "text": "BECMG 0202/0204 22008KT",
          "offset_h": 0,
          "wdir": 220,
          "wspd": 8
        },
        {
          "text": "TEMPO 0203/0207 VRB10G25KT 4000 TSRA FEW018CB SCT030 BKN100",
          "offset_h": 1,
          "wdir": "VRB",
          "wspd": 10
        },
        {
          "text": "TEMPO 0210/0216 VRB10G25KT 4000 TSRA FEW018CB SCT030 BKN100",
          "offset_h": 8,
          "wdir": "VRB",
          "wspd": 10
        }
      ],
      "metar_raw": "METAR VTBS 020200Z 20004KT 160V220 9999 FEW020 30/24 Q1007 NOSIG",
      "metar_wdir": 200,
      "metar_wspd": 4,
      "metar_oat": 30,
      "metar_qnh": 1007,
      "hourly_oat": [
        29,
        31,
        28,
        28,
        28,
        29,
        30,
        28,
        27,
        26,
        26,
        26,
        27,
        27,
        27,
        27,
        27,
        27,
        26,
        26,
        26,
        26,
        27,
        28,
        29
      ]
    },
    "SIN": {
      "icao": "WSSS",
      "issued": "2026-07-01T23:00:00.000Z",
      "raw": "TAF WSSS 012300Z 0200/0306 20007KT 9999 FEW015 SCT020",
      "groups": [
        {
          "text": "TAF WSSS 012300Z 0200/0306 20007KT 9999 FEW015 SCT020",
          "offset_h": -2,
          "wdir": 200,
          "wspd": 7
        }
      ],
      "metar_raw": "METAR WSSS 020200Z 15005KT 9999 FEW016 BKN160 27/24 Q1011 NOSIG",
      "metar_wdir": 150,
      "metar_wspd": 5,
      "metar_oat": 27,
      "metar_qnh": 1011,
      "hourly_oat": [
        29,
        30,
        31,
        31,
        31,
        31,
        30,
        29,
        30,
        29,
        28,
        28,
        27,
        27,
        27,
        27,
        28,
        28,
        28,
        28,
        28,
        28,
        28,
        28,
        29
      ]
    },
    "PEK": {
      "icao": "ZBAA",
      "issued": "2026-07-01T21:08:00.000Z",
      "raw": "TAF ZBAA 012108Z 0200/0306 15004MPS 5000 BR NSC TX34/0207Z TX35/0306Z TN23/0221Z",
      "groups": [
        {
          "text": "TAF ZBAA 012108Z 0200/0306 15004MPS 5000 BR NSC TX34/0207Z TX35/0306Z TN23/0221Z",
          "offset_h": -2,
          "wdir": null,
          "wspd": null
        }
      ],
      "metar_raw": "METAR ZBAA 020200Z VRB02MPS 4000 HZ NSC 29/23 Q1006 NOSIG",
      "metar_wdir": null,
      "metar_wspd": null,
      "metar_oat": 29,
      "metar_qnh": 1006,
      "hourly_oat": [
        28,
        30,
        31,
        32,
        33,
        33,
        33,
        33,
        32,
        31,
        29,
        28,
        27,
        26,
        25,
        25,
        24,
        24,
        24,
        23,
        24,
        26,
        27,
        29,
        30
      ]
    },
    "DLC": {
      "icao": "ZYTL",
      "issued": "2026-07-01T21:06:00.000Z",
      "raw": "TAF ZYTL 012106Z 0200/0224 16004MPS 5000 BR SCT011 BKN026 TX27/0206Z TN20/0221Z",
      "groups": [
        {
          "text": "TAF ZYTL 012106Z 0200/0224 16004MPS 5000 BR SCT011 BKN026 TX27/0206Z TN20/0221Z",
          "offset_h": -2,
          "wdir": null,
          "wspd": null
        }
      ],
      "metar_raw": "METAR ZYTL 020200Z 14003MPS 070V190 6000 SCT010 SCT033 24/21 Q1009 NOSIG",
      "metar_wdir": null,
      "metar_wspd": null,
      "metar_oat": 24,
      "metar_qnh": 1009,
      "hourly_oat": [
        27,
        27,
        28,
        28,
        28,
        28,
        28,
        27,
        26,
        24,
        24,
        23,
        23,
        23,
        23,
        23,
        23,
        23,
        23,
        23,
        24,
        26,
        28,
        30,
        31
      ]
    },
    "PVG": {
      "icao": "ZSPD",
      "issued": "2026-07-01T21:04:00.000Z",
      "raw": "TAF ZSPD 012104Z 0200/0306 19004MPS 6000 BKN015 TX28/0206Z TX29/0306Z TN24/0221Z",
      "groups": [
        {
          "text": "TAF ZSPD 012104Z 0200/0306 19004MPS 6000 BKN015 TX28/0206Z TX29/0306Z TN24/0221Z",
          "offset_h": -2,
          "wdir": null,
          "wspd": null
        }
      ],
      "metar_raw": "METAR ZSPD 020200Z 17003MPS 9999 SCT016 28/25 Q1010 NOSIG",
      "metar_wdir": null,
      "metar_wspd": null,
      "metar_oat": 28,
      "metar_qnh": 1010,
      "hourly_oat": [
        29,
        29,
        28,
        28,
        27,
        27,
        26,
        26,
        25,
        25,
        25,
        25,
        25,
        25,
        25,
        24,
        25,
        25,
        25,
        25,
        25,
        27,
        27,
        28,
        29
      ]
    },
    "SHA": {
      "icao": "ZSSS",
      "issued": "2026-07-01T21:03:00.000Z",
      "raw": "TAF ZSSS 012103Z 0200/0306 19004MPS 6000 BKN020 TX29/0206Z TX30/0306Z TN25/0221Z",
      "groups": [
        {
          "text": "TAF ZSSS 012103Z 0200/0306 19004MPS 6000 BKN020 TX29/0206Z TX30/0306Z TN25/0221Z",
          "offset_h": -2,
          "wdir": null,
          "wspd": null
        }
      ],
      "metar_raw": "METAR ZSSS 020200Z 18002MPS 150V230 9999 BKN015 29/24 Q1010 NOSIG",
      "metar_wdir": null,
      "metar_wspd": null,
      "metar_oat": 29,
      "metar_qnh": 1010,
      "hourly_oat": [
        29,
        30,
        28,
        28,
        27,
        27,
        27,
        26,
        26,
        25,
        25,
        25,
        25,
        25,
        25,
        25,
        25,
        25,
        25,
        25,
        25,
        26,
        27,
        27,
        30
      ]
    },
    "CAN": {
      "icao": "ZGGG",
      "issued": "2026-07-01T21:01:00.000Z",
      "raw": "TAF ZGGG 012101Z 0200/0306 13004MPS 8000 SCT040 TX32/0207Z TX31/0306Z TN25/0222Z TEMPO 0205/0209 TSRA SCT026CB BKN033 TEMPO 0304/0306 TSRA SCT026CB BKN033",
      "groups": [
        {
          "text": "TAF ZGGG 012101Z 0200/0306 13004MPS 8000 SCT040 TX32/0207Z TX31/0306Z TN25/0222Z",
          "offset_h": -2,
          "wdir": null,
          "wspd": null
        },
        {
          "text": "TEMPO 0205/0209 TSRA SCT026CB BKN033",
          "offset_h": 3,
          "wdir": null,
          "wspd": null
        },
        {
          "text": "TEMPO 0304/0306 TSRA SCT026CB BKN033",
          "offset_h": 26,
          "wdir": null,
          "wspd": null
        }
      ],
      "metar_raw": "METAR ZGGG 020200Z 10003MPS 060V130 9999 BKN026 31/26 Q1010 NOSIG",
      "metar_wdir": null,
      "metar_wspd": null,
      "metar_oat": 31,
      "metar_qnh": 1010,
      "hourly_oat": [
        28,
        30,
        33,
        34,
        34,
        33,
        33,
        33,
        32,
        30,
        30,
        29,
        28,
        28,
        27,
        27,
        27,
        26,
        26,
        26,
        26,
        27,
        28,
        29,
        30
      ]
    }
  }
}