{
  "updated": "2026-07-08T01:30:25Z",
  "tafs": {
    "SIN": {
      "icao": "WSSS",
      "issued": "2026-07-08T01:30:00.000Z",
      "raw": "TAF AMD WSSS 080130Z 0801/0906 16008KT 9999 FEW015 SCT020",
      "groups": [
        {
          "text": "TAF AMD WSSS 080130Z 0801/0906 16008KT 9999 FEW015 SCT020",
          "offset_h": 0,
          "wdir": 160,
          "wspd": 8
        }
      ],
      "metar_raw": "METAR WSSS 080100Z 17008KT 7000 -TSRA SCT012 FEW015CB FEW016TCU BKN160 27/24 Q1013 BECMG FM0115 TL0130 NSW",
      "metar_wdir": 170,
      "metar_wspd": 8,
      "metar_oat": 27,
      "metar_qnh": 1013,
      "hourly_oat": [
        27,
        28,
        29,
        30,
        30,
        30,
        29,
        28,
        28,
        28,
        28,
        27,
        27,
        28,
        27,
        27,
        27,
        27,
        27,
        26,
        27,
        27,
        27,
        27,
        28
      ]
    },
    "NGO": {
      "icao": "RJGG",
      "issued": "2026-07-08T00:25:00.000Z",
      "raw": "TAF AMD RJGG 080025Z 0800/0906 27006KT 9999 FEW030 BECMG 0801/0803 14008KT",
      "groups": [
        {
          "text": "TAF AMD RJGG 080025Z 0800/0906 27006KT 9999 FEW030",
          "offset_h": -1,
          "wdir": 270,
          "wspd": 6
        },
        {
          "text": "BECMG 0801/0803 14008KT",
          "offset_h": 0,
          "wdir": 140,
          "wspd": 8
        }
      ],
      "metar_raw": "METAR RJGG 080100Z 26004KT 9999 FEW015 BKN/// 25/22 Q1014 BECMG TL0130 21006KT",
      "metar_wdir": 260,
      "metar_wspd": 4,
      "metar_oat": 25,
      "metar_qnh": 1014,
      "hourly_oat": [
        24,
        24,
        24,
        24,
        24,
        24,
        24,
        24,
        24,
        24,
        24,
        24,
        23,
        23,
        23,
        23,
        23,
        23,
        23,
        22,
        22,
        23,
        23,
        23,
        23
      ]
    },
    "LAX": {
      "icao": "KLAX",
      "issued": "2026-07-07T23:50:00.000Z",
      "raw": "TAF KLAX 072350Z 0800/0906 26015KT P6SM FEW010 SCT030 FM080300 25006KT P6SM SKC FM080900 VRB03KT P6SM SCT008 FM081700 25012KT P6SM SKC FM090300 26006KT P6SM SKC",
      "groups": [
        {
          "text": "TAF KLAX 072350Z 0800/0906 26015KT P6SM FEW010 SCT030",
          "offset_h": -1,
          "wdir": 260,
          "wspd": 15
        },
        {
          "text": "FM080300 25006KT P6SM SKC",
          "offset_h": 2,
          "wdir": 250,
          "wspd": 6
        },
        {
          "text": "FM080900 VRB03KT P6SM SCT008",
          "offset_h": 8,
          "wdir": "VRB",
          "wspd": 3
        },
        {
          "text": "FM081700 25012KT P6SM SKC",
          "offset_h": 16,
          "wdir": 250,
          "wspd": 12
        },
        {
          "text": "FM090300 26006KT P6SM SKC",
          "offset_h": 26,
          "wdir": 260,
          "wspd": 6
        }
      ],
      "metar_raw": "METAR KLAX 080053Z 24012KT 10SM CLR 22/14 A2991 RMK AO2 SLP126 T02220144 $",
      "metar_wdir": 240,
      "metar_wspd": 12,
      "metar_oat": 22,
      "metar_qnh": 1013,
      "hourly_oat": [
        22,
        21,
        20,
        18,
        18,
        17,
        16,
        16,
        16,
        15,
        14,
        14,
        14,
        16,
        20,
        23,
        25,
        24,
        24,
        24,
        24,
        24,
        23,
        24,
        24
      ]
    },
    "HNL": {
      "icao": "PHNL",
      "issued": "2026-07-07T23:20:00.000Z",
      "raw": "TAF PHNL 072320Z 0800/0906 05018G26KT P6SM SCT025 SCT040 FM080500 05014G22KT P6SM SCT025 SCT040 FM081000 05011KT P6SM SCT025 SCT040 FM081800 06018G26KT P6SM FEW025 SCT040 FM090500 05014G22KT P6SM SCT025 SCT040",
      "groups": [
        {
          "text": "TAF PHNL 072320Z 0800/0906 05018G26KT P6SM SCT025 SCT040",
          "offset_h": -1,
          "wdir": 50,
          "wspd": 18
        },
        {
          "text": "FM080500 05014G22KT P6SM SCT025 SCT040",
          "offset_h": 4,
          "wdir": 50,
          "wspd": 14
        },
        {
          "text": "FM081000 05011KT P6SM SCT025 SCT040",
          "offset_h": 9,
          "wdir": 50,
          "wspd": 11
        },
        {
          "text": "FM081800 06018G26KT P6SM FEW025 SCT040",
          "offset_h": 17,
          "wdir": 60,
          "wspd": 18
        },
        {
          "text": "FM090500 05014G22KT P6SM SCT025 SCT040",
          "offset_h": 28,
          "wdir": 50,
          "wspd": 14
        }
      ],
      "metar_raw": "METAR PHNL 080053Z 05013G21KT 10SM FEW028 SCT040 SCT250 30/18 A3001 RMK AO2 PK WND 04026/0030 SLP160 T03000183 $",
      "metar_wdir": 50,
      "metar_wspd": 13,
      "metar_oat": 30,
      "metar_qnh": 1016,
      "hourly_oat": [
        29,
        28,
        27,
        25,
        24,
        24,
        24,
        23,
        23,
        23,
        22,
        23,
        23,
        23,
        23,
        23,
        24,
        26,
        27,
        28,
        28,
        29,
        30,
        29,
        29
      ]
    },
    "SAN": {
      "icao": "KSAN",
      "issued": "2026-07-07T23:20:00.000Z",
      "raw": "TAF KSAN 072320Z 0800/0906 30007KT P6SM FEW017 FM080600 VRB03KT P6SM BKN011 FM081600 VRB04KT P6SM FEW015 FM081800 27011KT P6SM SKC FM090200 VRB04KT P6SM FEW010",
      "groups": [
        {
          "text": "TAF KSAN 072320Z 0800/0906 30007KT P6SM FEW017",
          "offset_h": -1,
          "wdir": 300,
          "wspd": 7
        },
        {
          "text": "FM080600 VRB03KT P6SM BKN011",
          "offset_h": 5,
          "wdir": "VRB",
          "wspd": 3
        },
        {
          "text": "FM081600 VRB04KT P6SM FEW015",
          "offset_h": 15,
          "wdir": "VRB",
          "wspd": 4
        },
        {
          "text": "FM081800 27011KT P6SM SKC",
          "offset_h": 17,
          "wdir": 270,
          "wspd": 11
        },
        {
          "text": "FM090200 VRB04KT P6SM FEW010",
          "offset_h": 25,
          "wdir": "VRB",
          "wspd": 4
        }
      ],
      "metar_raw": "METAR KSAN 080051Z 30008KT 10SM FEW017 22/17 A2994 RMK AO2 SLP136 T02170167 $",
      "metar_wdir": 300,
      "metar_wspd": 8,
      "metar_oat": 22,
      "metar_qnh": 1014,
      "hourly_oat": [
        21,
        20,
        20,
        20,
        19,
        18,
        18,
        19,
        19,
        18,
        18,
        18,
        18,
        18,
        19,
        20,
        21,
        24,
        24,
        25,
        25,
        24,
        24,
        23,
        22
      ]
    },
    "OKA": {
      "icao": "ROAH",
      "issued": "2026-07-07T23:05:00.000Z",
      "raw": "TAF ROAH 072305Z 0800/0906 01014KT 9999 FEW015 SCT025 BECMG 0900/0903 07014KT",
      "groups": [
        {
          "text": "TAF ROAH 072305Z 0800/0906 01014KT 9999 FEW015 SCT025",
          "offset_h": -1,
          "wdir": 10,
          "wspd": 14
        },
        {
          "text": "BECMG 0900/0903 07014KT",
          "offset_h": 23,
          "wdir": 70,
          "wspd": 14
        }
      ],
      "metar_raw": "METAR ROAH 080100Z 05009KT 9999 FEW025 31/25 Q1009",
      "metar_wdir": 50,
      "metar_wspd": 9,
      "metar_oat": 31,
      "metar_qnh": 1009,
      "hourly_oat": [
        31,
        32,
        33,
        33,
        33,
        33,
        32,
        31,
        30,
        29,
        29,
        29,
        29,
        28,
        28,
        28,
        28,
        28,
        28,
        28,
        28,
        28,
        29,
        31,
        31
      ]
    },
    "FUK": {
      "icao": "RJFF",
      "issued": "2026-07-07T23:05:00.000Z",
      "raw": "TAF RJFF 072305Z 0800/0906 16012KT 9999 FEW025 SCT035 BECMG 0802/0804 34012KT BECMG 0812/0815 14004KT BECMG 0900/0903 31010KT",
      "groups": [
        {
          "text": "TAF RJFF 072305Z 0800/0906 16012KT 9999 FEW025 SCT035",
          "offset_h": -1,
          "wdir": 160,
          "wspd": 12
        },
        {
          "text": "BECMG 0802/0804 34012KT",
          "offset_h": 1,
          "wdir": 340,
          "wspd": 12
        },
        {
          "text": "BECMG 0812/0815 14004KT",
          "offset_h": 11,
          "wdir": 140,
          "wspd": 4
        },
        {
          "text": "BECMG 0900/0903 31010KT",
          "offset_h": 23,
          "wdir": 310,
          "wspd": 10
        }
      ],
      "metar_raw": "METAR RJFF 080100Z 13010KT 9999 FEW020 SCT040 BKN050 31/25 Q1011 NOSIG",
      "metar_wdir": 130,
      "metar_wspd": 10,
      "metar_oat": 31,
      "metar_qnh": 1011,
      "hourly_oat": [
        31,
        32,
        32,
        31,
        30,
        29,
        29,
        29,
        29,
        29,
        28,
        28,
        27,
        27,
        26,
        26,
        26,
        26,
        26,
        25,
        25,
        26,
        27,
        29,
        30
      ]
    },
    "CTS": {
      "icao": "RJCC",
      "issued": "2026-07-07T23:05:00.000Z",
      "raw": "TAF RJCC 072305Z 0800/0906 17012KT 9999 FEW008 BKN015 TEMPO 0806/0809 FEW005 BKN008 TEMPO 0809/0815 4000 BR FEW003 BKN005 TEMPO 0815/0900 1500 -SHRA BR FEW001 BKN003 TEMPO 0900/0906 3000 -SHRA BR FEW003 BKN005",
      "groups": [
        {
          "text": "TAF RJCC 072305Z 0800/0906 17012KT 9999 FEW008 BKN015",
          "offset_h": -1,
          "wdir": 170,
          "wspd": 12
        },
        {
          "text": "TEMPO 0806/0809 FEW005 BKN008",
          "offset_h": 5,
          "wdir": null,
          "wspd": null
        },
        {
          "text": "TEMPO 0809/0815 4000 BR FEW003 BKN005",
          "offset_h": 8,
          "wdir": null,
          "wspd": null
        },
        {
          "text": "TEMPO 0815/0900 1500 -SHRA BR FEW001 BKN003",
          "offset_h": 14,
          "wdir": null,
          "wspd": null
        },
        {
          "text": "TEMPO 0900/0906 3000 -SHRA BR FEW003 BKN005",
          "offset_h": 23,
          "wdir": null,
          "wspd": null
        }
      ],
      "metar_raw": "METAR RJCC 080100Z 19012KT 9999 FEW007 BKN010 BKN/// 21/18 Q1015",
      "metar_wdir": 190,
      "metar_wspd": 12,
      "metar_oat": 21,
      "metar_qnh": 1015,
      "hourly_oat": [
        22,
        22,
        23,
        23,
        23,
        22,
        21,
        20,
        19,
        19,
        18,
        18,
        18,
        18,
        18,
        18,
        18,
        18,
        18,
        18,
        19,
        19,
        19,
        19,
        19
      ]
    },
    "NRT": {
      "icao": "RJAA",
      "issued": "2026-07-07T23:05:00.000Z",
      "raw": "TAF RJAA 072305Z 0800/0906 13010KT 9999 FEW015 BKN030",
      "groups": [
        {
          "text": "TAF RJAA 072305Z 0800/0906 13010KT 9999 FEW015 BKN030",
          "offset_h": -1,
          "wdir": 130,
          "wspd": 10
        }
      ],
      "metar_raw": "METAR RJAA 080100Z 05005KT 350V100 9999 SCT030 BKN/// 26/18 Q1014 BECMG 08006KT",
      "metar_wdir": 50,
      "metar_wspd": 5,
      "metar_oat": 26,
      "metar_qnh": 1014,
      "hourly_oat": [
        26,
        27,
        27,
        27,
        26,
        26,
        25,
        25,
        24,
        23,
        22,
        22,
        22,
        21,
        21,
        21,
        20,
        20,
        20,
        20,
        21,
        23,
        24,
        26,
        27
      ]
    },
    "KIX": {
      "icao": "RJBB",
      "issued": "2026-07-07T23:05:00.000Z",
      "raw": "TAF RJBB 072305Z 0800/0906 34006KT 9999 FEW015 SCT040 BECMG 0804/0806 22008KT BECMG 0821/0900 34004KT BECMG 0903/0906 25012KT",
      "groups": [
        {
          "text": "TAF RJBB 072305Z 0800/0906 34006KT 9999 FEW015 SCT040",
          "offset_h": -1,
          "wdir": 340,
          "wspd": 6
        },
        {
          "text": "BECMG 0804/0806 22008KT",
          "offset_h": 3,
          "wdir": 220,
          "wspd": 8
        },
        {
          "text": "BECMG 0821/0900 34004KT",
          "offset_h": 20,
          "wdir": 340,
          "wspd": 4
        },
        {
          "text": "BECMG 0903/0906 25012KT",
          "offset_h": 26,
          "wdir": 250,
          "wspd": 12
        }
      ],
      "metar_raw": "METAR RJBB 080100Z 34006KT 9999 FEW020 SCT035 BKN/// 26/23 Q1013 BECMG 30005KT",
      "metar_wdir": 340,
      "metar_wspd": 6,
      "metar_oat": 26,
      "metar_qnh": 1013,
      "hourly_oat": [
        24,
        24,
        24,
        25,
        25,
        25,
        25,
        25,
        25,
        25,
        25,
        25,
        25,
        25,
        25,
        25,
        24,
        24,
        24,
        24,
        24,
        24,
        24,
        24,
        24
      ]
    },
    "HND": {
      "icao": "RJTT",
      "issued": "2026-07-07T23:05:00.000Z",
      "raw": "TAF RJTT 072305Z 0800/0906 07004KT 9999 FEW020 SCT040 BECMG 0805/0807 18010KT",
      "groups": [
        {
          "text": "TAF RJTT 072305Z 0800/0906 07004KT 9999 FEW020 SCT040",
          "offset_h": -1,
          "wdir": 70,
          "wspd": 4
        },
        {
          "text": "BECMG 0805/0807 18010KT",
          "offset_h": 4,
          "wdir": 180,
          "wspd": 10
        }
      ],
      "metar_raw": "METAR RJTT 080100Z 07003KT 030V100 9999 FEW010 BKN/// 25/19 Q1015 NOSIG",
      "metar_wdir": 70,
      "metar_wspd": 3,
      "metar_oat": 25,
      "metar_qnh": 1015,
      "hourly_oat": [
        25,
        26,
        27,
        28,
        28,
        28,
        28,
        26,
        25,
        25,
        24,
        24,
        24,
        24,
        23,
        23,
        23,
        22,
        22,
        22,
        23,
        23,
        24,
        25,
        26
      ]
    },
    "ITM": {
      "icao": "RJOO",
      "issued": "2026-07-07T23:05:00.000Z",
      "raw": "TAF RJOO 072305Z 0800/0906 13006KT 9999 FEW015 BKN030 BECMG 0803/0805 24006KT BECMG 0815/0818 09006KT",
      "groups": [
        {
          "text": "TAF RJOO 072305Z 0800/0906 13006KT 9999 FEW015 BKN030",
          "offset_h": -1,
          "wdir": 130,
          "wspd": 6
        },
        {
          "text": "BECMG 0803/0805 24006KT",
          "offset_h": 2,
          "wdir": 240,
          "wspd": 6
        },
        {
          "text": "BECMG 0815/0818 09006KT",
          "offset_h": 14,
          "wdir": 90,
          "wspd": 6
        }
      ],
      "metar_raw": "METAR RJOO 080100Z VRB04KT 9999 FEW025 SCT035 BKN/// 28/20 Q1013",
      "metar_wdir": "VRB",
      "metar_wspd": 4,
      "metar_oat": 28,
      "metar_qnh": 1013,
      "hourly_oat": [
        26,
        27,
        28,
        28,
        28,
        28,
        28,
        27,
        26,
        25,
        25,
        25,
        25,
        24,
        24,
        24,
        24,
        23,
        23,
        23,
        23,
        24,
        25,
        26,
        28
      ]
    },
    "HAN": {
      "icao": "VVNB",
      "issued": "2026-07-07T23:00:00.000Z",
      "raw": "TAF VVNB 072300Z 0800/0824 09005KT 9999 SCT015 BKN030 TEMPO 0802/0805 4000 SHRA SCT010 FEW025TCU BKN030 TEMPO 0810/0815 32015G25KT 3000 TSRA BKN012 FEW027CB BKN030",
      "groups": [
        {
          "text": "TAF VVNB 072300Z 0800/0824 09005KT 9999 SCT015 BKN030",
          "offset_h": -1,
          "wdir": 90,
          "wspd": 5
        },
        {
          "text": "TEMPO 0802/0805 4000 SHRA SCT010 FEW025TCU BKN030",
          "offset_h": 1,
          "wdir": null,
          "wspd": null
        },
        {
          "text": "TEMPO 0810/0815 32015G25KT 3000 TSRA BKN012 FEW027CB BKN030",
          "offset_h": 9,
          "wdir": 320,
          "wspd": 15
        }
      ],
      "metar_raw": "METAR VVNB 080100Z 05006KT 360V070 CAVOK 29/24 Q1002 NOSIG",
      "metar_wdir": 50,
      "metar_wspd": 6,
      "metar_oat": 29,
      "metar_qnh": 1002,
      "hourly_oat": [
        28,
        29,
        30,
        32,
        32,
        32,
        33,
        33,
        31,
        28,
        28,
        28,
        27,
        27,
        27,
        26,
        26,
        25,
        25,
        25,
        25,
        25,
        25,
        25,
        26
      ]
    },
    "KUL": {
      "icao": "WMKK",
      "issued": "2026-07-07T23:00:00.000Z",
      "raw": "TAF WMKK 072300Z 0800/0906 VRB03KT 9999 FEW018 PROB30 TEMPO 0806/0809 5000 TSRA FEW017CB",
      "groups": [
        {
          "text": "TAF WMKK 072300Z 0800/0906 VRB03KT 9999 FEW018",
          "offset_h": -1,
          "wdir": "VRB",
          "wspd": 3
        },
        {
          "text": "PROB30",
          "offset_h": 0,
          "wdir": null,
          "wspd": null
        },
        {
          "text": "TEMPO 0806/0809 5000 TSRA FEW017CB",
          "offset_h": 5,
          "wdir": null,
          "wspd": null
        }
      ],
      "metar_raw": "METAR WMKK 080100Z 09005KT 040V140 9999 FEW018 27/24 Q1012 NOSIG",
      "metar_wdir": 90,
      "metar_wspd": 5,
      "metar_oat": 27,
      "metar_qnh": 1012,
      "hourly_oat": [
        26,
        27,
        28,
        30,
        30,
        31,
        30,
        30,
        30,
        29,
        28,
        27,
        27,
        26,
        26,
        26,
        26,
        25,
        25,
        25,
        25,
        25,
        25,
        25,
        27
      ]
    },
    "CGK": {
      "icao": "WIII",
      "issued": "2026-07-07T23:00:00.000Z",
      "raw": "TAF WIII 072300Z 0800/0906 VRB03KT 4000 HZ FEW020 BECMG 0802/0804 04010KT 8000 NSW BECMG 0814/0816 16005KT 4000 HZ",
      "groups": [
        {
          "text": "TAF WIII 072300Z 0800/0906 VRB03KT 4000 HZ FEW020",
          "offset_h": -1,
          "wdir": "VRB",
          "wspd": 3
        },
        {
          "text": "BECMG 0802/0804 04010KT 8000 NSW",
          "offset_h": 1,
          "wdir": 40,
          "wspd": 10
        },
        {
          "text": "BECMG 0814/0816 16005KT 4000 HZ",
          "offset_h": 13,
          "wdir": 160,
          "wspd": 5
        }
      ],
      "metar_raw": "METAR WIII 080100Z 14004KT 110V190 4000 HZ FEW020 27/21 Q1013 NOSIG",
      "metar_wdir": 140,
      "metar_wspd": 4,
      "metar_oat": 27,
      "metar_qnh": 1013,
      "hourly_oat": [
        27,
        29,
        30,
        32,
        32,
        32,
        32,
        32,
        31,
        29,
        28,
        28,
        28,
        28,
        27,
        26,
        26,
        26,
        25,
        25,
        24,
        24,
        24,
        24,
        26
      ]
    },
    "TSA": {
      "icao": "RCSS",
      "issued": "2026-07-07T23:00:00.000Z",
      "raw": "TAF RCSS 072300Z 0800/0824 27005KT 9999 FEW020 BKN032 TEMPO 0806/0810 5000 SHRA FEW010 FEW015CB BKN022 BECMG 0810/0812 09005KT",
      "groups": [
        {
          "text": "TAF RCSS 072300Z 0800/0824 27005KT 9999 FEW020 BKN032",
          "offset_h": -1,
          "wdir": 270,
          "wspd": 5
        },
        {
          "text": "TEMPO 0806/0810 5000 SHRA FEW010 FEW015CB BKN022",
          "offset_h": 5,
          "wdir": null,
          "wspd": null
        },
        {
          "text": "BECMG 0810/0812 09005KT",
          "offset_h": 9,
          "wdir": 90,
          "wspd": 5
        }
      ],
      "metar_raw": "METAR RCSS 080100Z 24003KT 180V320 9999 FEW025 33/26 Q1009 NOSIG RMK A2982",
      "metar_wdir": 240,
      "metar_wspd": 3,
      "metar_oat": 33,
      "metar_qnh": 1009,
      "hourly_oat": [
        31,
        32,
        33,
        34,
        33,
        34,
        34,
        33,
        32,
        30,
        29,
        28,
        28,
        27,
        26,
        25,
        25,
        24,
        24,
        24,
        24,
        24,
        25,
        28,
        30
      ]
    },
    "TPE": {
      "icao": "RCTP",
      "issued": "2026-07-07T23:00:00.000Z",
      "raw": "TAF RCTP 072300Z 0800/0906 27007KT 9999 FEW020 BECMG 0814/0816 18005KT BECMG 0902/0904 01010KT",
      "groups": [
        {
          "text": "TAF RCTP 072300Z 0800/0906 27007KT 9999 FEW020",
          "offset_h": -1,
          "wdir": 270,
          "wspd": 7
        },
        {
          "text": "BECMG 0814/0816 18005KT",
          "offset_h": 13,
          "wdir": 180,
          "wspd": 5
        },
        {
          "text": "BECMG 0902/0904 01010KT",
          "offset_h": 25,
          "wdir": 10,
          "wspd": 10
        }
      ],
      "metar_raw": "METAR RCTP 080100Z 23008KT 9999 FEW020 33/24 Q1010 NOSIG RMK A2983",
      "metar_wdir": 230,
      "metar_wspd": 8,
      "metar_oat": 33,
      "metar_qnh": 1010,
      "hourly_oat": [
        31,
        31,
        32,
        31,
        32,
        32,
        31,
        31,
        30,
        30,
        29,
        29,
        28,
        28,
        27,
        27,
        27,
        26,
        26,
        26,
        25,
        26,
        27,
        28,
        30
      ]
    },
    "HKG": {
      "icao": "VHHH",
      "issued": "2026-07-07T23:00:00.000Z",
      "raw": "TAF VHHH 072300Z 0800/0906 16010KT 9999 FEW010 SCT025 TX31/0806Z TN27/0822Z TX32/0906Z TEMPO 0800/0802 3000 SHRA FEW008CB SCT020 TEMPO 0802/0805 20020G30KT 1500 TSRA +SHRA FEW008CB SCT015 TEMPO 0805/0809 3000 SHRA FEW008CB SCT020 TEMPO 0818/0824 3000 SHRA FEW008CB SCT020",
      "groups": [
        {
          "text": "TAF VHHH 072300Z 0800/0906 16010KT 9999 FEW010 SCT025 TX31/0806Z TN27/0822Z TX32/0906Z",
          "offset_h": -1,
          "wdir": 160,
          "wspd": 10
        },
        {
          "text": "TEMPO 0800/0802 3000 SHRA FEW008CB SCT020",
          "offset_h": -1,
          "wdir": null,
          "wspd": null
        },
        {
          "text": "TEMPO 0802/0805 20020G30KT 1500 TSRA +SHRA FEW008CB SCT015",
          "offset_h": 1,
          "wdir": 200,
          "wspd": 20
        },
        {
          "text": "TEMPO 0805/0809 3000 SHRA FEW008CB SCT020",
          "offset_h": 4,
          "wdir": null,
          "wspd": null
        },
        {
          "text": "TEMPO 0818/0824 3000 SHRA FEW008CB SCT020",
          "offset_h": 17,
          "wdir": null,
          "wspd": null
        }
      ],
      "metar_raw": "SPECI VHHH 080112Z 14008KT 110V170 9999 -SHRA FEW010 SCT025 29/25 Q1007 RERA NOSIG",
      "metar_wdir": 140,
      "metar_wspd": 8,
      "metar_oat": 29,
      "metar_qnh": 1007,
      "hourly_oat": [
        28,
        28,
        28,
        28,
        29,
        29,
        29,
        27,
        28,
        28,
        28,
        28,
        28,
        28,
        28,
        28,
        28,
        28,
        27,
        26,
        26,
        27,
        27,
        27,
        27
      ]
    },
    "BKK": {
      "icao": "VTBS",
      "issued": "2026-07-07T23:00:00.000Z",
      "raw": "TAF VTBS 072300Z 0800/0906 22008KT 9999 FEW020 TEMPO 0810/0814 VRB15KT 4000 TSRA FEW018CB SCT020 BKN080",
      "groups": [
        {
          "text": "TAF VTBS 072300Z 0800/0906 22008KT 9999 FEW020",
          "offset_h": -1,
          "wdir": 220,
          "wspd": 8
        },
        {
          "text": "TEMPO 0810/0814 VRB15KT 4000 TSRA FEW018CB SCT020 BKN080",
          "offset_h": 9,
          "wdir": "VRB",
          "wspd": 15
        }
      ],
      "metar_raw": "METAR VTBS 080100Z 25004KT 9999 FEW020 30/24 Q1009 NOSIG",
      "metar_wdir": 250,
      "metar_wspd": 4,
      "metar_oat": 30,
      "metar_qnh": 1009,
      "hourly_oat": [
        29,
        31,
        31,
        32,
        33,
        32,
        31,
        31,
        32,
        32,
        31,
        30,
        30,
        29,
        28,
        28,
        28,
        27,
        27,
        27,
        27,
        26,
        26,
        28,
        29
      ]
    },
    "GMP": {
      "icao": "RKSS",
      "issued": "2026-07-07T23:00:00.000Z",
      "raw": "TAF RKSS 072300Z 0800/0906 19015G25KT 9999 SCT010 BKN020 OVC070 TX28/0800Z TN24/0820Z TX28/0906Z BECMG 0801/0803 20015G35KT -RA BECMG 0805/0807 21010KT BECMG 0812/0814 15005KT TEMPO 0819/0821 3000 RA SCT010CB BKN020 OVC070 BECMG 0900/0902 21010KT",
      "groups": [
        {
          "text": "TAF RKSS 072300Z 0800/0906 19015G25KT 9999 SCT010 BKN020 OVC070 TX28/0800Z TN24/0820Z TX28/0906Z",
          "offset_h": -1,
          "wdir": 190,
          "wspd": 15
        },
        {
          "text": "BECMG 0801/0803 20015G35KT -RA",
          "offset_h": 0,
          "wdir": 200,
          "wspd": 15
        },
        {
          "text": "BECMG 0805/0807 21010KT",
          "offset_h": 4,
          "wdir": 210,
          "wspd": 10
        },
        {
          "text": "BECMG 0812/0814 15005KT",
          "offset_h": 11,
          "wdir": 150,
          "wspd": 5
        },
        {
          "text": "TEMPO 0819/0821 3000 RA SCT010CB BKN020 OVC070",
          "offset_h": 18,
          "wdir": null,
          "wspd": null
        },
        {
          "text": "BECMG 0900/0902 21010KT",
          "offset_h": 23,
          "wdir": 210,
          "wspd": 10
        }
      ],
      "metar_raw": "METAR RKSS 080100Z 23009KT 200V270 9999 -RA BKN010 BKN025 OVC080 24/24 Q1005 NOSIG",
      "metar_wdir": 230,
      "metar_wspd": 9,
      "metar_oat": 24,
      "metar_qnh": 1005,
      "hourly_oat": [
        24,
        25,
        25,
        25,
        26,
        26,
        26,
        26,
        25,
        25,
        24,
        24,
        24,
        24,
        24,
        24,
        24,
        24,
        24,
        24,
        24,
        24,
        24,
        25,
        26
      ]
    },
    "SGN": {
      "icao": "VVTS",
      "issued": "2026-07-07T23:00:00.000Z",
      "raw": "TAF VVTS 072300Z 0800/0906 22008KT 9999 SCT017 SCT040 TEMPO 0806/0811 22016G28KT 2500 +TSRA SCT015 SCT017CB BKN040 TEMPO 0902/0906 4000 TSRA SCT015 SCT017CB BKN040",
      "groups": [
        {
          "text": "TAF VVTS 072300Z 0800/0906 22008KT 9999 SCT017 SCT040",
          "offset_h": -1,
          "wdir": 220,
          "wspd": 8
        },
        {
          "text": "TEMPO 0806/0811 22016G28KT 2500 +TSRA SCT015 SCT017CB BKN040",
          "offset_h": 5,
          "wdir": 220,
          "wspd": 16
        },
        {
          "text": "TEMPO 0902/0906 4000 TSRA SCT015 SCT017CB BKN040",
          "offset_h": 25,
          "wdir": null,
          "wspd": null
        }
      ],
      "metar_raw": "METAR VVTS 080100Z VRB05KT CAVOK 29/26 Q1010 NOSIG",
      "metar_wdir": "VRB",
      "metar_wspd": 5,
      "metar_oat": 29,
      "metar_qnh": 1010,
      "hourly_oat": [
        26,
        28,
        29,
        30,
        32,
        27,
        28,
        29,
        25,
        25,
        26,
        26,
        26,
        25,
        25,
        25,
        25,
        25,
        25,
        25,
        25,
        25,
        25,
        26,
        28
      ]
    },
    "DLC": {
      "icao": "ZYTL",
      "issued": "2026-07-07T21:08:00.000Z",
      "raw": "TAF ZYTL 072108Z 0800/0824 25005MPS 5000 BR BKN026 TX29/0806Z TN22/0820Z BECMG 0805/0806 17004MPS",
      "groups": [
        {
          "text": "TAF ZYTL 072108Z 0800/0824 25005MPS 5000 BR BKN026 TX29/0806Z TN22/0820Z",
          "offset_h": -1,
          "wdir": null,
          "wspd": null
        },
        {
          "text": "BECMG 0805/0806 17004MPS",
          "offset_h": 4,
          "wdir": null,
          "wspd": null
        }
      ],
      "metar_raw": "METAR ZYTL 080100Z VRB02MPS 9999 BKN020 28/21 Q1001 BECMG TL0230 23005MPS",
      "metar_wdir": null,
      "metar_wspd": null,
      "metar_oat": 28,
      "metar_qnh": 1001,
      "hourly_oat": [
        27,
        29,
        30,
        31,
        30,
        29,
        29,
        28,
        28,
        27,
        26,
        25,
        25,
        25,
        25,
        25,
        24,
        24,
        23,
        23,
        23,
        22,
        21,
        22,
        23
      ]
    },
    "PEK": {
      "icao": "ZBAA",
      "issued": "2026-07-07T21:08:00.000Z",
      "raw": "TAF ZBAA 072108Z 0800/0906 15003MPS CAVOK TX33/0807Z TX33/0906Z TN22/0821Z TEMPO 0806/0810 -TSRA FEW040CB BKN040",
      "groups": [
        {
          "text": "TAF ZBAA 072108Z 0800/0906 15003MPS CAVOK TX33/0807Z TX33/0906Z TN22/0821Z",
          "offset_h": -1,
          "wdir": null,
          "wspd": null
        },
        {
          "text": "TEMPO 0806/0810 -TSRA FEW040CB BKN040",
          "offset_h": 5,
          "wdir": null,
          "wspd": null
        }
      ],
      "metar_raw": "METAR ZBAA 080100Z 12002MPS 060V220 CAVOK 26/22 Q1000 NOSIG",
      "metar_wdir": null,
      "metar_wspd": null,
      "metar_oat": 26,
      "metar_qnh": 1000,
      "hourly_oat": [
        25,
        27,
        29,
        29,
        30,
        31,
        31,
        31,
        31,
        31,
        29,
        28,
        27,
        26,
        25,
        24,
        24,
        24,
        24,
        23,
        23,
        23,
        24,
        26,
        27
      ]
    },
    "CAN": {
      "icao": "ZGGG",
      "issued": "2026-07-07T21:07:00.000Z",
      "raw": "TAF ZGGG 072107Z 0800/0906 15004MPS 8000 BKN033 TX31/0807Z TX33/0906Z TN26/0822Z TEMPO 0800/0804 SHRA FEW026CB BKN033 TEMPO 0804/0809 TSRA SCT010 SCT026CB BKN033 TEMPO 0814/0818 SHRA FEW026CB BKN033",
      "groups": [
        {
          "text": "TAF ZGGG 072107Z 0800/0906 15004MPS 8000 BKN033 TX31/0807Z TX33/0906Z TN26/0822Z",
          "offset_h": -1,
          "wdir": null,
          "wspd": null
        },
        {
          "text": "TEMPO 0800/0804 SHRA FEW026CB BKN033",
          "offset_h": -1,
          "wdir": null,
          "wspd": null
        },
        {
          "text": "TEMPO 0804/0809 TSRA SCT010 SCT026CB BKN033",
          "offset_h": 3,
          "wdir": null,
          "wspd": null
        },
        {
          "text": "TEMPO 0814/0818 SHRA FEW026CB BKN033",
          "offset_h": 13,
          "wdir": null,
          "wspd": null
        }
      ],
      "metar_raw": "METAR ZGGG 080100Z 08003MPS 9999 BKN033 28/26 Q1007 BECMG AT0250 +TSRA SCT011 SCT026CB BKN033",
      "metar_wdir": null,
      "metar_wspd": null,
      "metar_oat": 28,
      "metar_qnh": 1007,
      "hourly_oat": [
        28,
        30,
        28,
        28,
        30,
        28,
        28,
        28,
        28,
        28,
        27,
        27,
        27,
        26,
        26,
        26,
        26,
        25,
        25,
        25,
        25,
        25,
        25,
        26,
        27
      ]
    },
    "PVG": {
      "icao": "ZSPD",
      "issued": "2026-07-07T21:04:00.000Z",
      "raw": "TAF ZSPD 072104Z 0800/0906 17004MPS 8000 SCT030 TX34/0806Z TX34/0906Z TN26/0821Z",
      "groups": [
        {
          "text": "TAF ZSPD 072104Z 0800/0906 17004MPS 8000 SCT030 TX34/0806Z TX34/0906Z TN26/0821Z",
          "offset_h": -1,
          "wdir": null,
          "wspd": null
        }
      ],
      "metar_raw": "METAR ZSPD 080100Z 22004MPS CAVOK 33/26 Q1005 NOSIG",
      "metar_wdir": null,
      "metar_wspd": null,
      "metar_oat": 33,
      "metar_qnh": 1005,
      "hourly_oat": [
        30,
        32,
        33,
        33,
        33,
        33,
        34,
        33,
        32,
        31,
        30,
        29,
        28,
        28,
        28,
        28,
        27,
        27,
        25,
        25,
        26,
        27,
        27,
        28,
        29
      ]
    },
    "SHA": {
      "icao": "ZSSS",
      "issued": "2026-07-07T21:04:00.000Z",
      "raw": "TAF ZSSS 072104Z 0800/0906 17004MPS 8000 SCT030 TX35/0806Z TX35/0906Z TN28/0821Z",
      "groups": [
        {
          "text": "TAF ZSSS 072104Z 0800/0906 17004MPS 8000 SCT030 TX35/0806Z TX35/0906Z TN28/0821Z",
          "offset_h": -1,
          "wdir": null,
          "wspd": null
        }
      ],
      "metar_raw": "METAR ZSSS 080100Z 24005MPS 200V260 CAVOK 34/24 Q1005 NOSIG",
      "metar_wdir": null,
      "metar_wspd": null,
      "metar_oat": 34,
      "metar_qnh": 1005,
      "hourly_oat": [
        30,
        32,
        32,
        31,
        32,
        32,
        33,
        33,
        32,
        31,
        30,
        30,
        29,
        29,
        29,
        28,
        27,
        25,
        25,
        25,
        25,
        25,
        26,
        26,
        28
      ]
    }
  }
}