{
  "updated": "2026-06-15T16:26:41Z",
  "tafs": {
    "PEK": {
      "icao": "ZBAA",
      "issued": "2026-06-15T16:16:00.000Z",
      "raw": "TAF AMD ZBAA 151616Z 1518/1624 16004MPS 3500 BR NSC TX28/1607Z TN19/1521Z TN18/1621Z TEMPO 1602/1606 2800 -SHRA BR FEW030CB BKN040 TEMPO 1610/1613 31010G17MPS TSRA FEW030CB BKN040",
      "groups": [
        {
          "text": "TAF AMD ZBAA 151616Z 1518/1624 16004MPS 3500 BR NSC TX28/1607Z TN19/1521Z TN18/1621Z",
          "offset_h": 2,
          "wdir": null,
          "wspd": null
        },
        {
          "text": "TEMPO 1602/1606 2800 -SHRA BR FEW030CB BKN040",
          "offset_h": 10,
          "wdir": null,
          "wspd": null
        },
        {
          "text": "TEMPO 1610/1613 31010G17MPS TSRA FEW030CB BKN040",
          "offset_h": 18,
          "wdir": null,
          "wspd": null
        }
      ],
      "metar_raw": "METAR ZBAA 151600Z 13004MPS 5000 -TSRA BR FEW040CB 23/21 Q1010 BECMG TL1640 NSW",
      "metar_wdir": null,
      "metar_wspd": null,
      "metar_oat": 23,
      "metar_qnh": 1010,
      "hourly_oat": [
        21,
        21,
        20,
        20,
        20,
        20,
        21,
        22,
        22,
        23,
        24,
        26,
        27,
        27,
        28,
        28,
        27,
        27,
        26,
        24,
        23,
        22,
        22,
        21,
        20
      ]
    },
    "LAX": {
      "icao": "KLAX",
      "issued": "2026-06-15T16:10:00.000Z",
      "raw": "TAF KLAX 151610Z 1516/1618 26008KT 6SM BR BKN008 BKN010 FM151730 26015KT P6SM FEW010 FM160400 26008KT P6SM SCT008 FM160700 25005KT 5SM BR OVC005 FM161600 VRB03KT P6SM SCT009",
      "groups": [
        {
          "text": "TAF KLAX 151610Z 1516/1618 26008KT 6SM BR BKN008 BKN010",
          "offset_h": 0,
          "wdir": 260,
          "wspd": 8
        },
        {
          "text": "FM151730 26015KT P6SM FEW010",
          "offset_h": 1,
          "wdir": 260,
          "wspd": 15
        },
        {
          "text": "FM160400 26008KT P6SM SCT008",
          "offset_h": 12,
          "wdir": 260,
          "wspd": 8
        },
        {
          "text": "FM160700 25005KT 5SM BR OVC005",
          "offset_h": 15,
          "wdir": 250,
          "wspd": 5
        },
        {
          "text": "FM161600 VRB03KT P6SM SCT009",
          "offset_h": 24,
          "wdir": "VRB",
          "wspd": 3
        }
      ],
      "metar_raw": "METAR KLAX 151553Z 25009KT 9SM BKN008 BKN011 19/16 A3002 RMK AO2 SLP165 T01940156 $",
      "metar_wdir": 250,
      "metar_wspd": 9,
      "metar_oat": 19,
      "metar_qnh": 1017,
      "hourly_oat": [
        20,
        20,
        21,
        20,
        20,
        21,
        20,
        20,
        20,
        19,
        18,
        18,
        17,
        17,
        17,
        17,
        17,
        17,
        16,
        16,
        16,
        16,
        16,
        16,
        17
      ]
    },
    "SAN": {
      "icao": "KSAN",
      "issued": "2026-06-15T16:05:00.000Z",
      "raw": "TAF KSAN 151605Z 1516/1618 33006KT P6SM BKN014 FM151730 30011KT P6SM FEW015 FM160300 31005KT P6SM FEW010 FM160600 VRB04KT P6SM BKN012 FM161600 28005KT P6SM FEW012",
      "groups": [
        {
          "text": "TAF KSAN 151605Z 1516/1618 33006KT P6SM BKN014",
          "offset_h": 0,
          "wdir": 330,
          "wspd": 6
        },
        {
          "text": "FM151730 30011KT P6SM FEW015",
          "offset_h": 1,
          "wdir": 300,
          "wspd": 11
        },
        {
          "text": "FM160300 31005KT P6SM FEW010",
          "offset_h": 11,
          "wdir": 310,
          "wspd": 5
        },
        {
          "text": "FM160600 VRB04KT P6SM BKN012",
          "offset_h": 14,
          "wdir": "VRB",
          "wspd": 4
        },
        {
          "text": "FM161600 28005KT P6SM FEW012",
          "offset_h": 24,
          "wdir": 280,
          "wspd": 5
        }
      ],
      "metar_raw": "METAR KSAN 151551Z 34007KT 10SM BKN013 21/17 A3002 RMK AO2 SLP166 T02060172",
      "metar_wdir": 340,
      "metar_wspd": 7,
      "metar_oat": 21,
      "metar_qnh": 1017,
      "hourly_oat": [
        21,
        22,
        22,
        23,
        23,
        23,
        23,
        22,
        22,
        21,
        20,
        19,
        18,
        19,
        18,
        18,
        18,
        18,
        18,
        18,
        18,
        18,
        18,
        18,
        19
      ]
    },
    "PVG": {
      "icao": "ZSPD",
      "issued": "2026-06-15T15:08:00.000Z",
      "raw": "TAF ZSPD 151508Z 1518/1624 06004MPS 6000 BKN008 TX25/1606Z TN21/1521Z TN22/1621Z BECMG 1603/1604 BKN011 BECMG 1613/1614 11004MPS",
      "groups": [
        {
          "text": "TAF ZSPD 151508Z 1518/1624 06004MPS 6000 BKN008 TX25/1606Z TN21/1521Z TN22/1621Z",
          "offset_h": 2,
          "wdir": null,
          "wspd": null
        },
        {
          "text": "BECMG 1603/1604 BKN011",
          "offset_h": 11,
          "wdir": null,
          "wspd": null
        },
        {
          "text": "BECMG 1613/1614 11004MPS",
          "offset_h": 21,
          "wdir": null,
          "wspd": null
        }
      ],
      "metar_raw": "METAR ZSPD 151600Z 07005MPS 010V090 9999 BKN007 23/23 Q1010 NOSIG",
      "metar_wdir": null,
      "metar_wspd": null,
      "metar_oat": 23,
      "metar_qnh": 1010,
      "hourly_oat": [
        23,
        23,
        23,
        23,
        23,
        23,
        23,
        23,
        24,
        24,
        24,
        25,
        26,
        26,
        27,
        26,
        26,
        26,
        25,
        25,
        24,
        24,
        24,
        23,
        23
      ]
    },
    "SHA": {
      "icao": "ZSSS",
      "issued": "2026-06-15T15:07:00.000Z",
      "raw": "TAF ZSSS 151507Z 1518/1624 06004MPS 6000 BKN011 TX27/1606Z TN22/1521Z TN23/1621Z BECMG 1602/1603 BKN015 BECMG 1613/1614 11004MPS",
      "groups": [
        {
          "text": "TAF ZSSS 151507Z 1518/1624 06004MPS 6000 BKN011 TX27/1606Z TN22/1521Z TN23/1621Z",
          "offset_h": 2,
          "wdir": null,
          "wspd": null
        },
        {
          "text": "BECMG 1602/1603 BKN015",
          "offset_h": 10,
          "wdir": null,
          "wspd": null
        },
        {
          "text": "BECMG 1613/1614 11004MPS",
          "offset_h": 21,
          "wdir": null,
          "wspd": null
        }
      ],
      "metar_raw": "METAR ZSSS 151600Z 09002MPS 060V120 6000 -RA BKN006 22/21 Q1010 NOSIG",
      "metar_wdir": null,
      "metar_wspd": null,
      "metar_oat": 22,
      "metar_qnh": 1010,
      "hourly_oat": [
        22,
        22,
        22,
        22,
        22,
        22,
        22,
        23,
        23,
        24,
        25,
        26,
        26,
        28,
        28,
        28,
        27,
        27,
        26,
        25,
        24,
        24,
        23,
        23,
        23
      ]
    },
    "DLC": {
      "icao": "ZYTL",
      "issued": "2026-06-15T15:05:00.000Z",
      "raw": "TAF ZYTL 151505Z 1518/1618 16004MPS 3000 BR FEW040 TX27/1606Z TN18/1521Z",
      "groups": [
        {
          "text": "TAF ZYTL 151505Z 1518/1618 16004MPS 3000 BR FEW040 TX27/1606Z TN18/1521Z",
          "offset_h": 2,
          "wdir": null,
          "wspd": null
        }
      ],
      "metar_raw": "METAR ZYTL 151600Z 20003MPS 150V250 CAVOK 23/15 Q1013 NOSIG",
      "metar_wdir": null,
      "metar_wspd": null,
      "metar_oat": 23,
      "metar_qnh": 1013,
      "hourly_oat": [
        21,
        21,
        21,
        20,
        20,
        20,
        20,
        22,
        23,
        25,
        26,
        27,
        28,
        28,
        27,
        26,
        26,
        25,
        24,
        23,
        22,
        22,
        22,
        22,
        21
      ]
    },
    "CAN": {
      "icao": "ZGGG",
      "issued": "2026-06-15T15:04:00.000Z",
      "raw": "TAF ZGGG 151504Z 1518/1624 15003MPS 8000 BKN033 TX32/1607Z TN24/1522Z TN24/1622Z TEMPO 1518/1521 SHRA FEW026CB BKN033 TEMPO 1606/1610 2500 +TSRA SCT026CB BKN033 TEMPO 1619/1623 SHRA FEW026CB BKN033",
      "groups": [
        {
          "text": "TAF ZGGG 151504Z 1518/1624 15003MPS 8000 BKN033 TX32/1607Z TN24/1522Z TN24/1622Z",
          "offset_h": 2,
          "wdir": null,
          "wspd": null
        },
        {
          "text": "TEMPO 1518/1521 SHRA FEW026CB BKN033",
          "offset_h": 2,
          "wdir": null,
          "wspd": null
        },
        {
          "text": "TEMPO 1606/1610 2500 +TSRA SCT026CB BKN033",
          "offset_h": 14,
          "wdir": null,
          "wspd": null
        },
        {
          "text": "TEMPO 1619/1623 SHRA FEW026CB BKN033",
          "offset_h": 27,
          "wdir": null,
          "wspd": null
        }
      ],
      "metar_raw": "METAR ZGGG 151600Z 06002MPS 9999 -SHRA BKN033 26/25 Q1007 NOSIG",
      "metar_wdir": null,
      "metar_wspd": null,
      "metar_oat": 26,
      "metar_qnh": 1007,
      "hourly_oat": [
        26,
        26,
        25,
        25,
        25,
        24,
        24,
        25,
        26,
        26,
        26,
        27,
        29,
        30,
        31,
        28,
        27,
        26,
        26,
        26,
        26,
        25,
        25,
        25,
        25
      ]
    },
    "HNL": {
      "icao": "PHNL",
      "issued": "2026-06-15T14:49:00.000Z",
      "raw": "TAF PHNL 151449Z 1515/1618 04005KT P6SM FEW025 SCT045 FM152100 05012G20KT P6SM FEW030 SCT045 FM160200 05012KT P6SM FEW030 SCT045",
      "groups": [
        {
          "text": "TAF PHNL 151449Z 1515/1618 04005KT P6SM FEW025 SCT045",
          "offset_h": -1,
          "wdir": 40,
          "wspd": 5
        },
        {
          "text": "FM152100 05012G20KT P6SM FEW030 SCT045",
          "offset_h": 5,
          "wdir": 50,
          "wspd": 12
        },
        {
          "text": "FM160200 05012KT P6SM FEW030 SCT045",
          "offset_h": 10,
          "wdir": 50,
          "wspd": 12
        }
      ],
      "metar_raw": "METAR PHNL 151553Z VRB04KT 10SM FEW020 FEW035 FEW070 23/19 A2999 RMK AO2 SLP155 T02280194 $",
      "metar_wdir": "VRB",
      "metar_wspd": 4,
      "metar_oat": 23,
      "metar_qnh": 1016,
      "hourly_oat": [
        21,
        22,
        23,
        24,
        25,
        26,
        28,
        28,
        28,
        28,
        28,
        27,
        26,
        24,
        23,
        23,
        23,
        22,
        22,
        22,
        22,
        22,
        21,
        21,
        21
      ]
    },
    "HKG": {
      "icao": "VHHH",
      "issued": "2026-06-15T14:45:00.000Z",
      "raw": "TAF AMD VHHH 151445Z 1515/1621 22010KT 9999 FEW010 SCT025 TX30/1606Z TN25/1522Z TEMPO 1516/1517 VRB15G25KT 3000 TSRA SHRA FEW008CB SCT015 TEMPO 1517/1524 24025G35KT 1500 TSRA +SHRA FEW008CB SCT015 TEMPO 1600/1604 24020G30KT 2000 TSRA +SHRA FEW008CB SCT015 TEMPO 1604/1609 3000 SHRA FEW010CB SCT020 PROB30 TEMPO 1612/1618 VRB15G25KT 2500 TSRA SHRA FEW008CB SCT015",
      "groups": [
        {
          "text": "TAF AMD VHHH 151445Z 1515/1621 22010KT 9999 FEW010 SCT025 TX30/1606Z TN25/1522Z",
          "offset_h": -1,
          "wdir": 220,
          "wspd": 10
        },
        {
          "text": "TEMPO 1516/1517 VRB15G25KT 3000 TSRA SHRA FEW008CB SCT015",
          "offset_h": 0,
          "wdir": "VRB",
          "wspd": 15
        },
        {
          "text": "TEMPO 1517/1524 24025G35KT 1500 TSRA +SHRA FEW008CB SCT015",
          "offset_h": 1,
          "wdir": 240,
          "wspd": 25
        },
        {
          "text": "TEMPO 1600/1604 24020G30KT 2000 TSRA +SHRA FEW008CB SCT015",
          "offset_h": 8,
          "wdir": 240,
          "wspd": 20
        },
        {
          "text": "TEMPO 1604/1609 3000 SHRA FEW010CB SCT020",
          "offset_h": 12,
          "wdir": null,
          "wspd": null
        },
        {
          "text": "PROB30",
          "offset_h": 0,
          "wdir": null,
          "wspd": null
        },
        {
          "text": "TEMPO 1612/1618 VRB15G25KT 2500 TSRA SHRA FEW008CB SCT015",
          "offset_h": 20,
          "wdir": "VRB",
          "wspd": 15
        }
      ],
      "metar_raw": "SPECI VHHH 151620Z 07005KT 9999 -SHRA FEW010 SCT025 27/25 Q1007 RERA TEMPO VRB15G25KT 3000 TSRA SHRA FEW008CB SCT015",
      "metar_wdir": 70,
      "metar_wspd": 5,
      "metar_oat": 27,
      "metar_qnh": 1007,
      "hourly_oat": [
        26,
        26,
        27,
        26,
        26,
        25,
        26,
        26,
        26,
        26,
        26,
        27,
        27,
        27,
        27,
        27,
        27,
        27,
        27,
        27,
        28,
        28,
        27,
        27,
        26
      ]
    },
    "OKA": {
      "icao": "ROAH",
      "issued": "2026-06-15T14:41:00.000Z",
      "raw": "TAF AMD ROAH 151441Z 1514/1618 19012KT 9999 FEW008 BKN012 TEMPO 1514/1518 3000 +TSRA BR FEW005 BKN008 SCT015CB TEMPO 1518/1521 4000 SHRA BR FEW005 BKN008 FEW015CB TEMPO 1521/1600 4000 TSRA BR FEW005 BKN008 FEW015CB TEMPO 1600/1603 4000 SHRA BR FEW005 BKN008 FEW015CB TEMPO 1612/1618 FEW005 BKN008",
      "groups": [
        {
          "text": "TAF AMD ROAH 151441Z 1514/1618 19012KT 9999 FEW008 BKN012",
          "offset_h": -2,
          "wdir": 190,
          "wspd": 12
        },
        {
          "text": "TEMPO 1514/1518 3000 +TSRA BR FEW005 BKN008 SCT015CB",
          "offset_h": -2,
          "wdir": null,
          "wspd": null
        },
        {
          "text": "TEMPO 1518/1521 4000 SHRA BR FEW005 BKN008 FEW015CB",
          "offset_h": 2,
          "wdir": null,
          "wspd": null
        },
        {
          "text": "TEMPO 1521/1600 4000 TSRA BR FEW005 BKN008 FEW015CB",
          "offset_h": 5,
          "wdir": null,
          "wspd": null
        },
        {
          "text": "TEMPO 1600/1603 4000 SHRA BR FEW005 BKN008 FEW015CB",
          "offset_h": 8,
          "wdir": null,
          "wspd": null
        },
        {
          "text": "TEMPO 1612/1618 FEW005 BKN008",
          "offset_h": 20,
          "wdir": null,
          "wspd": null
        }
      ],
      "metar_raw": "METAR ROAH 151600Z AUTO 19006KT 6000 RA SCT070 BKN080 BKN090 //////TCU 24/24 Q1011",
      "metar_wdir": 190,
      "metar_wspd": 6,
      "metar_oat": 24,
      "metar_qnh": 1011,
      "hourly_oat": [
        25,
        25,
        24,
        25,
        25,
        26,
        26,
        26,
        26,
        27,
        27,
        27,
        27,
        26,
        25,
        26,
        26,
        26,
        25,
        25,
        25,
        25,
        26,
        26,
        26
      ]
    },
    "CTS": {
      "icao": "RJCC",
      "issued": "2026-06-15T11:31:00.000Z",
      "raw": "TAF AMD RJCC 151131Z 1512/1618 22004KT 6000 FEW001 BKN012 TEMPO 1512/1522 0700 FG VV001 BECMG 1513/1515 33005KT TEMPO 1615/1618 FEW004 BKN007 BECMG 1615/1618 16004KT",
      "groups": [
        {
          "text": "TAF AMD RJCC 151131Z 1512/1618 22004KT 6000 FEW001 BKN012",
          "offset_h": -4,
          "wdir": 220,
          "wspd": 4
        },
        {
          "text": "TEMPO 1512/1522 0700 FG VV001",
          "offset_h": -4,
          "wdir": null,
          "wspd": null
        },
        {
          "text": "BECMG 1513/1515 33005KT",
          "offset_h": -3,
          "wdir": 330,
          "wspd": 5
        },
        {
          "text": "TEMPO 1615/1618 FEW004 BKN007",
          "offset_h": 23,
          "wdir": null,
          "wspd": null
        },
        {
          "text": "BECMG 1615/1618 16004KT",
          "offset_h": 23,
          "wdir": 160,
          "wspd": 4
        }
      ],
      "metar_raw": "METAR RJCC 151600Z 24003KT 0900 R19R/P2000N R19L/P2000N FG -SHRA VV002 15/15 Q1016",
      "metar_wdir": 240,
      "metar_wspd": 3,
      "metar_oat": 15,
      "metar_qnh": 1016,
      "hourly_oat": [
        16,
        16,
        16,
        16,
        16,
        17,
        18,
        19,
        21,
        22,
        24,
        24,
        25,
        25,
        24,
        24,
        23,
        20,
        18,
        16,
        15,
        15,
        14,
        13,
        14
      ]
    },
    "NRT": {
      "icao": "RJAA",
      "issued": "2026-06-15T11:05:00.000Z",
      "raw": "TAF RJAA 151105Z 1512/1618 36012KT 9999 FEW008 BKN015 BECMG 1603/1606 18004KT",
      "groups": [
        {
          "text": "TAF RJAA 151105Z 1512/1618 36012KT 9999 FEW008 BKN015",
          "offset_h": -4,
          "wdir": 360,
          "wspd": 12
        },
        {
          "text": "BECMG 1603/1606 18004KT",
          "offset_h": 11,
          "wdir": 180,
          "wspd": 4
        }
      ],
      "metar_raw": "METAR RJAA 151600Z AUTO 33006KT 9999 NCD 16/14 Q1016 NOSIG",
      "metar_wdir": 330,
      "metar_wspd": 6,
      "metar_oat": 16,
      "metar_qnh": 1016,
      "hourly_oat": [
        17,
        16,
        16,
        15,
        15,
        16,
        18,
        20,
        22,
        23,
        25,
        26,
        26,
        26,
        26,
        24,
        22,
        21,
        20,
        19,
        19,
        18,
        18,
        17,
        17
      ]
    },
    "KIX": {
      "icao": "RJBB",
      "issued": "2026-06-15T11:05:00.000Z",
      "raw": "TAF RJBB 151105Z 1512/1618 18006KT 9999 FEW030 BECMG 1517/1519 10004KT BECMG 1600/1603 26008KT BECMG 1612/1615 05006KT",
      "groups": [
        {
          "text": "TAF RJBB 151105Z 1512/1618 18006KT 9999 FEW030",
          "offset_h": -4,
          "wdir": 180,
          "wspd": 6
        },
        {
          "text": "BECMG 1517/1519 10004KT",
          "offset_h": 1,
          "wdir": 100,
          "wspd": 4
        },
        {
          "text": "BECMG 1600/1603 26008KT",
          "offset_h": 8,
          "wdir": 260,
          "wspd": 8
        },
        {
          "text": "BECMG 1612/1615 05006KT",
          "offset_h": 20,
          "wdir": 50,
          "wspd": 6
        }
      ],
      "metar_raw": "METAR RJBB 151600Z AUTO 19005KT 9999 NCD 21/18 Q1016 NOSIG",
      "metar_wdir": 190,
      "metar_wspd": 5,
      "metar_oat": 21,
      "metar_qnh": 1016,
      "hourly_oat": [
        21,
        21,
        21,
        21,
        21,
        21,
        21,
        21,
        21,
        21,
        21,
        22,
        22,
        22,
        23,
        23,
        23,
        23,
        23,
        23,
        23,
        22,
        22,
        22,
        22
      ]
    },
    "HND": {
      "icao": "RJTT",
      "issued": "2026-06-15T11:05:00.000Z",
      "raw": "TAF RJTT 151105Z 1512/1618 36010KT 9999 FEW030 BECMG 1521/1523 09006KT BECMG 1603/1606 20012KT",
      "groups": [
        {
          "text": "TAF RJTT 151105Z 1512/1618 36010KT 9999 FEW030",
          "offset_h": -4,
          "wdir": 360,
          "wspd": 10
        },
        {
          "text": "BECMG 1521/1523 09006KT",
          "offset_h": 5,
          "wdir": 90,
          "wspd": 6
        },
        {
          "text": "BECMG 1603/1606 20012KT",
          "offset_h": 11,
          "wdir": 200,
          "wspd": 12
        }
      ],
      "metar_raw": "METAR RJTT 151600Z 04009KT 9999 FEW020 19/15 Q1016 NOSIG",
      "metar_wdir": 40,
      "metar_wspd": 9,
      "metar_oat": 19,
      "metar_qnh": 1016,
      "hourly_oat": [
        18,
        18,
        17,
        17,
        17,
        18,
        19,
        20,
        21,
        22,
        23,
        24,
        25,
        26,
        26,
        24,
        23,
        22,
        22,
        21,
        21,
        21,
        20,
        20,
        20
      ]
    },
    "ITM": {
      "icao": "RJOO",
      "issued": "2026-06-15T11:05:00.000Z",
      "raw": "TAF RJOO 151105Z 1512/1618 33006KT 9999 FEW030 BECMG 1520/1522 07008KT",
      "groups": [
        {
          "text": "TAF RJOO 151105Z 1512/1618 33006KT 9999 FEW030",
          "offset_h": -4,
          "wdir": 330,
          "wspd": 6
        },
        {
          "text": "BECMG 1520/1522 07008KT",
          "offset_h": 4,
          "wdir": 70,
          "wspd": 8
        }
      ],
      "metar_raw": "METAR RJOO 151600Z AUTO 30004KT 9999 NCD 19/15 Q1016",
      "metar_wdir": 300,
      "metar_wspd": 4,
      "metar_oat": 19,
      "metar_qnh": 1016,
      "hourly_oat": [
        19,
        19,
        18,
        18,
        18,
        18,
        20,
        21,
        23,
        25,
        26,
        27,
        27,
        27,
        26,
        26,
        25,
        24,
        23,
        23,
        22,
        22,
        21,
        21,
        21
      ]
    },
    "NGO": {
      "icao": "RJGG",
      "issued": "2026-06-15T11:05:00.000Z",
      "raw": "TAF RJGG 151105Z 1512/1618 20010KT 9999 FEW015 BKN030 BECMG 1515/1517 33006KT BECMG 1600/1603 15014KT",
      "groups": [
        {
          "text": "TAF RJGG 151105Z 1512/1618 20010KT 9999 FEW015 BKN030",
          "offset_h": -4,
          "wdir": 200,
          "wspd": 10
        },
        {
          "text": "BECMG 1515/1517 33006KT",
          "offset_h": -1,
          "wdir": 330,
          "wspd": 6
        },
        {
          "text": "BECMG 1600/1603 15014KT",
          "offset_h": 8,
          "wdir": 150,
          "wspd": 14
        }
      ],
      "metar_raw": "METAR RJGG 151600Z AUTO 05004KT 9999 NSC 21/18 Q1016 NOSIG",
      "metar_wdir": 50,
      "metar_wspd": 4,
      "metar_oat": 21,
      "metar_qnh": 1016,
      "hourly_oat": [
        22,
        21,
        21,
        20,
        20,
        20,
        20,
        20,
        20,
        21,
        21,
        22,
        23,
        23,
        23,
        23,
        23,
        22,
        22,
        22,
        22,
        22,
        21,
        21,
        21
      ]
    },
    "FUK": {
      "icao": "RJFF",
      "issued": "2026-06-15T11:05:00.000Z",
      "raw": "TAF RJFF 151105Z 1512/1618 12004KT CAVOK",
      "groups": [
        {
          "text": "TAF RJFF 151105Z 1512/1618 12004KT CAVOK",
          "offset_h": -4,
          "wdir": 120,
          "wspd": 4
        }
      ],
      "metar_raw": "METAR RJFF 151600Z AUTO VRB01KT 9999 NCD 22/19 Q1013 NOSIG",
      "metar_wdir": "VRB",
      "metar_wspd": 1,
      "metar_oat": 22,
      "metar_qnh": 1013,
      "hourly_oat": [
        22,
        22,
        22,
        22,
        22,
        22,
        22,
        23,
        24,
        26,
        27,
        28,
        29,
        30,
        29,
        28,
        27,
        26,
        26,
        25,
        24,
        24,
        24,
        23,
        23
      ]
    },
    "TPE": {
      "icao": "RCTP",
      "issued": "2026-06-15T11:00:00.000Z",
      "raw": "TAF RCTP 151100Z 1512/1618 18005KT 9999 FEW010 BKN032 TEMPO 1512/1518 12005KT TEMPO 1518/1524 12005KT FEW010 BKN017 BECMG 1600/1601 26011KT TEMPO 1601/1607 26020KT 4000 RA FEW010 BKN017 TEMPO 1607/1612 20005KT 4000 RA FEW010 BKN017",
      "groups": [
        {
          "text": "TAF RCTP 151100Z 1512/1618 18005KT 9999 FEW010 BKN032",
          "offset_h": -4,
          "wdir": 180,
          "wspd": 5
        },
        {
          "text": "TEMPO 1512/1518 12005KT",
          "offset_h": -4,
          "wdir": 120,
          "wspd": 5
        },
        {
          "text": "TEMPO 1518/1524 12005KT FEW010 BKN017",
          "offset_h": 2,
          "wdir": 120,
          "wspd": 5
        },
        {
          "text": "BECMG 1600/1601 26011KT",
          "offset_h": 8,
          "wdir": 260,
          "wspd": 11
        },
        {
          "text": "TEMPO 1601/1607 26020KT 4000 RA FEW010 BKN017",
          "offset_h": 9,
          "wdir": 260,
          "wspd": 20
        },
        {
          "text": "TEMPO 1607/1612 20005KT 4000 RA FEW010 BKN017",
          "offset_h": 15,
          "wdir": 200,
          "wspd": 5
        }
      ],
      "metar_raw": "METAR RCTP 151600Z 24005KT 9999 -RA FEW015 SCT040 BKN070 25/23 Q1009 NOSIG RMK A2980",
      "metar_wdir": 240,
      "metar_wspd": 5,
      "metar_oat": 25,
      "metar_qnh": 1009,
      "hourly_oat": [
        24,
        24,
        24,
        23,
        23,
        23,
        24,
        24,
        26,
        27,
        27,
        26,
        27,
        28,
        29,
        29,
        28,
        29,
        28,
        27,
        27,
        26,
        26,
        25,
        25
      ]
    },
    "CGK": {
      "icao": "WIII",
      "issued": "2026-06-15T11:00:00.000Z",
      "raw": "TAF WIII 151100Z 1512/1618 04010KT 9000 SCT020 BECMG 1512/1516 14006KT 5000 HZ BECMG 1601/1603 05012KT 9000 NSW",
      "groups": [
        {
          "text": "TAF WIII 151100Z 1512/1618 04010KT 9000 SCT020",
          "offset_h": -4,
          "wdir": 40,
          "wspd": 10
        },
        {
          "text": "BECMG 1512/1516 14006KT 5000 HZ",
          "offset_h": -4,
          "wdir": 140,
          "wspd": 6
        },
        {
          "text": "BECMG 1601/1603 05012KT 9000 NSW",
          "offset_h": 9,
          "wdir": 50,
          "wspd": 12
        }
      ],
      "metar_raw": "METAR WIII 151600Z 22003KT 160V250 5000 HZ SCT020 27/24 Q1013 NOSIG",
      "metar_wdir": 220,
      "metar_wspd": 3,
      "metar_oat": 27,
      "metar_qnh": 1013,
      "hourly_oat": [
        25,
        25,
        25,
        25,
        24,
        24,
        24,
        24,
        25,
        27,
        29,
        30,
        31,
        32,
        32,
        31,
        31,
        30,
        29,
        28,
        28,
        28,
        27,
        27,
        26
      ]
    },
    "GMP": {
      "icao": "RKSS",
      "issued": "2026-06-15T11:00:00.000Z",
      "raw": "TAF RKSS 151100Z 1512/1618 30006KT CAVOK TN19/1520Z TX33/1606Z BECMG 1516/1518 18005KT 6000 NSC BECMG 1602/1604 27006KT CAVOK BECMG 1614/1616 17005KT",
      "groups": [
        {
          "text": "TAF RKSS 151100Z 1512/1618 30006KT CAVOK TN19/1520Z TX33/1606Z",
          "offset_h": -4,
          "wdir": 300,
          "wspd": 6
        },
        {
          "text": "BECMG 1516/1518 18005KT 6000 NSC",
          "offset_h": 0,
          "wdir": 180,
          "wspd": 5
        },
        {
          "text": "BECMG 1602/1604 27006KT CAVOK",
          "offset_h": 10,
          "wdir": 270,
          "wspd": 6
        },
        {
          "text": "BECMG 1614/1616 17005KT",
          "offset_h": 22,
          "wdir": 170,
          "wspd": 5
        }
      ],
      "metar_raw": "METAR RKSS 151600Z 29002KT CAVOK 20/19 Q1014 NOSIG",
      "metar_wdir": 290,
      "metar_wspd": 2,
      "metar_oat": 20,
      "metar_qnh": 1014,
      "hourly_oat": [
        20,
        20,
        20,
        19,
        19,
        19,
        20,
        22,
        24,
        26,
        27,
        28,
        29,
        29,
        30,
        30,
        29,
        28,
        26,
        25,
        24,
        23,
        23,
        22,
        22
      ]
    },
    "TSA": {
      "icao": "RCSS",
      "issued": "2026-06-15T11:00:00.000Z",
      "raw": "TAF RCSS 151100Z 1512/1612 09005KT 6000 FEW010 BKN032 TEMPO 1600/1606 27005KT 4000 RA FEW010 BKN017 TEMPO 1606/1612 27005KT 2500 RA FEW010 BKN014 FEW020CB",
      "groups": [
        {
          "text": "TAF RCSS 151100Z 1512/1612 09005KT 6000 FEW010 BKN032",
          "offset_h": -4,
          "wdir": 90,
          "wspd": 5
        },
        {
          "text": "TEMPO 1600/1606 27005KT 4000 RA FEW010 BKN017",
          "offset_h": 8,
          "wdir": 270,
          "wspd": 5
        },
        {
          "text": "TEMPO 1606/1612 27005KT 2500 RA FEW010 BKN014 FEW020CB",
          "offset_h": 14,
          "wdir": 270,
          "wspd": 5
        }
      ],
      "metar_raw": "METAR RCSS 151600Z 26003KT 9999 FEW020 BKN130 26/24 Q1008 NOSIG RMK A2979",
      "metar_wdir": 260,
      "metar_wspd": 3,
      "metar_oat": 26,
      "metar_qnh": 1008,
      "hourly_oat": [
        25,
        25,
        25,
        24,
        24,
        24,
        24,
        25,
        26,
        27,
        29,
        29,
        29,
        29,
        28,
        29,
        29,
        29,
        28,
        27,
        26,
        26,
        26,
        25,
        25
      ]
    },
    "KUL": {
      "icao": "WMKK",
      "issued": "2026-06-15T11:00:00.000Z",
      "raw": "TAF WMKK 151100Z 1512/1618 VRB02KT 9999 FEW030",
      "groups": [
        {
          "text": "TAF WMKK 151100Z 1512/1618 VRB02KT 9999 FEW030",
          "offset_h": -4,
          "wdir": "VRB",
          "wspd": 2
        }
      ],
      "metar_raw": "METAR WMKK 151600Z 00000KT 9999 FEW030 28/25 Q1011 NOSIG",
      "metar_wdir": 0,
      "metar_wspd": 0,
      "metar_oat": 28,
      "metar_qnh": 1011,
      "hourly_oat": [
        25,
        25,
        24,
        24,
        24,
        24,
        24,
        24,
        25,
        26,
        27,
        28,
        29,
        30,
        30,
        30,
        30,
        30,
        29,
        28,
        27,
        27,
        26,
        26,
        26
      ]
    },
    "SIN": {
      "icao": "WSSS",
      "issued": "2026-06-15T11:00:00.000Z",
      "raw": "TAF WSSS 151100Z 1512/1618 15006KT 9999 FEW015 SCT020 TEMPO 1601/1604 3000 TSRA FEW012CB BKN015",
      "groups": [
        {
          "text": "TAF WSSS 151100Z 1512/1618 15006KT 9999 FEW015 SCT020",
          "offset_h": -4,
          "wdir": 150,
          "wspd": 6
        },
        {
          "text": "TEMPO 1601/1604 3000 TSRA FEW012CB BKN015",
          "offset_h": 9,
          "wdir": null,
          "wspd": null
        }
      ],
      "metar_raw": "METAR WSSS 151600Z 19005KT 9999 FEW018 BKN300 28/24 Q1013 NOSIG",
      "metar_wdir": 190,
      "metar_wspd": 5,
      "metar_oat": 28,
      "metar_qnh": 1013,
      "hourly_oat": [
        28,
        27,
        27,
        27,
        26,
        26,
        25,
        25,
        26,
        26,
        27,
        28,
        29,
        30,
        30,
        30,
        30,
        30,
        30,
        29,
        28,
        28,
        28,
        28,
        28
      ]
    },
    "SGN": {
      "icao": "VVTS",
      "issued": "2026-06-15T11:00:00.000Z",
      "raw": "TAF VVTS 151100Z 1512/1618 27007KT 9999 SCT015 TEMPO 1512/1516 5000 TSRA BKN015 FEW017CB BKN040 TEMPO 1605/1610 27015G25KT 3000 TSRA BKN013 SCT015CB",
      "groups": [
        {
          "text": "TAF VVTS 151100Z 1512/1618 27007KT 9999 SCT015",
          "offset_h": -4,
          "wdir": 270,
          "wspd": 7
        },
        {
          "text": "TEMPO 1512/1516 5000 TSRA BKN015 FEW017CB BKN040",
          "offset_h": -4,
          "wdir": null,
          "wspd": null
        },
        {
          "text": "TEMPO 1605/1610 27015G25KT 3000 TSRA BKN013 SCT015CB",
          "offset_h": 13,
          "wdir": 270,
          "wspd": 15
        }
      ],
      "metar_raw": "METAR VVTS 151600Z 19004KT 150V240 9999 -RA SCT017 FEW019CB BKN083 28/26 Q1011 NOSIG",
      "metar_wdir": 190,
      "metar_wspd": 4,
      "metar_oat": 28,
      "metar_qnh": 1011,
      "hourly_oat": [
        26,
        26,
        25,
        25,
        25,
        25,
        25,
        25,
        26,
        28,
        30,
        31,
        32,
        33,
        33,
        31,
        26,
        27,
        28,
        28,
        27,
        26,
        25,
        26,
        26
      ]
    },
    "HAN": {
      "icao": "VVNB",
      "issued": "2026-06-15T11:00:00.000Z",
      "raw": "TAF VVNB 151100Z 1512/1612 12006KT 6000 FEW030 TEMPO 1512/1515 3500 TSRA SCT015 FEW027CB TEMPO 1516/1521 VRB15G25KT 2500 +TSRA BKN010 FEW027CB",
      "groups": [
        {
          "text": "TAF VVNB 151100Z 1512/1612 12006KT 6000 FEW030",
          "offset_h": -4,
          "wdir": 120,
          "wspd": 6
        },
        {
          "text": "TEMPO 1512/1515 3500 TSRA SCT015 FEW027CB",
          "offset_h": -4,
          "wdir": null,
          "wspd": null
        },
        {
          "text": "TEMPO 1516/1521 VRB15G25KT 2500 +TSRA BKN010 FEW027CB",
          "offset_h": 0,
          "wdir": "VRB",
          "wspd": 15
        }
      ],
      "metar_raw": "METAR VVNB 151600Z 30008KT 9999 -RA FEW030TCU SCT054 BKN095 27/26 Q1007 TEMPO FM1700 32018KT 2500 +TSRA",
      "metar_wdir": 300,
      "metar_wspd": 8,
      "metar_oat": 27,
      "metar_qnh": 1007,
      "hourly_oat": [
        28,
        27,
        27,
        27,
        27,
        27,
        27,
        27,
        28,
        28,
        29,
        30,
        31,
        32,
        32,
        31,
        30,
        30,
        30,
        29,
        28,
        28,
        28,
        28,
        28
      ]
    },
    "BKK": {
      "icao": "VTBS",
      "issued": "2026-06-15T11:00:00.000Z",
      "raw": "TAF VTBS 151100Z 1512/1618 21008KT 9999 FEW020 TEMPO 1512/1516 VRB15KT 4000 TSRA FEW018CB SCT030 BKN100 TEMPO 1610/1614 VRB15KT 4000 TSRA FEW018CB SCT030 BKN100",
      "groups": [
        {
          "text": "TAF VTBS 151100Z 1512/1618 21008KT 9999 FEW020",
          "offset_h": -4,
          "wdir": 210,
          "wspd": 8
        },
        {
          "text": "TEMPO 1512/1516 VRB15KT 4000 TSRA FEW018CB SCT030 BKN100",
          "offset_h": -4,
          "wdir": "VRB",
          "wspd": 15
        },
        {
          "text": "TEMPO 1610/1614 VRB15KT 4000 TSRA FEW018CB SCT030 BKN100",
          "offset_h": 18,
          "wdir": "VRB",
          "wspd": 15
        }
      ],
      "metar_raw": "METAR VTBS 151600Z 18004KT 130V220 9999 FEW020 30/24 Q1010 NOSIG",
      "metar_wdir": 180,
      "metar_wspd": 4,
      "metar_oat": 30,
      "metar_qnh": 1010,
      "hourly_oat": [
        29,
        28,
        28,
        28,
        28,
        27,
        27,
        26,
        28,
        29,
        31,
        32,
        33,
        32,
        32,
        32,
        31,
        31,
        30,
        30,
        29,
        29,
        28,
        28,
        28
      ]
    }
  }
}