{
  "updated": "2026-07-21T14:54:36Z",
  "tafs": {
    "SAN": {
      "icao": "KSAN",
      "issued": "2026-07-21T14:30:00.000Z",
      "raw": "TAF KSAN 211430Z 2115/2218 VRB04KT P6SM SCT011 FM211800 28008KT P6SM FEW120 FM220300 VRB04KT P6SM SKC FM221000 VRB04KT P6SM BKN012 FM221700 30009KT P6SM SCT015",
      "groups": [
        {
          "text": "TAF KSAN 211430Z 2115/2218 VRB04KT P6SM SCT011",
          "offset_h": 1,
          "wdir": "VRB",
          "wspd": 4
        },
        {
          "text": "FM211800 28008KT P6SM FEW120",
          "offset_h": 4,
          "wdir": 280,
          "wspd": 8
        },
        {
          "text": "FM220300 VRB04KT P6SM SKC",
          "offset_h": 13,
          "wdir": "VRB",
          "wspd": 4
        },
        {
          "text": "FM221000 VRB04KT P6SM BKN012",
          "offset_h": 20,
          "wdir": "VRB",
          "wspd": 4
        },
        {
          "text": "FM221700 30009KT P6SM SCT015",
          "offset_h": 27,
          "wdir": 300,
          "wspd": 9
        }
      ],
      "metar_raw": "METAR KSAN 211451Z 18005KT 10SM FEW011 SCT200 SCT250 23/19 A3000 RMK AO2 SLP159 T02280194 51017",
      "metar_wdir": 180,
      "metar_wspd": 5,
      "metar_oat": 23,
      "metar_qnh": 1016,
      "hourly_oat": [
        22,
        24,
        25,
        26,
        28,
        28,
        28,
        28,
        28,
        27,
        26,
        26,
        24,
        23,
        22,
        22,
        22,
        22,
        22,
        22,
        21,
        21,
        21,
        21,
        21
      ]
    },
    "HAN": {
      "icao": "VVNB",
      "issued": "2026-07-21T14:00:00.000Z",
      "raw": "TAF AMD VVNB 211400Z 2114/2212 09005KT 9999 FEW030 PROB40 TEMPO 2120/2124 3500 TSRA SCT012 FEW027CB TEMPO 2203/2207 4000 TSRA SCT015 FEW027CB",
      "groups": [
        {
          "text": "TAF AMD VVNB 211400Z 2114/2212 09005KT 9999 FEW030",
          "offset_h": 0,
          "wdir": 90,
          "wspd": 5
        },
        {
          "text": "PROB40",
          "offset_h": 0,
          "wdir": null,
          "wspd": null
        },
        {
          "text": "TEMPO 2120/2124 3500 TSRA SCT012 FEW027CB",
          "offset_h": 6,
          "wdir": null,
          "wspd": null
        },
        {
          "text": "TEMPO 2203/2207 4000 TSRA SCT015 FEW027CB",
          "offset_h": 13,
          "wdir": null,
          "wspd": null
        }
      ],
      "metar_raw": "METAR VVNB 211430Z 08006KT CAVOK 28/24 Q1005 NOSIG",
      "metar_wdir": 80,
      "metar_wspd": 6,
      "metar_oat": 28,
      "metar_qnh": 1005,
      "hourly_oat": [
        28,
        28,
        27,
        27,
        27,
        26,
        26,
        26,
        26,
        26,
        28,
        29,
        30,
        31,
        32,
        32,
        33,
        34,
        32,
        31,
        31,
        30,
        29,
        28,
        28
      ]
    },
    "HKG": {
      "icao": "VHHH",
      "issued": "2026-07-21T14:00:00.000Z",
      "raw": "TAF VHHH 211400Z 2115/2221 18010KT 9999 FEW010 SCT025 TX32/2206Z TN28/2122Z TEMPO 2115/2120 10010KT TEMPO 2122/2204 4000 SHRA FEW010CB SCT020",
      "groups": [
        {
          "text": "TAF VHHH 211400Z 2115/2221 18010KT 9999 FEW010 SCT025 TX32/2206Z TN28/2122Z",
          "offset_h": 1,
          "wdir": 180,
          "wspd": 10
        },
        {
          "text": "TEMPO 2115/2120 10010KT",
          "offset_h": 1,
          "wdir": 100,
          "wspd": 10
        },
        {
          "text": "TEMPO 2122/2204 4000 SHRA FEW010CB SCT020",
          "offset_h": 8,
          "wdir": null,
          "wspd": null
        }
      ],
      "metar_raw": "METAR VHHH 211430Z 09007KT 9999 FEW015 29/25 Q1008 NOSIG",
      "metar_wdir": 90,
      "metar_wspd": 7,
      "metar_oat": 29,
      "metar_qnh": 1008,
      "hourly_oat": [
        28,
        28,
        28,
        28,
        28,
        28,
        28,
        28,
        28,
        28,
        29,
        29,
        30,
        30,
        29,
        30,
        30,
        30,
        30,
        30,
        29,
        29,
        29,
        29,
        29
      ]
    },
    "PEK": {
      "icao": "ZBAA",
      "issued": "2026-07-21T13:56:00.000Z",
      "raw": "TAF AMD ZBAA 211356Z 2112/2218 18004MPS 5000 BR NSC TX30/2206Z TN21/2121Z TN24/2218Z TEMPO 2120/2123 -TSRA FEW030CB BKN040 TEMPO 2207/2211 -TSRA FEW030CB BKN040",
      "groups": [
        {
          "text": "TAF AMD ZBAA 211356Z 2112/2218 18004MPS 5000 BR NSC TX30/2206Z TN21/2121Z TN24/2218Z",
          "offset_h": -2,
          "wdir": null,
          "wspd": null
        },
        {
          "text": "TEMPO 2120/2123 -TSRA FEW030CB BKN040",
          "offset_h": 6,
          "wdir": null,
          "wspd": null
        },
        {
          "text": "TEMPO 2207/2211 -TSRA FEW030CB BKN040",
          "offset_h": 17,
          "wdir": null,
          "wspd": null
        }
      ],
      "metar_raw": "METAR ZBAA 211430Z 08002MPS CAVOK 28/24 Q1004 NOSIG",
      "metar_wdir": null,
      "metar_wspd": null,
      "metar_oat": 28,
      "metar_qnh": 1004,
      "hourly_oat": [
        26,
        26,
        25,
        25,
        24,
        24,
        24,
        23,
        23,
        24,
        24,
        25,
        26,
        26,
        26,
        27,
        25,
        24,
        25,
        24,
        23,
        23,
        23,
        22,
        22
      ]
    },
    "HNL": {
      "icao": "PHNL",
      "issued": "2026-07-21T11:20:00.000Z",
      "raw": "TAF PHNL 211120Z 2112/2218 04008KT P6SM VCSH SCT025 BKN040 FM211900 07010G18KT P6SM VCSH SCT025 BKN045 FM220600 06008KT P6SM SCT025 SCT040",
      "groups": [
        {
          "text": "TAF PHNL 211120Z 2112/2218 04008KT P6SM VCSH SCT025 BKN040",
          "offset_h": -2,
          "wdir": 40,
          "wspd": 8
        },
        {
          "text": "FM211900 07010G18KT P6SM VCSH SCT025 BKN045",
          "offset_h": 5,
          "wdir": 70,
          "wspd": 10
        },
        {
          "text": "FM220600 06008KT P6SM SCT025 SCT040",
          "offset_h": 16,
          "wdir": 60,
          "wspd": 8
        }
      ],
      "metar_raw": "METAR PHNL 211353Z 00000KT 10SM FEW025 FEW045 OVC090 25/20 A2992 RMK AO2 SLP130 T02500200 $",
      "metar_wdir": 0,
      "metar_wspd": 0,
      "metar_oat": 25,
      "metar_qnh": 1013,
      "hourly_oat": [
        23,
        23,
        23,
        24,
        25,
        27,
        28,
        28,
        28,
        29,
        29,
        28,
        27,
        26,
        26,
        25,
        25,
        24,
        24,
        24,
        24,
        24,
        24,
        24,
        24
      ]
    },
    "LAX": {
      "icao": "KLAX",
      "issued": "2026-07-21T11:20:00.000Z",
      "raw": "TAF KLAX 211120Z 2112/2218 VRB03KT P6SM BKN200 FM211700 26006KT P6SM SCT250 FM212100 26012KT P6SM SCT250 FM220300 26008KT P6SM SCT250 FM220800 VRB03KT P6SM SCT250 FM221100 VRB03KT P6SM BKN008 FM221600 26006KT P6SM SCT250",
      "groups": [
        {
          "text": "TAF KLAX 211120Z 2112/2218 VRB03KT P6SM BKN200",
          "offset_h": -2,
          "wdir": "VRB",
          "wspd": 3
        },
        {
          "text": "FM211700 26006KT P6SM SCT250",
          "offset_h": 3,
          "wdir": 260,
          "wspd": 6
        },
        {
          "text": "FM212100 26012KT P6SM SCT250",
          "offset_h": 7,
          "wdir": 260,
          "wspd": 12
        },
        {
          "text": "FM220300 26008KT P6SM SCT250",
          "offset_h": 13,
          "wdir": 260,
          "wspd": 8
        },
        {
          "text": "FM220800 VRB03KT P6SM SCT250",
          "offset_h": 18,
          "wdir": "VRB",
          "wspd": 3
        },
        {
          "text": "FM221100 VRB03KT P6SM BKN008",
          "offset_h": 21,
          "wdir": "VRB",
          "wspd": 3
        },
        {
          "text": "FM221600 26006KT P6SM SCT250",
          "offset_h": 26,
          "wdir": 260,
          "wspd": 6
        }
      ],
      "metar_raw": "METAR KLAX 211353Z 26003KT 7SM FEW008 SCT010 BKN140 BKN180 21/19 A2997 RMK AO2 SLP147 T02110194 $",
      "metar_wdir": 260,
      "metar_wspd": 3,
      "metar_oat": 21,
      "metar_qnh": 1015,
      "hourly_oat": [
        20,
        22,
        24,
        26,
        26,
        25,
        25,
        24,
        24,
        24,
        24,
        23,
        22,
        21,
        21,
        21,
        21,
        21,
        20,
        20,
        20,
        20,
        20,
        20,
        20
      ]
    },
    "CTS": {
      "icao": "RJCC",
      "issued": "2026-07-21T11:05:00.000Z",
      "raw": "TAF RJCC 211105Z 2112/2218 34010KT 9999 FEW003 BKN012 TEMPO 2115/2200 FEW002 BKN005 BECMG 2209/2212 17006KT TEMPO 2212/2215 FEW002 BKN005 TEMPO 2215/2218 1500 BR FEW001 BKN002",
      "groups": [
        {
          "text": "TAF RJCC 211105Z 2112/2218 34010KT 9999 FEW003 BKN012",
          "offset_h": -2,
          "wdir": 340,
          "wspd": 10
        },
        {
          "text": "TEMPO 2115/2200 FEW002 BKN005",
          "offset_h": 1,
          "wdir": null,
          "wspd": null
        },
        {
          "text": "BECMG 2209/2212 17006KT",
          "offset_h": 19,
          "wdir": 170,
          "wspd": 6
        },
        {
          "text": "TEMPO 2212/2215 FEW002 BKN005",
          "offset_h": 22,
          "wdir": null,
          "wspd": null
        },
        {
          "text": "TEMPO 2215/2218 1500 BR FEW001 BKN002",
          "offset_h": 25,
          "wdir": null,
          "wspd": null
        }
      ],
      "metar_raw": "METAR RJCC 211430Z 36005KT 9999 FEW015 BKN/// 21/20 Q1007",
      "metar_wdir": 360,
      "metar_wspd": 5,
      "metar_oat": 21,
      "metar_qnh": 1007,
      "hourly_oat": [
        20,
        20,
        20,
        20,
        20,
        20,
        20,
        21,
        21,
        21,
        21,
        22,
        22,
        23,
        23,
        25,
        25,
        26,
        26,
        25,
        24,
        22,
        21,
        20,
        19
      ]
    },
    "FUK": {
      "icao": "RJFF",
      "issued": "2026-07-21T11:05:00.000Z",
      "raw": "TAF RJFF 211105Z 2112/2218 03005KT CAVOK BECMG 2113/2115 14006KT BECMG 2200/2203 32011KT BECMG 2212/2215 13004KT",
      "groups": [
        {
          "text": "TAF RJFF 211105Z 2112/2218 03005KT CAVOK",
          "offset_h": -2,
          "wdir": 30,
          "wspd": 5
        },
        {
          "text": "BECMG 2113/2115 14006KT",
          "offset_h": -1,
          "wdir": 140,
          "wspd": 6
        },
        {
          "text": "BECMG 2200/2203 32011KT",
          "offset_h": 10,
          "wdir": 320,
          "wspd": 11
        },
        {
          "text": "BECMG 2212/2215 13004KT",
          "offset_h": 22,
          "wdir": 130,
          "wspd": 4
        }
      ],
      "metar_raw": "METAR RJFF 211430Z AUTO 05003KT 010V090 9999 NCD 29/25 Q1009 NOSIG",
      "metar_wdir": 50,
      "metar_wspd": 3,
      "metar_oat": 29,
      "metar_qnh": 1009,
      "hourly_oat": [
        27,
        27,
        26,
        26,
        26,
        26,
        25,
        25,
        26,
        28,
        29,
        30,
        31,
        31,
        31,
        31,
        30,
        30,
        30,
        29,
        28,
        28,
        28,
        27,
        27
      ]
    },
    "NRT": {
      "icao": "RJAA",
      "issued": "2026-07-21T11:05:00.000Z",
      "raw": "TAF RJAA 211105Z 2112/2218 15004KT 9999 FEW030 TEMPO 2118/2121 FEW003 BKN008 BECMG 2122/2200 31005KT BECMG 2203/2206 13010KT TEMPO 2203/2209 4000 -TSRA BR FEW005 BKN008 FEW020CB",
      "groups": [
        {
          "text": "TAF RJAA 211105Z 2112/2218 15004KT 9999 FEW030",
          "offset_h": -2,
          "wdir": 150,
          "wspd": 4
        },
        {
          "text": "TEMPO 2118/2121 FEW003 BKN008",
          "offset_h": 4,
          "wdir": null,
          "wspd": null
        },
        {
          "text": "BECMG 2122/2200 31005KT",
          "offset_h": 8,
          "wdir": 310,
          "wspd": 5
        },
        {
          "text": "BECMG 2203/2206 13010KT",
          "offset_h": 13,
          "wdir": 130,
          "wspd": 10
        },
        {
          "text": "TEMPO 2203/2209 4000 -TSRA BR FEW005 BKN008 FEW020CB",
          "offset_h": 13,
          "wdir": null,
          "wspd": null
        }
      ],
      "metar_raw": "METAR RJAA 211430Z AUTO 17003KT 9999 FEW015 27/25 Q1008 NOSIG",
      "metar_wdir": 170,
      "metar_wspd": 3,
      "metar_oat": 27,
      "metar_qnh": 1008,
      "hourly_oat": [
        28,
        27,
        27,
        26,
        26,
        25,
        25,
        26,
        28,
        29,
        30,
        32,
        33,
        35,
        36,
        36,
        34,
        35,
        34,
        33,
        32,
        31,
        30,
        29,
        28
      ]
    },
    "KIX": {
      "icao": "RJBB",
      "issued": "2026-07-21T11:05:00.000Z",
      "raw": "TAF RJBB 211105Z 2112/2218 20008KT 9999 FEW020",
      "groups": [
        {
          "text": "TAF RJBB 211105Z 2112/2218 20008KT 9999 FEW020",
          "offset_h": -2,
          "wdir": 200,
          "wspd": 8
        }
      ],
      "metar_raw": "METAR RJBB 211430Z AUTO 23008KT 9999 NCD 29/26 Q1008 NOSIG",
      "metar_wdir": 230,
      "metar_wspd": 8,
      "metar_oat": 29,
      "metar_qnh": 1008,
      "hourly_oat": [
        29,
        29,
        28,
        28,
        28,
        28,
        28,
        28,
        28,
        28,
        28,
        28,
        28,
        28,
        29,
        29,
        29,
        29,
        29,
        29,
        29,
        29,
        29,
        29,
        29
      ]
    },
    "HND": {
      "icao": "RJTT",
      "issued": "2026-07-21T11:05:00.000Z",
      "raw": "TAF RJTT 211105Z 2112/2218 19010KT 9999 FEW030 BECMG 2121/2123 13004KT BECMG 2203/2206 19014KT BECMG 2215/2218 36004KT",
      "groups": [
        {
          "text": "TAF RJTT 211105Z 2112/2218 19010KT 9999 FEW030",
          "offset_h": -2,
          "wdir": 190,
          "wspd": 10
        },
        {
          "text": "BECMG 2121/2123 13004KT",
          "offset_h": 7,
          "wdir": 130,
          "wspd": 4
        },
        {
          "text": "BECMG 2203/2206 19014KT",
          "offset_h": 13,
          "wdir": 190,
          "wspd": 14
        },
        {
          "text": "BECMG 2215/2218 36004KT",
          "offset_h": 25,
          "wdir": 360,
          "wspd": 4
        }
      ],
      "metar_raw": "METAR RJTT 211430Z 18008KT 9999 FEW010 28/26 Q1008 NOSIG",
      "metar_wdir": 180,
      "metar_wspd": 8,
      "metar_oat": 28,
      "metar_qnh": 1008,
      "hourly_oat": [
        27,
        27,
        27,
        27,
        26,
        26,
        26,
        26,
        28,
        29,
        30,
        31,
        31,
        32,
        32,
        32,
        32,
        31,
        30,
        29,
        28,
        28,
        28,
        28,
        28
      ]
    },
    "ITM": {
      "icao": "RJOO",
      "issued": "2026-07-21T11:05:00.000Z",
      "raw": "TAF RJOO 211105Z 2112/2218 32004KT 9999 FEW025 BECMG 2200/2203 22006KT TEMPO 2203/2209 TS FEW025 FEW030CB BKN040 BECMG 2209/2212 32005KT",
      "groups": [
        {
          "text": "TAF RJOO 211105Z 2112/2218 32004KT 9999 FEW025",
          "offset_h": -2,
          "wdir": 320,
          "wspd": 4
        },
        {
          "text": "BECMG 2200/2203 22006KT",
          "offset_h": 10,
          "wdir": 220,
          "wspd": 6
        },
        {
          "text": "TEMPO 2203/2209 TS FEW025 FEW030CB BKN040",
          "offset_h": 13,
          "wdir": null,
          "wspd": null
        },
        {
          "text": "BECMG 2209/2212 32005KT",
          "offset_h": 19,
          "wdir": 320,
          "wspd": 5
        }
      ],
      "metar_raw": "METAR RJOO 211400Z AUTO 24004KT 180V280 9999 NCD 31/24 Q1008",
      "metar_wdir": 240,
      "metar_wspd": 4,
      "metar_oat": 31,
      "metar_qnh": 1008,
      "hourly_oat": [
        29,
        28,
        28,
        27,
        27,
        27,
        27,
        27,
        28,
        29,
        30,
        31,
        32,
        33,
        33,
        34,
        34,
        34,
        34,
        33,
        32,
        31,
        30,
        30,
        29
      ]
    },
    "OKA": {
      "icao": "ROAH",
      "issued": "2026-07-21T11:05:00.000Z",
      "raw": "TAF ROAH 211105Z 2112/2218 25006KT 9999 FEW008 SCT015 BECMG 2200/2203 29006KT TEMPO 2203/2209 4000 SHRA BR FEW005 BKN008 FEW015CB BECMG 2215/2218 11004KT",
      "groups": [
        {
          "text": "TAF ROAH 211105Z 2112/2218 25006KT 9999 FEW008 SCT015",
          "offset_h": -2,
          "wdir": 250,
          "wspd": 6
        },
        {
          "text": "BECMG 2200/2203 29006KT",
          "offset_h": 10,
          "wdir": 290,
          "wspd": 6
        },
        {
          "text": "TEMPO 2203/2209 4000 SHRA BR FEW005 BKN008 FEW015CB",
          "offset_h": 13,
          "wdir": null,
          "wspd": null
        },
        {
          "text": "BECMG 2215/2218 11004KT",
          "offset_h": 25,
          "wdir": 110,
          "wspd": 4
        }
      ],
      "metar_raw": "METAR ROAH 211430Z AUTO 25004KT 9999 NCD 29/27 Q1011",
      "metar_wdir": 250,
      "metar_wspd": 4,
      "metar_oat": 29,
      "metar_qnh": 1011,
      "hourly_oat": [
        28,
        28,
        28,
        28,
        27,
        27,
        27,
        27,
        28,
        29,
        30,
        30,
        30,
        31,
        31,
        31,
        30,
        30,
        29,
        28,
        28,
        28,
        28,
        28,
        28
      ]
    },
    "NGO": {
      "icao": "RJGG",
      "issued": "2026-07-21T11:05:00.000Z",
      "raw": "TAF RJGG 211105Z 2112/2218 15006KT 9999 FEW030 BECMG 2118/2120 05004KT BECMG 2200/2203 23006KT BECMG 2209/2212 28008KT",
      "groups": [
        {
          "text": "TAF RJGG 211105Z 2112/2218 15006KT 9999 FEW030",
          "offset_h": -2,
          "wdir": 150,
          "wspd": 6
        },
        {
          "text": "BECMG 2118/2120 05004KT",
          "offset_h": 4,
          "wdir": 50,
          "wspd": 4
        },
        {
          "text": "BECMG 2200/2203 23006KT",
          "offset_h": 10,
          "wdir": 230,
          "wspd": 6
        },
        {
          "text": "BECMG 2209/2212 28008KT",
          "offset_h": 19,
          "wdir": 280,
          "wspd": 8
        }
      ],
      "metar_raw": "METAR RJGG 211430Z AUTO 12006KT 9999 NCD 30/26 Q1008 NOSIG",
      "metar_wdir": 120,
      "metar_wspd": 6,
      "metar_oat": 30,
      "metar_qnh": 1008,
      "hourly_oat": [
        28,
        28,
        28,
        28,
        28,
        27,
        28,
        28,
        28,
        28,
        28,
        28,
        29,
        29,
        29,
        30,
        30,
        31,
        31,
        30,
        30,
        30,
        30,
        30,
        30
      ]
    },
    "SIN": {
      "icao": "WSSS",
      "issued": "2026-07-21T11:00:00.000Z",
      "raw": "TAF WSSS 211100Z 2112/2218 17008KT 9999 FEW015 SCT020 TEMPO 2206/2209 3000 TSRA FEW012CB BKN015",
      "groups": [
        {
          "text": "TAF WSSS 211100Z 2112/2218 17008KT 9999 FEW015 SCT020",
          "offset_h": -2,
          "wdir": 170,
          "wspd": 8
        },
        {
          "text": "TEMPO 2206/2209 3000 TSRA FEW012CB BKN015",
          "offset_h": 16,
          "wdir": null,
          "wspd": null
        }
      ],
      "metar_raw": "METAR WSSS 211430Z 14006KT 9999 FEW018 FEW020TCU BKN300 29/25 Q1012 NOSIG",
      "metar_wdir": 140,
      "metar_wspd": 6,
      "metar_oat": 29,
      "metar_qnh": 1012,
      "hourly_oat": [
        28,
        28,
        28,
        27,
        27,
        26,
        25,
        25,
        24,
        24,
        25,
        27,
        28,
        29,
        30,
        30,
        29,
        29,
        28,
        28,
        28,
        28,
        27,
        27,
        26
      ]
    },
    "SGN": {
      "icao": "VVTS",
      "issued": "2026-07-21T11:00:00.000Z",
      "raw": "TAF VVTS 211100Z 2112/2218 25008KT 9999 SCT017",
      "groups": [
        {
          "text": "TAF VVTS 211100Z 2112/2218 25008KT 9999 SCT017",
          "offset_h": -2,
          "wdir": 250,
          "wspd": 8
        }
      ],
      "metar_raw": "METAR VVTS 211430Z 24011KT CAVOK 30/25 Q1010 NOSIG",
      "metar_wdir": 240,
      "metar_wspd": 11,
      "metar_oat": 30,
      "metar_qnh": 1010,
      "hourly_oat": [
        28,
        27,
        26,
        26,
        26,
        26,
        25,
        25,
        25,
        25,
        26,
        28,
        30,
        31,
        33,
        33,
        34,
        34,
        34,
        34,
        34,
        32,
        30,
        29,
        28
      ]
    },
    "BKK": {
      "icao": "VTBS",
      "issued": "2026-07-21T11:00:00.000Z",
      "raw": "TAF VTBS 211100Z 2112/2218 23008KT 9999 FEW020 TEMPO 2114/2118 VRB15KT 4000 TSRA FEW018CB SCT030 BKN100 TEMPO 2210/2214 VRB15KT 4000 TSRA FEW018CB SCT030 BKN100",
      "groups": [
        {
          "text": "TAF VTBS 211100Z 2112/2218 23008KT 9999 FEW020",
          "offset_h": -2,
          "wdir": 230,
          "wspd": 8
        },
        {
          "text": "TEMPO 2114/2118 VRB15KT 4000 TSRA FEW018CB SCT030 BKN100",
          "offset_h": 0,
          "wdir": "VRB",
          "wspd": 15
        },
        {
          "text": "TEMPO 2210/2214 VRB15KT 4000 TSRA FEW018CB SCT030 BKN100",
          "offset_h": 20,
          "wdir": "VRB",
          "wspd": 15
        }
      ],
      "metar_raw": "METAR VTBS 211430Z 22007KT 9999 FEW020 31/24 Q1009 NOSIG",
      "metar_wdir": 220,
      "metar_wspd": 7,
      "metar_oat": 31,
      "metar_qnh": 1009,
      "hourly_oat": [
        28,
        28,
        28,
        28,
        28,
        28,
        28,
        27,
        27,
        26,
        26,
        28,
        30,
        32,
        33,
        33,
        31,
        32,
        33,
        32,
        27,
        26,
        26,
        26,
        26
      ]
    },
    "TPE": {
      "icao": "RCTP",
      "issued": "2026-07-21T11:00:00.000Z",
      "raw": "TAF RCTP 211100Z 2112/2218 23010KT 9999 FEW010 BKN032 TEMPO 2112/2118 16005KT TEMPO 2118/2124 24005KT TEMPO 2200/2206 31011KT TEMPO 2206/2212 30011KT",
      "groups": [
        {
          "text": "TAF RCTP 211100Z 2112/2218 23010KT 9999 FEW010 BKN032",
          "offset_h": -2,
          "wdir": 230,
          "wspd": 10
        },
        {
          "text": "TEMPO 2112/2118 16005KT",
          "offset_h": -2,
          "wdir": 160,
          "wspd": 5
        },
        {
          "text": "TEMPO 2118/2124 24005KT",
          "offset_h": 4,
          "wdir": 240,
          "wspd": 5
        },
        {
          "text": "TEMPO 2200/2206 31011KT",
          "offset_h": 10,
          "wdir": 310,
          "wspd": 11
        },
        {
          "text": "TEMPO 2206/2212 30011KT",
          "offset_h": 16,
          "wdir": 300,
          "wspd": 11
        }
      ],
      "metar_raw": "METAR RCTP 211430Z 18005KT 9999 FEW015 BKN150 28/25 Q1010 NOSIG RMK A2984",
      "metar_wdir": 180,
      "metar_wspd": 5,
      "metar_oat": 28,
      "metar_qnh": 1010,
      "hourly_oat": [
        27,
        27,
        27,
        26,
        26,
        26,
        26,
        26,
        26,
        28,
        29,
        30,
        31,
        31,
        31,
        31,
        31,
        31,
        31,
        30,
        30,
        29,
        29,
        28,
        28
      ]
    },
    "GMP": {
      "icao": "RKSS",
      "issued": "2026-07-21T11:00:00.000Z",
      "raw": "TAF RKSS 211100Z 2112/2218 25005KT 9999 BKN020 TN25/2120Z TX29/2206Z BECMG 2113/2115 4000 BR BECMG 2121/2123 6000 NSW BECMG 2204/2206 20007KT -RA SCT010 BKN025 OVC070 BECMG 2215/2217 17005KT NSW",
      "groups": [
        {
          "text": "TAF RKSS 211100Z 2112/2218 25005KT 9999 BKN020 TN25/2120Z TX29/2206Z",
          "offset_h": -2,
          "wdir": 250,
          "wspd": 5
        },
        {
          "text": "BECMG 2113/2115 4000 BR",
          "offset_h": -1,
          "wdir": null,
          "wspd": null
        },
        {
          "text": "BECMG 2121/2123 6000 NSW",
          "offset_h": 7,
          "wdir": null,
          "wspd": null
        },
        {
          "text": "BECMG 2204/2206 20007KT -RA SCT010 BKN025 OVC070",
          "offset_h": 14,
          "wdir": 200,
          "wspd": 7
        },
        {
          "text": "BECMG 2215/2217 17005KT NSW",
          "offset_h": 25,
          "wdir": 170,
          "wspd": 5
        }
      ],
      "metar_raw": "METAR RKSS 211400Z 28003KT 240V320 9999 SCT012 BKN020 25/25 Q1008 NOSIG",
      "metar_wdir": 280,
      "metar_wspd": 3,
      "metar_oat": 25,
      "metar_qnh": 1008,
      "hourly_oat": [
        23,
        23,
        22,
        22,
        22,
        22,
        22,
        22,
        23,
        23,
        24,
        25,
        26,
        26,
        28,
        28,
        28,
        27,
        26,
        26,
        26,
        26,
        25,
        25,
        25
      ]
    },
    "CGK": {
      "icao": "WIII",
      "issued": "2026-07-21T11:00:00.000Z",
      "raw": "TAF WIII 211100Z 2112/2218 06010KT 8000 SCT020 BECMG 2115/2117 17005KT 5000 HZ BECMG 2203/2205 04013KT 8000 NSW",
      "groups": [
        {
          "text": "TAF WIII 211100Z 2112/2218 06010KT 8000 SCT020",
          "offset_h": -2,
          "wdir": 60,
          "wspd": 10
        },
        {
          "text": "BECMG 2115/2117 17005KT 5000 HZ",
          "offset_h": 1,
          "wdir": 170,
          "wspd": 5
        },
        {
          "text": "BECMG 2203/2205 04013KT 8000 NSW",
          "offset_h": 13,
          "wdir": 40,
          "wspd": 13
        }
      ],
      "metar_raw": "METAR WIII 211430Z 06004KT 7000 FEW020 27/24 Q1013 NOSIG",
      "metar_wdir": 60,
      "metar_wspd": 4,
      "metar_oat": 27,
      "metar_qnh": 1013,
      "hourly_oat": [
        27,
        27,
        26,
        25,
        25,
        25,
        25,
        24,
        24,
        24,
        24,
        26,
        28,
        30,
        31,
        32,
        31,
        29,
        29,
        27,
        28,
        27,
        27,
        27,
        26
      ]
    },
    "TSA": {
      "icao": "RCSS",
      "issued": "2026-07-21T11:00:00.000Z",
      "raw": "TAF RCSS 211100Z 2112/2212 09005KT 9999 FEW010 BKN032 TEMPO 2200/2206 30009KT TEMPO 2206/2210 09010KT 4000 TSRA FEW010 BKN017 FEW020CB",
      "groups": [
        {
          "text": "TAF RCSS 211100Z 2112/2212 09005KT 9999 FEW010 BKN032",
          "offset_h": -2,
          "wdir": 90,
          "wspd": 5
        },
        {
          "text": "TEMPO 2200/2206 30009KT",
          "offset_h": 10,
          "wdir": 300,
          "wspd": 9
        },
        {
          "text": "TEMPO 2206/2210 09010KT 4000 TSRA FEW010 BKN017 FEW020CB",
          "offset_h": 16,
          "wdir": 90,
          "wspd": 10
        }
      ],
      "metar_raw": "METAR RCSS 211430Z 34002KT 9999 FEW025 SCT090 27/26 Q1010 NOSIG RMK A2984",
      "metar_wdir": 340,
      "metar_wspd": 2,
      "metar_oat": 27,
      "metar_qnh": 1010,
      "hourly_oat": [
        27,
        27,
        26,
        26,
        25,
        25,
        25,
        25,
        26,
        27,
        29,
        30,
        32,
        32,
        32,
        33,
        32,
        32,
        31,
        31,
        30,
        28,
        28,
        27,
        27
      ]
    },
    "KUL": {
      "icao": "WMKK",
      "issued": "2026-07-21T11:00:00.000Z",
      "raw": "TAF WMKK 211100Z 2112/2218 VRB03KT 9999 FEW030",
      "groups": [
        {
          "text": "TAF WMKK 211100Z 2112/2218 VRB03KT 9999 FEW030",
          "offset_h": -2,
          "wdir": "VRB",
          "wspd": 3
        }
      ],
      "metar_raw": "METAR WMKK 211430Z 00000KT 9999 FEW030 29/26 Q1011 NOSIG",
      "metar_wdir": 0,
      "metar_wspd": 0,
      "metar_oat": 29,
      "metar_qnh": 1011,
      "hourly_oat": [
        25,
        25,
        24,
        24,
        24,
        23,
        23,
        23,
        23,
        23,
        23,
        24,
        26,
        28,
        29,
        30,
        27,
        28,
        28,
        28,
        27,
        27,
        25,
        25,
        25
      ]
    },
    "SHA": {
      "icao": "ZSSS",
      "issued": "2026-07-21T09:07:00.000Z",
      "raw": "TAF ZSSS 210907Z 2112/2218 21004MPS 6000 BKN030 TX28/2112Z TX33/2206Z TN26/2121Z TEMPO 2112/2113 33007G12MPS TSRA BKN011 FEW030CB TEMPO 2206/2210 33007G12MPS TSRA BKN011 FEW030CB",
      "groups": [
        {
          "text": "TAF ZSSS 210907Z 2112/2218 21004MPS 6000 BKN030 TX28/2112Z TX33/2206Z TN26/2121Z",
          "offset_h": -2,
          "wdir": null,
          "wspd": null
        },
        {
          "text": "TEMPO 2112/2113 33007G12MPS TSRA BKN011 FEW030CB",
          "offset_h": -2,
          "wdir": null,
          "wspd": null
        },
        {
          "text": "TEMPO 2206/2210 33007G12MPS TSRA BKN011 FEW030CB",
          "offset_h": 16,
          "wdir": null,
          "wspd": null
        }
      ],
      "metar_raw": "METAR ZSSS 211430Z 18003MPS 9999 -RA NSC 26/24 Q1007 NOSIG",
      "metar_wdir": null,
      "metar_wspd": null,
      "metar_oat": 26,
      "metar_qnh": 1007,
      "hourly_oat": [
        27,
        27,
        27,
        27,
        27,
        27,
        27,
        27,
        28,
        29,
        30,
        31,
        32,
        33,
        34,
        34,
        34,
        30,
        30,
        30,
        30,
        29,
        28,
        28,
        28
      ]
    },
    "PVG": {
      "icao": "ZSPD",
      "issued": "2026-07-21T09:07:00.000Z",
      "raw": "TAF ZSPD 210907Z 2112/2218 19004MPS 6000 SCT030 TX28/2112Z TX32/2206Z TN26/2121Z TEMPO 2112/2114 33007G12MPS TSRA BKN011 FEW030CB",
      "groups": [
        {
          "text": "TAF ZSPD 210907Z 2112/2218 19004MPS 6000 SCT030 TX28/2112Z TX32/2206Z TN26/2121Z",
          "offset_h": -2,
          "wdir": null,
          "wspd": null
        },
        {
          "text": "TEMPO 2112/2114 33007G12MPS TSRA BKN011 FEW030CB",
          "offset_h": -2,
          "wdir": null,
          "wspd": null
        }
      ],
      "metar_raw": "METAR ZSPD 211430Z 24004MPS 9999 SCT016 26/26 Q1007 NOSIG",
      "metar_wdir": null,
      "metar_wspd": null,
      "metar_oat": 26,
      "metar_qnh": 1007,
      "hourly_oat": [
        27,
        27,
        27,
        26,
        26,
        26,
        26,
        26,
        27,
        29,
        30,
        31,
        32,
        33,
        34,
        34,
        34,
        32,
        29,
        29,
        29,
        28,
        28,
        28,
        28
      ]
    },
    "DLC": {
      "icao": "ZYTL",
      "issued": "2026-07-21T09:05:00.000Z",
      "raw": "TAF ZYTL 210905Z 2112/2212 20004MPS 5000 BR FEW040 TX31/2206Z TN24/2120Z",
      "groups": [
        {
          "text": "TAF ZYTL 210905Z 2112/2212 20004MPS 5000 BR FEW040 TX31/2206Z TN24/2120Z",
          "offset_h": -2,
          "wdir": null,
          "wspd": null
        }
      ],
      "metar_raw": "METAR ZYTL 211430Z VRB01MPS CAVOK 25/21 Q1006 NOSIG",
      "metar_wdir": null,
      "metar_wspd": null,
      "metar_oat": 25,
      "metar_qnh": 1006,
      "hourly_oat": [
        24,
        24,
        24,
        24,
        24,
        24,
        24,
        24,
        25,
        26,
        28,
        30,
        31,
        31,
        31,
        32,
        31,
        29,
        29,
        28,
        26,
        25,
        24,
        24,
        24
      ]
    },
    "CAN": {
      "icao": "ZGGG",
      "issued": "2026-07-21T09:04:00.000Z",
      "raw": "TAF ZGGG 210904Z 2112/2218 16004MPS 8000 BKN040 TX28/2112Z TX32/2207Z TN26/2122Z TEMPO 2122/2202 TSRA SCT026CB BKN033 TEMPO 2205/2209 TSRA SCT026CB BKN033",
      "groups": [
        {
          "text": "TAF ZGGG 210904Z 2112/2218 16004MPS 8000 BKN040 TX28/2112Z TX32/2207Z TN26/2122Z",
          "offset_h": -2,
          "wdir": null,
          "wspd": null
        },
        {
          "text": "TEMPO 2122/2202 TSRA SCT026CB BKN033",
          "offset_h": 8,
          "wdir": null,
          "wspd": null
        },
        {
          "text": "TEMPO 2205/2209 TSRA SCT026CB BKN033",
          "offset_h": 15,
          "wdir": null,
          "wspd": null
        }
      ],
      "metar_raw": "METAR ZGGG 211430Z 06002MPS CAVOK 27/25 Q1008 NOSIG",
      "metar_wdir": null,
      "metar_wspd": null,
      "metar_oat": 27,
      "metar_qnh": 1008,
      "hourly_oat": [
        26,
        26,
        26,
        26,
        26,
        26,
        25,
        25,
        25,
        26,
        27,
        29,
        29,
        28,
        30,
        32,
        32,
        32,
        29,
        30,
        30,
        30,
        29,
        28,
        28
      ]
    }
  }
}