{
  "updated": "2026-06-29T22:03:16Z",
  "tafs": {
    "HNL": {
      "icao": "PHNL",
      "issued": "2026-06-29T21:41:00.000Z",
      "raw": "TAF PHNL 292141Z 2922/3024 06016G24KT P6SM VCSH SCT025 BKN045 FM300600 05009KT P6SM FEW025 SCT040 FM302000 06013G21KT P6SM SCT025",
      "groups": [
        {
          "text": "TAF PHNL 292141Z 2922/3024 06016G24KT P6SM VCSH SCT025 BKN045",
          "offset_h": 0,
          "wdir": 60,
          "wspd": 16
        },
        {
          "text": "FM300600 05009KT P6SM FEW025 SCT040",
          "offset_h": 8,
          "wdir": 50,
          "wspd": 9
        },
        {
          "text": "FM302000 06013G21KT P6SM SCT025",
          "offset_h": 22,
          "wdir": 60,
          "wspd": 13
        }
      ],
      "metar_raw": "METAR PHNL 292153Z 05015G25KT 10SM FEW025 FEW040 31/19 A2999 RMK AO2 SLP156 T03060189 $",
      "metar_wdir": 50,
      "metar_wspd": 15,
      "metar_oat": 31,
      "metar_qnh": 1016,
      "hourly_oat": [
        30,
        30,
        30,
        30,
        28,
        27,
        26,
        25,
        24,
        24,
        24,
        24,
        24,
        23,
        23,
        23,
        23,
        23,
        23,
        25,
        26,
        27,
        29,
        29,
        29
      ]
    },
    "PVG": {
      "icao": "ZSPD",
      "issued": "2026-06-29T21:22:00.000Z",
      "raw": "TAF ZSPD 292122Z 3000/0106 17004MPS 6000 -SHRA BKN011 TX27/3006Z TX27/0106Z TN21/3021Z TEMPO 3000/3004 TSRA BKN008 SCT030CB TEMPO 3007/3010 SHRA BKN008 FEW030CB TEMPO 3021/0103 TSRA BKN008 SCT030CB",
      "groups": [
        {
          "text": "TAF ZSPD 292122Z 3000/0106 17004MPS 6000 -SHRA BKN011 TX27/3006Z TX27/0106Z TN21/3021Z",
          "offset_h": 2,
          "wdir": null,
          "wspd": null
        },
        {
          "text": "TEMPO 3000/3004 TSRA BKN008 SCT030CB",
          "offset_h": 2,
          "wdir": null,
          "wspd": null
        },
        {
          "text": "TEMPO 3007/3010 SHRA BKN008 FEW030CB",
          "offset_h": 9,
          "wdir": null,
          "wspd": null
        },
        {
          "text": "TEMPO 3021/0103 TSRA BKN008 SCT030CB",
          "offset_h": 23,
          "wdir": null,
          "wspd": null
        }
      ],
      "metar_raw": "METAR ZSPD 292130Z 07002MPS 2500 -SHRA BR SCT006 25/25 Q1009 NOSIG",
      "metar_wdir": null,
      "metar_wspd": null,
      "metar_oat": 25,
      "metar_qnh": 1009,
      "hourly_oat": [
        24,
        24,
        25,
        25,
        25,
        25,
        25,
        25,
        26,
        26,
        25,
        27,
        26,
        26,
        26,
        26,
        25,
        25,
        24,
        24,
        24,
        23,
        23,
        23,
        23
      ]
    },
    "SHA": {
      "icao": "ZSSS",
      "issued": "2026-06-29T21:22:00.000Z",
      "raw": "TAF ZSSS 292122Z 3000/0106 16004MPS 6000 -SHRA BKN013 TX28/3006Z TX27/0106Z TN22/3021Z TEMPO 3000/3004 TSRA BKN008 SCT030CB TEMPO 3007/3010 SHRA BKN008 FEW030CB TEMPO 3021/0103 TSRA BKN008 SCT030CB",
      "groups": [
        {
          "text": "TAF ZSSS 292122Z 3000/0106 16004MPS 6000 -SHRA BKN013 TX28/3006Z TX27/0106Z TN22/3021Z",
          "offset_h": 2,
          "wdir": null,
          "wspd": null
        },
        {
          "text": "TEMPO 3000/3004 TSRA BKN008 SCT030CB",
          "offset_h": 2,
          "wdir": null,
          "wspd": null
        },
        {
          "text": "TEMPO 3007/3010 SHRA BKN008 FEW030CB",
          "offset_h": 9,
          "wdir": null,
          "wspd": null
        },
        {
          "text": "TEMPO 3021/0103 TSRA BKN008 SCT030CB",
          "offset_h": 23,
          "wdir": null,
          "wspd": null
        }
      ],
      "metar_raw": "METAR ZSSS 292130Z 03002MPS 6000 FEW009 26/25 Q1009 NOSIG",
      "metar_wdir": null,
      "metar_wspd": null,
      "metar_oat": 26,
      "metar_qnh": 1009,
      "hourly_oat": [
        24,
        24,
        25,
        25,
        25,
        26,
        26,
        26,
        26,
        26,
        27,
        27,
        27,
        26,
        25,
        25,
        24,
        24,
        23,
        23,
        23,
        23,
        23,
        23,
        22
      ]
    },
    "DLC": {
      "icao": "ZYTL",
      "issued": "2026-06-29T21:13:00.000Z",
      "raw": "TAF ZYTL 292113Z 3000/3024 15004MPS 5000 BR SCT030 TX27/3006Z TN20/3021Z TEMPO 3002/3006 2000 -SHRA BR BKN010 FEW030CB TEMPO 3016/3022 2000 -SHRA BR BKN010 FEW030CB",
      "groups": [
        {
          "text": "TAF ZYTL 292113Z 3000/3024 15004MPS 5000 BR SCT030 TX27/3006Z TN20/3021Z",
          "offset_h": 2,
          "wdir": null,
          "wspd": null
        },
        {
          "text": "TEMPO 3002/3006 2000 -SHRA BR BKN010 FEW030CB",
          "offset_h": 4,
          "wdir": null,
          "wspd": null
        },
        {
          "text": "TEMPO 3016/3022 2000 -SHRA BR BKN010 FEW030CB",
          "offset_h": 18,
          "wdir": null,
          "wspd": null
        }
      ],
      "metar_raw": "METAR ZYTL 292130Z 14003MPS 6000 SCT010 23/21 Q1010 NOSIG",
      "metar_wdir": null,
      "metar_wspd": null,
      "metar_oat": 23,
      "metar_qnh": 1010,
      "hourly_oat": [
        22,
        23,
        24,
        26,
        26,
        25,
        26,
        26,
        26,
        26,
        25,
        24,
        24,
        23,
        23,
        23,
        23,
        23,
        23,
        22,
        22,
        22,
        21,
        21,
        21
      ]
    },
    "PEK": {
      "icao": "ZBAA",
      "issued": "2026-06-29T21:08:00.000Z",
      "raw": "TAF ZBAA 292108Z 3000/0106 14003MPS 6000 NSC TX27/3007Z TX30/0106Z TN21/3021Z TEMPO 3007/3011 -TSRA FEW040CB BKN040",
      "groups": [
        {
          "text": "TAF ZBAA 292108Z 3000/0106 14003MPS 6000 NSC TX27/3007Z TX30/0106Z TN21/3021Z",
          "offset_h": 2,
          "wdir": null,
          "wspd": null
        },
        {
          "text": "TEMPO 3007/3011 -TSRA FEW040CB BKN040",
          "offset_h": 9,
          "wdir": null,
          "wspd": null
        }
      ],
      "metar_raw": "METAR ZBAA 292130Z VRB01MPS 6000 SCT006 20/20 Q1008 NOSIG",
      "metar_wdir": null,
      "metar_wspd": null,
      "metar_oat": 20,
      "metar_qnh": 1008,
      "hourly_oat": [
        20,
        22,
        23,
        24,
        25,
        26,
        27,
        27,
        27,
        28,
        26,
        23,
        23,
        23,
        22,
        22,
        22,
        22,
        22,
        22,
        22,
        22,
        22,
        21,
        22
      ]
    },
    "CAN": {
      "icao": "ZGGG",
      "issued": "2026-06-29T21:02:00.000Z",
      "raw": "TAF ZGGG 292102Z 3000/0106 13003MPS 8000 BKN030 TX33/3007Z TX34/0106Z TN26/3022Z TEMPO 3006/3010 TSRA SCT026CB BKN030",
      "groups": [
        {
          "text": "TAF ZGGG 292102Z 3000/0106 13003MPS 8000 BKN030 TX33/3007Z TX34/0106Z TN26/3022Z",
          "offset_h": 2,
          "wdir": null,
          "wspd": null
        },
        {
          "text": "TEMPO 3006/3010 TSRA SCT026CB BKN030",
          "offset_h": 8,
          "wdir": null,
          "wspd": null
        }
      ],
      "metar_raw": "METAR ZGGG 292130Z 06002MPS CAVOK 27/26 Q1007 NOSIG",
      "metar_wdir": null,
      "metar_wspd": null,
      "metar_oat": 27,
      "metar_qnh": 1007,
      "hourly_oat": [
        25,
        26,
        27,
        29,
        30,
        31,
        32,
        31,
        30,
        31,
        31,
        29,
        30,
        29,
        28,
        28,
        27,
        27,
        27,
        26,
        26,
        26,
        26,
        25,
        25
      ]
    },
    "LAX": {
      "icao": "KLAX",
      "issued": "2026-06-29T20:56:00.000Z",
      "raw": "TAF KLAX 292056Z 2921/3024 26008KT P6SM FEW015 SCT020 BKN035 FM300400 26008KT P6SM BKN025 FM300800 VRB03KT P6SM BKN015 OVC025 FM301600 VRB03KT P6SM BKN025 OVC035 FM301900 26008KT P6SM SCT025 BKN035",
      "groups": [
        {
          "text": "TAF KLAX 292056Z 2921/3024 26008KT P6SM FEW015 SCT020 BKN035",
          "offset_h": -1,
          "wdir": 260,
          "wspd": 8
        },
        {
          "text": "FM300400 26008KT P6SM BKN025",
          "offset_h": 6,
          "wdir": 260,
          "wspd": 8
        },
        {
          "text": "FM300800 VRB03KT P6SM BKN015 OVC025",
          "offset_h": 10,
          "wdir": "VRB",
          "wspd": 3
        },
        {
          "text": "FM301600 VRB03KT P6SM BKN025 OVC035",
          "offset_h": 18,
          "wdir": "VRB",
          "wspd": 3
        },
        {
          "text": "FM301900 26008KT P6SM SCT025 BKN035",
          "offset_h": 21,
          "wdir": 260,
          "wspd": 8
        }
      ],
      "metar_raw": "METAR KLAX 292153Z 24010KT 10SM FEW033 22/14 A2989 RMK AO2 SLP122 T02220139 $",
      "metar_wdir": 240,
      "metar_wspd": 10,
      "metar_oat": 22,
      "metar_qnh": 1012,
      "hourly_oat": [
        22,
        21,
        20,
        20,
        19,
        18,
        17,
        16,
        17,
        16,
        15,
        16,
        17,
        17,
        16,
        16,
        17,
        18,
        18,
        20,
        20,
        20,
        20,
        20,
        20
      ]
    },
    "SAN": {
      "icao": "KSAN",
      "issued": "2026-06-29T20:19:00.000Z",
      "raw": "TAF KSAN 292019Z 2920/3024 23012G20KT P6SM SCT035 TEMPO 2921/2923 BKN025 FM300200 22008KT P6SM BKN030 FM300600 VRB04KT P6SM SCT015 OVC030 TEMPO 3010/3014 6SM -DZ BKN020 FM301400 VRB03KT P6SM OVC035 FM301800 26012G20KT P6SM FEW035",
      "groups": [
        {
          "text": "TAF KSAN 292019Z 2920/3024 23012G20KT P6SM SCT035",
          "offset_h": -2,
          "wdir": 230,
          "wspd": 12
        },
        {
          "text": "TEMPO 2921/2923 BKN025",
          "offset_h": -1,
          "wdir": null,
          "wspd": null
        },
        {
          "text": "FM300200 22008KT P6SM BKN030",
          "offset_h": 4,
          "wdir": 220,
          "wspd": 8
        },
        {
          "text": "FM300600 VRB04KT P6SM SCT015 OVC030",
          "offset_h": 8,
          "wdir": "VRB",
          "wspd": 4
        },
        {
          "text": "TEMPO 3010/3014 6SM -DZ BKN020",
          "offset_h": 12,
          "wdir": null,
          "wspd": null
        },
        {
          "text": "FM301400 VRB03KT P6SM OVC035",
          "offset_h": 16,
          "wdir": "VRB",
          "wspd": 3
        },
        {
          "text": "FM301800 26012G20KT P6SM FEW035",
          "offset_h": 20,
          "wdir": 260,
          "wspd": 12
        }
      ],
      "metar_raw": "METAR KSAN 292151Z 24008G16KT 220V280 10SM BKN026 21/13 A2992 RMK AO2 SLP132 T02110133",
      "metar_wdir": 240,
      "metar_wspd": 8,
      "metar_oat": 21,
      "metar_qnh": 1013,
      "hourly_oat": [
        22,
        21,
        21,
        19,
        19,
        18,
        18,
        18,
        18,
        17,
        17,
        16,
        16,
        16,
        16,
        16,
        17,
        17,
        18,
        18,
        19,
        20,
        20,
        21,
        21
      ]
    },
    "HKG": {
      "icao": "VHHH",
      "issued": "2026-06-29T20:00:00.000Z",
      "raw": "TAF VHHH 292000Z 2921/0103 12010KT 9999 FEW015 SCT025 TX33/3006Z TN26/2922Z TN27/3022Z TEMPO 2921/3004 18015G25KT 2500 TSRA SHRA FEW008CB SCT015 TEMPO 3005/3009 27010KT",
      "groups": [
        {
          "text": "TAF VHHH 292000Z 2921/0103 12010KT 9999 FEW015 SCT025 TX33/3006Z TN26/2922Z TN27/3022Z",
          "offset_h": -1,
          "wdir": 120,
          "wspd": 10
        },
        {
          "text": "TEMPO 2921/3004 18015G25KT 2500 TSRA SHRA FEW008CB SCT015",
          "offset_h": -1,
          "wdir": 180,
          "wspd": 15
        },
        {
          "text": "TEMPO 3005/3009 27010KT",
          "offset_h": 7,
          "wdir": 270,
          "wspd": 10
        }
      ],
      "metar_raw": "METAR VHHH 292200Z 07007KT 9999 -SHRA FEW015 SCT025 27/24 Q1007 NOSIG",
      "metar_wdir": 70,
      "metar_wspd": 7,
      "metar_oat": 27,
      "metar_qnh": 1007,
      "hourly_oat": [
        27,
        28,
        29,
        29,
        29,
        28,
        28,
        29,
        29,
        30,
        30,
        30,
        29,
        29,
        29,
        29,
        28,
        28,
        29,
        29,
        29,
        28,
        28,
        28,
        27
      ]
    },
    "HND": {
      "icao": "RJTT",
      "issued": "2026-06-29T17:05:00.000Z",
      "raw": "TAF RJTT 291705Z 2918/0100 08006KT 6000 FEW008 BKN012 TEMPO 2919/3000 4000 BR FEW005 BKN008 BECMG 2922/3000 04008KT BECMG 3003/3005 10008KT BECMG 3012/3015 04006KT TEMPO 3015/0100 FEW005 BKN008",
      "groups": [
        {
          "text": "TAF RJTT 291705Z 2918/0100 08006KT 6000 FEW008 BKN012",
          "offset_h": -4,
          "wdir": 80,
          "wspd": 6
        },
        {
          "text": "TEMPO 2919/3000 4000 BR FEW005 BKN008",
          "offset_h": -3,
          "wdir": null,
          "wspd": null
        },
        {
          "text": "BECMG 2922/3000 04008KT",
          "offset_h": 0,
          "wdir": 40,
          "wspd": 8
        },
        {
          "text": "BECMG 3003/3005 10008KT",
          "offset_h": 5,
          "wdir": 100,
          "wspd": 8
        },
        {
          "text": "BECMG 3012/3015 04006KT",
          "offset_h": 14,
          "wdir": 40,
          "wspd": 6
        },
        {
          "text": "TEMPO 3015/0100 FEW005 BKN008",
          "offset_h": 17,
          "wdir": null,
          "wspd": null
        }
      ],
      "metar_raw": "METAR RJTT 292130Z 08003KT 040V100 7000 FEW010 SCT030 BKN/// 23/22 Q1013 BECMG FM2300 05006KT",
      "metar_wdir": 80,
      "metar_wspd": 3,
      "metar_oat": 23,
      "metar_qnh": 1013,
      "hourly_oat": [
        22,
        22,
        22,
        23,
        24,
        26,
        27,
        27,
        27,
        26,
        26,
        25,
        24,
        24,
        23,
        23,
        22,
        22,
        22,
        22,
        22,
        21,
        21,
        21,
        22
      ]
    },
    "FUK": {
      "icao": "RJFF",
      "issued": "2026-06-29T17:05:00.000Z",
      "raw": "TAF RJFF 291705Z 2918/0100 15004KT 9999 FEW007 BECMG 3000/3002 28006KT BECMG 3012/3015 19004KT TEMPO 3021/0100 4000 SHRA BR",
      "groups": [
        {
          "text": "TAF RJFF 291705Z 2918/0100 15004KT 9999 FEW007",
          "offset_h": -4,
          "wdir": 150,
          "wspd": 4
        },
        {
          "text": "BECMG 3000/3002 28006KT",
          "offset_h": 2,
          "wdir": 280,
          "wspd": 6
        },
        {
          "text": "BECMG 3012/3015 19004KT",
          "offset_h": 14,
          "wdir": 190,
          "wspd": 4
        },
        {
          "text": "TEMPO 3021/0100 4000 SHRA BR",
          "offset_h": 23,
          "wdir": null,
          "wspd": null
        }
      ],
      "metar_raw": "METAR RJFF 292130Z 11003KT 070V140 9999 FEW003 SCT100 BKN170 22/20 Q1012 NOSIG",
      "metar_wdir": 110,
      "metar_wspd": 3,
      "metar_oat": 22,
      "metar_qnh": 1012,
      "hourly_oat": [
        22,
        23,
        24,
        25,
        26,
        27,
        26,
        25,
        25,
        25,
        24,
        24,
        23,
        23,
        23,
        23,
        22,
        22,
        22,
        22,
        21,
        21,
        21,
        21,
        21
      ]
    },
    "CTS": {
      "icao": "RJCC",
      "issued": "2026-06-29T17:05:00.000Z",
      "raw": "TAF RJCC 291705Z 2918/0100 32004KT 9999 FEW030 TEMPO 2918/2921 FEW003 BKN008 BECMG 2922/3000 17014KT TEMPO 3006/3009 FEW003 BKN007 TEMPO 3009/3021 2000 BR FEW001 BKN003 TEMPO 3021/0100 4000 BR FEW003 BKN005",
      "groups": [
        {
          "text": "TAF RJCC 291705Z 2918/0100 32004KT 9999 FEW030",
          "offset_h": -4,
          "wdir": 320,
          "wspd": 4
        },
        {
          "text": "TEMPO 2918/2921 FEW003 BKN008",
          "offset_h": -4,
          "wdir": null,
          "wspd": null
        },
        {
          "text": "BECMG 2922/3000 17014KT",
          "offset_h": 0,
          "wdir": 170,
          "wspd": 14
        },
        {
          "text": "TEMPO 3006/3009 FEW003 BKN007",
          "offset_h": 8,
          "wdir": null,
          "wspd": null
        },
        {
          "text": "TEMPO 3009/3021 2000 BR FEW001 BKN003",
          "offset_h": 11,
          "wdir": null,
          "wspd": null
        },
        {
          "text": "TEMPO 3021/0100 4000 BR FEW003 BKN005",
          "offset_h": 23,
          "wdir": null,
          "wspd": null
        }
      ],
      "metar_raw": "METAR RJCC 292130Z VRB02KT 9999 FEW014 BKN018 17/13 Q1015",
      "metar_wdir": "VRB",
      "metar_wspd": 2,
      "metar_oat": 17,
      "metar_qnh": 1015,
      "hourly_oat": [
        17,
        18,
        19,
        20,
        21,
        21,
        22,
        22,
        21,
        21,
        20,
        18,
        17,
        16,
        15,
        14,
        14,
        14,
        14,
        14,
        14,
        14,
        15,
        16,
        17
      ]
    },
    "NGO": {
      "icao": "RJGG",
      "issued": "2026-06-29T17:05:00.000Z",
      "raw": "TAF RJGG 291705Z 2918/0100 07006KT 8000 FEW010 BKN012 TEMPO 2918/2920 FEW005 BKN008 BECMG 3001/3003 20010KT BECMG 3009/3012 13010KT BECMG 3018/3021 01004KT",
      "groups": [
        {
          "text": "TAF RJGG 291705Z 2918/0100 07006KT 8000 FEW010 BKN012",
          "offset_h": -4,
          "wdir": 70,
          "wspd": 6
        },
        {
          "text": "TEMPO 2918/2920 FEW005 BKN008",
          "offset_h": -4,
          "wdir": null,
          "wspd": null
        },
        {
          "text": "BECMG 3001/3003 20010KT",
          "offset_h": 3,
          "wdir": 200,
          "wspd": 10
        },
        {
          "text": "BECMG 3009/3012 13010KT",
          "offset_h": 11,
          "wdir": 130,
          "wspd": 10
        },
        {
          "text": "BECMG 3018/3021 01004KT",
          "offset_h": 20,
          "wdir": 10,
          "wspd": 4
        }
      ],
      "metar_raw": "METAR RJGG 292130Z 02003KT 330V050 7000 FEW015 SCT025 BKN/// 23/21 Q1013 NOSIG",
      "metar_wdir": 20,
      "metar_wspd": 3,
      "metar_oat": 23,
      "metar_qnh": 1013,
      "hourly_oat": [
        22,
        22,
        23,
        23,
        23,
        22,
        23,
        24,
        24,
        25,
        25,
        24,
        24,
        24,
        23,
        23,
        23,
        23,
        22,
        22,
        22,
        22,
        22,
        21,
        21
      ]
    },
    "NRT": {
      "icao": "RJAA",
      "issued": "2026-06-29T17:05:00.000Z",
      "raw": "TAF RJAA 291705Z 2918/0100 09006KT 8000 FEW008 BKN015 TEMPO 2918/2922 0700 FG VV001 TEMPO 2922/3001 2000 BR FEW003 BKN005 BECMG 3009/3012 01006KT TEMPO 3012/3015 FEW003 BKN005 TEMPO 3015/3021 0500 FG VV001 TEMPO 3021/0100 4000 BR FEW001 BKN003",
      "groups": [
        {
          "text": "TAF RJAA 291705Z 2918/0100 09006KT 8000 FEW008 BKN015",
          "offset_h": -4,
          "wdir": 90,
          "wspd": 6
        },
        {
          "text": "TEMPO 2918/2922 0700 FG VV001",
          "offset_h": -4,
          "wdir": null,
          "wspd": null
        },
        {
          "text": "TEMPO 2922/3001 2000 BR FEW003 BKN005",
          "offset_h": 0,
          "wdir": null,
          "wspd": null
        },
        {
          "text": "BECMG 3009/3012 01006KT",
          "offset_h": 11,
          "wdir": 10,
          "wspd": 6
        },
        {
          "text": "TEMPO 3012/3015 FEW003 BKN005",
          "offset_h": 14,
          "wdir": null,
          "wspd": null
        },
        {
          "text": "TEMPO 3015/3021 0500 FG VV001",
          "offset_h": 17,
          "wdir": null,
          "wspd": null
        },
        {
          "text": "TEMPO 3021/0100 4000 BR FEW001 BKN003",
          "offset_h": 23,
          "wdir": null,
          "wspd": null
        }
      ],
      "metar_raw": "METAR RJAA 292130Z VRB02KT 0400 R16R/0900VP2000D R16L/0375N FG FEW001 BKN002 21/21 Q1014 BECMG 1800 BR FEW003 BKN006",
      "metar_wdir": "VRB",
      "metar_wspd": 2,
      "metar_oat": 21,
      "metar_qnh": 1014,
      "hourly_oat": [
        21,
        23,
        24,
        25,
        25,
        25,
        26,
        26,
        25,
        25,
        25,
        24,
        23,
        22,
        21,
        21,
        21,
        20,
        20,
        20,
        20,
        20,
        20,
        20,
        21
      ]
    },
    "KIX": {
      "icao": "RJBB",
      "issued": "2026-06-29T17:05:00.000Z",
      "raw": "TAF RJBB 291705Z 2918/0100 05004KT 9999 FEW020 TEMPO 2918/2920 4000 BR BECMG 3001/3003 28006KT BECMG 3006/3009 22012KT BECMG 3018/3021 12004KT",
      "groups": [
        {
          "text": "TAF RJBB 291705Z 2918/0100 05004KT 9999 FEW020",
          "offset_h": -4,
          "wdir": 50,
          "wspd": 4
        },
        {
          "text": "TEMPO 2918/2920 4000 BR",
          "offset_h": -4,
          "wdir": null,
          "wspd": null
        },
        {
          "text": "BECMG 3001/3003 28006KT",
          "offset_h": 3,
          "wdir": 280,
          "wspd": 6
        },
        {
          "text": "BECMG 3006/3009 22012KT",
          "offset_h": 8,
          "wdir": 220,
          "wspd": 12
        },
        {
          "text": "BECMG 3018/3021 12004KT",
          "offset_h": 20,
          "wdir": 120,
          "wspd": 4
        }
      ],
      "metar_raw": "METAR RJBB 292130Z 02003KT 9999 FEW010 BKN/// 23/22 Q1013 NOSIG",
      "metar_wdir": 20,
      "metar_wspd": 3,
      "metar_oat": 23,
      "metar_qnh": 1013,
      "hourly_oat": [
        23,
        23,
        23,
        23,
        23,
        23,
        24,
        24,
        25,
        25,
        25,
        25,
        24,
        24,
        24,
        24,
        24,
        24,
        23,
        23,
        23,
        23,
        23,
        23,
        23
      ]
    },
    "ITM": {
      "icao": "RJOO",
      "issued": "2026-06-29T17:05:00.000Z",
      "raw": "TAF RJOO 291705Z 2918/0100 32005KT 9999 FEW030 BECMG 2922/3000 16005KT BECMG 3009/3012 24005KT BECMG 3021/0100 07004KT",
      "groups": [
        {
          "text": "TAF RJOO 291705Z 2918/0100 32005KT 9999 FEW030",
          "offset_h": -4,
          "wdir": 320,
          "wspd": 5
        },
        {
          "text": "BECMG 2922/3000 16005KT",
          "offset_h": 0,
          "wdir": 160,
          "wspd": 5
        },
        {
          "text": "BECMG 3009/3012 24005KT",
          "offset_h": 11,
          "wdir": 240,
          "wspd": 5
        },
        {
          "text": "BECMG 3021/0100 07004KT",
          "offset_h": 23,
          "wdir": 70,
          "wspd": 4
        }
      ],
      "metar_raw": "METAR RJOO 292100Z AUTO 06003KT 9999 FEW022 24/20 Q1013",
      "metar_wdir": 60,
      "metar_wspd": 3,
      "metar_oat": 24,
      "metar_qnh": 1013,
      "hourly_oat": [
        23,
        24,
        25,
        26,
        27,
        29,
        29,
        30,
        30,
        29,
        28,
        26,
        25,
        24,
        24,
        24,
        24,
        23,
        23,
        22,
        22,
        22,
        22,
        22,
        22
      ]
    },
    "OKA": {
      "icao": "ROAH",
      "issued": "2026-06-29T17:05:00.000Z",
      "raw": "TAF ROAH 291705Z 2918/0100 18010KT 9999 FEW008 BKN012 TEMPO 2918/2922 FEW003 BKN005 TEMPO 3012/3021 FEW005 BKN008",
      "groups": [
        {
          "text": "TAF ROAH 291705Z 2918/0100 18010KT 9999 FEW008 BKN012",
          "offset_h": -4,
          "wdir": 180,
          "wspd": 10
        },
        {
          "text": "TEMPO 2918/2922 FEW003 BKN005",
          "offset_h": -4,
          "wdir": null,
          "wspd": null
        },
        {
          "text": "TEMPO 3012/3021 FEW005 BKN008",
          "offset_h": 14,
          "wdir": null,
          "wspd": null
        }
      ],
      "metar_raw": "METAR ROAH 292130Z 16006KT 9999 FEW003 SCT010 BKN/// 27/27 Q1012",
      "metar_wdir": 160,
      "metar_wspd": 6,
      "metar_oat": 27,
      "metar_qnh": 1012,
      "hourly_oat": [
        27,
        28,
        29,
        29,
        30,
        30,
        30,
        30,
        30,
        30,
        29,
        28,
        28,
        27,
        27,
        27,
        27,
        27,
        27,
        27,
        26,
        26,
        26,
        26,
        27
      ]
    },
    "BKK": {
      "icao": "VTBS",
      "issued": "2026-06-29T17:00:00.000Z",
      "raw": "TAF VTBS 291700Z 2918/3024 24008KT 9999 FEW020 TEMPO 3009/3014 VRB15KT 3000 TSRA FEW018CB SCT020 BKN080",
      "groups": [
        {
          "text": "TAF VTBS 291700Z 2918/3024 24008KT 9999 FEW020",
          "offset_h": -4,
          "wdir": 240,
          "wspd": 8
        },
        {
          "text": "TEMPO 3009/3014 VRB15KT 3000 TSRA FEW018CB SCT020 BKN080",
          "offset_h": 11,
          "wdir": "VRB",
          "wspd": 15
        }
      ],
      "metar_raw": "METAR VTBS 292130Z 26006KT 9999 FEW020 28/21 Q1006 NOSIG",
      "metar_wdir": 260,
      "metar_wspd": 6,
      "metar_oat": 28,
      "metar_qnh": 1006,
      "hourly_oat": [
        26,
        26,
        28,
        29,
        30,
        31,
        32,
        32,
        28,
        26,
        26,
        28,
        29,
        28,
        27,
        27,
        28,
        28,
        28,
        27,
        27,
        27,
        27,
        27,
        26
      ]
    },
    "SIN": {
      "icao": "WSSS",
      "issued": "2026-06-29T17:00:00.000Z",
      "raw": "TAF WSSS 291700Z 2918/0100 20007KT 9999 FEW015 SCT020 TEMPO 2918/2920 3000 TSRA FEW012CB BKN015",
      "groups": [
        {
          "text": "TAF WSSS 291700Z 2918/0100 20007KT 9999 FEW015 SCT020",
          "offset_h": -4,
          "wdir": 200,
          "wspd": 7
        },
        {
          "text": "TEMPO 2918/2920 3000 TSRA FEW012CB BKN015",
          "offset_h": -4,
          "wdir": null,
          "wspd": null
        }
      ],
      "metar_raw": "METAR WSSS 292200Z 27003KT 210V310 9999 FEW018 BKN150 26/24 Q1009 NOSIG",
      "metar_wdir": 270,
      "metar_wspd": 3,
      "metar_oat": 26,
      "metar_qnh": 1009,
      "hourly_oat": [
        24,
        24,
        25,
        26,
        28,
        29,
        28,
        29,
        29,
        29,
        29,
        28,
        28,
        28,
        28,
        27,
        27,
        27,
        27,
        27,
        26,
        25,
        25,
        26,
        26
      ]
    },
    "CGK": {
      "icao": "WIII",
      "issued": "2026-06-29T17:00:00.000Z",
      "raw": "TAF WIII 291700Z 2918/0100 15003KT 4000 HZ SCT020 BECMG 3001/3003 05010KT 8000 NSW",
      "groups": [
        {
          "text": "TAF WIII 291700Z 2918/0100 15003KT 4000 HZ SCT020",
          "offset_h": -4,
          "wdir": 150,
          "wspd": 3
        },
        {
          "text": "BECMG 3001/3003 05010KT 8000 NSW",
          "offset_h": 3,
          "wdir": 50,
          "wspd": 10
        }
      ],
      "metar_raw": "METAR WIII 292130Z 22001KT 2400 HZ SCT020 25/24 Q1010 NOSIG",
      "metar_wdir": 220,
      "metar_wspd": 1,
      "metar_oat": 25,
      "metar_qnh": 1010,
      "hourly_oat": [
        24,
        23,
        24,
        27,
        29,
        30,
        32,
        32,
        33,
        33,
        32,
        31,
        29,
        28,
        28,
        28,
        27,
        27,
        27,
        26,
        25,
        24,
        24,
        23,
        23
      ]
    },
    "KUL": {
      "icao": "WMKK",
      "issued": "2026-06-29T17:00:00.000Z",
      "raw": "TAF WMKK 291700Z 2918/0100 VRB02KT 9999 FEW030 PROB30 TEMPO 2919/2923 5000 TSRA FEW017CB",
      "groups": [
        {
          "text": "TAF WMKK 291700Z 2918/0100 VRB02KT 9999 FEW030",
          "offset_h": -4,
          "wdir": "VRB",
          "wspd": 2
        },
        {
          "text": "PROB30",
          "offset_h": 0,
          "wdir": null,
          "wspd": null
        },
        {
          "text": "TEMPO 2919/2923 5000 TSRA FEW017CB",
          "offset_h": -3,
          "wdir": null,
          "wspd": null
        }
      ],
      "metar_raw": "METAR WMKK 292130Z VRB01KT 8000 FEW030 27/25 Q1009 NOSIG",
      "metar_wdir": "VRB",
      "metar_wspd": 1,
      "metar_oat": 27,
      "metar_qnh": 1009,
      "hourly_oat": [
        24,
        24,
        24,
        25,
        27,
        28,
        29,
        30,
        30,
        30,
        29,
        29,
        29,
        27,
        26,
        26,
        26,
        26,
        26,
        25,
        25,
        25,
        25,
        25,
        25
      ]
    },
    "HAN": {
      "icao": "VVNB",
      "issued": "2026-06-29T17:00:00.000Z",
      "raw": "TAF VVNB 291700Z 2918/3018 10006KT 6000 SCT020 TEMPO 2918/2923 3000 +TSRA BKN010 FEW027CB TEMPO 3009/3013 3000 +TSRA BKN010 FEW027CB",
      "groups": [
        {
          "text": "TAF VVNB 291700Z 2918/3018 10006KT 6000 SCT020",
          "offset_h": -4,
          "wdir": 100,
          "wspd": 6
        },
        {
          "text": "TEMPO 2918/2923 3000 +TSRA BKN010 FEW027CB",
          "offset_h": -4,
          "wdir": null,
          "wspd": null
        },
        {
          "text": "TEMPO 3009/3013 3000 +TSRA BKN010 FEW027CB",
          "offset_h": 11,
          "wdir": null,
          "wspd": null
        }
      ],
      "metar_raw": "METAR VVNB 292130Z 04004KT CAVOK 26/25 Q1003 NOSIG",
      "metar_wdir": 40,
      "metar_wspd": 4,
      "metar_oat": 26,
      "metar_qnh": 1003,
      "hourly_oat": [
        25,
        25,
        26,
        26,
        26,
        29,
        29,
        30,
        31,
        32,
        32,
        30,
        29,
        27,
        26,
        26,
        26,
        25,
        25,
        25,
        25,
        25,
        25,
        24,
        24
      ]
    },
    "SGN": {
      "icao": "VVTS",
      "issued": "2026-06-29T17:00:00.000Z",
      "raw": "TAF VVTS 291700Z 2918/3024 VRB03KT 9999 SCT017 SCT040 BECMG 3000/3001 25012KT TEMPO 3003/3007 5000 SHRA SCT015 FEW017CB BKN040 TEMPO 3007/3011 25015G28KT 3000 TSRA SCT013 SCT015CB",
      "groups": [
        {
          "text": "TAF VVTS 291700Z 2918/3024 VRB03KT 9999 SCT017 SCT040",
          "offset_h": -4,
          "wdir": "VRB",
          "wspd": 3
        },
        {
          "text": "BECMG 3000/3001 25012KT",
          "offset_h": 2,
          "wdir": 250,
          "wspd": 12
        },
        {
          "text": "TEMPO 3003/3007 5000 SHRA SCT015 FEW017CB BKN040",
          "offset_h": 5,
          "wdir": null,
          "wspd": null
        },
        {
          "text": "TEMPO 3007/3011 25015G28KT 3000 TSRA SCT013 SCT015CB",
          "offset_h": 9,
          "wdir": 250,
          "wspd": 15
        }
      ],
      "metar_raw": "METAR VVTS 292130Z 26005KT CAVOK 27/26 Q1007 NOSIG",
      "metar_wdir": 260,
      "metar_wspd": 5,
      "metar_oat": 27,
      "metar_qnh": 1007,
      "hourly_oat": [
        26,
        26,
        27,
        28,
        29,
        30,
        32,
        30,
        30,
        31,
        30,
        28,
        27,
        27,
        27,
        27,
        26,
        26,
        26,
        26,
        26,
        26,
        26,
        26,
        25
      ]
    },
    "GMP": {
      "icao": "RKSS",
      "issued": "2026-06-29T17:00:00.000Z",
      "raw": "TAF RKSS 291700Z 2918/3024 21005KT CAVOK TN21/2918Z TX32/3005Z TN22/3019Z BECMG 3001/3003 28007KT 9999 SCT040 BECMG 3014/3016 06005KT CAVOK",
      "groups": [
        {
          "text": "TAF RKSS 291700Z 2918/3024 21005KT CAVOK TN21/2918Z TX32/3005Z TN22/3019Z",
          "offset_h": -4,
          "wdir": 210,
          "wspd": 5
        },
        {
          "text": "BECMG 3001/3003 28007KT 9999 SCT040",
          "offset_h": 3,
          "wdir": 280,
          "wspd": 7
        },
        {
          "text": "BECMG 3014/3016 06005KT CAVOK",
          "offset_h": 16,
          "wdir": 60,
          "wspd": 5
        }
      ],
      "metar_raw": "METAR RKSS 292100Z 29005KT CAVOK 22/22 Q1013 NOSIG",
      "metar_wdir": 290,
      "metar_wspd": 5,
      "metar_oat": 22,
      "metar_qnh": 1013,
      "hourly_oat": [
        20,
        21,
        22,
        23,
        25,
        27,
        28,
        29,
        29,
        28,
        27,
        26,
        24,
        23,
        22,
        22,
        21,
        21,
        21,
        21,
        20,
        20,
        20,
        20,
        21
      ]
    },
    "TSA": {
      "icao": "RCSS",
      "issued": "2026-06-29T17:00:00.000Z",
      "raw": "TAF RCSS 291700Z 2918/3018 09005KT 9999 FEW015 BKN032 TEMPO 3000/3005 30005KT TEMPO 3005/3010 13005KT 4000 SHRA FEW012 FEW015CB BKN020",
      "groups": [
        {
          "text": "TAF RCSS 291700Z 2918/3018 09005KT 9999 FEW015 BKN032",
          "offset_h": -4,
          "wdir": 90,
          "wspd": 5
        },
        {
          "text": "TEMPO 3000/3005 30005KT",
          "offset_h": 2,
          "wdir": 300,
          "wspd": 5
        },
        {
          "text": "TEMPO 3005/3010 13005KT 4000 SHRA FEW012 FEW015CB BKN020",
          "offset_h": 7,
          "wdir": 130,
          "wspd": 5
        }
      ],
      "metar_raw": "METAR RCSS 292100Z 11003KT 9999 FEW020 BKN250 26/26 Q1009 NOSIG RMK A2982",
      "metar_wdir": 110,
      "metar_wspd": 3,
      "metar_oat": 26,
      "metar_qnh": 1009,
      "hourly_oat": [
        26,
        28,
        30,
        31,
        32,
        34,
        34,
        33,
        33,
        32,
        32,
        32,
        30,
        29,
        28,
        28,
        28,
        28,
        28,
        27,
        27,
        26,
        26,
        26,
        26
      ]
    },
    "TPE": {
      "icao": "RCTP",
      "issued": "2026-06-29T17:00:00.000Z",
      "raw": "TAF RCTP 291700Z 2918/3024 15005KT 9999 FEW015 BECMG 3000/3002 32008KT BECMG 3010/3012 22005KT TEMPO 3018/3024 15005KT",
      "groups": [
        {
          "text": "TAF RCTP 291700Z 2918/3024 15005KT 9999 FEW015",
          "offset_h": -4,
          "wdir": 150,
          "wspd": 5
        },
        {
          "text": "BECMG 3000/3002 32008KT",
          "offset_h": 2,
          "wdir": 320,
          "wspd": 8
        },
        {
          "text": "BECMG 3010/3012 22005KT",
          "offset_h": 12,
          "wdir": 220,
          "wspd": 5
        },
        {
          "text": "TEMPO 3018/3024 15005KT",
          "offset_h": 20,
          "wdir": 150,
          "wspd": 5
        }
      ],
      "metar_raw": "METAR RCTP 292130Z VRB02KT 9999 FEW015 SCT200 27/25 Q1009 NOSIG RMK A2982",
      "metar_wdir": "VRB",
      "metar_wspd": 2,
      "metar_oat": 27,
      "metar_qnh": 1009,
      "hourly_oat": [
        26,
        27,
        29,
        31,
        31,
        31,
        31,
        30,
        30,
        30,
        30,
        29,
        29,
        28,
        28,
        28,
        28,
        28,
        27,
        27,
        27,
        26,
        26,
        26,
        26
      ]
    }
  }
}