{
  "updated": "2026-07-23T23:50:50Z",
  "tafs": {
    "HNL": {
      "icao": "PHNL",
      "issued": "2026-07-23T23:32:00.000Z",
      "raw": "TAF PHNL 232332Z 2400/2506 06018G28KT P6SM FEW025 SCT040 FM240600 05012G20KT P6SM FEW025 SCT040 FM242000 06015G25KT P6SM FEW025 SCT040",
      "groups": [
        {
          "text": "TAF PHNL 232332Z 2400/2506 06018G28KT P6SM FEW025 SCT040",
          "offset_h": 1,
          "wdir": 60,
          "wspd": 18
        },
        {
          "text": "FM240600 05012G20KT P6SM FEW025 SCT040",
          "offset_h": 7,
          "wdir": 50,
          "wspd": 12
        },
        {
          "text": "FM242000 06015G25KT P6SM FEW025 SCT040",
          "offset_h": 21,
          "wdir": 60,
          "wspd": 15
        }
      ],
      "metar_raw": "METAR PHNL 232253Z 06018G27KT 10SM FEW025 FEW045 SCT200 30/18 A3000 RMK AO2 PK WND 07033/2154 SLP160 T03000183 $",
      "metar_wdir": 60,
      "metar_wspd": 18,
      "metar_oat": 30,
      "metar_qnh": 1016,
      "hourly_oat": [
        29,
        29,
        28,
        28,
        26,
        25,
        24,
        24,
        24,
        23,
        23,
        23,
        23,
        22,
        23,
        23,
        23,
        23,
        23,
        25,
        26,
        27,
        28,
        27,
        28
      ]
    },
    "LAX": {
      "icao": "KLAX",
      "issued": "2026-07-23T23:20:00.000Z",
      "raw": "TAF KLAX 232320Z 2400/2506 25014KT P6SM FEW250 FM240500 25007KT P6SM FEW250 FM240800 VRB03KT P6SM FEW250 FM241700 26008KT P6SM SCT250 FM242000 26014KT P6SM SCT250 FM250300 26007KT P6SM SCT250",
      "groups": [
        {
          "text": "TAF KLAX 232320Z 2400/2506 25014KT P6SM FEW250",
          "offset_h": 1,
          "wdir": 250,
          "wspd": 14
        },
        {
          "text": "FM240500 25007KT P6SM FEW250",
          "offset_h": 6,
          "wdir": 250,
          "wspd": 7
        },
        {
          "text": "FM240800 VRB03KT P6SM FEW250",
          "offset_h": 9,
          "wdir": "VRB",
          "wspd": 3
        },
        {
          "text": "FM241700 26008KT P6SM SCT250",
          "offset_h": 18,
          "wdir": 260,
          "wspd": 8
        },
        {
          "text": "FM242000 26014KT P6SM SCT250",
          "offset_h": 21,
          "wdir": 260,
          "wspd": 14
        },
        {
          "text": "FM250300 26007KT P6SM SCT250",
          "offset_h": 28,
          "wdir": 260,
          "wspd": 7
        }
      ],
      "metar_raw": "METAR KLAX 232253Z 26016KT 10SM FEW110 FEW250 26/16 A2983 RMK AO2 SLP099 T02610161 $",
      "metar_wdir": 260,
      "metar_wspd": 16,
      "metar_oat": 26,
      "metar_qnh": 1010,
      "hourly_oat": [
        25,
        24,
        24,
        23,
        22,
        22,
        21,
        21,
        20,
        20,
        19,
        19,
        18,
        18,
        18,
        19,
        23,
        26,
        28,
        30,
        30,
        28,
        27,
        27,
        26
      ]
    },
    "SAN": {
      "icao": "KSAN",
      "issued": "2026-07-23T23:20:00.000Z",
      "raw": "TAF KSAN 232320Z 2400/2506 31010KT P6SM SKC FM240400 VRB04KT P6SM FEW012 FM241000 VRB03KT P6SM BKN010 FM241700 VRB04KT P6SM FEW012 FM241900 27008KT P6SM SKC FM250400 VRB04KT P6SM SKC",
      "groups": [
        {
          "text": "TAF KSAN 232320Z 2400/2506 31010KT P6SM SKC",
          "offset_h": 1,
          "wdir": 310,
          "wspd": 10
        },
        {
          "text": "FM240400 VRB04KT P6SM FEW012",
          "offset_h": 5,
          "wdir": "VRB",
          "wspd": 4
        },
        {
          "text": "FM241000 VRB03KT P6SM BKN010",
          "offset_h": 11,
          "wdir": "VRB",
          "wspd": 3
        },
        {
          "text": "FM241700 VRB04KT P6SM FEW012",
          "offset_h": 18,
          "wdir": "VRB",
          "wspd": 4
        },
        {
          "text": "FM241900 27008KT P6SM SKC",
          "offset_h": 20,
          "wdir": 270,
          "wspd": 8
        },
        {
          "text": "FM250400 VRB04KT P6SM SKC",
          "offset_h": 29,
          "wdir": "VRB",
          "wspd": 4
        }
      ],
      "metar_raw": "METAR KSAN 232251Z 30009KT 10SM FEW013 FEW050 SCT250 26/19 A2985 RMK AO2 SLP107 T02560189",
      "metar_wdir": 300,
      "metar_wspd": 9,
      "metar_oat": 26,
      "metar_qnh": 1011,
      "hourly_oat": [
        26,
        26,
        25,
        24,
        22,
        22,
        22,
        22,
        21,
        21,
        21,
        20,
        20,
        20,
        20,
        21,
        23,
        25,
        27,
        27,
        28,
        28,
        27,
        27,
        26
      ]
    },
    "HND": {
      "icao": "RJTT",
      "issued": "2026-07-23T23:05:00.000Z",
      "raw": "TAF RJTT 232305Z 2400/2506 10006KT 9999 FEW015 BKN030 BECMG 2403/2405 18012KT TEMPO 2406/2409 TS FEW015 BKN030 FEW030CB TEMPO 2409/2412 3000 +TSRA BR FEW012 BKN020 SCT020CB TEMPO 2412/2415 -TSRA FEW012 BKN020 FEW020CB BECMG 2418/2421 03010KT BECMG 2503/2506 07016KT",
      "groups": [
        {
          "text": "TAF RJTT 232305Z 2400/2506 10006KT 9999 FEW015 BKN030",
          "offset_h": 1,
          "wdir": 100,
          "wspd": 6
        },
        {
          "text": "BECMG 2403/2405 18012KT",
          "offset_h": 4,
          "wdir": 180,
          "wspd": 12
        },
        {
          "text": "TEMPO 2406/2409 TS FEW015 BKN030 FEW030CB",
          "offset_h": 7,
          "wdir": null,
          "wspd": null
        },
        {
          "text": "TEMPO 2409/2412 3000 +TSRA BR FEW012 BKN020 SCT020CB",
          "offset_h": 10,
          "wdir": null,
          "wspd": null
        },
        {
          "text": "TEMPO 2412/2415 -TSRA FEW012 BKN020 FEW020CB",
          "offset_h": 13,
          "wdir": null,
          "wspd": null
        },
        {
          "text": "BECMG 2418/2421 03010KT",
          "offset_h": 19,
          "wdir": 30,
          "wspd": 10
        },
        {
          "text": "BECMG 2503/2506 07016KT",
          "offset_h": 28,
          "wdir": 70,
          "wspd": 16
        }
      ],
      "metar_raw": "METAR RJTT 232330Z 07007KT 8000 FEW008 BKN010 27/25 Q1011 NOSIG",
      "metar_wdir": 70,
      "metar_wspd": 7,
      "metar_oat": 27,
      "metar_qnh": 1011,
      "hourly_oat": [
        27,
        27,
        28,
        29,
        30,
        31,
        31,
        31,
        31,
        30,
        29,
        29,
        28,
        28,
        28,
        28,
        27,
        27,
        27,
        26,
        26,
        26,
        26,
        26,
        27
      ]
    },
    "ITM": {
      "icao": "RJOO",
      "issued": "2026-07-23T23:05:00.000Z",
      "raw": "TAF RJOO 232305Z 2400/2506 21008KT 9999 FEW030 BECMG 2405/2407 32006KT TEMPO 2405/2409 TS FEW015 FEW025CB BKN030 BECMG 2503/2506 22006KT TEMPO 2503/2506 TS FEW015 FEW025CB BKN030",
      "groups": [
        {
          "text": "TAF RJOO 232305Z 2400/2506 21008KT 9999 FEW030",
          "offset_h": 1,
          "wdir": 210,
          "wspd": 8
        },
        {
          "text": "BECMG 2405/2407 32006KT",
          "offset_h": 6,
          "wdir": 320,
          "wspd": 6
        },
        {
          "text": "TEMPO 2405/2409 TS FEW015 FEW025CB BKN030",
          "offset_h": 6,
          "wdir": null,
          "wspd": null
        },
        {
          "text": "BECMG 2503/2506 22006KT",
          "offset_h": 28,
          "wdir": 220,
          "wspd": 6
        },
        {
          "text": "TEMPO 2503/2506 TS FEW015 FEW025CB BKN030",
          "offset_h": 28,
          "wdir": null,
          "wspd": null
        }
      ],
      "metar_raw": "METAR RJOO 232300Z VRB02KT 9999 FEW040 SCT/// 31/22 Q1011",
      "metar_wdir": "VRB",
      "metar_wspd": 2,
      "metar_oat": 31,
      "metar_qnh": 1011,
      "hourly_oat": [
        28,
        30,
        32,
        34,
        34,
        34,
        34,
        34,
        34,
        34,
        33,
        31,
        30,
        29,
        29,
        28,
        28,
        27,
        27,
        26,
        26,
        26,
        26,
        27,
        29
      ]
    },
    "FUK": {
      "icao": "RJFF",
      "issued": "2026-07-23T23:05:00.000Z",
      "raw": "TAF RJFF 232305Z 2400/2506 32012KT 9999 FEW025 BECMG 2412/2415 15004KT BECMG 2500/2503 31011KT",
      "groups": [
        {
          "text": "TAF RJFF 232305Z 2400/2506 32012KT 9999 FEW025",
          "offset_h": 1,
          "wdir": 320,
          "wspd": 12
        },
        {
          "text": "BECMG 2412/2415 15004KT",
          "offset_h": 13,
          "wdir": 150,
          "wspd": 4
        },
        {
          "text": "BECMG 2500/2503 31011KT",
          "offset_h": 25,
          "wdir": 310,
          "wspd": 11
        }
      ],
      "metar_raw": "METAR RJFF 232330Z VRB02KT 9999 FEW030 30/24 Q1012 BECMG 31008KT",
      "metar_wdir": "VRB",
      "metar_wspd": 2,
      "metar_oat": 30,
      "metar_qnh": 1012,
      "hourly_oat": [
        28,
        29,
        29,
        30,
        30,
        30,
        30,
        31,
        30,
        30,
        29,
        28,
        28,
        28,
        27,
        27,
        26,
        26,
        26,
        26,
        26,
        25,
        25,
        26,
        27
      ]
    },
    "NGO": {
      "icao": "RJGG",
      "issued": "2026-07-23T23:05:00.000Z",
      "raw": "TAF RJGG 232305Z 2400/2506 29004KT 9999 FEW030 BECMG 2401/2403 24006KT BECMG 2407/2409 32012KT BECMG 2500/2503 25008KT",
      "groups": [
        {
          "text": "TAF RJGG 232305Z 2400/2506 29004KT 9999 FEW030",
          "offset_h": 1,
          "wdir": 290,
          "wspd": 4
        },
        {
          "text": "BECMG 2401/2403 24006KT",
          "offset_h": 2,
          "wdir": 240,
          "wspd": 6
        },
        {
          "text": "BECMG 2407/2409 32012KT",
          "offset_h": 8,
          "wdir": 320,
          "wspd": 12
        },
        {
          "text": "BECMG 2500/2503 25008KT",
          "offset_h": 25,
          "wdir": 250,
          "wspd": 8
        }
      ],
      "metar_raw": "METAR RJGG 232330Z 21004KT 9999 FEW025 30/26 Q1010 NOSIG",
      "metar_wdir": 210,
      "metar_wspd": 4,
      "metar_oat": 30,
      "metar_qnh": 1010,
      "hourly_oat": [
        29,
        29,
        29,
        29,
        30,
        30,
        31,
        32,
        31,
        31,
        32,
        32,
        31,
        31,
        30,
        30,
        30,
        30,
        29,
        29,
        29,
        29,
        29,
        29,
        29
      ]
    },
    "OKA": {
      "icao": "ROAH",
      "issued": "2026-07-23T23:05:00.000Z",
      "raw": "TAF ROAH 232305Z 2400/2506 14010KT 9999 FEW020 SCT030",
      "groups": [
        {
          "text": "TAF ROAH 232305Z 2400/2506 14010KT 9999 FEW020 SCT030",
          "offset_h": 1,
          "wdir": 140,
          "wspd": 10
        }
      ],
      "metar_raw": "METAR ROAH 232330Z 12013KT 9999 FEW017 SCT023 BKN/// 32/27 Q1010",
      "metar_wdir": 120,
      "metar_wspd": 13,
      "metar_oat": 32,
      "metar_qnh": 1010,
      "hourly_oat": [
        30,
        31,
        32,
        32,
        33,
        33,
        33,
        33,
        32,
        32,
        31,
        30,
        30,
        29,
        29,
        29,
        28,
        28,
        28,
        28,
        28,
        28,
        28,
        29,
        30
      ]
    },
    "CTS": {
      "icao": "RJCC",
      "issued": "2026-07-23T23:05:00.000Z",
      "raw": "TAF RJCC 232305Z 2400/2506 17012KT 9999 FEW005 BKN012 TEMPO 2400/2402 FEW005 BKN007 TEMPO 2405/2412 FEW003 BKN005 TEMPO 2412/2500 FEW005 BKN008",
      "groups": [
        {
          "text": "TAF RJCC 232305Z 2400/2506 17012KT 9999 FEW005 BKN012",
          "offset_h": 1,
          "wdir": 170,
          "wspd": 12
        },
        {
          "text": "TEMPO 2400/2402 FEW005 BKN007",
          "offset_h": 1,
          "wdir": null,
          "wspd": null
        },
        {
          "text": "TEMPO 2405/2412 FEW003 BKN005",
          "offset_h": 6,
          "wdir": null,
          "wspd": null
        },
        {
          "text": "TEMPO 2412/2500 FEW005 BKN008",
          "offset_h": 13,
          "wdir": null,
          "wspd": null
        }
      ],
      "metar_raw": "METAR RJCC 232330Z 17009KT 8000 FEW003 SCT005 BKN007 22/20 Q1012",
      "metar_wdir": 170,
      "metar_wspd": 9,
      "metar_oat": 22,
      "metar_qnh": 1012,
      "hourly_oat": [
        21,
        22,
        23,
        23,
        23,
        23,
        22,
        22,
        21,
        20,
        20,
        19,
        19,
        19,
        19,
        19,
        19,
        19,
        19,
        19,
        19,
        19,
        19,
        20,
        20
      ]
    },
    "NRT": {
      "icao": "RJAA",
      "issued": "2026-07-23T23:05:00.000Z",
      "raw": "TAF RJAA 232305Z 2400/2506 14010KT 9999 FEW012 BKN020 TEMPO 2406/2409 TS FEW012 SCT015 BKN020 FEW020CB TEMPO 2409/2412 4000 -TSRA BR FEW003 BKN008 FEW020CB TEMPO 2412/2415 FEW003 BKN008 BECMG 2415/2418 35006KT TEMPO 2415/2500 2000 BR FEW001 BKN005 BECMG 2500/2503 03016KT",
      "groups": [
        {
          "text": "TAF RJAA 232305Z 2400/2506 14010KT 9999 FEW012 BKN020",
          "offset_h": 1,
          "wdir": 140,
          "wspd": 10
        },
        {
          "text": "TEMPO 2406/2409 TS FEW012 SCT015 BKN020 FEW020CB",
          "offset_h": 7,
          "wdir": null,
          "wspd": null
        },
        {
          "text": "TEMPO 2409/2412 4000 -TSRA BR FEW003 BKN008 FEW020CB",
          "offset_h": 10,
          "wdir": null,
          "wspd": null
        },
        {
          "text": "TEMPO 2412/2415 FEW003 BKN008",
          "offset_h": 13,
          "wdir": null,
          "wspd": null
        },
        {
          "text": "BECMG 2415/2418 35006KT",
          "offset_h": 16,
          "wdir": 350,
          "wspd": 6
        },
        {
          "text": "TEMPO 2415/2500 2000 BR FEW001 BKN005",
          "offset_h": 16,
          "wdir": null,
          "wspd": null
        },
        {
          "text": "BECMG 2500/2503 03016KT",
          "offset_h": 25,
          "wdir": 30,
          "wspd": 16
        }
      ],
      "metar_raw": "METAR RJAA 232330Z 10005KT 060V130 9999 BKN008 27/25 Q1011 BECMG BKN020",
      "metar_wdir": 100,
      "metar_wspd": 5,
      "metar_oat": 27,
      "metar_qnh": 1011,
      "hourly_oat": [
        27,
        28,
        29,
        30,
        30,
        30,
        30,
        30,
        29,
        28,
        28,
        27,
        27,
        27,
        26,
        26,
        26,
        26,
        26,
        25,
        25,
        25,
        26,
        27,
        28
      ]
    },
    "KIX": {
      "icao": "RJBB",
      "issued": "2026-07-23T23:05:00.000Z",
      "raw": "TAF RJBB 232305Z 2400/2506 35005KT 9999 FEW030 BECMG 2401/2403 26006KT BECMG 2408/2410 02010KT BECMG 2500/2503 30006KT",
      "groups": [
        {
          "text": "TAF RJBB 232305Z 2400/2506 35005KT 9999 FEW030",
          "offset_h": 1,
          "wdir": 350,
          "wspd": 5
        },
        {
          "text": "BECMG 2401/2403 26006KT",
          "offset_h": 2,
          "wdir": 260,
          "wspd": 6
        },
        {
          "text": "BECMG 2408/2410 02010KT",
          "offset_h": 9,
          "wdir": 20,
          "wspd": 10
        },
        {
          "text": "BECMG 2500/2503 30006KT",
          "offset_h": 25,
          "wdir": 300,
          "wspd": 6
        }
      ],
      "metar_raw": "METAR RJBB 232330Z 02004KT CAVOK 30/24 Q1011 NOSIG",
      "metar_wdir": 20,
      "metar_wspd": 4,
      "metar_oat": 30,
      "metar_qnh": 1011,
      "hourly_oat": [
        28,
        28,
        29,
        29,
        29,
        30,
        30,
        30,
        31,
        31,
        30,
        30,
        31,
        31,
        30,
        30,
        30,
        29,
        29,
        29,
        28,
        28,
        28,
        28,
        28
      ]
    },
    "SGN": {
      "icao": "VVTS",
      "issued": "2026-07-23T23:00:00.000Z",
      "raw": "TAF VVTS 232300Z 2400/2506 VRB03KT 9999 SCT017 BECMG 2400/2402 26010KT TEMPO 2406/2408 5000 TSRA BKN015 FEW017CB TEMPO 2408/2412 26015G28KT 2000 +TSRA BKN013 SCT015CB",
      "groups": [
        {
          "text": "TAF VVTS 232300Z 2400/2506 VRB03KT 9999 SCT017",
          "offset_h": 1,
          "wdir": "VRB",
          "wspd": 3
        },
        {
          "text": "BECMG 2400/2402 26010KT",
          "offset_h": 1,
          "wdir": 260,
          "wspd": 10
        },
        {
          "text": "TEMPO 2406/2408 5000 TSRA BKN015 FEW017CB",
          "offset_h": 7,
          "wdir": null,
          "wspd": null
        },
        {
          "text": "TEMPO 2408/2412 26015G28KT 2000 +TSRA BKN013 SCT015CB",
          "offset_h": 9,
          "wdir": 260,
          "wspd": 15
        }
      ],
      "metar_raw": "METAR VVTS 232330Z 03004KT 9999 FEW024 27/25 Q1007 NOSIG",
      "metar_wdir": 30,
      "metar_wspd": 4,
      "metar_oat": 27,
      "metar_qnh": 1007,
      "hourly_oat": [
        25,
        26,
        28,
        29,
        31,
        30,
        29,
        29,
        30,
        28,
        27,
        28,
        27,
        26,
        26,
        26,
        26,
        26,
        26,
        25,
        25,
        25,
        25,
        25,
        24
      ]
    },
    "TSA": {
      "icao": "RCSS",
      "issued": "2026-07-23T23:00:00.000Z",
      "raw": "TAF RCSS 232300Z 2400/2424 12010KT 9999 FEW015 BKN032 TEMPO 2406/2412 11012G22KT BECMG 2412/2414 10015G25KT TEMPO 2418/2424 11020G30KT 5000 SHRA FEW012 BKN020 BKN050",
      "groups": [
        {
          "text": "TAF RCSS 232300Z 2400/2424 12010KT 9999 FEW015 BKN032",
          "offset_h": 1,
          "wdir": 120,
          "wspd": 10
        },
        {
          "text": "TEMPO 2406/2412 11012G22KT",
          "offset_h": 7,
          "wdir": 110,
          "wspd": 12
        },
        {
          "text": "BECMG 2412/2414 10015G25KT",
          "offset_h": 13,
          "wdir": 100,
          "wspd": 15
        },
        {
          "text": "TEMPO 2418/2424 11020G30KT 5000 SHRA FEW012 BKN020 BKN050",
          "offset_h": 19,
          "wdir": 110,
          "wspd": 20
        }
      ],
      "metar_raw": "METAR RCSS 232330Z 09009KT 9999 FEW020 SCT150 32/26 Q1007 NOSIG RMK A2975",
      "metar_wdir": 90,
      "metar_wspd": 9,
      "metar_oat": 32,
      "metar_qnh": 1007,
      "hourly_oat": [
        28,
        29,
        31,
        33,
        34,
        34,
        34,
        33,
        32,
        32,
        30,
        29,
        28,
        28,
        27,
        26,
        26,
        26,
        26,
        26,
        26,
        27,
        27,
        27,
        28
      ]
    },
    "TPE": {
      "icao": "RCTP",
      "issued": "2026-07-23T23:00:00.000Z",
      "raw": "TAF RCTP 232300Z 2400/2506 33005KT 9999 FEW015 BKN032 TEMPO 2404/2410 02010KT BECMG 2410/2412 09015KT TEMPO 2418/2424 10018G28KT BECMG 2500/2502 15005KT TEMPO 2502/2506 33005KT",
      "groups": [
        {
          "text": "TAF RCTP 232300Z 2400/2506 33005KT 9999 FEW015 BKN032",
          "offset_h": 1,
          "wdir": 330,
          "wspd": 5
        },
        {
          "text": "TEMPO 2404/2410 02010KT",
          "offset_h": 5,
          "wdir": 20,
          "wspd": 10
        },
        {
          "text": "BECMG 2410/2412 09015KT",
          "offset_h": 11,
          "wdir": 90,
          "wspd": 15
        },
        {
          "text": "TEMPO 2418/2424 10018G28KT",
          "offset_h": 19,
          "wdir": 100,
          "wspd": 18
        },
        {
          "text": "BECMG 2500/2502 15005KT",
          "offset_h": 25,
          "wdir": 150,
          "wspd": 5
        },
        {
          "text": "TEMPO 2502/2506 33005KT",
          "offset_h": 27,
          "wdir": 330,
          "wspd": 5
        }
      ],
      "metar_raw": "METAR RCTP 232330Z 14005KT 080V230 9999 FEW020 SCT220 32/26 Q1007 NOSIG RMK A2975",
      "metar_wdir": 140,
      "metar_wspd": 5,
      "metar_oat": 32,
      "metar_qnh": 1007,
      "hourly_oat": [
        27,
        29,
        31,
        32,
        33,
        33,
        32,
        32,
        33,
        33,
        31,
        30,
        29,
        28,
        28,
        27,
        27,
        27,
        27,
        27,
        27,
        27,
        28,
        28,
        28
      ]
    },
    "HKG": {
      "icao": "VHHH",
      "issued": "2026-07-23T23:00:00.000Z",
      "raw": "TAF VHHH 232300Z 2400/2506 16010KT 9999 FEW020 TX35/2406Z TX33/2506Z TN27/2422Z BECMG 2402/2404 26010KT BECMG 2409/2411 18010KT BECMG 2416/2418 26010KT BECMG 2501/2503 34015KT",
      "groups": [
        {
          "text": "TAF VHHH 232300Z 2400/2506 16010KT 9999 FEW020 TX35/2406Z TX33/2506Z TN27/2422Z",
          "offset_h": 1,
          "wdir": 160,
          "wspd": 10
        },
        {
          "text": "BECMG 2402/2404 26010KT",
          "offset_h": 3,
          "wdir": 260,
          "wspd": 10
        },
        {
          "text": "BECMG 2409/2411 18010KT",
          "offset_h": 10,
          "wdir": 180,
          "wspd": 10
        },
        {
          "text": "BECMG 2416/2418 26010KT",
          "offset_h": 17,
          "wdir": 260,
          "wspd": 10
        },
        {
          "text": "BECMG 2501/2503 34015KT",
          "offset_h": 26,
          "wdir": 340,
          "wspd": 15
        }
      ],
      "metar_raw": "METAR VHHH 232330Z VRB02KT 9999 FEW020 29/24 Q1007 NOSIG",
      "metar_wdir": "VRB",
      "metar_wspd": 2,
      "metar_oat": 29,
      "metar_qnh": 1007,
      "hourly_oat": [
        28,
        29,
        29,
        30,
        30,
        30,
        30,
        31,
        31,
        31,
        30,
        30,
        29,
        28,
        28,
        28,
        28,
        28,
        28,
        28,
        28,
        28,
        28,
        28,
        28
      ]
    },
    "CGK": {
      "icao": "WIII",
      "issued": "2026-07-23T23:00:00.000Z",
      "raw": "TAF WIII 232300Z 2400/2506 18005KT 8000 FEW020 BECMG 2403/2405 02010KT BECMG 2413/2415 15005KT",
      "groups": [
        {
          "text": "TAF WIII 232300Z 2400/2506 18005KT 8000 FEW020",
          "offset_h": 1,
          "wdir": 180,
          "wspd": 5
        },
        {
          "text": "BECMG 2403/2405 02010KT",
          "offset_h": 4,
          "wdir": 20,
          "wspd": 10
        },
        {
          "text": "BECMG 2413/2415 15005KT",
          "offset_h": 14,
          "wdir": 150,
          "wspd": 5
        }
      ],
      "metar_raw": "METAR WIII 232330Z 15003KT 8000 FEW020 25/17 Q1010 NOSIG",
      "metar_wdir": 150,
      "metar_wspd": 3,
      "metar_oat": 25,
      "metar_qnh": 1010,
      "hourly_oat": [
        24,
        24,
        26,
        29,
        31,
        32,
        33,
        34,
        33,
        32,
        31,
        30,
        29,
        29,
        28,
        28,
        28,
        28,
        27,
        26,
        25,
        25,
        25,
        24,
        24
      ]
    },
    "GMP": {
      "icao": "RKSS",
      "issued": "2026-07-23T23:00:00.000Z",
      "raw": "TAF RKSS 232300Z 2400/2506 18006KT 9999 BKN020 TX32/2406Z TN25/2420Z TX30/2506Z TEMPO 2400/2404 -RA BECMG 2404/2406 24007KT SCT030 BECMG 2411/2413 18005KT BKN020 BECMG 2423/2501 24007KT TEMPO 2501/2506 -RA",
      "groups": [
        {
          "text": "TAF RKSS 232300Z 2400/2506 18006KT 9999 BKN020 TX32/2406Z TN25/2420Z TX30/2506Z",
          "offset_h": 1,
          "wdir": 180,
          "wspd": 6
        },
        {
          "text": "TEMPO 2400/2404 -RA",
          "offset_h": 1,
          "wdir": null,
          "wspd": null
        },
        {
          "text": "BECMG 2404/2406 24007KT SCT030",
          "offset_h": 5,
          "wdir": 240,
          "wspd": 7
        },
        {
          "text": "BECMG 2411/2413 18005KT BKN020",
          "offset_h": 12,
          "wdir": 180,
          "wspd": 5
        },
        {
          "text": "BECMG 2423/2501 24007KT",
          "offset_h": 24,
          "wdir": 240,
          "wspd": 7
        },
        {
          "text": "TEMPO 2501/2506 -RA",
          "offset_h": 26,
          "wdir": null,
          "wspd": null
        }
      ],
      "metar_raw": "METAR RKSS 232300Z 19008KT 150V210 9999 FEW015 BKN025 28/27 Q1010 NOSIG",
      "metar_wdir": 190,
      "metar_wspd": 8,
      "metar_oat": 28,
      "metar_qnh": 1010,
      "hourly_oat": [
        26,
        27,
        28,
        28,
        29,
        30,
        30,
        30,
        30,
        30,
        29,
        28,
        27,
        26,
        26,
        26,
        26,
        26,
        25,
        25,
        25,
        25,
        25,
        25,
        26
      ]
    },
    "BKK": {
      "icao": "VTBS",
      "issued": "2026-07-23T23:00:00.000Z",
      "raw": "TAF VTBS 232300Z 2400/2506 23008KT 9999 FEW020 TEMPO 2409/2414 VRB15KT 3000 TSRA FEW018CB SCT020 BKN080",
      "groups": [
        {
          "text": "TAF VTBS 232300Z 2400/2506 23008KT 9999 FEW020",
          "offset_h": 1,
          "wdir": 230,
          "wspd": 8
        },
        {
          "text": "TEMPO 2409/2414 VRB15KT 3000 TSRA FEW018CB SCT020 BKN080",
          "offset_h": 10,
          "wdir": "VRB",
          "wspd": 15
        }
      ],
      "metar_raw": "METAR VTBS 232330Z 25006KT 9999 FEW020 28/23 Q1006 NOSIG",
      "metar_wdir": 250,
      "metar_wspd": 6,
      "metar_oat": 28,
      "metar_qnh": 1006,
      "hourly_oat": [
        26,
        27,
        29,
        31,
        32,
        34,
        35,
        36,
        30,
        30,
        28,
        28,
        28,
        28,
        28,
        28,
        28,
        28,
        28,
        27,
        27,
        26,
        26,
        26,
        26
      ]
    },
    "SIN": {
      "icao": "WSSS",
      "issued": "2026-07-23T23:00:00.000Z",
      "raw": "TAF WSSS 232300Z 2400/2506 16008KT 9999 FEW015 SCT020",
      "groups": [
        {
          "text": "TAF WSSS 232300Z 2400/2506 16008KT 9999 FEW015 SCT020",
          "offset_h": 1,
          "wdir": 160,
          "wspd": 8
        }
      ],
      "metar_raw": "METAR WSSS 232330Z 16003KT 9999 FEW018 BKN300 27/25 Q1009 NOSIG",
      "metar_wdir": 160,
      "metar_wspd": 3,
      "metar_oat": 27,
      "metar_qnh": 1009,
      "hourly_oat": [
        28,
        28,
        28,
        29,
        30,
        31,
        30,
        30,
        30,
        30,
        29,
        29,
        28,
        26,
        25,
        25,
        26,
        26,
        26,
        26,
        26,
        26,
        26,
        25,
        24
      ]
    },
    "KUL": {
      "icao": "WMKK",
      "issued": "2026-07-23T23:00:00.000Z",
      "raw": "TAF WMKK 232300Z 2400/2506 VRB03KT 9999 FEW018 PROB30 TEMPO 2405/2409 6000 -TSRA FEW017CB",
      "groups": [
        {
          "text": "TAF WMKK 232300Z 2400/2506 VRB03KT 9999 FEW018",
          "offset_h": 1,
          "wdir": "VRB",
          "wspd": 3
        },
        {
          "text": "PROB30",
          "offset_h": 0,
          "wdir": null,
          "wspd": null
        },
        {
          "text": "TEMPO 2405/2409 6000 -TSRA FEW017CB",
          "offset_h": 6,
          "wdir": null,
          "wspd": null
        }
      ],
      "metar_raw": "METAR WMKK 232330Z 00000KT 6000 VCSH FEW006 FEW017CB SCT030 25/24 Q1008 NOSIG",
      "metar_wdir": 0,
      "metar_wspd": 0,
      "metar_oat": 25,
      "metar_qnh": 1008,
      "hourly_oat": [
        24,
        25,
        26,
        27,
        28,
        28,
        29,
        30,
        30,
        30,
        30,
        28,
        26,
        25,
        25,
        25,
        24,
        24,
        24,
        24,
        24,
        24,
        24,
        24,
        24
      ]
    },
    "HAN": {
      "icao": "VVNB",
      "issued": "2026-07-23T23:00:00.000Z",
      "raw": "TAF VVNB 232300Z 2400/2424 10005KT 9999 FEW020 TEMPO 2400/2402 4000 SHRA SCT010 FEW027CB TEMPO 2405/2410 3500 TSRA SCT010 FEW027CB TEMPO 2418/2422 3000 TSRA SCT010 FEW027CB",
      "groups": [
        {
          "text": "TAF VVNB 232300Z 2400/2424 10005KT 9999 FEW020",
          "offset_h": 1,
          "wdir": 100,
          "wspd": 5
        },
        {
          "text": "TEMPO 2400/2402 4000 SHRA SCT010 FEW027CB",
          "offset_h": 1,
          "wdir": null,
          "wspd": null
        },
        {
          "text": "TEMPO 2405/2410 3500 TSRA SCT010 FEW027CB",
          "offset_h": 6,
          "wdir": null,
          "wspd": null
        },
        {
          "text": "TEMPO 2418/2422 3000 TSRA SCT010 FEW027CB",
          "offset_h": 19,
          "wdir": null,
          "wspd": null
        }
      ],
      "metar_raw": "METAR VVNB 232330Z 05006KT 6000 FEW004 BKN040 26/25 Q1005 NOSIG",
      "metar_wdir": 50,
      "metar_wspd": 6,
      "metar_oat": 26,
      "metar_qnh": 1005,
      "hourly_oat": [
        24,
        25,
        26,
        27,
        28,
        29,
        31,
        32,
        31,
        32,
        31,
        30,
        29,
        28,
        27,
        26,
        26,
        26,
        25,
        25,
        25,
        25,
        25,
        25,
        25
      ]
    },
    "DLC": {
      "icao": "ZYTL",
      "issued": "2026-07-23T21:07:00.000Z",
      "raw": "TAF ZYTL 232107Z 2400/2424 13004MPS 5000 BR SCT012 BKN026 TX30/2406Z TN24/2420Z TEMPO 2406/2409 2000 -SHRA BR SCT012 BKN023 FEW040CB",
      "groups": [
        {
          "text": "TAF ZYTL 232107Z 2400/2424 13004MPS 5000 BR SCT012 BKN026 TX30/2406Z TN24/2420Z",
          "offset_h": 1,
          "wdir": null,
          "wspd": null
        },
        {
          "text": "TEMPO 2406/2409 2000 -SHRA BR SCT012 BKN023 FEW040CB",
          "offset_h": 7,
          "wdir": null,
          "wspd": null
        }
      ],
      "metar_raw": "METAR ZYTL 232330Z 11005MPS 9999 FEW012 SCT015 BKN026 27/24 Q1006 NOSIG",
      "metar_wdir": null,
      "metar_wspd": null,
      "metar_oat": 27,
      "metar_qnh": 1006,
      "hourly_oat": [
        26,
        27,
        28,
        29,
        29,
        30,
        31,
        31,
        30,
        29,
        28,
        27,
        26,
        26,
        25,
        25,
        25,
        26,
        25,
        25,
        25,
        25,
        25,
        25,
        25
      ]
    },
    "PEK": {
      "icao": "ZBAA",
      "issued": "2026-07-23T21:03:00.000Z",
      "raw": "TAF ZBAA 232103Z 2400/2506 16003MPS 6000 NSC TX30/2406Z TX31/2506Z TN24/2421Z",
      "groups": [
        {
          "text": "TAF ZBAA 232103Z 2400/2506 16003MPS 6000 NSC TX30/2406Z TX31/2506Z TN24/2421Z",
          "offset_h": 1,
          "wdir": null,
          "wspd": null
        }
      ],
      "metar_raw": "METAR ZBAA 232330Z 36001MPS CAVOK 25/23 Q1006 NOSIG",
      "metar_wdir": null,
      "metar_wspd": null,
      "metar_oat": 25,
      "metar_qnh": 1006,
      "hourly_oat": [
        24,
        25,
        26,
        27,
        28,
        29,
        30,
        30,
        30,
        30,
        30,
        30,
        28,
        27,
        26,
        25,
        24,
        24,
        23,
        23,
        23,
        23,
        22,
        22,
        24
      ]
    },
    "CAN": {
      "icao": "ZGGG",
      "issued": "2026-07-23T21:03:00.000Z",
      "raw": "TAF ZGGG 232103Z 2400/2506 20003MPS 8000 BKN033 TX36/2407Z TX36/2506Z TN26/2422Z",
      "groups": [
        {
          "text": "TAF ZGGG 232103Z 2400/2506 20003MPS 8000 BKN033 TX36/2407Z TX36/2506Z TN26/2422Z",
          "offset_h": 1,
          "wdir": null,
          "wspd": null
        }
      ],
      "metar_raw": "METAR ZGGG 232330Z 05002MPS 9999 BKN023 29/26 Q1008 NOSIG",
      "metar_wdir": null,
      "metar_wspd": null,
      "metar_oat": 29,
      "metar_qnh": 1008,
      "hourly_oat": [
        27,
        28,
        29,
        30,
        32,
        32,
        33,
        34,
        34,
        34,
        34,
        33,
        31,
        30,
        30,
        29,
        29,
        28,
        28,
        27,
        27,
        26,
        26,
        26,
        27
      ]
    },
    "PVG": {
      "icao": "ZSPD",
      "issued": "2026-07-23T21:02:00.000Z",
      "raw": "TAF ZSPD 232102Z 2400/2506 17004MPS 6000 SCT030 TX37/2406Z TX37/2506Z TN28/2421Z",
      "groups": [
        {
          "text": "TAF ZSPD 232102Z 2400/2506 17004MPS 6000 SCT030 TX37/2406Z TX37/2506Z TN28/2421Z",
          "offset_h": 1,
          "wdir": null,
          "wspd": null
        }
      ],
      "metar_raw": "METAR ZSPD 232330Z 17007MPS CAVOK 30/24 Q1007 NOSIG",
      "metar_wdir": null,
      "metar_wspd": null,
      "metar_oat": 30,
      "metar_qnh": 1007,
      "hourly_oat": [
        30,
        31,
        33,
        34,
        35,
        36,
        36,
        36,
        36,
        35,
        33,
        32,
        30,
        30,
        30,
        29,
        29,
        29,
        29,
        29,
        29,
        29,
        29,
        29,
        30
      ]
    },
    "SHA": {
      "icao": "ZSSS",
      "issued": "2026-07-23T21:02:00.000Z",
      "raw": "TAF ZSSS 232102Z 2400/2506 17004MPS 8000 SCT030 TX37/2406Z TX37/2506Z TN29/2421Z",
      "groups": [
        {
          "text": "TAF ZSSS 232102Z 2400/2506 17004MPS 8000 SCT030 TX37/2406Z TX37/2506Z TN29/2421Z",
          "offset_h": 1,
          "wdir": null,
          "wspd": null
        }
      ],
      "metar_raw": "METAR ZSSS 232330Z 18005MPS CAVOK 31/24 Q1007 NOSIG",
      "metar_wdir": null,
      "metar_wspd": null,
      "metar_oat": 31,
      "metar_qnh": 1007,
      "hourly_oat": [
        29,
        30,
        32,
        33,
        34,
        35,
        36,
        36,
        36,
        35,
        35,
        34,
        31,
        30,
        30,
        29,
        29,
        29,
        28,
        28,
        28,
        28,
        28,
        28,
        29
      ]
    }
  }
}